ID,BANK,IFSC_CODE,MICR_CODE,BRANCH_NAME,ADDRESS,CONTACT,CITY,DISTRICT,STATE
DCBL0000100,Development Credit Bank Ltd,DCBL0000100,390072001,VADODARA,"GROUND FLOOR, STARTREK BUILDING, OPP ABS TOWER, O.P. ROAD, BARODA, GUJARAT - 390 007",9687610677,VADODARA,BARODA,GUJARAT
DCBL0000001,Development Credit Bank Ltd,DCBL0000001,400072020,MUMBAI MAIN OFFICE  (001),"154, S V PATEL ROAD, DONGRI (EAST), MUMBAI 400 009",,MUMBAI,GREATER MUMBAI,MAHARASHTRA
DCBL0000002,Development Credit Bank Ltd,DCBL0000002,400072002,KALBADEVI (002),"413, VASANT WADI, KALBADEVI ROAD, OPP BANK OF BARODA ATM, MUMBAI 400002",,MUMBAI,GREATER MUMBAI,MAHARASHTRA
DCBL0000003,Development Credit Bank Ltd,DCBL0000003,400072003,IMAMWADA (003),"116, IMMAMWADA ROAD, KARIMABAD CHS, MUMBAI 400 009",,MUMBAI,GREATER MUMBAI,MAHARASHTRA
DCBL0000004,Development Credit Bank Ltd,DCBL0000004,400072004,ANDHERI - WEST (004),"LARAM SHOPPING CENTRE, S V ROAD, ANDHERI (W), MUMBAI",,MUMBAI,GREATER MUMBAI,MAHARASHTRA
DCBL0000005,Development Credit Bank Ltd,DCBL0000005,400072005,BANDRA (005),"HILL VIEW APPT, MOUNT MARY ROAD, BANDRA , MUMBAI 400 050",,MUMBAI,GREATER MUMBAI,MAHARASHTRA
DCBL0000006,Development Credit Bank Ltd,DCBL0000006,400072006,BYCULLA (006),"SAGAR CLASSIC, 64 MIRZA GHALIB MARG, BYCULLA, MUMBAI 400008",,MUMBAI,GREATER MUMBAI,MAHARASHTRA
DCBL0000007,Development Credit Bank Ltd,DCBL0000007,400072007,DAHISAR (007),"GULISTAN APPTS, S V ROAD, DAHISAR (EAST), MUMBAI 400 068",,MUMBAI,GREATER MUMBAI,MAHARASHTRA
DCBL0000008,Development Credit Bank Ltd,DCBL0000008,400072008,GOREGAON  (008),"CHITNIS BUNGALOE, STATION ROAD, GOREGOAN(EAST), MUMBAI 400 063",,MUMBAI,GREATER MUMBAI,MAHARASHTRA
DCBL0000009,Development Credit Bank Ltd,DCBL0000009,400072009,HASANABAD (009),"116, DR MASCARENHAS ROAD, HASNABAD, MAZGAON, MUMBAI 400 010",,MUMBAI,GREATER MUMBAI,MAHARASHTRA
DCBL0000010,Development Credit Bank Ltd,DCBL0000010,400072010,JOGESHWARI  BRANCH (010),"ROOP APPTS, S V ROAD, JOGESHWARI(W), MUMBAI 400 102",,MUMBAI,GREATER MUMBAI,MAHARASHTRA
DCBL0000011,Development Credit Bank Ltd,DCBL0000011,400072011,KURLA (011),"RADHABAI NIWAS, NESR BEST DEPOT, KURLA (W) MUMBAI 400 070",,MUMBAI,GREATER MUMBAI,MAHARASHTRA
DCBL0000012,Development Credit Bank Ltd,DCBL0000012,400072012,MUMBRA (012),"35-38, RIZVI BAUG SHOPPING CENTRE, MUMBAI DIST THANA",,MUMBRA,THANE,MAHARASHTRA
DCBL0000013,Development Credit Bank Ltd,DCBL0000013,400072013,NESBIT ROAD (013),"34, DAS COMPOUND, NESBOIT ROAD, MAZGAON, MUMBAI 400 010",,MUMBAI,GREATER MUMBAI,MAHARASHTRA
DCBL0000014,Development Credit Bank Ltd,DCBL0000014,411072002,PUNE (014),"14, SADHU VASWANI ROAD, PUNE 411 001",,PUNE,PUNE,MAHARASHTRA
DCBL0000015,Development Credit Bank Ltd,DCBL0000015,NON MICR,WARANGAL (015),"8-9-8, STATION ROAD, WARANGAL, 506 002",,WARANGAL,WARANGAL,ANDHRA PRADESH
DCBL0000017,Development Credit Bank Ltd,DCBL0000017,400072017,VERSOVA  (017),"CHILDREN WELFARE SCHOOL BLDG, YARI ROAD, VERSOVA, MUMBAI 400 061",,MUMBAI,GREATER MUMBAI,MAHARASHTRA
DCBL0000018,Development Credit Bank Ltd,DCBL0000018,400072018,THANE (018),"112, NETAJISUBHASH ROAD, JAMBLI NAKA, THANA (W),400 601",,THANE,THANE,MAHARASHTRA
DCBL0000019,Development Credit Bank Ltd,DCBL0000019,400072019,MOHAMEDALI ROAD (019),"PALTON ROAD, OPP CRAWFORD MARKET, MUMBAI 400 001",,MUMBAI,GREATER MUMBAI,MAHARASHTRA
DCBL0000022,Development Credit Bank Ltd,DCBL0000022,NON MICR,NANDED (022),"36/39, GURU NANIK MARKET, G ROAD, NANDED 431 601",,NANDED,NANDED,MAHARASHTRA
DCBL0000023,Development Credit Bank Ltd,DCBL0000023,400072023,NARIMAN POINT (023),"MITTAL COURT -C WING, NARIMAN POINT, MUMBAI 400 021",,MUMBAI,GREATER MUMBAI,MAHARASHTRA
DCBL0000024,Development Credit Bank Ltd,DCBL0000024,400072024,MAHIM (024),"9 SAMRAT, 314, LADY JAMSEDHI ROAD, MAHIM, MUMBAI 400 016",,MUMBAI,GREATER MUMBAI,MAHARASHTRA
DCBL0000025,Development Credit Bank Ltd,DCBL0000025,400072025,MALAD  (025),"MAMLATAR WADI, ROAD#1, LIBERTY GARDEN, MALAD (W), MUMBAI 400 064",,MUMBAI,GREATER MUMBAI,MAHARASHTRA
DCBL0000026,Development Credit Bank Ltd,DCBL0000026,400072026,SANTA CRUZ (026),"SHRIVIKAE, LINKING ROAD, SANTACRUZ (W), MUMBAI 400 054",,MUMBAI,GREATER MUMBAI,MAHARASHTRA
DCBL0000027,Development Credit Bank Ltd,DCBL0000027,500072002,HYDERABAD (027),"30/1, METHODIST COMPLEX, ABIDS ROAD, HYDERABAD 500 001",,HYDERABAD,HYDERABAD URBAN,ANDHRA PRADESH
DCBL0000028,Development Credit Bank Ltd,DCBL0000028,380072002,AHMEDABAD (028),"RELIEF ROAD, NEAR RELIEF CINEMA, AHMDEABAD 380 001",,AHMEDABAD,AHMEDABAD,GUJARAT
DCBL0000029,Development Credit Bank Ltd,DCBL0000029,400072027,KAUSA E.C (029),"ABDULLA PATEL HIGH SCHOOL, KISMAT COLONY, KAUSA, MUMBRA DIST THANA",,MUMBRA,THANE,MAHARASHTRA
DCBL0000030,Development Credit Bank Ltd,DCBL0000030,400072030,VASHI (030),"75, VARDHMAN MARKET, SECTOR 17, DBC VASHI, NAVI MUMBAI 400 703",,NAVI MUMBAI,THANE,MAHARASHTRA
DCBL0000031,Development Credit Bank Ltd,DCBL0000031,400072029,LOKHANDWALA  (031),"4/5, APNA GHAR, SWAMI SAMARTH NAGAR,ANDHERI(W) , MUMBAI400 053",,MUMBAI,GREATER MUMBAI,MAHARASHTRA
DCBL0000032,Development Credit Bank Ltd,DCBL0000032,431072050,AURANAGABAD (032),"J K TOWERS, ADALAT ROAD, KRANTO CHOWK, AURANAGABAD",,AURANGABAD,AURANGABAD,MAHARASHTRA
DCBL0000033,Development Credit Bank Ltd,DCBL0000033,395072002,SURAT (033),"AJANTA APPTS, RING ROAD, SALABATPURA, SURAT 395 002",,SURAT,SURAT,GUJARAT
DCBL0000034,Development Credit Bank Ltd,DCBL0000034,NON MICR,VAPI (034),"DEEP APPARTMENT, VAPI SILVASSA ROAD, VAPI 396 191",,VAPI,VALSAD,GUJARAT
DCBL0000035,Development Credit Bank Ltd,DCBL0000035,NON MICR,SIDHPUR (035),"SANMAN COMPLEX, OPP CIVIL COURT, SIDHPUR 384151",,SIDHPUR,PATAN,GUJARAT
DCBL0000036,Development Credit Bank Ltd,DCBL0000036,380072003,C.G.ROAD (036),"8, PARISEEMA COMPLEX, OFF IFC BHAVAN, NAVRANGPURA, AHMEDABAD 380 006",,AHMEDABAD,AHMEDABAD,GUJARAT
DCBL0000038,Development Credit Bank Ltd,DCBL0000038,560072002,BANGALORE (038),"128(31/1) PRESTIGE MERIDIAN ANNEXE, M G ROAD, BANGALAORE 560 001",,BANGALORE,BANGALORE URBAN,KARNATAKA
DCBL0000039,Development Credit Bank Ltd,DCBL0000039,400072031,MIRA ROAD (039),"A1/E, RASHMI PARK, SHEETAL NAGAR, MIRA ROAD (EAST) DIST THANA",,MIRA- BHAYANDER,THANE,MAHARASHTRA
DCBL0000040,Development Credit Bank Ltd,DCBL0000040,360072002,RAJKOT (040),"JAY NAGNATH COMPLEX, DHEBAR ROAD, RAJKOT 360 005",,RAJKOT,RAJKOT,GUJARAT
DCBL0000041,Development Credit Bank Ltd,DCBL0000041,380072004,GANDHINAGAR (041),"PLOT 439, SECYOR 16, G H ROAD, GANDHINAGAR - 382 016",,GANDHINAGAR,GANDHINAGAR,GUJARAT
DCBL0000042,Development Credit Bank Ltd,DCBL0000042,NON MICR,BHUJ (042),"SHOP # 5-6, PLOT 4, SHREE RAVECHI CHS, HOSPITAL ROAD, BHUJ 370001",,BHUJ,KUTCH,GUJARAT
DCBL0000043,Development Credit Bank Ltd,DCBL0000043,400072032,FORT (043),"8 RAJA BAHADUR COMPOUND, A D MARG, FORT, MUMBAI 400 001",,MUMBAI,GREATER MUMBAI,MAHARASHTRA
DCBL0000044,Development Credit Bank Ltd,DCBL0000044,NON MICR,DAMAN (044),"AL HUSAIN PALACE, ZAMPA BAHAR, NANI DAMAN, DAMAN 396 210",,DAMAN,DAMAN,DAMAN & DIU
DCBL0000045,Development Credit Bank Ltd,DCBL0000045,NON MICR,ANKLESHWAR (045),"C BUILDING, HOTEL HIGHWAY INN, MAYURA VILLAGE, PIRAMAN, ANKLESWAR",,ANKLESHWAR,BHARUCH,GUJARAT
DCBL0000046,Development Credit Bank Ltd,DCBL0000046,110072002,NEW DELHI (046),"15, BARA KHAMBA ROAD, HANSALAYA BLDG, CONNAUGHT PLACE, NEW DELHI-1",,DELHI,NEW DELHI,DELHI
DCBL0000047,Development Credit Bank Ltd,DCBL0000047,NON MICR,SILVASSA (047),"9 BALAJI COMPLEX, NAROLI ROAD, SILVASA 396 230",,SILVASSA,DADRA & NAGAR HAVELI,DADRA & NAGAR HAVELI
DCBL0000048,Development Credit Bank Ltd,DCBL0000048,411072003,J.M.ROAD - PUNE (048),"G/F, DECCAN GYMKHANA, , OFF J M ROAD, PUNE 411001",,PUNE,PUNE,MAHARASHTRA
DCBL0000049,Development Credit Bank Ltd,DCBL0000049,500072003,MADHAPUR (049),"1-90/2/3/23 BHANU ENCLAVE, MAIN HI TECH CITY ROAD, MADHAPUR 500 081",,MADHAPUR,RANGA REDDY,ANDHRA PRADESH
DCBL0000050,Development Credit Bank Ltd,DCBL0000050,500072004,HABSIGUDA (050),"TRIADD # 7-93, 1/F, ABOVE FOOD WORLD, HYDERABAD - 500 077",,HYDERABAD,HYDERABAD URBAN,ANDHRA PRADESH
DCBL0000051,Development Credit Bank Ltd,DCBL0000051,500072005,A.S.RAO NAGAR (051),"SREE AMULYA ESTATES, KUSHAIGUDA, A S RAO NAGAR, CAPRA, HYDERABAD -62",,HYDERABAD,HYDERABAD URBAN,ANDHRA PRADESH
DCBL0000052,Development Credit Bank Ltd,DCBL0000052,400072033,VIRAR (052),"SHREE PANTH SAMARTH, CHHATRAPATRI SHIVAJI MARG, VIRAR (W), DIST THANA",,VIRAR,THANE,MAHARASHTRA
DCBL0000053,Development Credit Bank Ltd,DCBL0000053,400072034,SABOO SIDDIQUE EC (053),"COUNTER 8, SHEPARD ROAD, BYCULLA, MUMBAI 400008",,MUMBAI,GREATER MUMBAI,MAHARASHTRA
DCBL0000054,Development Credit Bank Ltd,DCBL0000054,403072005,VASCO-DA-GAMA (054),"VASCO CITICENTRE, SWATANTRA PATH, VASCO DA GAMA 403 802",,VASCO,SOUTH GOA,GOA
DCBL0000055,Development Credit Bank Ltd,DCBL0000055,403072002,PANAJI (055),"EL DORADO, NR PANJIM MUNCIPAL MARKET, PANJIM 403 001",,PANAJI,NORTH GOA,GOA
DCBL0000056,Development Credit Bank Ltd,DCBL0000056,403072003,MARGAO (056),"CD BLUE CHIP BUSINESS CENTRE, ISIDORE BAPTISTA ROAD, PAJIFOND, MARGAO -1",,MARGAO,SOUTH GOA,GOA
DCBL0000057,Development Credit Bank Ltd,DCBL0000057,403072004,MAPUSA (057),"RIJIM PLAZA, NEAR BARDEZ BAZAR, MAPUSA - 403507",,MAPUSA,NORTH GOA,GOA
DCBL0000058,Development Credit Bank Ltd,DCBL0000058,500072006,SECUNDRABAD (058),"SIDHARTH PLAZA, 44, SAROJINI DEVI ROAD, SECUNDERABAD 500 003",,SECUNDERABAD CANTONMENT,HYDERABAD URBAN,ANDHRA PRADESH
DCBL0000059,Development Credit Bank Ltd,DCBL0000059,NON MICR,NAKKALGUTTA (059),"AES, K L N REDDY COLONY, SUBEDARI, HANUMAKONDA",,WARANGAL,WARANGAL,ANDHRA PRADESH
DCBL0000060,Development Credit Bank Ltd,DCBL0000060,600072002,CHENNAI (060),"28A, NUNGABAKAM , HIGH ROAD, CHENNAI 600 034",,CHENNAI,CHENNAI,TAMIL NADU
DCBL0000061,Development Credit Bank Ltd,DCBL0000061,400072035,ANDHERI EAST (061),"SHREE AMBA SHANTI CHAMBERS, ANDHERI KURLA ROAD, ANDHERI(E), MUMBAI ",,MUMBAI,GREATER MUMBAI,MAHARASHTRA
DCBL0000062,Development Credit Bank Ltd,DCBL0000062,110072003,JHARSA (062),"PREM DEEP BLDG, JHARSA ROAD, SECTOR 15, JHARSA DIST GURGAON 122 001",,JHARSA,GURGAON,HARYANA
DCBL0000069,Development Credit Bank Ltd,DCBL0000069,110072004,PREET VIHAR (069),"13, SRUYA NIKETANOP ANAND VIHAR GURUDWARA, NEW DELHI 110 092",,DELHI,NEW DELHI,DELHI
DCBL0000070,Development Credit Bank Ltd,DCBL0000070,110072005,GREATER KAILASH (070),"BLOCK- S-484, GREATER KAILASH II, NEW DELHI 110 048",,DELHI,NEW DELHI,DELHI
DCBL0000071,Development Credit Bank Ltd,DCBL0000071,560072003,RAJAJI NAGAR - BLR (071),"BEE EM AVENUE 650/12, DR RAJ KUMAR ROAD, D BLOCK GAYATRI NAGAR, BANGALORE",,BANGALORE,BANGALORE URBAN,KARNATAKA
DCBL0000072,Development Credit Bank Ltd,DCBL0000072,500072007,S.R.NAGAR (072),"HYDERABAD TIRUMALA MANASA, SANJEEVA REDDY NAGAR, HYDERABAD 500 038",,HYDERABAD,HYDERABAD URBAN,ANDHRA PRADESH
DCBL0000076,Development Credit Bank Ltd,DCBL0000076,500072008,GADDIANNARAMM (076),"18-99/1, ROAD #5, KAMLANAGR, DILSOKHNAGAR, HYDERABAD -60",,HYDERABAD,HYDERABAD URBAN,ANDHRA PRADESH
DCBL0000079,Development Credit Bank Ltd,DCBL0000079,700072002,SHAKESPEAR SARANI (079),"PREMLATA BLDG, 39, SHAKESPEAR SARANI, KOLKATTA",,KOLKATTA,KOLKATA,WEST BENGAL
DCBL0000080,Development Credit Bank Ltd,DCBL0000080,380072005,VEJALPUR (080),"MEDLINK HOSPITAL BLDG, SHYMAL CROSS ROAD, 132FT RING ROAD, VEJALPUR, 380015",,VEJALPUR,AHMEDABAD,GUJARAT
DCBL0000081,Development Credit Bank Ltd,DCBL0000081,411072004,SATARA ROAD PUNE (081),"SHARDA ARCADE, BIBVEVADI, PUNE SATARA ROAD, PUNE 411 037",,PUNE,PUNE,MAHARASHTRA
DCBL0000082,Development Credit Bank Ltd,DCBL0000082,560072004,JAYA NAGAR (082),"239/26, RAJISREE TOWERS, 9TH MAIN ROAD, 3RD BLOCK, JAYANAGR, BANGALORE",,BANGALORE,BANGALORE URBAN,KARNATAKA
DCBL0000083,Development Credit Bank Ltd,DCBL0000083,380072006,GHATLODIA (083),"L 15/16, AGARWAL COMPLEX, SOLA ROAD, GHATLODIA, AHMEDABAD 380 061",,AHMEDABAD,AHMEDABAD,GUJARAT
DCBL0000084,Development Credit Bank Ltd,DCBL0000084,400 072 036,KALAMBOLI," Unit No. 7 & 8, Neel Udhyan,
Sanjay Co - Operative Housing Society, Plot No. 19, 
Sector No. 3E, Kalamboli, 
Navi Mumbai - 410218","Mr. Vinod Shinde
Mob.9892531476.

",KALAMBOLI,MUMBAI,MAHARASHTRA
DCBL0000085,Development Credit Bank Ltd,DCBL0000085,500072009,CHANDANAGAR  (085),"SHUBHAM PLAZA, 4-91, CHANDA NAGAR, HYDERABAD- 500 050",,CHANDANAGAR,HYDERABAD URBAN,ANDHRA PRADESH
DCBL0000086,Development Credit Bank Ltd,DCBL0000086,400072037,MUCHHALA POLYTECHNIC EC (086),"3&4, A/6, RITA SAIBABA VIHAR COMPLEX, KAVESAR, GHOD BUNDER ROAD, THANA ",,THANE,THANE,MAHARASHTRA
DCBL0000087,Development Credit Bank Ltd,DCBL0000087,700072003,GARIAHAT (087),"42/1-B, GARIAHAT ROAD, NEAR GOL PARK , KOLKATTA 700 029",,KOLKATTA,KOLKATA,WEST BENGAL
DCBL0000088,Development Credit Bank Ltd,DCBL0000088,,DEDIAPADA,"DEDIAPADA CHAR RASTA, NEXT TO DENA BANK BR, DEDIAPADA MAIN ROAD, DEDIAPADA, DIST - NARMADA, GUJARAT - 393040",,NARMADA,NARMADA,GUJARAT
DCBL0000089,Development Credit Bank Ltd,DCBL0000089,700072004,BRABOURNE ROAD,"BANERJEE BHAVAN, 15, BRABOURNE ROAD, GROUND FLOOR, KOLKATTA 700 001",,KOLKATA,KOLKATA,WEST BENGAL
DCBL0000090,Development Credit Bank Ltd,DCBL0000090,560072005,JAKKASANDRA,"98/1, MMR PLAZA, SARJAPUR MAIN ROAD, JAKKASANDRA, 1ST BLOCK, KORMANGALA, BANGALORE 560 034",,BANGALORE URBAN,BANGALORE URBAN,KARNATAKA
DCBL0000091,Development Credit Bank Ltd,DCBL0000091,110072007,CHANDNI CHOWK,"1488 - 1489 MAIN RIAD, CHANDNI CHOWK, NEW DELHI 110 006",,DELHI,NEW DELHI,DELHI
DCBL0000092,Development Credit Bank Ltd,DCBL0000092,110072006,KAPASHERA,"SHIV CHAND COMPLEX, OLD GURGOAN ROAD, OPP FUN AND FOOD VILLAGE, KAPASHERA, NEW DELHI 110 037",,DELHI,NEW DELHI,DELHI
DCBL0000093,Development Credit Bank Ltd,DCBL0000093,110072008,KONDLI,"V-4, MAYUR PLAZA, PLOT NO 5, BLOCK G, MAYUR VIHAR PHASE III, KONDLI, GHAROLI, NEW DELHI 110 096",,DELHI,NEW DELHI,DELHI
DCBL0000094,Development Credit Bank Ltd,DCBL0000094,400072038,VASAI ROAD,"GAUTAM GOVIND, AMBADI ROAD, NEXT TO SURYODAY BAJAJ SHOWROOM, VASAI ROAD (W), THANE 401 202",,THANE,THANE,MAHARASHTRA
DCBL0000095,Development Credit Bank Ltd,DCBL0000095,422072002,NASHIK,"R SQUARE BUILDING, NEAR YAMAHA SHOWROOM, WADNAGARE AUTOMOBILES, COLLEGE ROAD, NASHIK 422 005",,NASIK,NASHIK,MAHARASHTRA
DCBL0000096,Development Credit Bank Ltd,DCBL0000096,342072002,JODHPUR,"NEAR NEW KOHINOOR CINEMA, CHOPASNI ROAD, JODHPUR 342 001",,JODHPUR,JODHPUR,RAJASTHAN
DCBL0000097,Development Credit Bank Ltd,DCBL0000097,600072003,PARRYS CORNER,"NEW NO 177 ( OLD NO 89 ) BROADWAY, CHENNAI 600 108",,CHENNAI,CHENNAI,TAMIL NADU
DCBL0000098,Development Credit Bank Ltd,DCBL0000098,411072005,KONDWE,"KHURD SHOP,NO. 1/2/3 , BRAHMA MAJESTIC, NIBM ROAD, KONDHWA KHURD, PUNE",,PUNE,PUNE,MAHARASHTRA
DCBL0000101,Development Credit Bank Ltd,DCBL0000101,N A,MANDVI,"BHANRAJPOONAMCHAND DALWALA COMPOUND, OPP S T BUS STOP, KIM MANDVI ROAD, MANDVI , DIST - SURAT - 394160, GUJARAT",,MANDVI,SURAT,GUJARAT
DCBL0000102,Development Credit Bank Ltd,DCBL0000102,N A,NETRANG,"SHOP NO 7, GURJARI TALKIES COMPLEX, JAWAHAR BAZAR CHAR RASTA, DEDIAPADA ROAD, NETRANG, TALUKA - VALIYA, DIST - BHARUCH, GUJARAT 393 601",,NETRANG,BHARUCH,GUJARAT
DCBL0000103,Development Credit Bank Ltd,DCBL0000103,768 072 302,BARGARH,"KRIPAL TOWER,NH 6,NEAR GURUDWARA,
BARGARH ,ODISHA,PIN 768028 ",,BARGARH,BARGARH,ORISSA
DCBL0000104,Development Credit Bank Ltd,DCBL0000104,461 072 201,ITARSI,"SHOP NO.17,PLOT NO.82,5TH LINE,AZAD NAGAR,
ITARSI,DIST HOSHANGABAD.MP 461111 ",,ITARSI,HOSHANGABAD,MADHYA PRADESH
DCBL0000105,Development Credit Bank Ltd,DCBL0000105,682 072 002,COCHIN,"CHAMBER OF COMMERCE BUILDING,
 SHANMUGHAM ROAD, COCHIN 682031",0484 6069001 / 02,COCHIN,ERNAKULAM,KERALA
DCBL0000106,Development Credit Bank Ltd,DCBL0000106,461072301,PIPARIYA,"PLOT NO 52, RADHA KRISHNAN WARD, SOBHAPUR ROAD,
 WARD NO 18, PIPARIYA, DIST- HOSHANGABAD
MADHYA PRADESH - 461 775.","MR. PRASHANT ARYA (BM)
 094251 93131",PIPARIYA,HOSHANGABAD,MADHYA PRADESH
DCBL000NPC2,Development Credit Bank Ltd,DCBL000NPC2,,CENTRAL CLEARING UNIT,"1/F, 154, S V PATEL ROAD, DONGRI (EAST), MUMBAI 400 009",,MUMBAI,GREATER MUMBAI,MAHARASHTRA
DCBL0000107,Development Credit Bank Ltd,DCBL0000107,141 072 002,LUDHIANA,"DCB BANK LTD., SCO 10-11, FEROZE GANDHI MARKET, 
FEROZEPUR ROAD, LUDHIANA – 141001 (PUNJAB)"," MR. VIKAS SOFAT
  7837100050
",LUDHIANA,LUDHIANA,PUNJAB
DCBL0000109,Development Credit Bank Ltd,DCBL0000109,395 072 003,KADODARA,"SAIBABA SOCIETY, KADODARA CHAR RASTA, NEAR BUS STAND, KADODARA, DISTRICT SURAT, STATE : GUJARAT – 394327","9879111166
CONTACT PERSON: MR IMRAN SHAIKH- BM","KADODARA
",SURAT,GUJRAT
DCBL0000110,Development Credit Bank Ltd,DCBL0000110,761 072 501,HINJILICUT,"DEVELOPMENT CREDIT BANK LTD.
HINJILICUT BRANCH, KHATA NO 115, 
PLOT NO. 628 / 632, LAXMI BAZAR,
 MAIN ROAD, HINJILICUT - 761102 – 
DIST. GANJAM, STATE - ODISHA","MR.  SIBA PRASAD PATRA
BRANCH MANAGER
PHONE - 9337588889
",EAST,GANJAM,ODISHA
DCBL0000112,Development Credit Bank Ltd,DCBL0000112,487 072 501,GADARWARA,"DEVELOPMENT CREDIT BANK LTD.
GADARWARA BRANCH,
BHAMA WARD, NEW GALLA MANDI ROAD, GADARWARA – 487551
DIST. NARSINGHPUR, STATE – MADHYA PRADESH
","MR.  VISHAL GULATI
BRANCH MANAGER
PHONE - 9826487024
",NORTH,"NARSINGHPUR
",MADHYA PRADESH
DCBL0000113,Development Credit Bank Ltd,DCBL0000113,767 072 501,DUNGURIPALI,"DEVELOPMENT CREDIT BANK LTD.
DUNGURIPALI BRANCH,
KHATA NO. 380 / 287, PLOT NO. 2049 / 2377, MOUZA – GAMBHARIPALI, MAIN ROAD,DUNGURIPALI – 767023. 
DISTRICT – SONEPUR, STATE – ODISHA  ","MR.  DEBIDUTTA SADANGI
BRANCH MANAGER
PHONE - 7894444390
",EAST,SONEPUR,ODISHA
DCBL0000108,Development Credit Bank Ltd,DCBL0000108,226 072 002,LUCKNOW,"DEVELOPMENT CREDIT BANK LTD.
SHALIMAR TOWER,  GF, TC-57/V,
VIBHUTI KHAND,  GOMTI NAGAR.
LUCKNOW - 226 010
UTTAR PRADESH","ALOK KAPUR
BRANCH MANAGER
PHONE - 9454 711 788",LUCKNOW,LUCKNOW,   UTTAR PRADESH
DCBL0000114,Development Credit Bank Ltd,DCBL0000114,388 072 501,VASAD,"DEVELOPMENT CREDIT BANK LTD.
VASAD BRANCH,
AT & POST VASAD, YASH WAY BRIDGE, BORSAD ROAD, VASAD, TAL & DIST.  ANAND, GUJARAT – 388306
","MR.  KAMLESH ROHIT-
BRANCH MANAGER
PHONE - 8758523132",WEST,ANAND,GUJARAT
DCBL0000115,Development Credit Bank Ltd,DCBL0000115,394 072 501,SONGADH,"DEVELOPMENT CREDIT BANK LTD.
SONGADH BRANCH,
PLOT NO. 384, NEAR SBI, BRAHMIN FALIYA NAVAGAM POST SONGADH, DIST TAPI,  GUJARAT – 394670
","MR.  GIRISH JOSHI -
BRANCH MANAGER
PHONE – 9998000991/
   8128985538",WEST,TAPI,GUJARAT
DCBL0000116,Development Credit Bank Ltd,DCBL0000116,768 072 501,ATTABIRA,"DEVELOPMENT CREDIT BANK LTD.
ATTABIRA BRANCH,
AT / PO – ATTABIRA, MAIN ROAD,
OPP. RMC COMPLEX, ATTABIRA,
DISTRICT – BARGARH, STATE – ODISHA
","MR.  MANOJ SAHU
BRANCH MANAGER
PHONE - 7381002131",EAST,BARGARH,ODISHA
DCBL0000117,Development Credit Bank Ltd,DCBL0000117,464 072 501,MANDIDEEP,"DEVELOPMENT CREDIT BANK LTD.
MANDIDEEP BRANCH,
PLOT NO. 203, B–SECTOR, INDRA NAGAR, MANDIDEEP, TEHSIL GOHARGANJ, DISTRICT – RAISEN, STATE – MADHYA PRADESH – 462 046.","MR.  KRISHAN KANT YADAV
BRANCH MANAGER
PHONE - 7415708013",NORTH,RAISEN,MADHYA PRADESH
DCBL0000118,Development Credit Bank Ltd,DCBL0000118,385 072 031,NANA RASANA,"DEVELOPMENT CREDIT BANK LTD.
NANA RASANA BRANCH, 
DEESA PALANPUR HIGHWAY,
TALUKA: DEESA, DISTRICT: BANASKANTHA,
GUJARAT – 385535","MR. MUKESH BALDHA OFFICIATING BRANCH MANAGER
PHONE - 9909949503",WEST,BANASKANTHA,GUJARAT
DCBL0000111,Development Credit Bank Ltd,DCBL0000111,302 072 002,JAIPUR,"DEVELOPMENT CREDIT BANK LTD.S13-S14, GROUND FLOOR , GEEJGARH TOWER, HAWA SARAK, CIVIL LINES, JAIPUR (RAJASTHAN) 302006",AMIT PAREEKBRANCH MANAGERPHONE -09983333796,JAIPUR,JAIPUR,RAJASTHAN
DCBL0000119,Development Credit Bank Ltd,DCBL0000119,110 072 009,NOIDA,"DEVELOPMENT CREDIT BANK LTD.
F-25 SECTOR 18,NOIDA  PIN CODE 201301 
UTTAR PRADESH","VANEET MALIK
BRANCH MANAGER
PHONE -09811313123",NOIDA,GAUTAM BUDDHA NAGAR,UTTAR PRADESH  
DCBL0000121,Development Credit Bank Ltd,DCBL0000121,760 072 002,JAGANNATHPUR,"DEVELOPMENT CREDIT BANK LTD.
JAGANNATHPUR BRANCH,
PLOT NO.1141, NH 5, JAGANNATHPUR, 
BERHAMPUR, DISTRICT – GANJAM
ODISHA, PIN – 760007","MR. KRISHNA CHANDRA DAS
BRANCH MANAGER
PHONE :–      9937285481 / 
9937518555",EAST,GANJAM,ODISHA