ID,BANK,IFSC_CODE,MICR_CODE,BRANCH_NAME,ADDRESS,CONTACT,CITY,DISTRICT,STATE
SBBJ0010001,State Bank of Bikaner and Jaipur,SBBJ0010001,781003002,GUWAHATI,"SRCB  ROAD,  FANCY  BAZAR,  GUWAHATI - 781001","BRANCH MANAGER,0361-2546110",GAUHATI,KAMRUP,ASSAM
SBBJ0010002,State Bank of Bikaner and Jaipur,SBBJ0010002,800003002,"ASHOK  RAJPATH, PATNA ","ASHOK  RAJPATH,  PATNA - 800004","BRANCH MANAGER,0612-2671797",PATNA,PATNA,BIHAR
SBBJ0010003,State Bank of Bikaner and Jaipur,SBBJ0010003,700003003,"BRABOURNE  ROAD, KOLKATA","4,  SYNAGOGUE  STREET,  BRABOURNE  ROAD,  KOLKATA - 700001","BRANCH MANAGER,033-22426170",KOLKATA,KOLKATA,WEST BENGAL
SBBJ0010004,State Bank of Bikaner and Jaipur,SBBJ0010004,700003004,"N. S. ROAD, KOLKATA","14,  N.  S.  ROAD,  KOLKATA - 700001","BRANCH MANAGER,033-22106045",KOLKATA,KOLKATA,WEST BENGAL
SBBJ0010005,State Bank of Bikaner and Jaipur,SBBJ0010005,208003002,"BIRHANA  ROAD, KANPUR","BIRHANA  ROAD,  KANPUR - 208001","BRANCH MANAGER,0512-2314896",KANPUR,KANPUR NAGAR,UTTAR PRADESH
SBBJ0010006,State Bank of Bikaner and Jaipur,SBBJ0010006,208003003,"KAUSHAL  PURI, KANPUR","122 / 224,  KAUSHAL  PURI,  SAROJINI NAGAR,  KANPUR - 208012","BRANCH MANAGER,0512-2353560",KANPUR,KANPUR NAGAR,UTTAR PRADESH
SBBJ0010007,State Bank of Bikaner and Jaipur,SBBJ0010007,243003007,BAREILLY,"44,  CIVIL  LINES,  BAREILLY - 243001","BRANCH MANAGER,0512-2215541",BAREILLY,BAREILLY,UTTAR PRADESH
SBBJ0010008,State Bank of Bikaner and Jaipur,SBBJ0010008,282003002,"BELANGANJ,  AGRA","1386,  BHAIRON,  BELANGANJ,  AGRA - 282004","BRANCH MANAGER,0581-2571876",AGRA,AGRA,UTTAR PRADESH
SBBJ0010009,State Bank of Bikaner and Jaipur,SBBJ0010009,282003003,"SHAHGANJ,   AGRA","15 / 15,  SORAN  KATRA,  SHAHGANJ,  AGRA - 282002","BRANCH MANAGER,0562-2622615",AGRA,AGRA,UTTAR PRADESH
SBBJ0010010,State Bank of Bikaner and Jaipur,SBBJ0010010,281003001,MATHURA,"GHIYA  MANDI,  MATHURA - 281001","BRANCH MANAGER,0565-2406088",MATHURA,MATHURA,UTTAR PRADESH
SBBJ0010011,State Bank of Bikaner and Jaipur,SBBJ0010011,250003011,MEERUT,"DEVI  NAGAR,  SURAJKUND  ROAD,  MEERUT - 250001","BRANCH MANAGER,0121-2644091",MEERUT,MEERUT,PUNJAB
SBBJ0010012,State Bank of Bikaner and Jaipur,SBBJ0010012,251003012,MUZAFFARNAGAR,"NEW  MANDI,  MUZAFFARNAGAR - 251001","BRANCH MANAGER,01312-2606275",MUZAFFARNAGAR,MUZAFFAR NAGAR,UTTAR PRADESH
SBBJ0010013,State Bank of Bikaner and Jaipur,SBBJ0010013,110003003,"CHANDNI CHOWK,  DELHI","OUTSIDE  KATARA  NEEL,  208  CHANDNI  CHOWK,   DELHI - 110006","BRANCH MANAGER,011-23929756",NEW DELHI,NEW DELHI,DELHI
SBBJ0010014,State Bank of Bikaner and Jaipur,SBBJ0010014,110003004,"KHARI BAOLI,  DELHI","6696,  KHARI  BAOLI,  DELHI - 110006","BRANCH MANAGER,011-23984995",NEW DELHI,NEW DELHI,DELHI
SBBJ0010015,State Bank of Bikaner and Jaipur,SBBJ0010015,110003006,"SHAHDRA  KRISHNA NAGAR,  DELHI","F - 2/17 - 18,  KRISHNA  NAGAR,  SHAHDRA,  DELHI - 110051","BRANCH MANAGER,011-22003878",NEW DELHI,NEW DELHI,DELHI
SBBJ0010016,State Bank of Bikaner and Jaipur,SBBJ0010016,110003009,"CONNAUGHT CIRCUS,   NEW DELHI","G - 72,  CONNAUGHT  CIRCUS,  NEW  DELHI - 110001","BRANCH MANAGER,011-23324699",NEW DELHI,NEW DELHI,DELHI
SBBJ0010017,State Bank of Bikaner and Jaipur,SBBJ0010017,110003015,"NEW  ROHTAK  ROAD,  NEW DELHI","2C/4,  NEW  ROHTAK  ROAD,  NEW  DELHI - 110005","BRANCH MANAGER,011-28713775",NEW DELHI,NEW DELHI,DELHI
SBBJ0010018,State Bank of Bikaner and Jaipur,SBBJ0010018,152003018,ABOHAR,"NEAR  RAILWAY  STATION  GATE,  DISTT.  FEROZPUR - 152116","BRANCH MANAGER,01634-221014",ABOHAR,FEROZEPUR,PUNJAB
SBBJ0010019,State Bank of Bikaner and Jaipur,SBBJ0010019,143003002,AMRITSAR,"OLD  LAWRENCE  ROAD,  AMRITSAR - 143001","BRANCH MANAGER,0183-2563989",AMRITSAR,AMRITSAR,PUNJAB
SBBJ0010020,State Bank of Bikaner and Jaipur,SBBJ0010020,141003003,"MADHOPURI CHOWK,  LUDHIANA","MADHOPURI  CHOWK,  LUDHIANA - 141008","BRANCH MANAGER,0161-2700185",LUDHIANA,LUDHIANA,PUNJAB
SBBJ0010021,State Bank of Bikaner and Jaipur,SBBJ0010021,125003021,MANDI DABWALI,"MANDI  DABWALI,  DISTT.  SIRSA - 132103","BRANCH MANAGER,0166-222841",MANDI DABWALI,SIRSA,HARYANA
SBBJ0010022,State Bank of Bikaner and Jaipur,SBBJ0010022,302003010,"ADARSH NAGAR,  JAIPUR","ADARSH  NAGAR,  JAIPUR - 302004","BRANCH MANAGER,0141-2613692",JAIPUR,JAIPUR,RAJASTHAN
SBBJ0010024,State Bank of Bikaner and Jaipur,SBBJ0010024,302003015,AMER ROAD  JAIPUR,"AMER  ROAD,  JAIPUR - 302002","BRANCH MANAGER,0141-2609842",JAIPUR,JAIPUR,RAJASTHAN
SBBJ0010025,State Bank of Bikaner and Jaipur,SBBJ0010025,302003004,"CHANDPOLE BAZAR,  JAIPUR","CHANDPOLE  BAZAR,  JAIPUR - 302001","BRANCH MANAGER,0141-2320623",JAIPUR,JAIPUR,RAJASTHAN
SBBJ0010026,State Bank of Bikaner and Jaipur,SBBJ0010026,302003007,"COLLECTORATE,  JAIPUR","BANI  PARK,  COLLECTORATE,  JAIPUR - 302006","BRANCH MANAGER,0141-2200602",JAIPUR,JAIPUR,RAJASTHAN
SBBJ0010028,State Bank of Bikaner and Jaipur,SBBJ0010028,302003021,"JHOTWARA,  JAIPUR","INDUSTRIAL  AREA,  JHOTWARA,   JAIPUR - 302012","BRANCH MANAGER,0141-2340358",JAIPUR,JAIPUR,RAJASTHAN
SBBJ0010029,State Bank of Bikaner and Jaipur,SBBJ0010029,302003003,"JOHRI BAZAR,  JAIPUR","JOHRI  BAZAR,  JAIPUR - 302003","BRANCH MANAGER,0141-2563900",JAIPUR,JAIPUR,RAJASTHAN
SBBJ0010030,State Bank of Bikaner and Jaipur,SBBJ0010030,302003009,"M I ROAD,  JAIPUR","OPPOSITE  GPO,  M.  I.  ROAD,  JAIPUR - 302001","BRANCH MANAGER,0141-2372912",JAIPUR,JAIPUR,RAJASTHAN
SBBJ0010031,State Bank of Bikaner and Jaipur,SBBJ0010031,302003018,"SECRETARIAT,  JAIPUR","SECRETARIAT,  JAIPUR. - 302005","BRANCH MANAGER,0141-5132525",JAIPUR,JAIPUR,RAJASTHAN
SBBJ0010032,State Bank of Bikaner and Jaipur,SBBJ0010032,302003002,"S M S HIGHWAY, JAIPUR","S  M  S  HIGHWAY, CHOURA RASTA,  JAIPUR - 302003","BRANCH MANAGER,0141-2313840",JAIPUR,JAIPUR,RAJASTHAN
SBBJ0010033,State Bank of Bikaner and Jaipur,SBBJ0010033,302003023,"TILAK NAGAR,  JAIPUR","D - 10,  BHAGAT  SINGH  MARG,  TILAK  NAGAR,  JAIPUR - 302004","BRANCH MANAGER,0141-2621958",JAIPUR,JAIPUR,RAJASTHAN
SBBJ0010034,State Bank of Bikaner and Jaipur,SBBJ0010034,302003035,AMBER,DISTT.  JAIPUR - 303301,"BRANCH MANAGER,0141-2530039",JAIPUR,JAIPUR,RAJASTHAN
SBBJ0010035,State Bank of Bikaner and Jaipur,SBBJ0010035,NON MICR,CHOMU,DISTT  JAIPUR - 303702,"BRANCH MANAGER,01423-220050",CHOMU,JAIPUR,RAJASTHAN
SBBJ0010036,State Bank of Bikaner and Jaipur,SBBJ0010036,NON MICR,DAUSA,DAUSA - 303303,"BRANCH MANAGER,01427-220032",DAUSA,DAUSA,RAJASTHAN
SBBJ0010037,State Bank of Bikaner and Jaipur,SBBJ0010037,NON MICR,KOTPUTLI,DISTT.  JAIPUR - 303108,"BRANCH MANAGER,01421-222015",KOTPUTLI,JAIPUR,RAJASTHAN
SBBJ0010038,State Bank of Bikaner and Jaipur,SBBJ0010038,NON MICR,VIRATNAGAR,DISTT.  JAIPUR - 303102,"BRANCH MANAGER,01422-234059",VIRATNAGAR,JAIPUR,RAJASTHAN
SBBJ0010039,State Bank of Bikaner and Jaipur,SBBJ0010039,NON MICR,BASSI,DISTT.  JAIPUR - 303301,"BRANCH MANAGER,01429-222226",BASSI,JAIPUR,RAJASTHAN
SBBJ0010040,State Bank of Bikaner and Jaipur,SBBJ0010040,NON MICR,CHAKSU,DISTT.  JAIPUR - 303901,"BRANCH MANAGER,01429-243622",CHAKSU,JAIPUR,RAJASTHAN
SBBJ0010041,State Bank of Bikaner and Jaipur,SBBJ0010041,NON MICR,DUDU ADB,"DUDU,  DISTT.  JAIPUR - 303008","BRANCH MANAGER,01428-224128",DUDU,JAIPUR,RAJASTHAN
SBBJ0010042,State Bank of Bikaner and Jaipur,SBBJ0010042,NON MICR,GOVINDGARH  MALIKPUR,DISTT.   JAIPUR - 303712,"BRANCH MANAGER,01423-230030",GOVINDGARH,JAIPUR,RAJASTHAN
SBBJ0010043,State Bank of Bikaner and Jaipur,SBBJ0010043,NON MICR,JAMWA RAMGARH,DISTT.  JAIPUR - 303901,"BRANCH MANAGER,01426-252268",JAMWA RAMGARH,JAIPUR,RAJASTHAN
SBBJ0010044,State Bank of Bikaner and Jaipur,SBBJ0010044,NON MICR,KALADERA,"MAIN  BAZAR,  KALADERA,  JAIPUR ( RAJASTHAN)","BRANCH MANAGER,01423-265830",KALADERA,JAIPUR,RAJASTHAN
SBBJ0010045,State Bank of Bikaner and Jaipur,SBBJ0010045,NON MICR,LALSOT,DISTT.  DAUSA - 303503,"BRANCH MANAGER,01431-222022",LALSOT,DAUSA,RAJASTHAN
SBBJ0010046,State Bank of Bikaner and Jaipur,SBBJ0010046,NON MICR,PHAGI,DISTT.  JAIPUR - 303005,"BRANCH MANAGER,01430-224125",PHAGI,JAIPUR,RAJASTHAN
SBBJ0010047,State Bank of Bikaner and Jaipur,SBBJ0010047,NON MICR,SAMODE,DISTT.  JAIPUR - 303806,"BRANCH MANAGER,01423-240007",SAMODE,JAIPUR,RAJASTHAN
SBBJ0010048,State Bank of Bikaner and Jaipur,SBBJ0010048,NON MICR,SHAHPURA,DISTT.  JAIPUR - 303103,"BRANCH MANAGER,01422-222035",SHAHPURA JAIPUR,JAIPUR,RAJASTHAN
SBBJ0010049,State Bank of Bikaner and Jaipur,SBBJ0010049,NON MICR,SIKRAI,DISTT.  JAIPUR - 303508,"BRANCH MANAGER,01420-254205",SIKRAI,DAUSA,RAJASTHAN
SBBJ0010050,State Bank of Bikaner and Jaipur,SBBJ0010050,NON MICR,GEEJGARH,DISTT.  DAUSA - 303502,"BRANCH MANAGER,01420-246014",GEEJGARH,DAUSA,RAJASTHAN
SBBJ0010051,State Bank of Bikaner and Jaipur,SBBJ0010051,NON MICR,ALWAR,"GOPAL  BUILDING,  NEAR  BUS  STAND,  ALWAR - 301001","BRANCH MANAGER,0144-2346783",ALWAR,ALWAR,RAJASTHAN
SBBJ0010052,State Bank of Bikaner and Jaipur,SBBJ0010052,NON MICR,BANDIKUI,"SIKANDA  ROAD,  BANDIKUI,  DISTT.   DAUSA - 303313","BRANCH MANAGER,01420-222035",BANDIKUI,DAUSA,RAJASTHAN
SBBJ0010053,State Bank of Bikaner and Jaipur,SBBJ0010053,NON MICR,RAJGARH,"GOL  MARKET,  RAJGARH,  ALWAR - 301408","BRANCH MANAGER,01464-220022",RAJGARH,ALWAR,RAJASTHAN
SBBJ0010054,State Bank of Bikaner and Jaipur,SBBJ0010054,NON MICR,BANSUR,DISTT.  ALWAR - 301402,"BRANCH MANAGER,01461-220226",BANSUR,ALWAR,RAJASTHAN
SBBJ0010055,State Bank of Bikaner and Jaipur,SBBJ0010055,NON MICR,BEHROR,DISTT.  ALWAR - 301706,"BRANCH MANAGER,01494-230031",BEHROR,ALWAR,RAJASTHAN
SBBJ0010056,State Bank of Bikaner and Jaipur,SBBJ0010056,NON MICR,GOVINDGARH,DISTT.  ALWAR - 321604,"BRANCH MANAGER,01492-277049",GOVINDGARH,ALWAR,RAJASTHAN
SBBJ0010057,State Bank of Bikaner and Jaipur,SBBJ0010057,NON MICR,KISHANGARH BAS,DISTT.  ALWAR - 301405,"BRANCH MANAGER,01460-517190",KISHANGARH BAS,ALWAR,RAJASTHAN
SBBJ0010058,State Bank of Bikaner and Jaipur,SBBJ0010058,NON MICR,LACHHMANGARH,DISTT.  ALWAR - 321607,"BRANCH MANAGER,014923-23377",ALWAR,ALWAR,RAJASTHAN
SBBJ0010059,State Bank of Bikaner and Jaipur,SBBJ0010059,NON MICR,MANDAWAR,DISTT.  ALWAR - 301407,"BRANCH MANAGER,01495-220003",MANDAWAR ALWAR,ALWAR,RAJASTHAN
SBBJ0010060,State Bank of Bikaner and Jaipur,SBBJ0010060,NON MICR,THANAGAZI,DISTT.  ALWAR - 301022,"BRANCH MANAGER,014652-224230",THANAGAZI,ALWAR,RAJASTHAN
SBBJ0010061,State Bank of Bikaner and Jaipur,SBBJ0010061,NON MICR,TIJARA,DISTT.  ALWAR - 301411,"BRANCH MANAGER,01469-262029",TIZARA,ALWAR,RAJASTHAN
SBBJ0010062,State Bank of Bikaner and Jaipur,SBBJ0010062,NON MICR,"IND. ESTATE,  BHARATPUR",BHARATPUR - 321001,"BRANCH MANAGER,05644-238317",BHARATPUR,BHARATPUR,RAJASTHAN
SBBJ0010063,State Bank of Bikaner and Jaipur,SBBJ0010063,NON MICR,"B. N. GATE,  BHARATPUR","BHARTIYA  KUTIR,  B.  NARAIN  GATE,  BHARATPUR - 321001","BRANCH MANAGER,05644-222441",BHARATPUR,BHARATPUR,RAJASTHAN
SBBJ0010064,State Bank of Bikaner and Jaipur,SBBJ0010064,NON MICR,DHOLPUR,"SECRETARIAT  COURTS  BUILDING,  DHOLPUR - 328001","BRANCH MANAGER,05642-220417",DHOLPUR,DHOLPUR,RAJASTHAN
SBBJ0010065,State Bank of Bikaner and Jaipur,SBBJ0010065,NON MICR,BARI,"SUBZIMANDI,  BARI,  DISTT.   DHOLPUR - 328021","BRANCH MANAGER,05647-243538",BARI,DHOLPUR,RAJASTHAN
SBBJ0010066,State Bank of Bikaner and Jaipur,SBBJ0010066,NON MICR,BAYANA,DISTT.  BHARATPUR - 321404,"BRANCH MANAGER,05648-221014",BAYANA,BHARATPUR,RAJASTHAN
SBBJ0010067,State Bank of Bikaner and Jaipur,SBBJ0010067,NON MICR,DEEG,"JAWAHAR  GANJ,  DEEG - 321203","BRANCH MANAGER,05641-220028",DEEG,BHARATPUR,RAJASTHAN
SBBJ0010068,State Bank of Bikaner and Jaipur,SBBJ0010068,NON MICR,KAMAN,DISTT.  BHARATPUR - 321022,"BRANCH MANAGER,05640-220019",KAMAN,BHARATPUR,RAJASTHAN
SBBJ0010069,State Bank of Bikaner and Jaipur,SBBJ0010069,NON MICR,BASERI,DISTT.  DHOLPUR - 328022,"BRANCH MANAGER,05646-266104",BASERI,DHOLPUR,RAJASTHAN
SBBJ0010070,State Bank of Bikaner and Jaipur,SBBJ0010070,NON MICR,NAGAR,"OLD  BUS  STAND,  NAGAR,  DISTT.  BHARATPUR - 321205","BRANCH MANAGER,05641-242038",NAGAR,BHARATPUR,RAJASTHAN
SBBJ0010071,State Bank of Bikaner and Jaipur,SBBJ0010071,NON MICR,RAJAKHERA,DISTT.  DHOLPUR - 328025,"BRANCH MANAGER,05642-233039",RAJAKHERA,DHOLPUR,RAJASTHAN
SBBJ0010072,State Bank of Bikaner and Jaipur,SBBJ0010072,NON MICR,ROOPBAS,DISTT.  BHARATPUR - 321404,"BRANCH MANAGER,05645-243204",ROOPBAS,BHARATPUR,RAJASTHAN
SBBJ0010073,State Bank of Bikaner and Jaipur,SBBJ0010073,NON MICR,WEIR,DISTT.  BHARATPUR - 321408,"BRANCH MANAGER,05643-272219",WEIR,BHARATPUR,RAJASTHAN
SBBJ0010074,State Bank of Bikaner and Jaipur,SBBJ0010074,NON MICR,HINDAUN,DISTT.  KARULI - 322230,"BRANCH MANAGER,07469-232011",HINDAUN,KARAULI,RAJASTHAN
SBBJ0010075,State Bank of Bikaner and Jaipur,SBBJ0010075,NON MICR,GANGAPUR CITY,DISTT.   SAWAIMADHOPUR - 322201,"BRANCH MANAGER,07463-234024",GANGAPUR CITY,SAWAI MADHOPUR,RAJASTHAN
SBBJ0010076,State Bank of Bikaner and Jaipur,SBBJ0010076,NON MICR,KARAULI,"HINDAUN  DARWAZA,  KARAULI - 322241","BRANCH MANAGER,07464-220028",KARAULI,KARAULI,RAJASTHAN
SBBJ0010077,State Bank of Bikaner and Jaipur,SBBJ0010077,NON MICR,SAWAIMADHOPUR,"MAIN  BAZAR,  SAWAIMADHOPUR - 322021","BRANCH MANAGER,07462-234132",SAWAI MADHOPUR,SAWAI MADHOPUR,RAJASTHAN
SBBJ0010078,State Bank of Bikaner and Jaipur,SBBJ0010078,NON MICR,BAMANWAS,DISTT.  SAWAIMADHOPUR - 322211,"BRANCH MANAGER,07467-222224",BAMANWAS,SAWAI MADHOPUR,RAJASTHAN
SBBJ0010079,State Bank of Bikaner and Jaipur,SBBJ0010079,NON MICR,BONLI,DISTT.  SAWAIMADHOPUR - 322023,"BRANCH MANAGER,07466-247228",BONLI,SAWAI MADHOPUR,RAJASTHAN
SBBJ0010080,State Bank of Bikaner and Jaipur,SBBJ0010080,NON MICR,CHAUTH KA BARWARA,DISTT.  SAWAIMADHOPUR - 322702,"BRANCH MANAGER,07462-257023",CHAUTH KA BARWA,SAWAI MADHOPUR,RAJASTHAN
SBBJ0010081,State Bank of Bikaner and Jaipur,SBBJ0010081,NON MICR,KHANDAR,DISTT.  SAWAIMADHOPUR - 322025,"BRANCH MANAGER,07468-241130",KHANDAR,SAWAI MADHOPUR,RAJASTHAN
SBBJ0010082,State Bank of Bikaner and Jaipur,SBBJ0010082,NON MICR,MANDAWAR MAHUWA,DISTT.   DAUSA - 321609,"BRANCH MANAGER,07461-260211",MANDAWAR DAUSA,DAUSA,RAJASTHAN
SBBJ0010083,State Bank of Bikaner and Jaipur,SBBJ0010083,NON MICR,NADOTI,DISTT.  KARULI - 322215,"BRANCH MANAGER,07463-244127",NADOTI,KARAULI,RAJASTHAN
SBBJ0010084,State Bank of Bikaner and Jaipur,SBBJ0010084,NON MICR,SAPOTRA,DISTT.  KARULI - 322218,"BRANCH MANAGER,07465-250223",SAPOTRA,KARAULI,RAJASTHAN
SBBJ0010085,State Bank of Bikaner and Jaipur,SBBJ0010085,NON MICR,TODA BHIM,DISTT.   KARULI - 321611,"BRANCH MANAGER,07461-230022",TODA BHIM,KARAULI,RAJASTHAN
SBBJ0010086,State Bank of Bikaner and Jaipur,SBBJ0010086,NON MICR,SUROTH,"PO. - FATEHSINGHPURA,  DISTT.   KARAULI - 322252","BRANCH MANAGER,07469-250327",SUROTH,KARAULI,RAJASTHAN
SBBJ0010087,State Bank of Bikaner and Jaipur,SBBJ0010087,NON MICR,TONK,"SUBHASH  BAZAR,  TONK - 304001","BRANCH MANAGER,01432-245870",TONK,TONK,RAJASTHAN
SBBJ0010088,State Bank of Bikaner and Jaipur,SBBJ0010088,NON MICR,MALPURA,DISTT.  TONK - 304502,"BRANCH MANAGER,01437-226224",MALPURA,TONK,RAJASTHAN
SBBJ0010089,State Bank of Bikaner and Jaipur,SBBJ0010089,NON MICR,ALIGARH (UNIARA),DISTT.  TONK - 304023,"BRANCH MANAGER,01436-266321",ALIGARH UNIARA,TONK,RAJASTHAN
SBBJ0010090,State Bank of Bikaner and Jaipur,SBBJ0010090,NON MICR,DEOLI,DISTT.   TONK - 304804,"BRANCH MANAGER,01434-232005",DEOLI,TONK,RAJASTHAN
SBBJ0010091,State Bank of Bikaner and Jaipur,SBBJ0010091,NON MICR,TODARAISINGH,DISTT.  TONK - 304505,"BRANCH MANAGER,01433-222237",TODARAISINGH,TONK,RAJASTHAN
SBBJ0010092,State Bank of Bikaner and Jaipur,SBBJ0010092,NON MICR,UNIARA,DISTT.  TONK - 301024,"BRANCH MANAGER,01436-260349",UNIARA,TONK,RAJASTHAN
SBBJ0010093,State Bank of Bikaner and Jaipur,SBBJ0010093,311003003,"INDUSTRIAL ESTATE,  BHILWARA","INDUSTRIAL  ESTATE,  BHILWARA - 311001","BRANCH MANAGER,01482-240361",BHILWARA,BHILWARA,RAJASTHAN
SBBJ0010094,State Bank of Bikaner and Jaipur,SBBJ0010094,311003002,"BHOPALGANJ,   BHILWARA","BHOPALGANJ,  BHILWARA - 311001","BRANCH MANAGER,01482-226470",BHILWARA,BHILWARA,RAJASTHAN
SBBJ0010095,State Bank of Bikaner and Jaipur,SBBJ0010095,NON MICR,SHAHPURA,DISTT.  BHILWARA - 311404,"BRANCH MANAGER,01484-222208",SHAHPURA BHILWA,BHILWARA,RAJASTHAN
SBBJ0010096,State Bank of Bikaner and Jaipur,SBBJ0010096,NON MICR,ASIND,DISTT.  BHILWARA - 311301,"BRANCH MANAGER,01480-220109",ASIND,BHILWARA,RAJASTHAN
SBBJ0010097,State Bank of Bikaner and Jaipur,SBBJ0010097,NON MICR,BANERA,DISTT.  BHILWARA - 311401,"BRANCH MANAGER,01487-272028",BANERA,BHILWARA,RAJASTHAN
SBBJ0010098,State Bank of Bikaner and Jaipur,SBBJ0010098,NON MICR,GANGAPUR,"KUND  CHOWK,  GANGAPUR,  DISTT.   BHILWARA - 311801","BRANCH MANAGER,01481-220019",GANGAPUR,BHILWARA,RAJASTHAN
SBBJ0010099,State Bank of Bikaner and Jaipur,SBBJ0010099,311003000,HURDA,"GULABPURA,  DISTT.  BHILWARA - 311022","BRANCH MANAGER,01483-223048",HURDA,BHILWARA,RAJASTHAN
SBBJ0010100,State Bank of Bikaner and Jaipur,SBBJ0010100,NON MICR,JAHAJPUR,"DISTT,  BHILWARA - 311201","BRANCH MANAGER,01488-235224",JAHAJPUR,BHILWARA,RAJASTHAN
SBBJ0010101,State Bank of Bikaner and Jaipur,SBBJ0010101,NON MICR,KOTRI,DISTT.  BHILWARA - 311603,"BRANCH MANAGER,01486-266634",KOTRI BHIL,BHILWARA,RAJASTHAN
SBBJ0010102,State Bank of Bikaner and Jaipur,SBBJ0010102,NON MICR,MANDAL,DISTT.  BHILWARA - 311403,"BRANCH MANAGER,01489-230006",MANDAL,BHILWARA,RAJASTHAN
SBBJ0010103,State Bank of Bikaner and Jaipur,SBBJ0010103,NON MICR,MANDALGARH,DISTT.  BHILWARA - 311604,"BRANCH MANAGER,0145-2432080",MANDALGARH,BHILWARA,RAJASTHAN
SBBJ0010104,State Bank of Bikaner and Jaipur,SBBJ0010104,NON MICR,"STATION ROAD,  AJMER ","STATION  ROAD,  AJMER - 305001","BRANCH MANAGER,0145-441090",AJMER,AJMER,RAJASTHAN
SBBJ0010105,State Bank of Bikaner and Jaipur,SBBJ0010105,NON MICR,"MAKHUPURA IND.ESTATE,  AJMER ","MAKHUPURA,  AJMER - 305002","BRANCH MANAGER,01462-258606",AJMER,AJMER,RAJASTHAN
SBBJ0010106,State Bank of Bikaner and Jaipur,SBBJ0010106,NON MICR,BEAWAR,"HEMLANI  MARKET,  BEAWAR,   DISTT.   AJMER - 305901","BRANCH MANAGER,01463-512006",BEAWAR,AJMER,RAJASTHAN
SBBJ0010107,State Bank of Bikaner and Jaipur,SBBJ0010107,NON MICR,"MADANGANJ,  KISHANGARH",DIST.  AJMER - 305801,"BRANCH MANAGER,01467-221940",KISHANGARH MADA,AJMER,RAJASTHAN
SBBJ0010108,State Bank of Bikaner and Jaipur,SBBJ0010108,NON MICR,KEKRI,DISTT.  AJMER - 305404,"BRANCH MANAGER,01491-220060",KEKRI,AJMER,RAJASTHAN
SBBJ0010109,State Bank of Bikaner and Jaipur,SBBJ0010109,NON MICR,NASIRABAD,"61  A,  MAIN  MARKET,  NASIRABAD - 305601","BRANCH MANAGER,01491-221561",NASIRABAD,AJMER,RAJASTHAN
SBBJ0010110,State Bank of Bikaner and Jaipur,SBBJ0010110,NON MICR,SARWAR,DISTT.  AJMER - 305403,"BRANCH MANAGER,01496-230032",SARWAR,AJMER,RAJASTHAN
SBBJ0010111,State Bank of Bikaner and Jaipur,SBBJ0010111,341003000,DIDWANA,DISTT.  NAGAUR - 341303,"BRANCH MANAGER,01580-220021",DIDWANA,NAGAUR,RAJASTHAN
SBBJ0010112,State Bank of Bikaner and Jaipur,SBBJ0010112,NON MICR,LADNUN,DISTT.  NAGAUR - 341306,"BRANCH MANAGER,01581-222026",LADNUN,NAGAUR,RAJASTHAN
SBBJ0010113,State Bank of Bikaner and Jaipur,SBBJ0010113,341003000,MAKRANA,DISTT.   NAGAUR - 341505,"BRANCH MANAGER,01588-240393",MAKRANA,NAGAUR,RAJASTHAN
SBBJ0010114,State Bank of Bikaner and Jaipur,SBBJ0010114,NON MICR,MARWAR MUNDWA,DISTT.  NAGAUR - 341026,"BRANCH MANAGER,01588-240194",MARWAR MUNDWA,NAGAUR,RAJASTHAN
SBBJ0010115,State Bank of Bikaner and Jaipur,SBBJ0010115,341003125,MERTA CITY,DISTT.  NAGAUR - 341510,"BRANCH MANAGER,01584-283029",MERTA CITY,NAGAUR,RAJASTHAN
SBBJ0010116,State Bank of Bikaner and Jaipur,SBBJ0010116,NON MICR,"MAIN BRANCH,  NAGAUR","GANDHI  CHOWK,  NAGAUR - 341002","BRANCH MANAGER,01590-220102",NAGAUR,NAGAUR,RAJASTHAN
SBBJ0010117,State Bank of Bikaner and Jaipur,SBBJ0010117,NON MICR,DEGANA,DISTT.  NAGAUR - 341503,"BRANCH MANAGER,01582-243767",DEGANA,NAGAUR,RAJASTHAN
SBBJ0010118,State Bank of Bikaner and Jaipur,SBBJ0010118,NON MICR,JEAL,DISTT.   NAGAUR - 341023,"BRANCH MANAGER,01583-272335",JAEL,NAGAUR,RAJASTHAN
SBBJ0010119,State Bank of Bikaner and Jaipur,SBBJ0010119,NON MICR,NAWA,"P.O. - KUCHAMAN  ROAD,  NAWA,  DISTT.   NAGAUR - 341510","BRANCH MANAGER,01586-262732",NAWA,NAGAUR,RAJASTHAN
SBBJ0010120,State Bank of Bikaner and Jaipur,SBBJ0010120,NON MICR,PARBATSAR,DISTT.  NAGAUR  - 341513,"BRANCH MANAGER,01589-270122",PARBATSAR,NAGAUR,RAJASTHAN
SBBJ0010121,State Bank of Bikaner and Jaipur,SBBJ0010121,NON MICR,RIYAN BARI,DISTT.  NAGAUR - 341513,"BRANCH MANAGER,01590-240024",RIYAN BARI,NAGAUR,RAJASTHAN
SBBJ0010122,State Bank of Bikaner and Jaipur,SBBJ0010122,NON MICR,SIKAR,SIKAR - 332001,"BRANCH MANAGER,01572-250167",SIKAR,SIKAR,RAJASTHAN
SBBJ0010123,State Bank of Bikaner and Jaipur,SBBJ0010123,NON MICR,FATEHPUR SHEKHAWATI,DISTT.  SIKAR - 332301,"BRANCH MANAGER,01571-230030",FATEHPUR,SIKAR,RAJASTHAN
SBBJ0010124,State Bank of Bikaner and Jaipur,SBBJ0010124,NON MICR,LACHHAMANGARH,DISTT.   SIKAR - 322311,"BRANCH MANAGER,01573-222238",SIKAR,SIKAR,RAJASTHAN
SBBJ0010125,State Bank of Bikaner and Jaipur,SBBJ0010125,NON MICR,NEEM - KA -THANA,"SHAHPURA  ROAD,  NEEM - KA - THANA,  DISTT.   SIKAR - 332713","BRANCH MANAGER,01574-230021",NEEM-KA-THANA,SIKAR,RAJASTHAN
SBBJ0010126,State Bank of Bikaner and Jaipur,SBBJ0010126,NON MICR,SRIMADHOPUR,"REENGUS  BAZAR,  SRIMADHOPUR,   DISTT.   SIKAR - 332715","BRANCH MANAGER,01575-250018",SRI MADHOPUR,SIKAR,RAJASTHAN
SBBJ0010127,State Bank of Bikaner and Jaipur,SBBJ0010127,NON MICR,DANTA RAMGARH,DISTT.  SIKAR - 332703,"BRANCH MANAGER,01575-272336",DANTA RAMGARH,SIKAR,RAJASTHAN
SBBJ0010128,State Bank of Bikaner and Jaipur,SBBJ0010128,NON MICR,CHIRAWA,DISTT.  JHUNJHUNU - 333026,"BRANCH MANAGER,01596-220032",CHIRAWA,JHUNJHUNU,RAJASTHAN
SBBJ0010129,State Bank of Bikaner and Jaipur,SBBJ0010129,NON MICR,JHUNJHUNU,"NEHRU  BAZAR,  JHUNJHUNU - 333001","BRANCH MANAGER,01592-232628",JHUNJHUNU,JHUNJHUNU,RAJASTHAN
SBBJ0010130,State Bank of Bikaner and Jaipur,SBBJ0010130,NON MICR,NAWALGARH,DISTT.  JHUNJHUNU - 333042,"BRANCH MANAGER,01594-222012",NAWALGARH,JHUNJHUNU,RAJASTHAN
SBBJ0010131,State Bank of Bikaner and Jaipur,SBBJ0010131,NON MICR,GUDHA GORJIKA,DISTT.  JHUNJHUNU - 333022,"BRANCH MANAGER,01594-263322",GUDHA GORJIKA,JHUNJHUNU,RAJASTHAN
SBBJ0010132,State Bank of Bikaner and Jaipur,SBBJ0010132,NON MICR,KHETRI,DISTT.   JHUNJHUNU - 333503,"BRANCH MANAGER,01593-233426",KHETRI,JHUNJHUNU,RAJASTHAN
SBBJ0010133,State Bank of Bikaner and Jaipur,SBBJ0010133,NON MICR,KHETRI NAGAR,DISTT.   JHUNJHUNU - 333504,"BRANCH MANAGER,01593-220043",KHETRI,JHUNJHUNU,RAJASTHAN
SBBJ0010134,State Bank of Bikaner and Jaipur,SBBJ0010134,NON MICR,CHATTARGARH,DISTT.  BIKANER - 334021,"BRANCH MANAGER,01520-242244",CHATTARGARH,BIKANER,RAJASTHAN
SBBJ0010135,State Bank of Bikaner and Jaipur,SBBJ0010135,NON MICR,SURAJGARH,"JEEWAN  MANDI,  SURAJGARH,  DISTT.   JHUNJHUNU - 333029","BRANCH MANAGER,01596-237440",SURAJGARH,JHUNJHUNU,RAJASTHAN
SBBJ0010136,State Bank of Bikaner and Jaipur,SBBJ0010136,NON MICR,UDAIPUR WATI,DISTT.  JHUNJHUNU - 333307,"BRANCH MANAGER,01594-234699",UDAIPUR WATI,JHUNJHUNU,RAJASTHAN
SBBJ0010137,State Bank of Bikaner and Jaipur,SBBJ0010137,NON MICR,SUJANGARH,"NEAR  TEHSIL  BHAWAN,  SUJANGARH,  DISTT.   CHURU - 331507","BRANCH MANAGER,01568-220005",SUJANGARH,CHURU,RAJASTHAN
SBBJ0010138,State Bank of Bikaner and Jaipur,SBBJ0010138,NON MICR,CHURU,"STATION  ROAD,  CHURU - 331001","BRANCH MANAGER,01562-250491",CHURU,CHURU,RAJASTHAN
SBBJ0010139,State Bank of Bikaner and Jaipur,SBBJ0010139,NON MICR,RATANGARH,"P.B.NO.  1,  RATANGARH,  DISTT.  CHURU - 331022","BRANCH MANAGER,01567-222068",RATANGARH,CHURU,RAJASTHAN
SBBJ0010140,State Bank of Bikaner and Jaipur,SBBJ0010140,NON MICR,SARDARSHAHAR,DISTT.  CHURU - 331403,"BRANCH MANAGER,01564-220034",SARDARSHAHAR,CHURU,RAJASTHAN
SBBJ0010141,State Bank of Bikaner and Jaipur,SBBJ0010141,NON MICR,SRIDUNGARGARH,DISTT.  CHURU - 331803,"BRANCH MANAGER,01565-222007",SRI DUNGARGARH,CHURU,RAJASTHAN
SBBJ0010142,State Bank of Bikaner and Jaipur,SBBJ0010142,NON MICR,SADULPUR,DISTT.  CHURU - 331023,"BRANCH MANAGER,01559-222063",SADULPUR,CHURU,RAJASTHAN
SBBJ0010143,State Bank of Bikaner and Jaipur,SBBJ0010143,NON MICR,TARANAGAR,DISTT.  CHURU - 331304,"BRANCH MANAGER,01561-240233",TARANAGAR,CHURU,RAJASTHAN
SBBJ0010144,State Bank of Bikaner and Jaipur,SBBJ0010144,NON MICR,"PUBLIK PARK,  SRIGANGANAGAR","28 - A,  PUBLIC  PARK,  SRIGANGANAGAR - 335001","BRANCH MANAGER,0154-2443892",SRI GANGANAGAR,GANGANAGAR,RAJASTHAN
SBBJ0010145,State Bank of Bikaner and Jaipur,SBBJ0010145,NON MICR,DABLI RATHAN,DISTT.  SRIGANGANAGAR - 335801,"BRANCH MANAGER,01552-283331",DABLI RATHAN,HANUMANGARH,RAJASTHAN
SBBJ0010146,State Bank of Bikaner and Jaipur,SBBJ0010146,NON MICR,HANUMANGARH TOWN,HANUMANGARH - 335513,"BRANCH MANAGER,01552-222129",HANUMANGARH,HANUMANGARH,RAJASTHAN
SBBJ0010147,State Bank of Bikaner and Jaipur,SBBJ0010147,NON MICR,HANUMANGARH JUNCTION,HANUMANGARH - 335512,"BRANCH MANAGER,01552-260579",HANUMANGARH,HANUMANGARH,RAJASTHAN
SBBJ0010148,State Bank of Bikaner and Jaipur,SBBJ0010148,NON MICR,NOHAR,DISTT.  HANUMANGARH - 335523,"BRANCH MANAGER,01555-220060",NOHAR,HANUMANGARH,RAJASTHAN
SBBJ0010149,State Bank of Bikaner and Jaipur,SBBJ0010149,NON MICR,RAWATSAR,"GRAIN  MARKET,  NEW  MANDI,  RAWATSAR,  DISTT.   HANUMANGARH - 335324","BRANCH MANAGER,01537-230034",RAWATSAR,HANUMANGARH,RAJASTHAN
SBBJ0010150,State Bank of Bikaner and Jaipur,SBBJ0010150,NON MICR,SRIKARANPUR,DISTT.  SRIGANGANAGAR - 335073,"BRANCH MANAGER,01501-220024",SRI KARANPUR,GANGANAGAR,RAJASTHAN
SBBJ0010151,State Bank of Bikaner and Jaipur,SBBJ0010151,NON MICR,ANUPGARH,DISTT.  SRIGANGANAGAR - 335701,"BRANCH MANAGER,01498-222030",ANUPGARH,GANGANAGAR,RAJASTHAN
SBBJ0010152,State Bank of Bikaner and Jaipur,SBBJ0010152,NON MICR,BAHADRA,DISTT.  HANUMANGARH - 335501,"BRANCH MANAGER,01504-222032",BAHADRA,HANUMANGARH,RAJASTHAN
SBBJ0010153,State Bank of Bikaner and Jaipur,SBBJ0010153,NON MICR,GAJSINGHPUR,DISTT.  SRIGANGANAGAR - 335024,"BRANCH MANAGER,01505-230123",GAJSINGHPUR,GANGANAGAR,RAJASTHAN
SBBJ0010154,State Bank of Bikaner and Jaipur,SBBJ0010154,NON MICR,KESRISINGHPUR,DISTT.  SRIGANGANAGAR - 335027,"BRANCH MANAGER,01501-232204",KESRISINGHPUR,GANGANAGAR,RAJASTHAN
SBBJ0010155,State Bank of Bikaner and Jaipur,SBBJ0010155,NON MICR,PADAMPUR,DISTT.  SRIGANGANAGAR - 335041,"BRANCH MANAGER,01505-222052",PADAMPUR,GANGANAGAR,RAJASTHAN
SBBJ0010156,State Bank of Bikaner and Jaipur,SBBJ0010156,NON MICR,PILIBANGAN,DISTT.  HANUMANGARH - 335803,"BRANCH MANAGER,01508-233024",PILIBANGAN,HANUMANGARH,RAJASTHAN
SBBJ0010157,State Bank of Bikaner and Jaipur,SBBJ0010157,NON MICR,RAISINGNAGAR,DISTT.  SRIGANGANAGAR - 335051,"BRANCH MANAGER,01507-220002",RAISINGHNAGAR,GANGANAGAR,RAJASTHAN
SBBJ0010158,State Bank of Bikaner and Jaipur,SBBJ0010158,NON MICR,SANGARIA,"PURANI  DHAN  MANDI,  SANGARIA,  DISTT.   HANUMANGARH - 335063","BRANCH MANAGER,01499-220029",HANUMANGARH,HANUMANGARH,RAJASTHAN
SBBJ0010159,State Bank of Bikaner and Jaipur,SBBJ0010159,NON MICR,SRIBIJEYNAGAR,DISTT.  SRIGANGANAGAR - 335704,"BRANCH MANAGER,014982-230040",SRI BIJEYNAGAR,GANGANAGAR,RAJASTHAN
SBBJ0010160,State Bank of Bikaner and Jaipur,SBBJ0010160,NON MICR,SURATGARH,DISTT.  SRIGANGANAGAR - 335804,"BRANCH MANAGER,01509-220024",SURATGARH,GANGANAGAR,RAJASTHAN
SBBJ0010161,State Bank of Bikaner and Jaipur,SBBJ0010161,NON MICR,"KOTE GATE,  BIKANER","KOTE  GATE,  BIKANER - 334001","BRANCH MANAGER,0151-2223073",BIKANER,BIKANER,RAJASTHAN
SBBJ0010162,State Bank of Bikaner and Jaipur,SBBJ0010162,NON MICR,"PUBLIC PARK,  BIKANER","PUBLIC  PARK,  BIKANER - 334001","BRANCH MANAGER,0151-2223087",BIKANER,BIKANER,RAJASTHAN
SBBJ0010163,State Bank of Bikaner and Jaipur,SBBJ0010163,NON MICR,"HOSPITAL ROAD,  BIKANER","KOTHARI  CORNER,  DR  AMBEDKAR  CIRCLE,  BIKANER - 334001","BRANCH MANAGER,0151-2223052",BIKANER,BIKANER,RAJASTHAN
SBBJ0010164,State Bank of Bikaner and Jaipur,SBBJ0010164,NON MICR,BIKANER CITY,"BHUJIA  BAZAR,  OPP.CITY  HOSPITAL  NO.  2,  BIKANER - 334001","BRANCH MANAGER,0151-2223042",BIKANER,BIKANER,RAJASTHAN
SBBJ0010165,State Bank of Bikaner and Jaipur,SBBJ0010165,NON MICR,DESHNOKE,DISTT.  BIKANER - 334801,"BRANCH MANAGER,0151-2825231",DESHNOKE,BIKANER,RAJASTHAN
SBBJ0010166,State Bank of Bikaner and Jaipur,SBBJ0010166,NON MICR,NAPASAR,DISTT.  BIKANER - 334201,"BRANCH MANAGER,0151-2762434",NAPASAR,BIKANER,RAJASTHAN
SBBJ0010167,State Bank of Bikaner and Jaipur,SBBJ0010167,NON MICR,BHINASAR,DISTT.  BIKANER - 334403,"BRANCH MANAGER,0151-2223039",BHINASAR,BIKANER,RAJASTHAN
SBBJ0010168,State Bank of Bikaner and Jaipur,SBBJ0010168,NON MICR,KOLAYAT,DISTT.  BIKANER - 334302,"BRANCH MANAGER,01534-266029",KOLAYAT,BIKANER,RAJASTHAN
SBBJ0010170,State Bank of Bikaner and Jaipur,SBBJ0010170,NON MICR,MAHAJAN,DISTT.  BIKANER - 384604,"BRANCH MANAGER,01528-244422",MAHAJAN,BIKANER,RAJASTHAN
SBBJ0010171,State Bank of Bikaner and Jaipur,SBBJ0010171,NON MICR,NOKHA,DISTT.  BIKANER - 384803,"BRANCH MANAGER,01531-220728",NOKHA,BIKANER,RAJASTHAN
SBBJ0010172,State Bank of Bikaner and Jaipur,SBBJ0010172,NON MICR," SHIV MARG,  JAISALMER","JAISALMER,  345001","BRANCH MANAGER,02992-251754",JAISALMER,JAISALMER,RAJASTHAN
SBBJ0010173,State Bank of Bikaner and Jaipur,SBBJ0010173,NON MICR,POKARAN,DISTT.  JAISALMER - 345021,"BRANCH MANAGER,02994-222228",POKARAN,JAISALMER,RAJASTHAN
SBBJ0010174,State Bank of Bikaner and Jaipur,SBBJ0010174,NON MICR," PANGHAT ROAD,  BARMER",BARMER - 344001,"BRANCH MANAGER,02982-220026",BARMER,BARMER,RAJASTHAN
SBBJ0010175,State Bank of Bikaner and Jaipur,SBBJ0010175,344003175,BALOTRA,DIST.  BARMER - 344022,"BRANCH MANAGER,02988-220019",BALOTRA,BARMER,RAJASTHAN
SBBJ0010176,State Bank of Bikaner and Jaipur,SBBJ0010176,NON MICR,PACHPADRA,DISTT.  BARMER - 344032,"BRANCH MANAGER,02988-281222",PACHPADRA,BARMER,RAJASTHAN
SBBJ0010177,State Bank of Bikaner and Jaipur,SBBJ0010177,NON MICR,SHEO,DISTT.  BARMER - 344701,"BRANCH MANAGER,02987-253042",SHEO,BARMER,RAJASTHAN
SBBJ0010178,State Bank of Bikaner and Jaipur,SBBJ0010178,NON MICR,SIWANA,DISTT.  BARMER - 343044,"BRANCH MANAGER,02901-230630",SIWANA,BARMER,RAJASTHAN
SBBJ0010179,State Bank of Bikaner and Jaipur,SBBJ0010179,NON MICR,CHOHTAN,DISTT.  BARMER - 344702,"BRANCH MANAGER,02989-286125",CHOHTAN,BARMER,RAJASTHAN
SBBJ0010180,State Bank of Bikaner and Jaipur,SBBJ0010180,NON MICR,BHINMAL,DISTT.   JALORE - 343029,"BRANCH MANAGER,02969-220038",BHINMAL,JALOR,RAJASTHAN
SBBJ0010181,State Bank of Bikaner and Jaipur,SBBJ0010181,NON MICR,JALORE,JALORE - 343001,"BRANCH MANAGER,02973-222266",JALORE,JALOR,RAJASTHAN
SBBJ0010182,State Bank of Bikaner and Jaipur,SBBJ0010182,NON MICR,AHORE,"HOSPITAL  ROAD,  AHORE,  DISTT.  JALORE - 307029","BRANCH MANAGER,02978-222027",AHORE,JALOR,RAJASTHAN
SBBJ0010183,State Bank of Bikaner and Jaipur,SBBJ0010183,NON MICR,JASWANTPURA,DISTT.  JALORE - 307515,"BRANCH MANAGER,02969-243122",JASWANTPURA,JALOR,RAJASTHAN
SBBJ0010184,State Bank of Bikaner and Jaipur,SBBJ0010184,NON MICR,SANCHORE,DISTT.   JALORE - 343041,"BRANCH MANAGER,02979-222026",SANCHORE,JALOR,RAJASTHAN
SBBJ0010185,State Bank of Bikaner and Jaipur,SBBJ0010185,NON MICR,SIROHI,"SARDAR  BAZAR,  SIROHI - 307001","BRANCH MANAGER,02972-224141",SIROHI,SIROHI,RAJASTHAN
SBBJ0010186,State Bank of Bikaner and Jaipur,SBBJ0010186,NON MICR,KALANDRI,DISTT.  SIROHI - 307802,"BRANCH MANAGER,02972-264336",KALANDARI,SIROHI,RAJASTHAN
SBBJ0010187,State Bank of Bikaner and Jaipur,SBBJ0010187,NON MICR,PINDWARA,DISTT.  SIROHI - 307022,"BRANCH MANAGER,02971-222038",PINDWARA,SIROHI,RAJASTHAN
SBBJ0010188,State Bank of Bikaner and Jaipur,SBBJ0010188,NON MICR,REODHAR,DISTT.  SIROHI - 307514,"BRANCH MANAGER,02975-222327",REODHAR,SIROHI,RAJASTHAN
SBBJ0010189,State Bank of Bikaner and Jaipur,SBBJ0010189,307003075,SHEOGANJ,DISTT.  SIROHI - 307027,"BRANCH MANAGER,02976-220140",SHEOGANJ,SIROHI,RAJASTHAN
SBBJ0010190,State Bank of Bikaner and Jaipur,SBBJ0010190,306003000,SOJAT CITY,DISTT.  PALI - 306104,"BRANCH MANAGER,02960-222034",SAJAT,PALI,RAJASTHAN
SBBJ0010191,State Bank of Bikaner and Jaipur,SBBJ0010191,NON MICR,BALI,DISTT.  PALI - 306701,"BRANCH MANAGER,02938-222028",BALI,PALI,RAJASTHAN
SBBJ0010192,State Bank of Bikaner and Jaipur,SBBJ0010192,NON MICR,DESURI,DISTT.  PALI - 306703,"BRANCH MANAGER,02934-254124",DESURI,PALI,RAJASTHAN
SBBJ0010193,State Bank of Bikaner and Jaipur,SBBJ0010193,NON MICR,FALNA,"COLLEGE  ROAD,  FALNA,  DISTT.  PALI - 306116","BRANCH MANAGER,02938-233247",FALNA,PALI,RAJASTHAN
SBBJ0010194,State Bank of Bikaner and Jaipur,SBBJ0010194,NON MICR,JAITARAN,DISTT.  PALI - 306302,"BRANCH MANAGER,02939-222224",JAITARAN,PALI,RAJASTHAN
SBBJ0010195,State Bank of Bikaner and Jaipur,SBBJ0010195,306003003,"SURANA  MARKET,  PALI","SARAFA  BAZAR,  PALI - 306401","BRANCH MANAGER,02932-221311",PALI,PALI,RAJASTHAN
SBBJ0010196,State Bank of Bikaner and Jaipur,SBBJ0010196,NON MICR,MARWAR JUNCTION,"MAIN  BAZAR,  DISTT.   PALI - 306001","BRANCH MANAGER,02935-252216",MARWAR JUNCTION,PALI,RAJASTHAN
SBBJ0010197,State Bank of Bikaner and Jaipur,SBBJ0010197,NON MICR,RAIPURMARWAR,DISTT.  PALI - 306304,"BRANCH MANAGER,02937-220120",RAIPUR MARWAR,PALI,RAJASTHAN
SBBJ0010198,State Bank of Bikaner and Jaipur,SBBJ0010198,NON MICR,SUMERPUR,DISTT.   PALI - 306902,"BRANCH MANAGER,02933-252444",SUMERPUR,PALI,RAJASTHAN
SBBJ0010199,State Bank of Bikaner and Jaipur,SBBJ0010199,342003005,"INDUSTRIAL ESTATE, JODHPUR","INDUSTRIAL ESTATE,  JODHPUR - 342003","BRANCH MANAGER,0291-2634757",JODHPUR,JODHPUR,RAJASTHAN
SBBJ0010200,State Bank of Bikaner and Jaipur,SBBJ0010200,342003004,JODHPUR CITY,"KAPDA  BAZAR,  CHANDI  HALL,  JODHPUR - 342001","BRANCH MANAGER,0291-2634756",JODHPUR,JODHPUR,RAJASTHAN
SBBJ0010201,State Bank of Bikaner and Jaipur,SBBJ0010201,342003002,"JALORI GATE,  JODHPUR ","JALORI  GATE,  JODHPUR - 342001","BRANCH MANAGER,0291-2634740",JODHPUR,JODHPUR,RAJASTHAN
SBBJ0010202,State Bank of Bikaner and Jaipur,SBBJ0010202,342003008,"SARDARPURA,  JODHPUR","SARDARPURA,  JODHPUR - 342001","BRANCH MANAGER,0291-2634766",JODHPUR,JODHPUR,RAJASTHAN
SBBJ0010203,State Bank of Bikaner and Jaipur,SBBJ0010203,342003009,"SOJATI GATE,  JODHPUR","SOJATI  GATE,  JODHPUR - 342001","BRANCH MANAGER,0291-2613139",JODHPUR,JODHPUR,RAJASTHAN
SBBJ0010204,State Bank of Bikaner and Jaipur,SBBJ0010204,342003000,BILARA,DISTT.  JODHPUR - 342602,"BRANCH MANAGER,02930-222015",BILARA,JODHPUR,RAJASTHAN
SBBJ0010205,State Bank of Bikaner and Jaipur,SBBJ0010205,NON MICR,PHALODI,DISTT.  JODHPUR - 342301,"BRANCH MANAGER,02925-222105",PHALODI,JODHPUR,RAJASTHAN
SBBJ0010206,State Bank of Bikaner and Jaipur,SBBJ0010206,NON MICR,OSIAN,"TEHSIL  ROAD,  OSIAN,  DISTT.   JODHPUR - 342303","BRANCH MANAGER,02922-274228",OSIAN,JODHPUR,RAJASTHAN
SBBJ0010207,State Bank of Bikaner and Jaipur,SBBJ0010207,NON MICR,SHERGARH,"SHERGARH,  DISTT.  JODHPUR - 342022","BRANCH MANAGER,02929-243322",SHERGARH,JODHPUR,RAJASTHAN
SBBJ0010208,State Bank of Bikaner and Jaipur,SBBJ0010208,342003010,SURSAGAR,DISTT.   JODHPUR. - 342024,"BRANCH MANAGER,0291-2780770",JODHPUR,JODHPUR,RAJASTHAN
SBBJ0010209,State Bank of Bikaner and Jaipur,SBBJ0010209,313003001,"CHETAK CIRCLE,  UDAIPUR","CHETAK  CIRCLE,  UDIAPUR - 313001","BRANCH MANAGER,0294-5102640",UDAIPUR,UDAIPUR,RAJASTHAN
SBBJ0010210,State Bank of Bikaner and Jaipur,SBBJ0010210,313003007,"SURAJPOLE, UDAIPUR","SURAJPOLE,  UDAIPUR - 313001","BRANCH MANAGER,0294-2422044",UDAIPUR,UDAIPUR,RAJASTHAN
SBBJ0010211,State Bank of Bikaner and Jaipur,SBBJ0010211,NON MICR,KANKROLI,DISTT.  RAJSAMAND - 313324,"BRANCH MANAGER,02952-220011",KANKROLI,RAJSAMAND,RAJASTHAN
SBBJ0010212,State Bank of Bikaner and Jaipur,SBBJ0010212,313003000,NATHDWARA,"NEAR  REST  HOUSE,  NATHDWARA,  DISTT.   RAJSAMAND - 313301","BRANCH MANAGER,02953-234636",NATHDWARA,RAJSAMAND,RAJASTHAN
SBBJ0010213,State Bank of Bikaner and Jaipur,SBBJ0010213,NON MICR,RAJSAMAND,RAJSAMAND - 313326,"BRANCH MANAGER,02952-220044",RAJSAMAND,RAJSAMAND,RAJASTHAN
SBBJ0010214,State Bank of Bikaner and Jaipur,SBBJ0010214,NON MICR,AMET,"CHARBHUJA  ROAD,  DISTT.  RAJSAMAND - 313332","BRANCH MANAGER,02908-231550",AMET,RAJSAMAND,RAJASTHAN
SBBJ0010215,State Bank of Bikaner and Jaipur,SBBJ0010215,NON MICR,BHIM,DISTT.  RAJSAMAND - 305921,"BRANCH MANAGER,02951-250427",BHIM,RAJSAMAND,RAJASTHAN
SBBJ0010216,State Bank of Bikaner and Jaipur,SBBJ0010216,NON MICR,"ZINC SMELTER,  DEBARI",DISTT.  UDAIPUR - 313024,"BRANCH MANAGER,0294-2655376",ZINC SMLT DEBAR,UDAIPUR,RAJASTHAN
SBBJ0010217,State Bank of Bikaner and Jaipur,SBBJ0010217,NON MICR,DEOGARH MADARIA,"PORWAL  MARKET,  SADAR  BAZAR,  DISTT.   RAJSAMAND - 313331","BRANCH MANAGER,02904-252026",DEOGARH MADARIA,RAJSAMAND,RAJASTHAN
SBBJ0010218,State Bank of Bikaner and Jaipur,SBBJ0010218,NON MICR,DHARIAWAD,"P.B.  NO.  3,  DHARIAWAD - 315605","BRANCH MANAGER,02950-220025",DHARIAWAD,UDAIPUR,RAJASTHAN
SBBJ0010219,State Bank of Bikaner and Jaipur,SBBJ0010219,NON MICR,GOGUNDA,"NEAR  BUS  STAND,  GOGUNDA,  DISTT.   UDAIPUR - 313705","BRANCH MANAGER,02956-242024",GOGUNDA,UDAIPUR,RAJASTHAN
SBBJ0010220,State Bank of Bikaner and Jaipur,SBBJ0010220,NON MICR,KHERWARA,"AZAD  CHOWK,  KHERWARA,  UDAIPUR - 313803","BRANCH MANAGER,02907-220021",KHERWARA,UDAIPUR,RAJASTHAN
SBBJ0010221,State Bank of Bikaner and Jaipur,SBBJ0010221,NON MICR,KUMBHALGARH,DISTT.  RAJSAMAND - 313325,"BRANCH MANAGER,02954-242223",KUMBHALGAR,RAJSAMAND,RAJASTHAN
SBBJ0010222,State Bank of Bikaner and Jaipur,SBBJ0010222,NON MICR,MAVLI,DISTT.  UDAIPUR - 313203,"BRANCH MANAGER,02955-263226",MAVLI,UDAIPUR,RAJASTHAN
SBBJ0010223,State Bank of Bikaner and Jaipur,SBBJ0010223,NON MICR,RELMAGRA,DISTT.  RAJSAMAND - 313329,"BRANCH MANAGER,02952-267222",RELMAGRA,RAJSAMAND,RAJASTHAN
SBBJ0010224,State Bank of Bikaner and Jaipur,SBBJ0010224,NON MICR,SARADA,"MAIN  ROAD,  SARADA,  DISTT.   UDAIPUR - 313902","BRANCH MANAGER,02905-260031",SARADA,UDAIPUR,RAJASTHAN
SBBJ0010225,State Bank of Bikaner and Jaipur,SBBJ0010225,NON MICR,SALUMBER,DISTT.  UDAIPUR - 313027,"BRANCH MANAGER,02906-231408",SALUMBER,UDAIPUR,RAJASTHAN
SBBJ0010226,State Bank of Bikaner and Jaipur,SBBJ0010226,NON MICR,VALLABHNAGAR,DISTT.   UDAIPUR - 313601,"BRANCH MANAGER,02957-240222",VALLABHNAGAR,UDAIPUR,RAJASTHAN
SBBJ0010227,State Bank of Bikaner and Jaipur,SBBJ0010227,NON MICR,ZAWAR MINES,DISTT.  UDAIPUR - 313901,"BRANCH MANAGER,0294-2726868",ZAWAR MINES,UDAIPUR,RAJASTHAN
SBBJ0010228,State Bank of Bikaner and Jaipur,SBBJ0010228,NON MICR,DUNGARPUR,"MAIN  BAZAR,  DISTT.   DUNGARPUR - 314001","BRANCH MANAGER,02964-232422",DUNGARPUR,DUNGARPUR,RAJASTHAN
SBBJ0010229,State Bank of Bikaner and Jaipur,SBBJ0010229,NON MICR,ASPUR,DISTT.  DUNGARPUR - 314021,"BRANCH MANAGER,02967-220133",ASPUR,DUNGARPUR,RAJASTHAN
SBBJ0010230,State Bank of Bikaner and Jaipur,SBBJ0010230,NON MICR,SAGWARA,DISTT.  DUNGARPUR - 314025,"BRANCH MANAGER,02966-252218",SAGWARA,DUNGARPUR,RAJASTHAN
SBBJ0010231,State Bank of Bikaner and Jaipur,SBBJ0010231,327003002,BANSWARA,"NEW  CLOTH  MARKET,  BANSWARA - 327001","BRANCH MANAGER,02962-46281",BANSWARA,BANSWARA,RAJASTHAN
SBBJ0010232,State Bank of Bikaner and Jaipur,SBBJ0010232,NON MICR,BAGIDORA,DISTT.  BANSWARA - 327601,"BRANCH MANAGER,02968-220027",BAGIDORA,BANSWARA,RAJASTHAN
SBBJ0010233,State Bank of Bikaner and Jaipur,SBBJ0010233,NON MICR,KUSHALGARH,DISTT.  BANSWARA - 327801,"BRANCH MANAGER,02965-275235",KUSHALGARH,BANSWARA,RAJASTHAN
SBBJ0010234,State Bank of Bikaner and Jaipur,SBBJ0010234,NON MICR,PARTAPUR  GADHI,DISTT.  BANSWARA - 327024,"BRANCH MANAGER,02963-221039",PARTAPUR GADHI,BANSWARA,RAJASTHAN
SBBJ0010235,State Bank of Bikaner and Jaipur,SBBJ0010235,NON MICR,GHANTOL,DISTT.  BANSWARA - 327023,"BRANCH MANAGER,02961-235128",GHANTOL,BANSWARA,RAJASTHAN
SBBJ0010236,State Bank of Bikaner and Jaipur,SBBJ0010236,NON MICR,CHHOTI SADRI,DISTT.  CHITTORGARH - 312604,"BRANCH MANAGER,01473-262437",CHHOTI SADRI,CHITTORGARH,RAJASTHAN
SBBJ0010237,State Bank of Bikaner and Jaipur,SBBJ0010237,NON MICR,CHITTORGARH,"NEAR  COLLECTORATE  OFFICE,  CHITTORGARH - 312001","BRANCH MANAGER,01472-246359",CHITORGARH,CHITTORGARH,RAJASTHAN
SBBJ0010238,State Bank of Bikaner and Jaipur,SBBJ0010238,NON MICR,NIMBAHERA,"MALGODAM  ROAD,  NIMBAHERA, DISTT CHITTORGARH -  312601","BRANCH MANAGER,01477-220032",NIMBAHERA,CHITTORGARH,RAJASTHAN
SBBJ0010239,State Bank of Bikaner and Jaipur,SBBJ0010239,NON MICR,PARTABGARH,"BURHANI  BUILDING,   M  G  ROAD,   P.B.NO.3,  PARTABGARH , DISTT CHITTORGARH -  312605","BRANCH MANAGER,01478-222033",PARTABGARH,CHITTORGARH,RAJASTHAN
SBBJ0010240,State Bank of Bikaner and Jaipur,SBBJ0010240,NON MICR,BARI SADRI,DISTT.  CHITTORGARH - 312403,"BRANCH MANAGER,01473-264226",BADISADRI,CHITTORGARH,RAJASTHAN
SBBJ0010241,State Bank of Bikaner and Jaipur,SBBJ0010241,NON MICR,BEGUN,DISTT.  CHITTORGARH - 312023,"BRANCH MANAGER,01474-220105",BEGUN,CHITTORGARH,RAJASTHAN
SBBJ0010242,State Bank of Bikaner and Jaipur,SBBJ0010242,NON MICR,BHADESAR,DISTT.  CHITTORGARH - 312602,"BRANCH MANAGER,01470-243228",BHADESAR,CHITTORGARH,RAJASTHAN
SBBJ0010243,State Bank of Bikaner and Jaipur,SBBJ0010243,NON MICR,DUNGLA,DISTT.  CHITTORGARH - 312402,"BRANCH MANAGER,01470-247223",DUNGLA,CHITTORGARH,RAJASTHAN
SBBJ0010244,State Bank of Bikaner and Jaipur,SBBJ0010244,NON MICR,GANGRAR,DISTT.  CHITTORGARH - 312902,"BRANCH MANAGER,01471-220230",GANGRAR,CHITTORGARH,RAJASTHAN
SBBJ0010245,State Bank of Bikaner and Jaipur,SBBJ0010245,NON MICR,KAPASAN,"STATION  ROAD,  KAPASAN,  DISTT.   CHITTORGARH - 312202","BRANCH MANAGER,01476-230231",KAPASAN,CHITTORGARH,RAJASTHAN
SBBJ0010246,State Bank of Bikaner and Jaipur,SBBJ0010246,NON MICR,RASHMI,DISTT.  CHITTORGARH - 312203,"BRANCH MANAGER,01471-226326",RASHMI,CHITTORGARH,RAJASTHAN
SBBJ0010247,State Bank of Bikaner and Jaipur,SBBJ0010247,NON MICR,BUNDI,"INDIRA  MARKET,  BUNDI - 323001","BRANCH MANAGER,0747-2445444",BUNDI,BUNDI,RAJASTHAN
SBBJ0010248,State Bank of Bikaner and Jaipur,SBBJ0010248,NON MICR,HINDOLI,DISTT.  BUNDI - 323002,"BRANCH MANAGER,07436-276223",HINDOLI,BUNDI,RAJASTHAN
SBBJ0010249,State Bank of Bikaner and Jaipur,SBBJ0010249,NON MICR,NAINWA,DISTT.  BUNDI - 323801,"BRANCH MANAGER,07437-257235",NAINWA,BUNDI,RAJASTHAN
SBBJ0010250,State Bank of Bikaner and Jaipur,SBBJ0010250,NON MICR,PATAN  KESHORAI,DISTT.  BUNDI - 323601,"BRANCH MANAGER,07438-264227",PATAN KESHORAI,BUNDI,RAJASTHAN
SBBJ0010251,State Bank of Bikaner and Jaipur,SBBJ0010251,NON MICR,KOTA CITY,"GANDHI  CHOWK.,  KOTA - 324006","BRANCH MANAGER,0744-2380756",KOTA,KOTA,RAJASTHAN
SBBJ0010252,State Bank of Bikaner and Jaipur,SBBJ0010252,NON MICR,"AERODROME CIRCLE,  KOTA ","AERODROME  CIRCLE,  KOTA - 324007","BRANCH MANAGER,0744-2361971",KOTA,KOTA,RAJASTHAN
SBBJ0010253,State Bank of Bikaner and Jaipur,SBBJ0010253,NON MICR,"I L TOWNSHIP, KOTA","I  .L.  TOWNSHIP,  KOTA - 324005","BRANCH MANAGER,0744-2424244",KOTA,KOTA,RAJASTHAN
SBBJ0010254,State Bank of Bikaner and Jaipur,SBBJ0010254,NON MICR,"RAJ BHAWAN ROAD,  KOTA","RAJ  BHAWAN  ROAD,  KOTA - 324001","BRANCH MANAGER,0744-2322119",KOTA,KOTA,RAJASTHAN
SBBJ0010255,State Bank of Bikaner and Jaipur,SBBJ0010255,NON MICR,"STATION ROAD,  KOTA ","STATION  ROAD,  KOTA - 324002","BRANCH MANAGER,0744-2440218",KOTA,KOTA,RAJASTHAN
SBBJ0010256,State Bank of Bikaner and Jaipur,SBBJ0010256,NON MICR,KISHANGANJ,DISTT.  BARAN - 325216,"BRANCH MANAGER,07456-253309",KISHANGANJ,BARAN,RAJASTHAN
SBBJ0010257,State Bank of Bikaner and Jaipur,SBBJ0010257,NON MICR,BARAN,"HOSPITAL  ROAD,  BARAN - 325205","BRANCH MANAGER,07453-230103",BARAN,BARAN,RAJASTHAN
SBBJ0010258,State Bank of Bikaner and Jaipur,SBBJ0010258,NON MICR,ATRU,DISTT.  BARAN - 325218,"BRANCH MANAGER,07451-240234",ATRU,BARAN,RAJASTHAN
SBBJ0010259,State Bank of Bikaner and Jaipur,SBBJ0010259,NON MICR,CHHABRA GUGAR,DISTT.  BARAN - 325220,"BRANCH MANAGER,07452-222007",CHHABRA GUGAR,BARAN,RAJASTHAN
SBBJ0010260,State Bank of Bikaner and Jaipur,SBBJ0010260,NON MICR,CHIPA BAROD,DISTT.  BARAN - 325221,"BRANCH MANAGER,07454-220428",CHIPA BAROD,BARAN,RAJASTHAN
SBBJ0010261,State Bank of Bikaner and Jaipur,SBBJ0010261,NON MICR,DIGOD,DISTT.  KOTA - 325201,"BRANCH MANAGER,07455-234604",DIGOD,KOTA,RAJASTHAN
SBBJ0010262,State Bank of Bikaner and Jaipur,SBBJ0010262,NON MICR,MANGROL,DISTT.  BARAN - 325215,"BRANCH MANAGER,07457-225228",MANGROL,BARAN,RAJASTHAN
SBBJ0010263,State Bank of Bikaner and Jaipur,SBBJ0010263,NON MICR,PIPALDA,DISTT.   KOTA - 325008,"BRANCH MANAGER,07458-220044",PIPALDA,KOTA,RAJASTHAN
SBBJ0010264,State Bank of Bikaner and Jaipur,SBBJ0010264,NON MICR,RAMGANJ MANDI,DISTT.   KOTA - 326519,"BRANCH MANAGER,07459-220044",RAMGANJ MANDI,KOTA,RAJASTHAN
SBBJ0010265,State Bank of Bikaner and Jaipur,SBBJ0010265,NON MICR,RAWATBHATA,"TEHSIL  BEGUN,  DISTT.   CHITTORGARH - 323305","BRANCH MANAGER,01475-233223",RAWATBHATA,CHITTORGARH,RAJASTHAN
SBBJ0010266,State Bank of Bikaner and Jaipur,SBBJ0010266,NON MICR,SANGOD,DISTT.  KOTA - 325601,"BRANCH MANAGER,07445-233235",SANGOD,KOTA,RAJASTHAN
SBBJ0010267,State Bank of Bikaner and Jaipur,SBBJ0010267,NON MICR,SHAHBAD,DISTT.  BARAN - 325217,"BRANCH MANAGER,07460-262303",SHAHBAD,BARAN,RAJASTHAN
SBBJ0010268,State Bank of Bikaner and Jaipur,SBBJ0010268,NON MICR,JHALAWAR,JHALAWAR - 326001,"BRANCH MANAGER,07432-232437",JHALAWAR,JHALAWAR,RAJASTHAN
SBBJ0010269,State Bank of Bikaner and Jaipur,SBBJ0010269,NON MICR,AKLERA,DISTT.   JHALAWAR - 326033,"BRANCH MANAGER,07431-272222",AKLERA,JHALAWAR,RAJASTHAN
SBBJ0010270,State Bank of Bikaner and Jaipur,SBBJ0010270,NON MICR,BHAWANI MANDI,"STATION  RAOD,  BHAWANI  MANDI,   DISTT.   JHALAWAR - 326502","BRANCH MANAGER,07433-222037",BHAWANI MANDI,JHALAWAR,RAJASTHAN
SBBJ0010271,State Bank of Bikaner and Jaipur,SBBJ0010271,NON MICR,CHAUMAHALA,DISTT.   JHALAWAR - 326515,"BRANCH MANAGER,07435-284236",CHAUMAHLA,JHALAWAR,RAJASTHAN
SBBJ0010272,State Bank of Bikaner and Jaipur,SBBJ0010272,NON MICR,SIYANA,DISTT.  JALORE - 343024,"BRANCH MANAGER,02973-240039",SIYANA,JALOR,RAJASTHAN
SBBJ0010273,State Bank of Bikaner and Jaipur,SBBJ0010273,NON MICR,KHANPUR,DISTT.   JHALAWAR - 326038,"BRANCH MANAGER,07430-261224",KHANPUR,JHALAWAR,RAJASTHAN
SBBJ0010274,State Bank of Bikaner and Jaipur,SBBJ0010274,NON MICR,PIRAWA,DISTT.  JHALAWAR - 326034,"BRANCH MANAGER,07434-258234",PIRAWA,JHALAWAR,RAJASTHAN
SBBJ0010275,State Bank of Bikaner and Jaipur,SBBJ0010275,NON MICR,SUNEL,DISTT.  JHALAWAR - 326513,"BRANCH MANAGER,07434-253233",SUNEL,JHALAWAR,RAJASTHAN
SBBJ0010276,State Bank of Bikaner and Jaipur,SBBJ0010276,380003002,"RAILWAYPURA D.N.,  AHMEDABAD","10-11 EMPIRE  TOWER,  PANCHWATI, NAVRANGPURA,  C  G  ROAD,  AHMEDABAD. - 380006","BRANCH MANAGER,079-26430301",AHEMDABAD,AHMEDABAD,GUJARAT
SBBJ0010277,State Bank of Bikaner and Jaipur,SBBJ0010277,380003003,"TILAK ROAD,  AHMEDABAD","TILAK ROAD,  OPPOSITE MANILAL  MANSION,  AHMEDABAD - 380001","BRANCH MANAGER,079-22146548",AHEMDABAD,AHMEDABAD,GUJARAT
SBBJ0010278,State Bank of Bikaner and Jaipur,SBBJ0010278,400003004,"DANA BUNDER,  MUMBAI","GIRIRAJ,  1STFLOOR,  73,  ST  ROAD,  DANABUNDER,  MUMBAI - 400009","BRANCH MANAGER,022-23427020",MUMBAI,GREATER BOMBAY,MAHARASHTRA
SBBJ0010279,State Bank of Bikaner and Jaipur,SBBJ0010279,400003003,"D.N.ROAD,  MUMBAI","PENINSULA  HOUSE,  DR.  D.  N.  ROAD,  FORT,  MUMBAI - 400001","BRANCH MANAGER,022-22630620",MUMBAI,GREATER BOMBAY,MAHARASHTRA
SBBJ0010280,State Bank of Bikaner and Jaipur,SBBJ0010280,400003005,"KALBADEVI,  MUMBAI","99  G,  KAMNATH  MAHADEO  COMPLEX,  KALBADEVI  ROAD,   MUMBAI - 400002","BRANCH MANAGER,022-22405518",MUMBAI,GREATER BOMBAY,MAHARASHTRA
SBBJ0010281,State Bank of Bikaner and Jaipur,SBBJ0010281,400003006,"MANDVI,  MUMBAI","232 - 234,  SAMUAL  STREET,  VADAGADI,  MASIJIDBUNDER,   MUMBAI - 400003","BRANCH MANAGER,022-56344082",MUMBAI,GREATER BOMBAY,MAHARASHTRA
SBBJ0010282,State Bank of Bikaner and Jaipur,SBBJ0010282,400003008,"P.M.ROAD,  MUMBAI ","UNITED  INDIA  LIFE  BUILDING,  FORT,  MUMBAI - 400023","BRANCH MANAGER,022-22663189",MUMBAI,GREATER BOMBAY,MAHARASHTRA
SBBJ0010284,State Bank of Bikaner and Jaipur,SBBJ0010284,440003002,NAGPUR,"PANCHPOLI  ROAD,  GANDHI  BAGH,  NAGPUR - 440002","BRANCH MANAGER,0712-2721758",NAGPUR,NAGPUR,MAHARASHTRA
SBBJ0010285,State Bank of Bikaner and Jaipur,SBBJ0010285,NON MICR,PANNA,"NEW RAGHVENDRA MARKET,  GANDHI  CHOWK,  PANNA - 488001","BRANCH MANAGER,07732-252025",PANNA,PANNA,MADHYA PRADESH
SBBJ0010286,State Bank of Bikaner and Jaipur,SBBJ0010286,600003002,"RAJAJI SALAI,  CHENNAI","UTI  HOUSE  29,  RAJAJI  SALAI,  CHENNAI - 600001","BRANCH MANAGER,044-25230282",CHENNAI,CHENNAI,TAMIL NADU
SBBJ0010287,State Bank of Bikaner and Jaipur,SBBJ0010287,641003002,COIMBATORE,"LGB  COMPLEX  244,  BIG  BAZAR  STREET,  P.B.NO.  502, COIMBATORE - 641001","BRANCH MANAGER,0422-2397255",COIMBATORE,COIMBOTORE,TAMIL NADU
SBBJ0010288,State Bank of Bikaner and Jaipur,SBBJ0010288,641003102,TIRUPUR,"58,  MUNICIPAL  OFFICE  ROAD,  TIRUPUR - 641604","BRANCH MANAGER,0421-2245396",TIRUPUR,COIMBOTORE,TAMIL NADU
SBBJ0010289,State Bank of Bikaner and Jaipur,SBBJ0010289,NON MICR,SIKANDRA,DISTT.  DAUSA - 303326,"BRANCH MANAGER,0421-2247752",SIKANDRA,DAUSA,RAJASTHAN
SBBJ0010290,State Bank of Bikaner and Jaipur,SBBJ0010290,NON MICR,KUCHERA,"BAZAR  ROAD,  KUCHERA,  DISTT.  NAGAUR - 341024","BRANCH MANAGER,01420-240125",KUCHERA,NAGAUR,RAJASTHAN
SBBJ0010291,State Bank of Bikaner and Jaipur,SBBJ0010291,NON MICR,BADU,DISTT.  NAGAUR - 341501,"BRANCH MANAGER,01584-280037",BADU,NAGAUR,RAJASTHAN
SBBJ0010292,State Bank of Bikaner and Jaipur,SBBJ0010292,NON MICR,KHATOO SHYAMJI,DISTT.  SIKAR - 332602,"BRANCH MANAGER,01576-230026",KHATOOSHYAMJI,SIKAR,RAJASTHAN
SBBJ0010293,State Bank of Bikaner and Jaipur,SBBJ0010293,NON MICR,RANIWARA,"STATION  ROAD,  RANIWARA,  DISTT.   JALORE - 343040","BRANCH MANAGER,02990-222038",RANIWARA,JALOR,RAJASTHAN
SBBJ0010294,State Bank of Bikaner and Jaipur,SBBJ0010294,NON MICR,BABRA,"VIA -  BEAWAR,  DISTT.   PALI - 306101","BRANCH MANAGER,01462-280026",BABRA,PALI,RAJASTHAN
SBBJ0010295,State Bank of Bikaner and Jaipur,SBBJ0010295,NON MICR,TAKHATGARH,DISTT.  PALI - 306912,"BRANCH MANAGER,029333-220146",TAKHATGARH,PALI,RAJASTHAN
SBBJ0010296,State Bank of Bikaner and Jaipur,SBBJ0010296,NON MICR,MALAKHERA,DISTT.  ALWAR - 301406,"BRANCH MANAGER,0144-2764235",MALAKHERA,ALWAR,RAJASTHAN
SBBJ0010297,State Bank of Bikaner and Jaipur,SBBJ0010297,NON MICR,MAROTH,DISTT.  NAGAUR - 341507,"BRANCH MANAGER,01586-277026",MAROTH,NAGAUR,RAJASTHAN
SBBJ0010298,State Bank of Bikaner and Jaipur,SBBJ0010298,NON MICR,GOLUWALA  BAS NAWADA,DISTT.  HANUMANGARH - 335802,"BRANCH MANAGER,01508-220038",GOLOOWALA BAS,HANUMANGARH,RAJASTHAN
SBBJ0010299,State Bank of Bikaner and Jaipur,SBBJ0010299,NON MICR,LALGARH JATAN,DISTT.  SRIGANGANAGAR - 335037,"BRANCH MANAGER,0154-287023",LALGARH JATAN,GANGANAGAR,RAJASTHAN
SBBJ0010300,State Bank of Bikaner and Jaipur,SBBJ0010300,NON MICR,RAMSINGHPUR,"BUS  STAND,  MAHENDRA  SINGH  KATLA,  DISTT.   SRIGANGANAGAR - 335703","BRANCH MANAGER,014981-283440",RAMSINGHPUR,GANGANAGAR,RAJASTHAN
SBBJ0010301,State Bank of Bikaner and Jaipur,SBBJ0010301,NON MICR,TIBBI,DISTT.  HANUMANGARH - 335526,"BRANCH MANAGER,01539-224028",TIBBI,HANUMANGARH,RAJASTHAN
SBBJ0010307,State Bank of Bikaner and Jaipur,SBBJ0010307,302003012,"RAMGANJ BAZAR,  JAIPUR ","RAMGANJ  BAZAR,  JAIPUR - 302003","BRANCH MANAGER,0141-2612116",JAIPUR,JAIPUR,RAJASTHAN
SBBJ0010308,State Bank of Bikaner and Jaipur,SBBJ0010308,NON MICR,RAJSAMAND ADB,"PAHADIA  BUILDING,  RAJSAMAND - 313326","BRANCH MANAGER,02952-220055",RAJSAMAND,RAJSAMAND,RAJASTHAN
SBBJ0010309,State Bank of Bikaner and Jaipur,SBBJ0010309,110003013," N. I. E. PHASE - I,  NEW DELHI","NARAINA  IND.  ESTATE  PHASE - 1  BUILDING,   FIRST  FLOOR,  NEW  DELHI - 110028","BRANCH MANAGER,011-25790450",NEW DELHI,NEW DELHI,DELHI
SBBJ0010310,State Bank of Bikaner and Jaipur,SBBJ0010310,110003024,FARIDABAD,"26  RAILWAY  ROAD,  NEAR  BATA  CHOWK,  FARIDABAD - 121001","BRANCH MANAGER,0129-2541390",FARIDABAD,FARIDABAD,HARYANA
SBBJ0010311,State Bank of Bikaner and Jaipur,SBBJ0010311,NON MICR,BHANDAREJ,DISTT.  DAUSA - 303505,"BRANCH MANAGER,01427-951427-283324",BHANDAREJ,DAUSA,RAJASTHAN
SBBJ0010312,State Bank of Bikaner and Jaipur,SBBJ0010312,NON MICR,"JASSUSAR GATE,  BIKANER","JASSUSAR  GATE,  BIKANER - 334001","BRANCH MANAGER,0151-2223065",BIKANER,BIKANER,RAJASTHAN
SBBJ0010313,State Bank of Bikaner and Jaipur,SBBJ0010313,307003076,SHEOGANJ  ADB,DISTT.  SIROHI - 307027,"BRANCH MANAGER,02976-220348",SHEOGANJ,SIROHI,RAJASTHAN
SBBJ0010314,State Bank of Bikaner and Jaipur,SBBJ0010314,NON MICR,BHINMAL  ADB,"STATION  ROAD,  BHINMAL,  DISTT.   JALORE - 343029","BRANCH MANAGER,02969-220147",BHINMAL,JALOR,RAJASTHAN
SBBJ0010315,State Bank of Bikaner and Jaipur,SBBJ0010315,NON MICR,JAMSAR,DISTT.  BIKANER - 334601,"BRANCH MANAGER,01522-260920",JAMSAR,BIKANER,RAJASTHAN
SBBJ0010316,State Bank of Bikaner and Jaipur,SBBJ0010316,NON MICR,JASRASAR,"VIA -  NOKHA,  DISTT.  BIKANER - 334802","BRANCH MANAGER,01531-264433",JASRASAR,BIKANER,RAJASTHAN
SBBJ0010317,State Bank of Bikaner and Jaipur,SBBJ0010317,NON MICR,GAJNER,DISTT.   BIKANER - 334301,"BRANCH MANAGER,01534-255031",GAJNER,BIKANER,RAJASTHAN
SBBJ0010318,State Bank of Bikaner and Jaipur,SBBJ0010318,NON MICR,NIMAJ,DISTT.  PALI - 306303,"BRANCH MANAGER,02939-230028",NIMAJ,PALI,RAJASTHAN
SBBJ0010319,State Bank of Bikaner and Jaipur,SBBJ0010319,160003001,CHANDIGARH,"S.  C.  F.  NO.  5,  SECTOR - 17 - D,  CHANDIGARH - 160017","BRANCH MANAGER,0172-2702068",CHANDIGARH,CHANDIGARH,CHANDIGARH
SBBJ0010320,State Bank of Bikaner and Jaipur,SBBJ0010320,NON MICR,SAROOPGANJ,DISTT.  SIROHI - 307023,"BRANCH MANAGER,02971-242045",SAROOPGANJ,SIROHI,RAJASTHAN
SBBJ0010321,State Bank of Bikaner and Jaipur,SBBJ0010321,NON MICR,NAHARMAGRA,"SHRIPATI NAGAR,  DISTT.  UDAIPUR - 313201","BRANCH MANAGER,0294-2655374",NAHAR MAGRA,UDAIPUR,RAJASTHAN
SBBJ0010322,State Bank of Bikaner and Jaipur,SBBJ0010322,NON MICR,SIWANA  ADB,"CHAPARA  BHAWAN,   SIWANA,   DISTT.  BARMER - 343044","BRANCH MANAGER,02901-230621",SIWANA,BARMER,RAJASTHAN
SBBJ0010323,State Bank of Bikaner and Jaipur,SBBJ0010323,NON MICR,BAGRA,DISTT.  JALORE - 343025,"BRANCH MANAGER,02973-254262",BAGRA,JALOR,RAJASTHAN
SBBJ0010324,State Bank of Bikaner and Jaipur,SBBJ0010324,NON MICR,BAGRI,DISTT.  PALI - 306114,"BRANCH MANAGER,02960-281091",BAGRI,PALI,RAJASTHAN
SBBJ0010325,State Bank of Bikaner and Jaipur,SBBJ0010325,NON MICR,CHANDERIA,"RIMDC  IND.AREA,  CHANDERIA,  CHITTORGARH - 312021","BRANCH MANAGER,01472-255144",CHANDERIA,CHITTORGARH,RAJASTHAN
SBBJ0010326,State Bank of Bikaner and Jaipur,SBBJ0010326,NON MICR,DIGGI,DISTT.  TONK - 304504,"BRANCH MANAGER,01437-227327",DIGGI,TONK,RAJASTHAN
SBBJ0010327,State Bank of Bikaner and Jaipur,SBBJ0010327,NON MICR,JAWAL,DISTT.  SIROHI - 307801,"BRANCH MANAGER,02972-260222",JAWAL,SIROHI,RAJASTHAN
SBBJ0010328,State Bank of Bikaner and Jaipur,SBBJ0010328,NON MICR,JOJAWAR,DISTT.  PALI - 306022,"BRANCH MANAGER,02935-245022",JOJAWAR,PALI,RAJASTHAN
SBBJ0010329,State Bank of Bikaner and Jaipur,SBBJ0010329,NON MICR,KHEJROLI,DISTT.  JAIPUR - 303803,"BRANCH MANAGER,01423-255015",KHEJROLI,JAIPUR,RAJASTHAN
SBBJ0010330,State Bank of Bikaner and Jaipur,SBBJ0010330,NON MICR,SRINAGAR,DISTT.  AJMER - 305025,"BRANCH MANAGER,01491-246232",SRINAGAR AJMER,AJMER,RAJASTHAN
SBBJ0010332,State Bank of Bikaner and Jaipur,SBBJ0010332,110003002,"FAIZ ROAD,  DELHI ","16/67 - 68,  FAIZ  ROAD,  KAROL  BAGH,  DELHI - 110005","BRANCH MANAGER,011-23613488",NEW DELHI,NEW DELHI,DELHI
SBBJ0010333,State Bank of Bikaner and Jaipur,SBBJ0010333,NON MICR,ALWAR  ADB,"NAGLI - KA - CHOURAHA,  ALWAR - 301001","BRANCH MANAGER,0144-2700845",ALWAR,ALWAR,RAJASTHAN
SBBJ0010334,State Bank of Bikaner and Jaipur,SBBJ0010334,NON MICR,ARNOD,DISTT.  CHITTORGARH - 312615,"BRANCH MANAGER,01479-242222",ARNOD,CHITTORGARH,RAJASTHAN
SBBJ0010335,State Bank of Bikaner and Jaipur,SBBJ0010335,NON MICR,RIDMALSAR,"VIA -  RAISINGHNAGAR,  DISTT.   SRIGANGANAGAR - 335061","BRANCH MANAGER,01507-241225",RIDMALSAR,GANGANAGAR,RAJASTHAN
SBBJ0010336,State Bank of Bikaner and Jaipur,SBBJ0010336,NON MICR,CHIRANA,DISTT.  JHUNJHUNU - 333303,"BRANCH MANAGER,01594-281225",CHIRANA,JHUNJHUNU,RAJASTHAN
SBBJ0010337,State Bank of Bikaner and Jaipur,SBBJ0010337,NON MICR,KALOO,DISTT.  BIKANER - 334602,"BRANCH MANAGER,01528-253331",KALOO,BIKANER,RAJASTHAN
SBBJ0010338,State Bank of Bikaner and Jaipur,SBBJ0010338,NON MICR,MOMASAR,DISTT.  CHURU - 331801,"BRANCH MANAGER,01565-262229",MOMASAR,CHURU,RAJASTHAN
SBBJ0010339,State Bank of Bikaner and Jaipur,SBBJ0010339,NON MICR,SAMDARI,"MAIN  ROAD,  SAMDARI,  DISTT.   BARMER - 344021","BRANCH MANAGER,02900-276230",SAMDARI,BARMER,RAJASTHAN
SBBJ0010340,State Bank of Bikaner and Jaipur,SBBJ0010340,302003020,"SHASTRI NAGAR,  JAIPUR  ","SHASTRI  NAGAR,  JAIPUR - 302006","BRANCH MANAGER,0141-2300759",JAIPUR,JAIPUR,RAJASTHAN
SBBJ0010341,State Bank of Bikaner and Jaipur,SBBJ0010341,342003007,"PAOTA,  JODHPUR","PAOTA,  JODHPUR - 342001","BRANCH MANAGER,0291-2634763",JODHPUR,JODHPUR,RAJASTHAN
SBBJ0010342,State Bank of Bikaner and Jaipur,SBBJ0010342,NON MICR,"SRIRAM NAGAR, KOTA ","SRIRAMNAGAR,  KOTA - 324004","BRANCH MANAGER,0744-2480337",KOTA,KOTA,RAJASTHAN
SBBJ0010343,State Bank of Bikaner and Jaipur,SBBJ0010343,NON MICR,PALANA,DISTT.  BIKANER - 334404,"BRANCH MANAGER,0151-2837340",PALANA,BIKANER,RAJASTHAN
SBBJ0010344,State Bank of Bikaner and Jaipur,SBBJ0010344,NON MICR,KALU ANANDPUR,"P.O. - ANANDPUR,  DISTT.   PALI - 306301","BRANCH MANAGER,02939-283237",KALU ANANDPUR,PALI,RAJASTHAN
SBBJ0010345,State Bank of Bikaner and Jaipur,SBBJ0010345,NON MICR,PHEPHANA,"TEHSIL  NOHAR,  DISTT.   HANUMANGARH - 335527","BRANCH MANAGER,01555-230230",PHEPHANA,HANUMANGARH,RAJASTHAN
SBBJ0010346,State Bank of Bikaner and Jaipur,SBBJ0010346,380003004,"MANI NAGAR,  AHMEDABAD","32,  BHULESHWAR  SOCIETY,   AHMEDABAD - 380003","BRANCH MANAGER,079-22721914",AHMEDABAD,AHMEDABAD,GUJARAT
SBBJ0010347,State Bank of Bikaner and Jaipur,SBBJ0010347,NON MICR,"K.E.M.ROAD,  BIKANER ","KHUMADANJI  KA  DERA,  BIKANER - 334001","BRANCH MANAGER,0151-2223069",BIKANER,BIKANER,RAJASTHAN
SBBJ0010348,State Bank of Bikaner and Jaipur,SBBJ0010348,NON MICR,HANUMANGARH TOWN  ADB,"NEAR  BUS  STAND,  P.B.NO.  29,  HANUMANGARH - 335513","BRANCH MANAGER,01552-226561",HANUMANGARH,HANUMANGARH,RAJASTHAN
SBBJ0010349,State Bank of Bikaner and Jaipur,SBBJ0010349,NON MICR,SAYALA,DISTT.  JALORE - 343022,"BRANCH MANAGER,02977-272121",SAYALA,JALOR,RAJASTHAN
SBBJ0010350,State Bank of Bikaner and Jaipur,SBBJ0010350,NON MICR,NANA,"VIA -  MARWAR  JUNCTION,  DISTT.   PALI - 306504","BRANCH MANAGER,02933-245124",NANA,PALI,RAJASTHAN
SBBJ0010351,State Bank of Bikaner and Jaipur,SBBJ0010351,NON MICR,ROHIDA,DISTT.  SIROHI - 307024,"BRANCH MANAGER,02971-254626",ROHIDA,SIROHI,RAJASTHAN
SBBJ0010352,State Bank of Bikaner and Jaipur,SBBJ0010352,NON MICR,BAITU,DISTT.  BARMER - 344034,"BRANCH MANAGER,02982-241121",BAITU,BARMER,RAJASTHAN
SBBJ0010353,State Bank of Bikaner and Jaipur,SBBJ0010353,NON MICR,ANADRA,"VIA -  ABU  ROAD,  DISTT.   SIROHI - 307511","BRANCH MANAGER,02975-244224",ANADRA,SIROHI,RAJASTHAN
SBBJ0010354,State Bank of Bikaner and Jaipur,SBBJ0010354,NON MICR,RAMPUR,DISTT.   ALWAR - 301402,"BRANCH MANAGER,01461-226045",RAMPUR,ALWAR,RAJASTHAN
SBBJ0010355,State Bank of Bikaner and Jaipur,SBBJ0010355,110003005,"LAWRENCE ROAD,  DELHI","5,  COMMUNITY  CENTRE,  LAWRENCE  ROAD INDUSTRIAL AREA,  DELHI - 110035","BRANCH MANAGER,011-27199754",NEW DELHI,NEW DELHI,DELHI
SBBJ0010356,State Bank of Bikaner and Jaipur,SBBJ0010356,NON MICR,"MANDI AREA,  SRIGANGANAGAR","OPP.  SUBZI  MANDI,  MANDI  AREA,  SRIGANGANAGAR - 335001","BRANCH MANAGER,0154-2471078",SRI GANGANAGAR,GANGANAGAR,RAJASTHAN
SBBJ0010357,State Bank of Bikaner and Jaipur,SBBJ0010357,NON MICR,KUNWARIA,DISTT.   RAJSAMAND - 313327,"BRANCH MANAGER,02952-272023",KUNWARIA,RAJSAMAND,RAJASTHAN
SBBJ0010358,State Bank of Bikaner and Jaipur,SBBJ0010358,NON MICR,SRI GANGANAGAR ADB,"33,  GRAIN  MARKET,  FIRST  FLOOR,  SRIGANGANAGAR - 335001","BRANCH MANAGER,0154-2466767",SRI GANGANAGAR,GANGANAGAR,RAJASTHAN
SBBJ0010359,State Bank of Bikaner and Jaipur,SBBJ0010359,452003002,INDORE,"6.,  KANTI  MANSION,  MURAI  MOHALLA,  INDORE - 452001","BRANCH MANAGER,0731-2703719",INDORE,INDORE,MADHYA PRADESH
SBBJ0010360,State Bank of Bikaner and Jaipur,SBBJ0010360,NON MICR,UDAIPURWATI ADB,DISTT.   JHUNJHUNU - 333307,"BRANCH MANAGER,01594-234242",UDAIPUR WATI,JHUNJHUNU,RAJASTHAN
SBBJ0010361,State Bank of Bikaner and Jaipur,SBBJ0010361,302003008,"C-SCHEME,  JAIPUR","C - SCHEME,  JAIPUR - 302001","BRANCH MANAGER,0141-2369524",JAIPUR,JAIPUR,RAJASTHAN
SBBJ0010362,State Bank of Bikaner and Jaipur,SBBJ0010362,NON MICR,"DARGAH BAZAR,  AJMER","DARGAH  BAZAR,  AJMER - 305002","BRANCH MANAGER,0145-2423082",AJMER,AJMER,RAJASTHAN
SBBJ0010363,State Bank of Bikaner and Jaipur,SBBJ0010363,NON MICR,MANADAR,"VIA -  JAWAL,  DISTT.   SIROHI - 307801","BRANCH MANAGER,02972-264803",MANADAR,SIROHI,RAJASTHAN
SBBJ0010365,State Bank of Bikaner and Jaipur,SBBJ0010365,302003017,"V.K.I.E,  JAIPUR","VISHWAKARMA  INDUSTRIAL  ESTATE,  JAIPUR - 302013","BRANCH MANAGER,0141-2338653",JAIPUR,JAIPUR,RAJASTHAN
SBBJ0010366,State Bank of Bikaner and Jaipur,SBBJ0010366,NON MICR,MIRJAWALA,DISTT.  SRI  GANGANAGAR - 335038,"BRANCH MANAGER,0154-2821022",MIRJAWALA,GANGANAGAR,RAJASTHAN
SBBJ0010367,State Bank of Bikaner and Jaipur,SBBJ0010367,NON MICR,SILWALA,DISTT.  HANUMANGARH - 335526,"BRANCH MANAGER,01539-283539",SILWALA,HANUMANGARH,RAJASTHAN
SBBJ0010368,State Bank of Bikaner and Jaipur,SBBJ0010368,NON MICR,UDRAMSAR,DISTT.  BIKANER - 334402,"BRANCH MANAGER,0151-2787030",UDRAMSAR,BIKANER,RAJASTHAN
SBBJ0010369,State Bank of Bikaner and Jaipur,SBBJ0010369,NON MICR,MOZMABAD,DISTT.  JAIPUR - 303009,"BRANCH MANAGER,01428-254506",MOZMABAD,JAIPUR,RAJASTHAN
SBBJ0010370,State Bank of Bikaner and Jaipur,SBBJ0010370,NON MICR,ROHAT,DISTT.  PALI - 306421,"BRANCH MANAGER,02932-268227",ROHAT,PALI,RAJASTHAN
SBBJ0010371,State Bank of Bikaner and Jaipur,SBBJ0010371,NON MICR,KHAMNAUR,"HALDI  GHATI,  DISTT.   RAJASAMAND - 313322","BRANCH MANAGER,02953-285123",KHAMNAUR,RAJSAMAND,RAJASTHAN
SBBJ0010372,State Bank of Bikaner and Jaipur,SBBJ0010372,110003027,GHAZIABAD,"NAVYUG  MARKET,  GHAZIABAD - 201001","BRANCH MANAGER,0120-2795456",GHAZIBAD,GHAZIABAD,UTTAR PRADESH
SBBJ0010373,State Bank of Bikaner and Jaipur,SBBJ0010373,NON MICR,LATHI,DISTT.  JAISALMER - 345031,"BRANCH MANAGER,02996-237406",LATHI,JAISALMER,RAJASTHAN
SBBJ0010374,State Bank of Bikaner and Jaipur,SBBJ0010374,342003013,"MANDORE ROAD,  JODHPUR","MANDORE ROAD,  JODHPUR - 342007","BRANCH MANAGER,0291-2634768",JODHPUR,JODHPUR,RAJASTHAN
SBBJ0010375,State Bank of Bikaner and Jaipur,SBBJ0010375,342003003,"BHAGAT KI KOTHI,  JODHPUR","BASANI  PHASE - I,  BHAGAT  KI  KOTHI,  JODHPUR - 342003","BRANCH MANAGER,0291-2634747",JODHPUR,JODHPUR,RAJASTHAN
SBBJ0010376,State Bank of Bikaner and Jaipur,SBBJ0010376,700003002,"BALLYGUNJ,  KOLKATA","208,  RASHBEHARI  AVENUE,  BALLYGUNJ,  KOLKATA - 700001","BRANCH MANAGER,033-24641068",KOLKATA,KOLKATA,WEST BENGAL
SBBJ0010377,State Bank of Bikaner and Jaipur,SBBJ0010377,NON MICR,KISHANGARH CITY,"OLD  KACHERY  ROAD,  KISHANGARH  CITY,  DISTT.   AJMER - 305802","BRANCH MANAGER,01463-246976",KISHANGARH CITY,AJMER,RAJASTHAN
SBBJ0010378,State Bank of Bikaner and Jaipur,SBBJ0010378,144003001,JALANDHAR CITY,"238/5,  ADDABASTI  ROAD,  JALANDHAR - 144001","BRANCH MANAGER,0181-2402968",JULLUNDUR,JALANDHAR,PUNJAB
SBBJ0010379,State Bank of Bikaner and Jaipur,SBBJ0010379,NON MICR,SRI BIJEYNAGAR ADB,DISTT.   SRIGANGANAGAR - 335704,"BRANCH MANAGER,014982-230003",SRI BIJEYNAGAR,GANGANAGAR,RAJASTHAN
SBBJ0010380,State Bank of Bikaner and Jaipur,SBBJ0010380,NON MICR,ANUPGARH ADB,DISTT.  SRIGANGANAGAR - 335701,"BRANCH MANAGER,01498-222038",ANUPGARH,GANGANAGAR,RAJASTHAN
SBBJ0010381,State Bank of Bikaner and Jaipur,SBBJ0010381,NON MICR,SURATGARH ADB,"NEAR  CIVIL  HOSPITAL,  SURATGARH,  DISTT.   SRIGANGANAGAR - 335804","BRANCH MANAGER,01509-220080",SURATGARH,GANGANAGAR,RAJASTHAN
SBBJ0010382,State Bank of Bikaner and Jaipur,SBBJ0010382,NON MICR,CHANDHAN,DISTT.  JAISALMER - 345029,"BRANCH MANAGER,02997-226009",CHANDHAN,JAISALMER,RAJASTHAN
SBBJ0010383,State Bank of Bikaner and Jaipur,SBBJ0010383,302003027,"GANDHINAGAR,  JAIPUR","GANDHINAGAR,  JAIPUR - 302015","BRANCH MANAGER,0141-2706484",JAIPUR,JAIPUR,RAJASTHAN
SBBJ0010384,State Bank of Bikaner and Jaipur,SBBJ0010384,221003384,BHADOHI,DISTT.  VARANASI (U P) - 221401,"BRANCH MANAGER,05414-226553",BHADOHI,VARANASI,UTTAR PRADESH
SBBJ0010385,State Bank of Bikaner and Jaipur,SBBJ0010385,457003002,RATLAM,"STATION  ROAD,  RATLAM - 457001","BRANCH MANAGER,07412-230433",RATLAM,RATLAM,MADHYA PRADESH
SBBJ0010386,State Bank of Bikaner and Jaipur,SBBJ0010386,NON MICR,"PURANI ABADI,  SRIGANGANAGAR",SRIGANGANAGAR - 335001,"BRANCH MANAGER,0154-2471023",SRI GANGANAGAR,GANGANAGAR,RAJASTHAN
SBBJ0010387,State Bank of Bikaner and Jaipur,SBBJ0010387,400003007,"MULUND WEST,  MUMBAI","MULUND  WEST,  MUMBAI - 400080","BRANCH MANAGER,022-55710559",MUMBAI,GREATER BOMBAY,MAHARASHTRA
SBBJ0010388,State Bank of Bikaner and Jaipur,SBBJ0010388,NON MICR,SOMESAR,DISTT.  PALI - 306503,"BRANCH MANAGER,02934-242022",SOMESAR,PALI,RAJASTHAN
SBBJ0010389,State Bank of Bikaner and Jaipur,SBBJ0010389,313003002,BADGAON,DISTT.  UDAIPUR - 313001,"BRANCH MANAGER,0294-2450734",BADGAON,UDAIPUR,RAJASTHAN
SBBJ0010390,State Bank of Bikaner and Jaipur,SBBJ0010390,110003008,"BARA KHAMBA ROAD,  NEW DELHI","27,  BARA  KHAMBA  ROAD,  NEW  DELHI - 110001","BRANCH MANAGER,011-23356814",NEW DELHI,NEW DELHI,DELHI
SBBJ0010391,State Bank of Bikaner and Jaipur,SBBJ0010391,NON MICR,SALASAR,DISTT.  CHURU - 331506,"BRANCH MANAGER,01568-252944",SALASAR,CHURU,RAJASTHAN
SBBJ0010392,State Bank of Bikaner and Jaipur,SBBJ0010392,NOT ALLOTED,"INTERNATIONAL BANKING DEPARTMENT, KOLKATA","20-B PARK STREET, 2ND FLOOR, KOLKATA-700016","033-22262850,3570/3471",KOLKATA,KOLKATA,WEST BENGAL
SBBJ0010393,State Bank of Bikaner and Jaipur,SBBJ0010393,NON MICR,"GOGAGATE,  BIKANER","G. S. ROAD,  BIKANER - 334001","BRANCH MANAGER,0151-2223049",BIKANER,BIKANER,RAJASTHAN
SBBJ0010394,State Bank of Bikaner and Jaipur,SBBJ0010394,NON MICR,UMEDABAD,DISTT.  JALORE - 343021,"BRANCH MANAGER,02973-266027",UMEDABAD,JALOR,RAJASTHAN
SBBJ0010395,State Bank of Bikaner and Jaipur,SBBJ0010395,NON MICR,"IND.AREA,  SRIGANGANAGAR",SRIGANGANAGAR - 335001,"BRANCH MANAGER,0154-2471794",SRI GANGANAGAR,GANGANAGAR,RAJASTHAN
SBBJ0010396,State Bank of Bikaner and Jaipur,SBBJ0010396,NON MICR,SINDRI,DISTT.  BARMER - 344033,"BRANCH MANAGER,02984-284423",SINDHARI,BARMER,RAJASTHAN
SBBJ0010397,State Bank of Bikaner and Jaipur,SBBJ0010397,NON MICR,PHALSOOND,"VIA -  POKHARAN,  DISTT.  JAISALMER - 345021","BRANCH MANAGER,02994-234204",PHALSOOND,JAISALMER,RAJASTHAN
SBBJ0010398,State Bank of Bikaner and Jaipur,SBBJ0010398,NON MICR,PILANI,"CEERI  CAMPUS,  PILANI,   DISTT.   JHUNJHUNU - 333031","BRANCH MANAGER,01596-242287",PILANI,JHUNJHUNU,RAJASTHAN
SBBJ0010399,State Bank of Bikaner and Jaipur,SBBJ0010399,NON MICR,GUDA MALANI,DISTT.  BARMER - 344031,"BRANCH MANAGER,02986-280026",GUDHA MALANI,BARMER,RAJASTHAN
SBBJ0010400,State Bank of Bikaner and Jaipur,SBBJ0010400,NON MICR,BASWA,DISTT.  DAUSA - 303327,"BRANCH MANAGER,01420-231308",BASWA,DAUSA,RAJASTHAN
SBBJ0010401,State Bank of Bikaner and Jaipur,SBBJ0010401,NON MICR,HIMATSAR,"TEHSIL  NOKHA,  DISTT.   BIKANER - 334802","BRANCH MANAGER,01531-266636",HIMATSAR,BIKANER,RAJASTHAN
SBBJ0010402,State Bank of Bikaner and Jaipur,SBBJ0010402,NON MICR,DUNGAR SINGHPURA,"P.O.  GANESHGARH,  DISTT.   SRIGANGANAGAR - 335025","BRANCH MANAGER,0154-2458027",DUNGAR SINGHPUR,GANGANAGAR,RAJASTHAN
SBBJ0010403,State Bank of Bikaner and Jaipur,SBBJ0010403,302003013,"INDIRA  BAZAR,  JAIPUR","INDIRA  BAZAR,   JAIPUR - 302001","BRANCH MANAGER,0141-2311800",JAIPUR,JAIPUR,RAJASTHAN
SBBJ0010404,State Bank of Bikaner and Jaipur,SBBJ0010404,NON MICR,SOJAT ROAD ADB,"MAIN  MARKET,  SOJAT  ROAD,  DISTT.   PALI - 306103","BRANCH MANAGER,02960-2230024",SOJAT,PALI,RAJASTHAN
SBBJ0010405,State Bank of Bikaner and Jaipur,SBBJ0010405,NON MICR,JASOL,DISTT.  BARMER - 344024,"BRANCH MANAGER,02988-240040",JASOL,BARMER,RAJASTHAN
SBBJ0010406,State Bank of Bikaner and Jaipur,SBBJ0010406,NON MICR,KOLIA,DISTT.  NAGAUR - 341305,"BRANCH MANAGER,01580-282022",KOLIA,NAGAUR,RAJASTHAN
SBBJ0010407,State Bank of Bikaner and Jaipur,SBBJ0010407,NON MICR,MOUNT ABU,DISTT.  SIROHI - 307501,"BRANCH MANAGER,02974-235224",MOUNT ABU,SIROHI,RAJASTHAN
SBBJ0010408,State Bank of Bikaner and Jaipur,SBBJ0010408,NON MICR,PUGAL,DISTT.  BIKANER,"BRANCH MANAGER,01523-266443",PUGAL,BIKANER,RAJASTHAN
SBBJ0010409,State Bank of Bikaner and Jaipur,SBBJ0010409,NON MICR,KHAJUWALA A.D.B.,"KHAJUWALA,  BERIYAWALI,  DISTT.   BIKANER - 334023","BRANCH MANAGER,01523-232234",KHAJUWALA,BIKANER,RAJASTHAN
SBBJ0010410,State Bank of Bikaner and Jaipur,SBBJ0010410,NON MICR,TINWARI,"STATION  ROAD,  TINWARI,  DISTT.   JODHPUR - 342306","BRANCH MANAGER,0291-268241",TINWARI,JODHPUR,RAJASTHAN
SBBJ0010411,State Bank of Bikaner and Jaipur,SBBJ0010411,NON MICR,BARODIA,"TEHSIL  BAGIDORA,  DISTT.   BANSWARA - 327604","BRANCH MANAGER,02968-240021",BARODIA,BANSWARA,RAJASTHAN
SBBJ0010412,State Bank of Bikaner and Jaipur,SBBJ0010412,151003412,BHATINDA,"OLD  SATTA  BAZAR,  BHATINDA,  PUNJAB - 151005","BRANCH MANAGER,0164-2238284",BHATINDA,BHATINDA,PUNJAB
SBBJ0010413,State Bank of Bikaner and Jaipur,SBBJ0010413,123003413,REWARI,"KATH  MANDI,  REWARI - 123401","BRANCH MANAGER,01274-255125",REWARI,REWARI,HARYANA
SBBJ0010414,State Bank of Bikaner and Jaipur,SBBJ0010414,NON MICR,KHARIGRAM,"P.O. - GULABPURA,  BHILWARA - 311021","BRANCH MANAGER,01483-230023",GULABPURA,BHILWARA,RAJASTHAN
SBBJ0010415,State Bank of Bikaner and Jaipur,SBBJ0010415,313003005,"MEWAR IND.AREA,  UDAIPUR ",UDAIPUR - 313001,"BRANCH MANAGER,0294-2493321",UDAIPUR,UDAIPUR,RAJASTHAN
SBBJ0010416,State Bank of Bikaner and Jaipur,SBBJ0010416,NON MICR,LUNKARANSAR  A.D.B.,"LUNKARANSAR,  DISTT.   BIKANER - 334603","BRANCH MANAGER,01528-222064",LUNKARANSAR,BIKANER,RAJASTHAN
SBBJ0010417,State Bank of Bikaner and Jaipur,SBBJ0010417,NON MICR,PIPALIA KALAN,DISTT.  PALI - 306307,"BRANCH MANAGER,02973-287231",PIPALIA KALAN,PALI,RAJASTHAN
SBBJ0010418,State Bank of Bikaner and Jaipur,SBBJ0010418,500003002,"R P ROAD,  SECUNDRABAD","8573,  RASHTRAPATI  ROAD,  SECUNDERABAD - 500003","BRANCH MANAGER,040-27542245",SECUNDERABAD,HYDERABAD URBAN,ANDHRA PRADESH
SBBJ0010419,State Bank of Bikaner and Jaipur,SBBJ0010419,600003003,"MYLAPORE,  CHENNAI","NO. 5,  R.K. MUTT  ROAD,  MYLAPORE,  CHENNAI - 600004","BRANCH MANAGER,044-24950936",CHENNAI,CHENNAI,TAMIL NADU
SBBJ0010420,State Bank of Bikaner and Jaipur,SBBJ0010420,NON MICR,GHARSANA ADB,DISTT.  SRIGANGANAGAR - 335707,"BRANCH MANAGER,01506-222093",GHARSANA,GANGANAGAR,RAJASTHAN
SBBJ0010421,State Bank of Bikaner and Jaipur,SBBJ0010421,NON MICR,UDASAR,DISTT.  BIKANER - 334022,"BRANCH MANAGER,0151-2752334",UDASAR,BIKANER,RAJASTHAN
SBBJ0010422,State Bank of Bikaner and Jaipur,SBBJ0010422,NON MICR,KHOH DARIBA,DISTT.  ALWAR - 301029,"BRANCH MANAGER,01464-245018",KHOH DARIBA,ALWAR,RAJASTHAN
SBBJ0010423,State Bank of Bikaner and Jaipur,SBBJ0010423,NON MICR,SAHWA,DISTT.  CHURU - 331302,"BRANCH MANAGER,01561-284230",SAHWA,CHURU,RAJASTHAN
SBBJ0010424,State Bank of Bikaner and Jaipur,SBBJ0010424,NON MICR,NARAULI,DISTT.  KARULI - 322203,"BRANCH MANAGER,07465-254416",NARAULI,KARAULI,RAJASTHAN
SBBJ0010425,State Bank of Bikaner and Jaipur,SBBJ0010425,NON MICR,GUDHA CHANDERJI,DISTT.  SAWAIMADHOPUR - 322213,"BRANCH MANAGER,07463-282365",GUDHA CHANDERJI,KARAULI,RAJASTHAN
SBBJ0010426,State Bank of Bikaner and Jaipur,SBBJ0010426,NON MICR,KELWARA,DISTT.  BARAN - 325216,"BRANCH MANAGER,07460-260122",KELWARA,BARAN,RAJASTHAN
SBBJ0010427,State Bank of Bikaner and Jaipur,SBBJ0010427,NON MICR,AKOLA,DISTT.  CHITTORGARH - 312205,"BRANCH MANAGER,-",AKOLA,CHITTORGARH,RAJASTHAN
SBBJ0010428,State Bank of Bikaner and Jaipur,SBBJ0010428,NON MICR,KHUNJA,DISTT.   HANUMANGARH - 335803,"BRANCH MANAGER,01552-260725",KHUNJA,HANUMANGARH,RAJASTHAN
SBBJ0010429,State Bank of Bikaner and Jaipur,SBBJ0010429,NON MICR,NACHNA,DISTT.  JAISALMER - 345028,"BRANCH MANAGER,02995-236003",NACHNA,JAISALMER,RAJASTHAN
SBBJ0010430,State Bank of Bikaner and Jaipur,SBBJ0010430,NON MICR,SAYARA,"TEHSIL - GOGUNDA,  DISTT.   UDAIPUR - 313704","BRANCH MANAGER,02956-225337",SAYARA,UDAIPUR,RAJASTHAN
SBBJ0010431,State Bank of Bikaner and Jaipur,SBBJ0010431,NON MICR,TALWARA  JHIL,"NEAR  RLY  STATION,  DISTT.   HANUMANGARH - 335525","BRANCH MANAGER,01539-282240",TALWARA  JHIL,HANUMANGARH,RAJASTHAN
SBBJ0010432,State Bank of Bikaner and Jaipur,SBBJ0010432,NON MICR,SANWARAJI MANDAPIYA,DISTT.  CHITTORGARH - 312024,"BRANCH MANAGER,01477-242625",SANWARAJI MANDAPIYA,CHITTORGARH,RAJASTHAN
SBBJ0010433,State Bank of Bikaner and Jaipur,SBBJ0010433,400003002,"BORIVILI (WEST),  MUMBAI ","GANJAWALA  APARTMENTS,   BORIVALI  WEST,  MUMBAI","BRANCH MANAGER,022-28934076",MUMBAI,GREATER BOMBAY,MAHARASHTRA
SBBJ0010434,State Bank of Bikaner and Jaipur,SBBJ0010434,560003002,"GANDHI NAGAR,  BANGALORE","122,  VI  CROSS,  GANDHI  NAGAR,  BANGALORE - 560009","BRANCH MANAGER,080-2265672",BANGALORE,BANGALORE URBAN,KARNATAKA
SBBJ0010435,State Bank of Bikaner and Jaipur,SBBJ0010435,NON MICR,MEHANDIPUR GHATA BALAJI,KARAULI - 321610,"BRANCH MANAGER,07461-230034",MEHANDIPUR,KARAULI,RAJASTHAN
SBBJ0010436,State Bank of Bikaner and Jaipur,SBBJ0010436,NON MICR,KHAIRABAD,DISTT.  KOTA - 325529,"BRANCH MANAGER,07459-220322",KHAIRABAD,KOTA,RAJASTHAN
SBBJ0010437,State Bank of Bikaner and Jaipur,SBBJ0010437,NON MICR,RAJPURA DARIBA,"P.O. - DARIBA,  DISTT.   RAJSAMAND - 313211","BRANCH MANAGER,02952-265125",RAJPURA DARIBA,RAJSAMAND,RAJASTHAN
SBBJ0010438,State Bank of Bikaner and Jaipur,SBBJ0010438,302003030,"KHATIPURA,  JAIPUR","SIRSI  ROAD,  NEAR  GOVT.POULTRY,  KHATIPURA,  JAIPUR - 302021","BRANCH MANAGER,0141-2350853",JAIPUR,JAIPUR,RAJASTHAN
SBBJ0010439,State Bank of Bikaner and Jaipur,SBBJ0010439,411003002,"LAXMI  ROAD,  PUNE","575,  SADASHIV  PATH,  LAXMI  ROAD,  PUNE - 411030","BRANCH MANAGER,0212-24454254",PUNA,PUNE,MAHARASHTRA
SBBJ0010440,State Bank of Bikaner and Jaipur,SBBJ0010440,NON MICR,SHEIKHSAR,"VIA -  MAHAJAN,  DISTT.  BIKANER","BRANCH MANAGER,01528-265050",SHEIKHSAR,BIKANER,RAJASTHAN
SBBJ0010441,State Bank of Bikaner and Jaipur,SBBJ0010441,NON MICR,DHORIMANA,DISTT.  BARMER - 344704,"BRANCH MANAGER,02986-264222",DHORIMANA,BARMER,RAJASTHAN
SBBJ0010442,State Bank of Bikaner and Jaipur,SBBJ0010442,NON MICR,BHABRANA,"TEHSIL - SALUMBER,  DISTT.   UDAIPUR - 313035","BRANCH MANAGER,02906-235626",BHABRANA,UDAIPUR,RAJASTHAN
SBBJ0010443,State Bank of Bikaner and Jaipur,SBBJ0010443,302003022,"PRITHVIRAJ ROAD,  JAIPUR  ","DURLAB  NIWAS,  P  R  ROAD,  JAIPUR - 302005","BRANCH MANAGER,0141-2373867",JAIPUR,JAIPUR,RAJASTHAN
SBBJ0010444,State Bank of Bikaner and Jaipur,SBBJ0010444,NON MICR,SAMRANIYA,"VIA -  KISHANGANJ,  DISTT.   BARAN - 325277","BRANCH MANAGER,07460-264244",SAMRANIYA,BARAN,RAJASTHAN
SBBJ0010445,State Bank of Bikaner and Jaipur,SBBJ0010445,NON MICR,PHALASIA,DISTT.  UDAIPUR - 313701,"BRANCH MANAGER,02907-285323",PHALASIA,UDAIPUR,RAJASTHAN
SBBJ0010446,State Bank of Bikaner and Jaipur,SBBJ0010446,313003007,"SAHAKARI BAZAR,  UDAIPUR","SHASTRI  CIRCLE,  SAHAKARI  BAZAR,  UDAIPUR (RAJASTHAN)","BRANCH MANAGER,0294-2411430",UDAIPUR,UDAIPUR,RAJASTHAN
SBBJ0010447,State Bank of Bikaner and Jaipur,SBBJ0010447,NON MICR,"DAUJI ROAD,  BIKANER","DAUJI  ROAD,  BIKANER - 334001","BRANCH MANAGER,0151-2223046",BIKANER,BIKANER,RAJASTHAN
SBBJ0010448,State Bank of Bikaner and Jaipur,SBBJ0010448,NON MICR,"GUMANPURA,  KOTA","GUMANPURA,  KOTA - 324007","BRANCH MANAGER,0744-2390588",KOTA,KOTA,RAJASTHAN
SBBJ0010449,State Bank of Bikaner and Jaipur,SBBJ0010449,682003002,ERNAKULAM,"PO  BOX  NO.1064, AWASTHI,  36/382(A),  CHITUR ROAD,  ERNAKULAM,   DISTT.   COCHIN - 682011","BRANCH MANAGER,0484-2361031",ERNAKULAM,ERNAKULAM,KERALA
SBBJ0010450,State Bank of Bikaner and Jaipur,SBBJ0010450,NON MICR,KUN,"VIA -  LASADIA,  KANORE,  DISTT.   UDAIPUR - 313604","BRANCH MANAGER,02957-264129",KUN,UDAIPUR,RAJASTHAN
SBBJ0010451,State Bank of Bikaner and Jaipur,SBBJ0010451,NON MICR,NOKH,DISTT.  JAISALMER - 342310,"BRANCH MANAGER,02994-232008",NOKH,JAISALMER,RAJASTHAN
SBBJ0010452,State Bank of Bikaner and Jaipur,SBBJ0010452,302003014,"GOPI NATH MARG,  JAIPUR","NEW  COLONY,  GOPI  NATH  MARG,  JAIPUR - 302001","BRANCH MANAGER,0141-2360554",JAIPUR,JAIPUR,RAJASTHAN
SBBJ0010453,State Bank of Bikaner and Jaipur,SBBJ0010453,NON MICR,UJJAIN,"18,  SHANKU  MARG,  FREEGANJ,  UJJAIN - 456001","BRANCH MANAGER,0734-2524215",UJJAIN,UJJAIN,MADHYA PRADESH
SBBJ0010454,State Bank of Bikaner and Jaipur,SBBJ0010454,462003002,BHOPAL,"47 / 143,  MALVIA  NAGAR  T.T. (SOUTH),  BHOPAL - 462003","BRANCH MANAGER,0755-2550400",BHOPAL,BHOPAL,MADHYA PRADESH
SBBJ0010455,State Bank of Bikaner and Jaipur,SBBJ0010455,110003014,"N. I. E. PHASE - II,  NEW DELHI","YC - 1,  LOHA  MANDI,  NEW  DELHI - 110028","BRANCH MANAGER,011-25702349",NEW DELHI,NEW DELHI,DELHI
SBBJ0010456,State Bank of Bikaner and Jaipur,SBBJ0010456,NON MICR,AKBARPUR,DISTT.  ALWAR - 301031,"BRANCH MANAGER,014485-28852",AKBARPUR,ALWAR,RAJASTHAN
SBBJ0010457,State Bank of Bikaner and Jaipur,SBBJ0010457,NON MICR,PARTAPGARH,DISTT.  ALWAR - 301027,"BRANCH MANAGER,01465-229022",PARTAPGARH ALWA,ALWAR,RAJASTHAN
SBBJ0010458,State Bank of Bikaner and Jaipur,SBBJ0010458,NON MICR,SANDWA,DISTT.  CHURU - 331517,"BRANCH MANAGER,01568-272251",SANDWA,CHURU,RAJASTHAN
SBBJ0010459,State Bank of Bikaner and Jaipur,SBBJ0010459,NON MICR,MISHROLI,"VIA -  PACHAPAHAR,  DISTT.  JHALAWAR - 326512","BRANCH MANAGER,07433-228082",MISHROLI,JHALAWAR,RAJASTHAN
SBBJ0010460,State Bank of Bikaner and Jaipur,SBBJ0010460,NON MICR,PATODI,"TEHSIL - PACHPADRA,  DISTT.  BARMER - 344037","BRANCH MANAGER,02988-254528",PATODI,BARMER,RAJASTHAN
SBBJ0010461,State Bank of Bikaner and Jaipur,SBBJ0010461,NON MICR,MOKALSAR,DISTT.  BARMER - 343043,"BRANCH MANAGER,02901-232250",MOKALSAR,BARMER,RAJASTHAN
SBBJ0010462,State Bank of Bikaner and Jaipur,SBBJ0010462,302003006,"KISHANPOLE BAZAR,  JAIPUR","KISHANPOLE  BAZAR,  JAIPUR - 302004","BRANCH MANAGER,0141-2320992",JAIPUR,JAIPUR,RAJASTHAN
SBBJ0010463,State Bank of Bikaner and Jaipur,SBBJ0010463,NON MICR,CHHABRA ADB,"CHHABRA  GUGAR,  DISTT.  BARAN - 325220","BRANCH MANAGER,07452-222229",CHHABRA GUGAR,BARAN,RAJASTHAN
SBBJ0010464,State Bank of Bikaner and Jaipur,SBBJ0010464,NON MICR,MANDHAN,DISTT.  ALWAR - 301704,"BRANCH MANAGER,01494-244023",MANDHAN,ALWAR,RAJASTHAN
SBBJ0010465,State Bank of Bikaner and Jaipur,SBBJ0010465,NON MICR,"IND.ESTATE,  BHIWADI","BHIWADI, DISTT.  ALWAR - 301019","BRANCH MANAGER,01493-222822",BHIWADI,ALWAR,RAJASTHAN
SBBJ0010466,State Bank of Bikaner and Jaipur,SBBJ0010466,110003012,"KAROL BAGH,  NEW DELHI ","10/89 - 92,  AJMAL  KHAN  ROAD,  KAROL BAGH,  NEW  DELHI - 110005","BRANCH MANAGER,011-25729962",NEW DELHI,NEW DELHI,DELHI
SBBJ0010467,State Bank of Bikaner and Jaipur,SBBJ0010467,NON MICR,GILUND,DISTT.   RAJSAMAND - 313027,"BRANCH MANAGER,02952-266221",GILUND,RAJSAMAND,RAJASTHAN
SBBJ0010468,State Bank of Bikaner and Jaipur,SBBJ0010468,NON MICR,SALAMGARH,DISTT.  CHITTOGARH - 312618,"BRANCH MANAGER,01479-253608",SALAMGARH,CHITTORGARH,RAJASTHAN
SBBJ0010469,State Bank of Bikaner and Jaipur,SBBJ0010469,NON MICR,NASARDA,"VIA -  DEOLI,  DISTT.   TONK - 304507","BRANCH MANAGER,01434-234516",NASARDA,TONK,RAJASTHAN
SBBJ0010470,State Bank of Bikaner and Jaipur,SBBJ0010470,NON MICR,PADROO,"TEHSIL - SIWANA,  DISTT.   BARMER - 344801","BRANCH MANAGER,-",PADROO,BARMER,RAJASTHAN
SBBJ0010471,State Bank of Bikaner and Jaipur,SBBJ0010471,NON MICR,HARNAWADA SHAHJI,DISTT.  BARAN - 325225,"BRANCH MANAGER,07431-233038",HARNAWADA SHAHJI,BARAN,RAJASTHAN
SBBJ0010472,State Bank of Bikaner and Jaipur,SBBJ0010472,700003007,"HOWRAH (SALKIA),  KOLKATA","SRI  ARABINDU  ROAD,  KOLKATA - 711101","BRANCH MANAGER,033-26659032",HOWRAH,KOLKATA,WEST BENGAL
SBBJ0010473,State Bank of Bikaner and Jaipur,SBBJ0010473,NON MICR,RATLAI,DISTT.  JHALAWAR - 326024,"BRANCH MANAGER,07432-246422",RATLAI,JHALAWAR,RAJASTHAN
SBBJ0010474,State Bank of Bikaner and Jaipur,SBBJ0010474,NON MICR,"KANJOLI LINES,  BHARATPUR","KANJOLI  LINES,  BHARATPUR - 321001","BRANCH MANAGER,05644-260472",BHARATPUR,BHARATPUR,RAJASTHAN
SBBJ0010475,State Bank of Bikaner and Jaipur,SBBJ0010475,828003475,TUNDOO,DISTT.  DHANBAD - 828128,"BRANCH MANAGER,0326-2722235",TUNDOO,DHANBAD,JHARKHAND
SBBJ0010476,State Bank of Bikaner and Jaipur,SBBJ0010476,NON MICR,"INDUSTRIAL ESTATE,  KOTA ","A - 31,  RAJASTHAN  PATRIKA  ROAD,  KOTA - 324007","BRANCH MANAGER,0744-2362274",KOTA,KOTA,RAJASTHAN
SBBJ0010477,State Bank of Bikaner and Jaipur,SBBJ0010477,302003019,"BAPU NAGAR,  JAIPUR","BHAWANI  SINGH  ROAD,  BAPU  NAGAR,  JAIPUR - 302004","BRANCH MANAGER,0141-2705009",JAIPUR,JAIPUR,RAJASTHAN
SBBJ0010478,State Bank of Bikaner and Jaipur,SBBJ0010478,474003001,GWALIOR,"HUJRAT ROAD,  NAYA BAZAR,  GWALIOR - 474009","BRANCH MANAGER,0751-2320636",GWALIOR,GWALIOR,MADHYA PRADESH
SBBJ0010479,State Bank of Bikaner and Jaipur,SBBJ0010479,NON MICR,DABOK   A.D.B.,DISTT.  UDAIPUR - 313022,"BRANCH MANAGER,0294-2655348",DABOK,UDAIPUR,RAJASTHAN
SBBJ0010480,State Bank of Bikaner and Jaipur,SBBJ0010480,NON MICR,THAMLA,"TEHSIL - MAVLI,  DISTT.   UDAIPUR - 313204","BRANCH MANAGER,02955-236126",THAMLA,UDAIPUR,RAJASTHAN
SBBJ0010481,State Bank of Bikaner and Jaipur,SBBJ0010481,NON MICR,PIPARCITY,DISTT.  JODHPUR - 342601,"BRANCH MANAGER,02930-233750",PIPARCITY,JODHPUR,RAJASTHAN
SBBJ0010482,State Bank of Bikaner and Jaipur,SBBJ0010482,NON MICR,"IND.ESTATE,  BALOTRA",DISTT.  BARMER - 344022,"BRANCH MANAGER,02988-220478",BALOTRA,BARMER,RAJASTHAN
SBBJ0010483,State Bank of Bikaner and Jaipur,SBBJ0010483,302003036,SANGANER,DISTT.  JAIPUR - 303902,"BRANCH MANAGER,0141-2730291",JAIPUR,JAIPUR,RAJASTHAN
SBBJ0010484,State Bank of Bikaner and Jaipur,SBBJ0010484,NON MICR,MAJHERA,DISTT.  RAJSAMAND - 313325,"BRANCH MANAGER,02954-242231",MAJHERA,RAJSAMAND,RAJASTHAN
SBBJ0010485,State Bank of Bikaner and Jaipur,SBBJ0010485,208003004,"TRANSPORT NAGAR,  KANPUR ","TRANSPORT  NAGAR,  KANPUR - 208023","BRANCH MANAGER,0512-2617330",KANPUR,KANPUR NAGAR,UTTAR PRADESH
SBBJ0010486,State Bank of Bikaner and Jaipur,SBBJ0010486,700003005,"SHYAM BAZAR, KOLKATA ","ACHARYA  PRAFULLA  CHANDER  RAI  ROAD,  SHYAM  BAZAR,  KOLKATA - 700004","BRANCH MANAGER,033-25559437",KOLKATA,KOLKATA,WEST BENGAL
SBBJ0010487,State Bank of Bikaner and Jaipur,SBBJ0010487,NON MICR,"SHASTRI NAGAR,  AJMER ","SHASTRI  NAGAR,  AJMER - 305001","BRANCH MANAGER,0145-2627975",AJMER,AJMER,RAJASTHAN
SBBJ0010488,State Bank of Bikaner and Jaipur,SBBJ0010488,NON MICR,RUNDERA,"TEHSIL - VALLABH  NAGAR,  DISTT.   UDAIPUR - 313602","BRANCH MANAGER,02957-244833",RUNDERA,UDAIPUR,RAJASTHAN
SBBJ0010489,State Bank of Bikaner and Jaipur,SBBJ0010489,NON MICR,NAHARGARH,DISTT.  BARAN - 325216,"BRANCH MANAGER,07456-281381",NAHARGARH,BARAN,RAJASTHAN
SBBJ0010490,State Bank of Bikaner and Jaipur,SBBJ0010490,NON MICR,PALAYATHA,DISTT.  BARAN - 325202,"BRANCH MANAGER,07457-244838",PALAYATHA,BARAN,RAJASTHAN
SBBJ0010491,State Bank of Bikaner and Jaipur,SBBJ0010491,NON MICR,RAMSAR,DISTT.  BARMER - 344502,"BRANCH MANAGER,02985-270122",RAMSAR,BARMER,RAJASTHAN
SBBJ0010492,State Bank of Bikaner and Jaipur,SBBJ0010492,NON MICR,KALYANPUR,DISTT.  BARMER - 344026,"BRANCH MANAGER,02980-255032",KALYANPUR,BARMER,RAJASTHAN
SBBJ0010493,State Bank of Bikaner and Jaipur,SBBJ0010493,NON MICR,MORAK,"ADITYA  NAGAR,  MORAK,  DISTT.  KOTA - 326517","BRANCH MANAGER,07459-232245",MORAK,KOTA,RAJASTHAN
SBBJ0010494,State Bank of Bikaner and Jaipur,SBBJ0010494,NON MICR,AJIT,DISTT.  BARMER - 344030,"BRANCH MANAGER,02900-274122",AJIT,BARMER,RAJASTHAN
SBBJ0010495,State Bank of Bikaner and Jaipur,SBBJ0010495,221003002,VARANASI,"BISHESHWARA  GANJ,  VARANASI - 221001","BRANCH MANAGER,0542-2330051",VARANASI,VARANASI,UTTAR PRADESH
SBBJ0010496,State Bank of Bikaner and Jaipur,SBBJ0010496,NON MICR,BAJJU,"TEHSIL - KOLAYAT,  DISTT.   BIKANER - 334405","BRANCH MANAGER,01535-233033",BAJJU,BIKANER,RAJASTHAN
SBBJ0010497,State Bank of Bikaner and Jaipur,SBBJ0010497,NON MICR,DAWER,"VIA -  DEOGARH  MADARIA,  DISTT.   RAJSAMAND","BRANCH MANAGER,02904-242226",DAWER,RAJSAMAND,RAJASTHAN
SBBJ0010498,State Bank of Bikaner and Jaipur,SBBJ0010498,NON MICR,PARSOLA,"VIA -  DHARIABAD,  DISTT.   UDAIPUR - 313611","BRANCH MANAGER,02950-255321",PARSOLA,UDAIPUR,RAJASTHAN
SBBJ0010499,State Bank of Bikaner and Jaipur,SBBJ0010499,NON MICR,PALANA  KHURD,"VIA -  MAVLI,  DISTT.   UDAIPUR - 313204","BRANCH MANAGER,0294-231159",PALANA KHURD,UDAIPUR,RAJASTHAN
SBBJ0010500,State Bank of Bikaner and Jaipur,SBBJ0010500,302003011,"SURAJPOLE,  JAIPUR","SURAJPOLE,  JAIPUR - 302003","BRANCH MANAGER,0141-2640821",JAIPUR,JAIPUR,RAJASTHAN
SBBJ0010501,State Bank of Bikaner and Jaipur,SBBJ0010501,800003003,"R BLOCK,  PATNA","CHANAKYA  PALACE,  PATNA - 800001","BRANCH MANAGER,0612-2223127",PATNA,PATNA,BIHAR
SBBJ0010502,State Bank of Bikaner and Jaipur,SBBJ0010502,110003007,"VIVEK VIHAR,  DELHI","D - 10,  D - BLOCK  SHOPPING  CENTRE,  VIVEK  VIHAR,  DELHI","BRANCH MANAGER,011-22151364",NEW DELHI,NEW DELHI,DELHI
SBBJ0010503,State Bank of Bikaner and Jaipur,SBBJ0010503,302003026,"MALVIYA NAGAR  IND. AREA,  JAIPUR ","MALVIYA  NAGAR,  JAIPUR - 302017","BRANCH MANAGER,0141-2750624",JAIPUR,JAIPUR,RAJASTHAN
SBBJ0010504,State Bank of Bikaner and Jaipur,SBBJ0010504,NON MICR,KHANDUP,DISTT.  BARMER - 344043,"BRANCH MANAGER,029-237102",KHANDUP,BARMER,RAJASTHAN
SBBJ0010505,State Bank of Bikaner and Jaipur,SBBJ0010505,NON MICR,PARLU,DISTT.  BARMER - 344027,"BRANCH MANAGER,02988-243241",PARLU,BARMER,RAJASTHAN
SBBJ0010506,State Bank of Bikaner and Jaipur,SBBJ0010506,226003002,LUCKNOW,"C - 1,  SECTOR  F,  ALIGANJ  KAPUR THALA  BAGH,  LUCKNOW - 226020","BRANCH MANAGER,0522-2332470",LUCKNOW,LUCKNOW,UTTAR PRADESH
SBBJ0010507,State Bank of Bikaner and Jaipur,SBBJ0010507,NON MICR,INTALI KHERA,DISTT.  UDAIPUR - 313026,"BRANCH MANAGER,-",INTALI KHERA,UDAIPUR,RAJASTHAN
SBBJ0010508,State Bank of Bikaner and Jaipur,SBBJ0010508,NON MICR,LAKHARWAS,DISTT.  UDAIPUR - 313012,"BRANCH MANAGER,0294-2348028",LAKHARWAS,UDAIPUR,RAJASTHAN
SBBJ0010509,State Bank of Bikaner and Jaipur,SBBJ0010509,NON MICR,MENAR,DISTT.  UDAIPUR - 313602,"BRANCH MANAGER,02957-227263",MENAR,UDAIPUR,RAJASTHAN
SBBJ0010510,State Bank of Bikaner and Jaipur,SBBJ0010510,302003005,"TILAK MARG,  JAIPUR ","TILAK  MARG,  C - SCHEME,  JAIPUR - 302005","BRANCH MANAGER,0141-5101564",JAIPUR,JAIPUR,RAJASTHAN
SBBJ0010511,State Bank of Bikaner and Jaipur,SBBJ0010511,NON MICR,LAKHAWALI,DISTT.  UDAIPUR - 313011,"BRANCH MANAGER,0294-2441174",LAKHAWALI,UDAIPUR,RAJASTHAN
SBBJ0010512,State Bank of Bikaner and Jaipur,SBBJ0010512,NON MICR,PANCHOO,"TEHSIL - NOKHA,  DISTT.   BIKANER - 334404","BRANCH MANAGER,01532-255571",PANCHOO,BIKANER,RAJASTHAN
SBBJ0010513,State Bank of Bikaner and Jaipur,SBBJ0010513,NON MICR,NAYAGAON,"VIA -  KHERWARA,  DISTT.   UDAIPUR - 313803","BRANCH MANAGER,02907-242323",NAYAGAON,UDAIPUR,RAJASTHAN
SBBJ0010514,State Bank of Bikaner and Jaipur,SBBJ0010514,NON MICR,TAPRA,"TEHSIL  PACHPADRA,  DISTT.   BARMER - 344022","BRANCH MANAGER,02988-251203",TAPRA,BARMER,RAJASTHAN
SBBJ0010515,State Bank of Bikaner and Jaipur,SBBJ0010515,NON MICR,DABRI,DISTT.  HANUMANGARH - 335503,"BRANCH MANAGER,01504-281047",DABRI,HANUMANGARH,RAJASTHAN
SBBJ0010516,State Bank of Bikaner and Jaipur,SBBJ0010516,NON MICR,"IND. AREA,  BIKANER","INDUSTRIAL  AREA,  BIKANER - 334001","BRANCH MANAGER,0151-2223059",BIKANER,BIKANER,RAJASTHAN
SBBJ0010517,State Bank of Bikaner and Jaipur,SBBJ0010517,211003002,ALLAHABAD,"85,  MIRGANJ  CHOWK,  ALLAHABAD - 211003","BRANCH MANAGER,0532-2652854",ALLAHABAD,ALLAHABAD,UTTAR PRADESH
SBBJ0010518,State Bank of Bikaner and Jaipur,SBBJ0010518,390003002,"KARELI  BAGH,  BARODA","1,  SHIVSHAKTI  CO - OP.  HOUSING  SOCIETY  LTD.,  JALARAM  MANDIR MARG,  BARODA - 390018","BRANCH MANAGER,0265-2461662",BARODA,VADODARA,GUJARAT
SBBJ0010519,State Bank of Bikaner and Jaipur,SBBJ0010519,NON MICR,JHAJHU,"TEHSIL  KOLAYAT,  DISTT.   BIKANER - 334304","BRANCH MANAGER,01534-277026",JHAJHU,BIKANER,RAJASTHAN
SBBJ0010520,State Bank of Bikaner and Jaipur,SBBJ0010520,NON MICR,ABU ROAD,DISTT.   SIROHI - 307026,"BRANCH MANAGER,02974-225666",ABU ROAD,SIROHI,RAJASTHAN
SBBJ0010521,State Bank of Bikaner and Jaipur,SBBJ0010521,NON MICR,NAURANGDESAR,DISTT.   HANUMANGARH - 335524,"BRANCH MANAGER,01552-281322",NAURANGDESAR,HANUMANGARH,RAJASTHAN
SBBJ0010522,State Bank of Bikaner and Jaipur,SBBJ0010522,NON MICR,RAMGARH UJJALWAS,"TEHSIL  NOHAR,  DISTT.   HANUMANGARH - 335527","BRANCH MANAGER,01555-240322",RAMGARH UJJALWAS,HANUMANGARH,RAJASTHAN
SBBJ0010523,State Bank of Bikaner and Jaipur,SBBJ0010523,NON MICR,RAMGARH,DISTT.   JAISALMER - 345022,"BRANCH MANAGER,02991-270005",RAMGARH JSLMER,JAISALMER,RAJASTHAN
SBBJ0010524,State Bank of Bikaner and Jaipur,SBBJ0010524,NON MICR,MIRJAWALI  MER,"TEHSIL  TIBBI,  DISTT.   HANUMANGARH - 335524","BRANCH MANAGER,01539-286315",MIRJAWALI  MER,HANUMANGARH,RAJASTHAN
SBBJ0010525,State Bank of Bikaner and Jaipur,SBBJ0010525,311003004,"BILIYA IND. AREA,  BHILWARA","BILIYA,  BHILWARA - 311001","BRANCH MANAGER,01482-260112",BHILWARA,BHILWARA,RAJASTHAN
SBBJ0010526,State Bank of Bikaner and Jaipur,SBBJ0010526,411003003,"PARVATI AREA,  PUNE","SHREE  GAJLAXMI  SOCIETY  S.NO. 82 / 2-A,  SAHKAR  NAGAR,   PUNE - 411009","BRANCH MANAGER,0212-24224158",PUNA,PUNE,MAHARASHTRA
SBBJ0010527,State Bank of Bikaner and Jaipur,SBBJ0010527,NON MICR,BUNDI  BY-PASS ROAD,"KRISHI  UPAJ  MANDI  SAMITI  BUILDING,  BUNDI - 323001","BRANCH MANAGER,0747-2443698",BUNDI,BUNDI,RAJASTHAN
SBBJ0010528,State Bank of Bikaner and Jaipur,SBBJ0010528,NON MICR,"KUM,  NAGAUR","KRISHI  UPAJ  MANDI,  NAGAUR - 341001","BRANCH MANAGER,01582-240423",NAGAUR,NAGAUR,RAJASTHAN
SBBJ0010529,State Bank of Bikaner and Jaipur,SBBJ0010529,NON MICR,"INDRA COLONY,  SAWAIMADHOPUR","INDRA  COLONY,  SAWAIMADHOPUR - 322001","BRANCH MANAGER,07462-220536",SAWAI MADHOPUR,SAWAI MADHOPUR,RAJASTHAN
SBBJ0010530,State Bank of Bikaner and Jaipur,SBBJ0010530,NON MICR,AGOOCHA,DISTT.  BHILWARA - 311029,"BRANCH MANAGER,01483-225519",AGOOCHA,BHILWARA,RAJASTHAN
SBBJ0010531,State Bank of Bikaner and Jaipur,SBBJ0010531,NON MICR,KAWAS,DISTT.  BARMER - 344035,"BRANCH MANAGER,02982-248326",KAWAS,BARMER,RAJASTHAN
SBBJ0010532,State Bank of Bikaner and Jaipur,SBBJ0010532,306003005,"IND AREA,  PALI","INDUSTRIAL  AREA  1ST  PHASE  ,  PALI - 306401","BRANCH MANAGER,02932-280755",PALI,PALI,RAJASTHAN
SBBJ0010533,State Bank of Bikaner and Jaipur,SBBJ0010533,NON MICR,BALI JASSA KHERA,"TEHSIL  BHIM,  DISTT.   RAJSAMAND - 305928","BRANCH MANAGER,02951-283204",BALI JASSA KHERA,RAJSAMAND,RAJASTHAN
SBBJ0010534,State Bank of Bikaner and Jaipur,SBBJ0010534,NON MICR,"IND.AREA,  SIKAR",SIKAR - 321001,"BRANCH MANAGER,01572-245052",SIKAR,SIKAR,RAJASTHAN
SBBJ0010535,State Bank of Bikaner and Jaipur,SBBJ0010535,NON MICR,JAWAD,"TEHSIL  SARODA,  DISTT.   UDAIPUR - 313703","BRANCH MANAGER,02905-267239",JAWAD,UDAIPUR,RAJASTHAN
SBBJ0010536,State Bank of Bikaner and Jaipur,SBBJ0010536,NON MICR,KHOH,"VIA -  RONIJATHAN,  DISTT.   ALWAR - 301035","BRANCH MANAGER,014923-235225",KHOH,ALWAR,RAJASTHAN
SBBJ0010537,State Bank of Bikaner and Jaipur,SBBJ0010537,753003002,CUTTACK,"BAJRAKABATI  ROAD,  CUTTUCK - 753001","BRANCH MANAGER,0671-2415545",CUTTACK,CUTTAK,ORISSA
SBBJ0010538,State Bank of Bikaner and Jaipur,SBBJ0010538,NON MICR,GULABEWALA,"VIA -  KESRISINGHPUR,  DISTT.   SRIGANGANAGAR - 335027","BRANCH MANAGER,01501-286396",GULABEWALA,GANGANAGAR,RAJASTHAN
SBBJ0010539,State Bank of Bikaner and Jaipur,SBBJ0010539,700003006,"VIVEKANAND ROAD,  KOLKATA","206/1/F,  VIDHAN  SARANI,  KOLKATA - 700006","BRANCH MANAGER,033-22413353",KOLKATA,KOLKATA,WEST BENGAL
SBBJ0010540,State Bank of Bikaner and Jaipur,SBBJ0010540,NON MICR,ASOTRA,"VIA -  BALOTRA,  DISTT.   BARMER - 344039","BRANCH MANAGER,02988-272205",ASOTRA,BARMER,RAJASTHAN
SBBJ0010541,State Bank of Bikaner and Jaipur,SBBJ0010541,NON MICR,"P-BLOCK,  SRIGANGANAGAR","P  BLOCK,  SRIGANGANAGAR - 335001","BRANCH MANAGER,0154-2472184",SRI GANGANAGAR,GANGANAGAR,RAJASTHAN
SBBJ0010542,State Bank of Bikaner and Jaipur,SBBJ0010542,342003006,"KHANDA FALSA,  JODHPUR","KHANDA  FALSA,  JODHPUR. - 342001","BRANCH MANAGER,0291-2634761",JODHPUR,JODHPUR,RAJASTHAN
SBBJ0010543,State Bank of Bikaner and Jaipur,SBBJ0010543,NON MICR,SANWAD,DISTT.  UDAIPUR - 313206,"BRANCH MANAGER,02955-220037",SANWAD,UDAIPUR,RAJASTHAN
SBBJ0010544,State Bank of Bikaner and Jaipur,SBBJ0010544,208003005,"RATAN LAL NAGAR,  KANPUR","HIG - 153,  RATAN  LAL  NAGAR,  KANPUR - 208022","BRANCH MANAGER,0512-2281009",KANPUR,KANPUR NAGAR,UTTAR PRADESH
SBBJ0010545,State Bank of Bikaner and Jaipur,SBBJ0010545,341003126,"KUM,  MERTACITY",DISTT.  NAGAUR - 341510,"BRANCH MANAGER,01590-220090",MERTA CITY,NAGAUR,RAJASTHAN
SBBJ0010546,State Bank of Bikaner and Jaipur,SBBJ0010546,NON MICR,BISHANGARH,"NEAR  RAILWAY  STATION,  BISHANGARH,  DISTT.   JALORE - 343046","BRANCH MANAGER,02973-246139",BISHANGARH,JALOR,RAJASTHAN
SBBJ0010547,State Bank of Bikaner and Jaipur,SBBJ0010547,306003004,"KRISHI UPAJ MANDI,  PALI","MANDIA  ROAD,  PALI - 306401","BRANCH MANAGER,02932-222419",PALI,PALI,RAJASTHAN
SBBJ0010552,State Bank of Bikaner and Jaipur,SBBJ0010552,302003029,"INTERNATIONAL BANKING BRANCH,  JAIPUR","SMS  HIGHWAY,  CHAURA  RASTA,  JAIPUR - 302003","BRANCH MANAGER,0141-2324130",JAIPUR,JAIPUR,RAJASTHAN
SBBJ0010553,State Bank of Bikaner and Jaipur,SBBJ0010553,110003010,"JANAKPURI,  NEW DELHI","C - 14,  C  BLOCK,  COMMUNITY  CENTRE,  NEW  DELHI - 110058","BRANCH MANAGER,011-25613614",NEW DELHI,NEW DELHI,DELHI
SBBJ0010554,State Bank of Bikaner and Jaipur,SBBJ0010554,110003016,"PASCHIM VIHAR,  NEW DELHI","JWALAHEDI  MARKET,  NEW  DELHI - 110063","BRANCH MANAGER,011-25258512",NEW DELHI,NEW DELHI,DELHI
SBBJ0010555,State Bank of Bikaner and Jaipur,SBBJ0010555,NON MICR,"INDUSTRIAL ESTATE,  SADULPUR","SADULPUR,  DISTT.  CHURU - 331023","BRANCH MANAGER,01559-222085","INDUSTRIAL ESTATE,  SADULPUR",CHURU,RAJASTHAN
SBBJ0010556,State Bank of Bikaner and Jaipur,SBBJ0010556,NON MICR,"R.C.P. COLONY,  BIKANER","R.C.P.  COLONY,  BIKANER - 334002","BRANCH MANAGER,0151-2223088",BIKANER,BIKANER,RAJASTHAN
SBBJ0010557,State Bank of Bikaner and Jaipur,SBBJ0010557,NON MICR,"COLLECTORATE,  BHARATPUR  ","TREASURY  BUILDING,  BHARATPUR - 321001","BRANCH MANAGER,05644-222502",BHARATPUR,BHARATPUR,RAJASTHAN
SBBJ0010558,State Bank of Bikaner and Jaipur,SBBJ0010558,NON MICR,"M.I.A,  ALWAR","MATSAY  INDUSTRIAL  AREA,  ALWAR - 301001","BRANCH MANAGER,0144-2881419",ALWAR,ALWAR,RAJASTHAN
SBBJ0010559,State Bank of Bikaner and Jaipur,SBBJ0010559,302003028,"JAWAHAR NAGAR,  JAIPUR","4 - BH - 12,  JAWAHAR  NAGAR  JAIPUR - 302004","BRANCH MANAGER,0141-2652488",JAIPUR,JAIPUR,RAJASTHAN
SBBJ0010560,State Bank of Bikaner and Jaipur,SBBJ0010560,NON MICR,BHINDER,"TEHSIL  VALLABHNAGAR,  DISTT.   UDAIPUR - 313603","BRANCH MANAGER,02957-221118",BHINDER,UDAIPUR,RAJASTHAN
SBBJ0010561,State Bank of Bikaner and Jaipur,SBBJ0010561,400003010,"GHATKOPER,  MUMBAI ","GARODIA  NAGAR  (EAST),   GHATKOPER,   MUMBAI","BRANCH MANAGER,022-25063366",MUMBAI,GREATER BOMBAY,MAHARASHTRA
SBBJ0010562,State Bank of Bikaner and Jaipur,SBBJ0010562,NON MICR,"IND. AREA ,  KUDALYA","RAMGANJ  MANDI,  DISTT.  KOTA - 326519","BRANCH MANAGER,07459-220226","IND. AREA ,  KUDALYA",KOTA,RAJASTHAN
SBBJ0010563,State Bank of Bikaner and Jaipur,SBBJ0010563,NON MICR,SALADIPURA,"VIA -  KHANDELA,  DISTT.   SIKAR - 332709","BRANCH MANAGER,01575-260027",SALADIPURA,SIKAR,RAJASTHAN
SBBJ0010564,State Bank of Bikaner and Jaipur,SBBJ0010564,NON MICR,"SALODA IND. AREA,  GANGAPURCITY","P.O.  GANGAPUR  CITY,  SAWAIMADHOPUR - 322201","BRANCH MANAGER,07462-232194",GANGAPUR CITY,SAWAI MADHOPUR,RAJASTHAN
SBBJ0010565,State Bank of Bikaner and Jaipur,SBBJ0010565,NON MICR,"COLLECTORATE,  SRIGANGANAGAR",SRIGANGANAGAR - 335001,"BRANCH MANAGER,0154-2445330",SRI GANGANAGAR,GANGANAGAR,RAJASTHAN
SBBJ0010566,State Bank of Bikaner and Jaipur,SBBJ0010566,NON MICR,GHARSANA NEW MANDI,DISTT.   SRIGANGANGAR - 335707,"BRANCH MANAGER,01506-220042",GHARSANA,GANGANAGAR,RAJASTHAN
SBBJ0010567,State Bank of Bikaner and Jaipur,SBBJ0010567,247003567,SAHARANPUR,"2/655,  COURT  ROAD,  BHAGAT SINGH MARG,  SAHARANPUR - 247001","BRANCH MANAGER,0132-2646213",SAHARANPUR,SAHARANPUR,UTTAR PRADESH
SBBJ0010568,State Bank of Bikaner and Jaipur,SBBJ0010568,110003011,"KIRTI NAGAR,  NEW DELHI","N - 103,  KIRTI  NAGAR,  NEW  DELHI - 110015","BRANCH MANAGER,011-25414804",NEW DELHI,NEW DELHI,DELHI
SBBJ0010569,State Bank of Bikaner and Jaipur,SBBJ0010569,133003569,AMBALA CANTT.,"SANJAY  GANDHI  MARG,  SADAR  BAZAR,  AMBALA - 133001","BRANCH MANAGER,0171-2630297",AMBALA,AMBALA,HARYANA
SBBJ0010570,State Bank of Bikaner and Jaipur,SBBJ0010570,NON MICR,KALIAN,"DISTT.  SRIGANGANAGAR,  RAJASTHAN","BRANCH MANAGER,0154-2440782",KALIAN,GANGANAGAR,RAJASTHAN
SBBJ0010571,State Bank of Bikaner and Jaipur,SBBJ0010571,NON MICR,TIHARI,"TIHARI,  SRINAGAR,  DISTT.   AJMER - 305025","BRANCH MANAGER,01491-289210",TIHARI,AJMER,RAJASTHAN
SBBJ0010572,State Bank of Bikaner and Jaipur,SBBJ0010572,NON MICR,BHUKARKA,DISTT.  HANUMANGARH - 335523,"BRANCH MANAGER,01555-220269",BHUKARKA,HANUMANGARH,RAJASTHAN
SBBJ0010573,State Bank of Bikaner and Jaipur,SBBJ0010573,NON MICR,KAKRA,DISTT.  BIKANER - 334802,"BRANCH MANAGER,01531-266626",KAKRA,BIKANER,RAJASTHAN
SBBJ0010574,State Bank of Bikaner and Jaipur,SBBJ0010574,NON MICR,GADIYALA,DISTT.  BIKANER - 334303,"BRANCH MANAGER,01534-244022",GADIYALA,BIKANER,RAJASTHAN
SBBJ0010575,State Bank of Bikaner and Jaipur,SBBJ0010575,NON MICR,GIRRAJSAR,DISTT.  BIKANER - 334302,"BRANCH MANAGER,01534-254112",GIRRAJSAR,BIKANER,RAJASTHAN
SBBJ0010576,State Bank of Bikaner and Jaipur,SBBJ0010576,NON MICR,DHASOOK,"VIA -  ARAI,  DISTT.   AJMER,  RAJASTHAN","BRANCH MANAGER,01463-286228",DHASOOK,AJMER,RAJASTHAN
SBBJ0010577,State Bank of Bikaner and Jaipur,SBBJ0010577,NON MICR,LIKHMISAR,DISTT.  HANUMANGARH - 335803,"BRANCH MANAGER,01508-244171",LIKHMISAR,HANUMANGARH,RAJASTHAN
SBBJ0010578,State Bank of Bikaner and Jaipur,SBBJ0010578,NON MICR,JAITPUR,DISTT.  BIKANER - 334604,"BRANCH MANAGER,01528-266066",JAITPUR,BIKANER,RAJASTHAN
SBBJ0010579,State Bank of Bikaner and Jaipur,SBBJ0010579,110003017,"SAFDARJUNG ENCLAVE,  NEW DELHI","A - 1/19,  SAFDARJUNG  ENCLAVE,  NEW  DELHI - 110029","BRANCH MANAGER,011-26100374",NEW DELHI,NEW DELHI,DELHI
SBBJ0010580,State Bank of Bikaner and Jaipur,SBBJ0010580,110003018,"SAKET,  NEW DELHI ","16,  COMMUNITY  CENTRE,  SAKET,  NEW,  DELHI - 110017","BRANCH MANAGER,011-26537080",NEW DELHI,NEW DELHI,DELHI
SBBJ0010581,State Bank of Bikaner and Jaipur,SBBJ0010581,NON MICR,KHAMERA,DISTT.  BANSWARA - 327027,"BRANCH MANAGER,02961-235154",KHAMERA,BANSWARA,RAJASTHAN
SBBJ0010582,State Bank of Bikaner and Jaipur,SBBJ0010582,NON MICR,BHUNGRA,DISTT.  BANSWARA - 327001,"BRANCH MANAGER,02962-238108",BHUNGRA,BANSWARA,RAJASTHAN
SBBJ0010583,State Bank of Bikaner and Jaipur,SBBJ0010583,NON MICR,DIYATRA,DISTT.  BIKANER - 334303,"BRANCH MANAGER,01534-222019",DIYATRA,BIKANER,RAJASTHAN
SBBJ0010584,State Bank of Bikaner and Jaipur,SBBJ0010584,NON MICR,KAKKU,"DISTT.   BIKANER,  RAJASTHAN","BRANCH MANAGER,01532-253020",KAKKU,BIKANER,RAJASTHAN
SBBJ0010585,State Bank of Bikaner and Jaipur,SBBJ0010585,313003002,"BADA BAZAR,  UDAIPUR ","BADA  BAZAR,  UDAIPUR - 313001","BRANCH MANAGER,0294-2422772",UDAIPUR,UDAIPUR,RAJASTHAN
SBBJ0010586,State Bank of Bikaner and Jaipur,SBBJ0010586,NON MICR,BHUDOL,"POST - GAGWANA,  DISTT.   AJMER - 305006","BRANCH MANAGER,0145-2787448",BHUDOL,AJMER,RAJASTHAN
SBBJ0010587,State Bank of Bikaner and Jaipur,SBBJ0010587,302003024,"GOPAL BARI,  JAIPUR","AJMER  ROAD,  JAIPUR - 302001","BRANCH MANAGER,0141-2373154",JAIPUR,JAIPUR,RAJASTHAN
SBBJ0010588,State Bank of Bikaner and Jaipur,SBBJ0010588,NON MICR,"DIGGI  CHOWK,  AJMER","DIGGI  CHOWK,  AJMER - 305001","BRANCH MANAGER,0145-2425018",AJMER,AJMER,RAJASTHAN
SBBJ0010589,State Bank of Bikaner and Jaipur,SBBJ0010589,306003002,"COLLECTORATE,  PALI  ","COLLECTORATE,  PALI - 306401","BRANCH MANAGER,02932-220580",PALI,PALI,RAJASTHAN
SBBJ0010590,State Bank of Bikaner and Jaipur,SBBJ0010590,NON MICR,"K.U.M.,  BIKANER",BIKANER - 334001,"BRANCH MANAGER,0151-2223077",BIKANER,BIKANER,RAJASTHAN
SBBJ0010591,State Bank of Bikaner and Jaipur,SBBJ0010591,NON MICR,"JAWAHAR NAGAR,  SRIGANGANAGAR","JAWAHAR  NAGAR,  SRIGANGANGAR - 335001","BRANCH MANAGER,0154-2460221",SRI GANGANAGAR,GANGANAGAR,RAJASTHAN
SBBJ0010592,State Bank of Bikaner and Jaipur,SBBJ0010592,313003006,"PRATAPNAGAR,  UDAIPUR","PRATAPNAGAR,  UDAIPUR - 313001","BRANCH MANAGER,0294-2493324",UDAIPUR,UDAIPUR,RAJASTHAN
SBBJ0010593,State Bank of Bikaner and Jaipur,SBBJ0010593,110003031,SONEPAT,"RAILWAY  ROAD,  SONEPAT - 131001","BRANCH MANAGER,01264-224117",SONEPAT,SONIPAT,HARYANA
SBBJ0010594,State Bank of Bikaner and Jaipur,SBBJ0010594,302003016,"RAM NAGAR,  JAIPUR ","A - 45,  RAM NAGAR,  MAYUR  COMPLEX,   JAIPUR - 302016","BRANCH MANAGER,0141-2306442",JAIPUR,JAIPUR,RAJASTHAN
SBBJ0010595,State Bank of Bikaner and Jaipur,SBBJ0010595,302003025,"BURMESE COLONY,  JAIPUR ","BURMESE  COLONY,  JAIPUR - 302004","BRANCH MANAGER,0141-2618429",JAIPUR,JAIPUR,RAJASTHAN
SBBJ0010596,State Bank of Bikaner and Jaipur,SBBJ0010596,141003002,"DANDI SWAMI CHOWK,  LUDHIANA","801/7,  LOOMBA  STREET,  LUDHIANA - 141001","BRANCH MANAGER,0161-2425281",LUDHIANA,LUDHIANA,PUNJAB
SBBJ0010597,State Bank of Bikaner and Jaipur,SBBJ0010597,NON MICR,"HOUSING BOARD,  BIKANER","NAGANECHIC  ROAD,  BIKANER - 334001","BRANCH MANAGER,0151-2223056",BIKANER,BIKANER,RAJASTHAN
SBBJ0010598,State Bank of Bikaner and Jaipur,SBBJ0010598,313003003,"HIRAN MAGRI,  UDAIPUR","SECTOR - 11,  HIRAN  MAGRI,  UDAIPUR - 313001","BRANCH MANAGER,0294-2583249",UDAIPUR,UDAIPUR,RAJASTHAN
SBBJ0010599,State Bank of Bikaner and Jaipur,SBBJ0010599,NON MICR,"KUM,  BARMER",BARMER - 344001,"BRANCH MANAGER,02982-220637",BARMER,BARMER,RAJASTHAN
SBBJ0010600,State Bank of Bikaner and Jaipur,SBBJ0010600,NON MICR,"COLLECTORATE,  CHURU",CHURU - 331001,"BRANCH MANAGER,01562-250283",CHURU,CHURU,RAJASTHAN
SBBJ0010601,State Bank of Bikaner and Jaipur,SBBJ0010601,NON MICR,CHANDERWARA,DISTT.  BANSWARA - 327001,"BRANCH MANAGER,02962-232876",CHANDERWARA,BANSWARA,RAJASTHAN
SBBJ0010602,State Bank of Bikaner and Jaipur,SBBJ0010602,NON MICR,PUSHKAR,DISTT.  AJMER - 305022,"BRANCH MANAGER,0145-2772006",PUSHKAR,AJMER,RAJASTHAN
SBBJ0010603,State Bank of Bikaner and Jaipur,SBBJ0010603,132003603,PANIPAT,"OPPOSITE  HYDERABADI  HOSPITAL,  SONALI  ROAD,  PANIPAT - 132103","BRANCH MANAGER,01742-266476",PANIPAT,PANIPAT,HARYANA
SBBJ0010604,State Bank of Bikaner and Jaipur,SBBJ0010604,700003008,"PARK STREET,  KOLKATA","57,  PARK  MANSION,  PART STREET,  KOLAKTA - 700016","BRANCH MANAGER,033-22493310",KOLKATA,KOLKATA,WEST BENGAL
SBBJ0010605,State Bank of Bikaner and Jaipur,SBBJ0010605,NON MICR,"MAHI BAJAJ SAGAR COMPLEX,  BANSWARA","MAHI  BAJAJ  SAGAR  COMPLEX,  BANSWARA - 327001","BRANCH MANAGER,02962-242509",BANSWARA,BANSWARA,RAJASTHAN
SBBJ0010606,State Bank of Bikaner and Jaipur,SBBJ0010606,NON MICR,SOORPURA,"TEHSIL  NOKHA,  DISTT.  BIKANER - 334801","BRANCH MANAGER,01531-288814",SOORPURA,BIKANER,RAJASTHAN
SBBJ0010607,State Bank of Bikaner and Jaipur,SBBJ0010607,400003013,"MALAD  (WEST),  MUMBAI ","MALAD  WEST,  MUMBAI - 400064","BRANCH MANAGER,022-28839127",MUMBAI,GREATER BOMBAY,MAHARASHTRA
SBBJ0010608,State Bank of Bikaner and Jaipur,SBBJ0010608,NON MICR,JANGLOO,DISTT.  BIKANER - 334803,"BRANCH MANAGER,01532-233544",JANGLOO,BIKANER,RAJASTHAN
SBBJ0010609,State Bank of Bikaner and Jaipur,SBBJ0010609,NON MICR,BHAMATSAR,DISTT.  BIKANER - 334801,"BRANCH MANAGER,01531-243095",BHAMATSAR,BIKANER,RAJASTHAN
SBBJ0010610,State Bank of Bikaner and Jaipur,SBBJ0010610,NON MICR,GODU,DISTT.  BIKANER - 334302,"BRANCH MANAGER,01534-228026",GODU,BIKANER,RAJASTHAN
SBBJ0010611,State Bank of Bikaner and Jaipur,SBBJ0010611,NON MICR,BITHNOKE,"TEHSIL  KOLAYAT,  DISTT.   BIKANER - 334302","BRANCH MANAGER,01534-222206",BITHNOKE,BIKANER,RAJASTHAN
SBBJ0010612,State Bank of Bikaner and Jaipur,SBBJ0010612,NON MICR,KHOKHARANA,"DISTT.  BIKANER,  RAJASTHAN","BRANCH MANAGER,01528-268282",KHOKHARANA,BIKANER,RAJASTHAN
SBBJ0010614,State Bank of Bikaner and Jaipur,SBBJ0010614,NON MICR,MALKISAR,DISTT.  BIKANER - 334604,"BRANCH MANAGER,01526-267108",MALKISAR,BIKANER,RAJASTHAN
SBBJ0010615,State Bank of Bikaner and Jaipur,SBBJ0010615,NON MICR,VASSI,DISTT.  DUNGARPUR - 314036,"BRANCH MANAGER,02964-263227",VASSI,DUNGARPUR,RAJASTHAN
SBBJ0010616,State Bank of Bikaner and Jaipur,SBBJ0010616,560003003,"BHARTI NAGAR,  BANGALORE","BHARTI  NAGAR,  BANGALORE - 560042","BRANCH MANAGER,080-25364705",BANGALORE,BANGALORE URBAN,KARNATAKA
SBBJ0010617,State Bank of Bikaner and Jaipur,SBBJ0010617,NON MICR,DHARNOKE,"VIA -  PANCHOO,  DISTT.  BIKANER (RAJASTHAN)","BRANCH MANAGER,-",DHARNOKE,BIKANER,RAJASTHAN
SBBJ0010618,State Bank of Bikaner and Jaipur,SBBJ0010618,NON MICR,DHINGSARI,DISTT.  BIKANER - 334804,"BRANCH MANAGER,01532-255110",DHINGSARI,BIKANER,RAJASTHAN
SBBJ0010619,State Bank of Bikaner and Jaipur,SBBJ0010619,NON MICR,KASNAU,"VIA -  KUCHERA,  DISTT.  NAGAUR - 341024","BRANCH MANAGER,01585-261012",KASNAU,NAGAUR,RAJASTHAN
SBBJ0010620,State Bank of Bikaner and Jaipur,SBBJ0010620,NON MICR,BIRLOKA,"TEHSIL  MUNDWA,  DISTT.   NAGAUR - 341025","BRANCH MANAGER,02962-276214",BIRLOKA,NAGAUR,RAJASTHAN
SBBJ0010621,State Bank of Bikaner and Jaipur,SBBJ0010621,NON MICR,GANODA,DISTT.   BANSWARA - 327021,"BRANCH MANAGER,01590-251172",GANODA,BANSWARA,RAJASTHAN
SBBJ0010622,State Bank of Bikaner and Jaipur,SBBJ0010622,NON MICR,ROHINI,DISTT.  NAGAUR - 341003,"BRANCH MANAGER,0512-2243516",ROHINI,NAGAUR,RAJASTHAN
SBBJ0010623,State Bank of Bikaner and Jaipur,SBBJ0010623,208003006,"GEETA NAGAR,  KANPUR","117/405,  O  BLOCK,  KANPUR - 208024","BRANCH MANAGER,011-28111885",KANPUR,KANPUR NAGAR,UTTAR PRADESH
SBBJ0010624,State Bank of Bikaner and Jaipur,SBBJ0010624,110003019,"NANGAL RAYA,  NEW DELHI","304,  JAIL  ROAD,  NAGAL  RAYA,   NEW  DELHI - 110046","BRANCH MANAGER,040-23310205",NEW DELHI,NEW DELHI,DELHI
SBBJ0010625,State Bank of Bikaner and Jaipur,SBBJ0010625,500003004,"SOMAJI GUDA,  HYDERABAD","P.O.BOX NO. 1501,  SOMAJI  GODA,  HYDERABAD - 500482","BRANCH MANAGER,080-25360290",HYDERABAD,HYDERABAD URBAN,ANDHRA PRADESH
SBBJ0010626,State Bank of Bikaner and Jaipur,SBBJ0010626,560003004,"SIWANCHETY GARDEN,  BANGALORE ","SIWAN  CHETTY  GARDEN,  BANGALORE - 560042","BRANCH MANAGER,0261-2321959",BANGALORE,BANGALORE URBAN,KARNATAKA
SBBJ0010627,State Bank of Bikaner and Jaipur,SBBJ0010627,395003002,SURAT,"AMBAJI  MARKET,  KAMELA  DARVAJA,  RING  ROAD,  SURAT - 395002","BRANCH MANAGER,022-28798144",SURAT,SURAT,GUJARAT
SBBJ0010628,State Bank of Bikaner and Jaipur,SBBJ0010628,400003011,"GOREGAON,  MUMBAI ","BANGUR  NAGAR  WEST, GOREGAON,  MUMBAI - 400090","BRANCH MANAGER,022-25616025",MUMBAI,GREATER BOMBAY,MAHARASHTRA
SBBJ0010629,State Bank of Bikaner and Jaipur,SBBJ0010629,208003007,"BASANT VIHAR,  KANPUR ","29,  BASANT  VIHAR,  KANPUR - 208021","BRANCH MANAGER,0512-2633612",KANPUR,KANPUR NAGAR,UTTAR PRADESH
SBBJ0010630,State Bank of Bikaner and Jaipur,SBBJ0010630,110003020,"AMAR COLONY,  NEW  DELHI","LAJPAT  NAGAR,  194,  RAMESH  MKT.  GARHI,  NEW  DELHI - 110065","BRANCH MANAGER,011-26441190",NEW DELHI,NEW DELHI,DELHI
SBBJ0010631,State Bank of Bikaner and Jaipur,SBBJ0010631,400003012,"ANDHERI (WEST),  MUMBAI","4,  LOKHANDWALA  COMPLEX,  ANDHERI  WEST,  MUMBAI - 400078","BRANCH MANAGER,022-26365411",MUMBAI,GREATER BOMBAY,MAHARASHTRA
SBBJ0010632,State Bank of Bikaner and Jaipur,SBBJ0010632,NON MICR,NANGAL BERSI,DISTT.   DAUSA - 303307,"BRANCH MANAGER,01427-272205",NANGAL BERSI,DAUSA,RAJASTHAN
SBBJ0010633,State Bank of Bikaner and Jaipur,SBBJ0010633,NON MICR,MANGLOD,DISTT.  NAGAUR - 341027,"BRANCH MANAGER,01582-266037",MANGLOD,NAGAUR,RAJASTHAN
SBBJ0010634,State Bank of Bikaner and Jaipur,SBBJ0010634,NON MICR,BHER,DISTT.  NAGAUR - 341001,"BRANCH MANAGER,01585-265845",BHER,NAGAUR,RAJASTHAN
SBBJ0010635,State Bank of Bikaner and Jaipur,SBBJ0010635,NON MICR,BHAKROD,DISTT.   NAGAUR - 341001,"BRANCH MANAGER,01585-261012",BHAKROD,NAGAUR,RAJASTHAN
SBBJ0010636,State Bank of Bikaner and Jaipur,SBBJ0010636,NON MICR,CHOMP,DISTT.  JAIPUR - 303805,"BRANCH MANAGER,01423-234523",CHOMP,JAIPUR,RAJASTHAN
SBBJ0010637,State Bank of Bikaner and Jaipur,SBBJ0010637,NON MICR,KHAKHARKI,DISTT.  NAGAUR - 341510,"BRANCH MANAGER,01591-210659",KHAKHARKI,NAGAUR,RAJASTHAN
SBBJ0010638,State Bank of Bikaner and Jaipur,SBBJ0010638,700003009,"AZAD HIND BAGH,  KOLKATA","ABHOY  GUHA  ROAD,  DEYS  MARKET,  KOLKATA - 700006","BRANCH MANAGER,033-25546701",KOLKATA,KOLKATA,WEST BENGAL
SBBJ0010639,State Bank of Bikaner and Jaipur,SBBJ0010639,NON MICR,CHHAREDA,DISTT.  DAUSA - 303505,"BRANCH MANAGER,01427-286629",CHHAREDA,DAUSA,RAJASTHAN
SBBJ0010640,State Bank of Bikaner and Jaipur,SBBJ0010640,NON MICR,RAISAR,DISTT.  JAIPUR - 303109,"BRANCH MANAGER,01426-262539",RAISAR,JAIPUR,RAJASTHAN
SBBJ0010641,State Bank of Bikaner and Jaipur,SBBJ0010641,700003010,"BHAWANIPUR,  KOLKATA","1,  ALLENBY  ROAD,  NORTHEN  PARK,  KOLKATA - 700020","BRANCH MANAGER,033-24759249",KOLKATA,KOLKATA,WEST BENGAL
SBBJ0010642,State Bank of Bikaner and Jaipur,SBBJ0010642,500003003,"SHIVAJI NAGAR,  SECUNDERABAD","SHIVAJI  NAGAR,  SECUNDERABAD - 500003","BRANCH MANAGER,040-27702842",SECUNDERABAD,HYDERABAD URBAN,ANDHRA PRADESH
SBBJ0010649,State Bank of Bikaner and Jaipur,SBBJ0010649,NON MICR,CHOKHA,DISTT.   JODHPUR - 342008,"BRANCH MANAGER,0291-2827222",CHOKHA,JODHPUR,RAJASTHAN
SBBJ0010651,State Bank of Bikaner and Jaipur,SBBJ0010651,NON MICR,RAMDEORA,DISTT.  JAISALMER - 345023,"BRANCH MANAGER,02996-235002",RAMDEORA,JAISALMER,RAJASTHAN
SBBJ0010652,State Bank of Bikaner and Jaipur,SBBJ0010652,NON MICR,KHERLI,DISTT.  CHITTORGARH - 323303,"BRANCH MANAGER,01475-242326",KHERLI,CHITTORGARH,RAJASTHAN
SBBJ0010653,State Bank of Bikaner and Jaipur,SBBJ0010653,NON MICR,KASLI,DISTT.  SIKAR - 232039,"BRANCH MANAGER,01572-234068",KASLI,SIKAR,RAJASTHAN
SBBJ0010654,State Bank of Bikaner and Jaipur,SBBJ0010654,NON MICR,PUNRASAR,DISTT.  CHURU - 331803,"BRANCH MANAGER,01565-274654",PUNRASAR,CHURU,RAJASTHAN
SBBJ0010655,State Bank of Bikaner and Jaipur,SBBJ0010655,248003002,DEHRADUN,"40,  SHAHARANPUR  ROAD,  DEHRADUN - 248001","BRANCH MANAGER,0135-9412650056",DEHRADUN,DEHRADUN,UTTARAKHAND
SBBJ0010656,State Bank of Bikaner and Jaipur,SBBJ0010656,842003656,MUZAFFARPUR,"AKHARA  GHAT  ROAD,  MUZAFFARPUR - 842001","BRANCH MANAGER,0621-2214765",MUZAFFARPUR,MUZAFFARPUR,BIHAR
SBBJ0010657,State Bank of Bikaner and Jaipur,SBBJ0010657,NON MICR,BARETHA,DISTT.  DHOLPUR - 328024,"BRANCH MANAGER,9414027193",BARETHA,DHOLPUR,RAJASTHAN
SBBJ0010658,State Bank of Bikaner and Jaipur,SBBJ0010658,823003658,GAYA,"45,  SAWRAJ  PURI,  NEAR  BHRATSEVA,  GAYA - 781001","BRANCH MANAGER,0631-2420665",GAYA,GAYA,BIHAR
SBBJ0010659,State Bank of Bikaner and Jaipur,SBBJ0010659,400003014,"ANDHERI  (EAST),  MUMBAI ","BILQUEES  APARTMENT,  572  MAHAKALI  CAVE  ROAD,   MUMBAI - 400093","BRANCH MANAGER,022-28366873",MUMBAI,GREATER BOMBAY,MAHARASHTRA
SBBJ0010661,State Bank of Bikaner and Jaipur,SBBJ0010661,NON MICR,DHAKRA,"VIA -  BALOTRA,  DISTT.   BARMER - 344022","BRANCH MANAGER,02988-271222",DHAKRA,BARMER,RAJASTHAN
SBBJ0010662,State Bank of Bikaner and Jaipur,SBBJ0010662,800003004,PATNA CITY  (MARUFGANJ),"MARUFGANJ,  PATNA - 800008","BRANCH MANAGER,0612-2617808",PATNA,PATNA,BIHAR
SBBJ0010664,State Bank of Bikaner and Jaipur,SBBJ0010664,NON MICR,BAJOLI,"VIA -  DEGANA,  DISTT.  NAGAUR - 341501","BRANCH MANAGER,01589-277223",BAJOLI,NAGAUR,RAJASTHAN
SBBJ0010665,State Bank of Bikaner and Jaipur,SBBJ0010665,NON MICR,SALORE,"VIA -  NATHDWARA,  DISTT.   RAJSAMAND - 313301","BRANCH MANAGER,02953-281226",SALORE,RAJSAMAND,RAJASTHAN
SBBJ0010666,State Bank of Bikaner and Jaipur,SBBJ0010666,110003021,"NEHRU PLACE,  NEW DELHI ","71 - 72,  LAXMI  BHAWAN,  NEW  DELHI - 110019","BRANCH MANAGER,011-26440921",NEW DELHI,NEW DELHI,DELHI
SBBJ0010667,State Bank of Bikaner and Jaipur,SBBJ0010667,NON MICR,SANTRUK,DISTT.   BHARATPUR - 321025,"BRANCH MANAGER,05644-237246",SANTRUK,BHARATPUR,RAJASTHAN
SBBJ0010668,State Bank of Bikaner and Jaipur,SBBJ0010668,110003022,"VASANT KUNJ,  NEW DELHI  ","CSC  SEC - D,  POCKET - II,  VASANT  KUNJ,  NEW  DELHI - 110070","BRANCH MANAGER,011-26893214",DELHI,NEW DELHI,DELHI
SBBJ0010669,State Bank of Bikaner and Jaipur,SBBJ0010669,NON MICR,BICHHOCHH,DISTT.  SAWAIMADHOPUR - 322214,"BRANCH MANAGER,07467-267609",BICHHOCHH,SAWAI MADHOPUR,RAJASTHAN
SBBJ0010670,State Bank of Bikaner and Jaipur,SBBJ0010670,NON MICR,DANTIL,"TEHSIL  KOTPUTLI,  DISTT.   JAIPUR","BRANCH MANAGER,01421-285128",DANTIL,JAIPUR,RAJASTHAN
SBBJ0010671,State Bank of Bikaner and Jaipur,SBBJ0010671,NON MICR,KESHWANA,DISTT.   JALORE - 343001,"BRANCH MANAGER,02973-265911",KESHWANA,JALOR,RAJASTHAN
SBBJ0010672,State Bank of Bikaner and Jaipur,SBBJ0010672,NON MICR,BHOONIA,DISTT.   BARMER - 344704,"BRANCH MANAGER,02989-289125",BHOONIA,BARMER,RAJASTHAN
SBBJ0010673,State Bank of Bikaner and Jaipur,SBBJ0010673,NON MICR,SARDAR  NAGAR,"TEHSIL  BANERA,  DISTT.   BHILWARA - 311401","BRANCH MANAGER,01487-272048",SARDAR  NAGAR,BHILWARA,RAJASTHAN
SBBJ0010674,State Bank of Bikaner and Jaipur,SBBJ0010674,NON MICR,NAHARANWALI,"VIA -  RAMSINGHPUR,  DISTT.  SRIGANGANAGAR - 335703","BRANCH MANAGER,014981-282606",NAHARANWALI,GANGANAGAR,RAJASTHAN
SBBJ0010675,State Bank of Bikaner and Jaipur,SBBJ0010675,834003002,RANCHI,"P.P.  COMPOUND,  GURDAYAL  SINGH  SALUJA  HOUSE,  RANCHI - 834001","BRANCH MANAGER,0651-2210813",RANCHI,RANCHI,JHARKHAND
SBBJ0010676,State Bank of Bikaner and Jaipur,SBBJ0010676,NON MICR,AMLI,"TEHSIL  GANGAPUR,  BHILWARA - 311405","BRANCH MANAGER,01481-228077",AMLI,BHILWARA,RAJASTHAN
SBBJ0010677,State Bank of Bikaner and Jaipur,SBBJ0010677,700003011,"SALT LAKE,  KOLKATA","FE - 233,  SECTOR - 3,  BIDHAN  NAGAR,  SALT  LAKE,  KOLKATA - 700091","BRANCH MANAGER,033-23348379",KOLKATA,KOLKATA,WEST BENGAL
SBBJ0010678,State Bank of Bikaner and Jaipur,SBBJ0010678,NON MICR,KED,DISTT.   JHUNJHUNU - 333012,"BRANCH MANAGER,01594-262063",KED,JHUNJHUNU,RAJASTHAN
SBBJ0010679,State Bank of Bikaner and Jaipur,SBBJ0010679,NON MICR,PALLU,"VIA -  RAWATSAR,  DISTT.  HANUMANGARH - 335524","BRANCH MANAGER,01502-220142",PALLU,HANUMANGARH,RAJASTHAN
SBBJ0010681,State Bank of Bikaner and Jaipur,SBBJ0010681,NON MICR,MANAKLAO,DISTT.   JODHPUR - 342305,"BRANCH MANAGER,0291-2238474",MANAKLAO,JODHPUR,RAJASTHAN
SBBJ0010682,State Bank of Bikaner and Jaipur,SBBJ0010682,NON MICR,RAMA,"VIA -  AHORE,  DISTT.   JALORE - 307029","BRANCH MANAGER,02978-238439",RAMA,JALOR,RAJASTHAN
SBBJ0010684,State Bank of Bikaner and Jaipur,SBBJ0010684,NON MICR,SONU,DISTT.   JAISALMER (RAJASTHAN),"BRANCH MANAGER,",SONU,JAISALMER,RAJASTHAN
SBBJ0010685,State Bank of Bikaner and Jaipur,SBBJ0010685,NON MICR,KADERA,DISTT.   JAIPUR - 303901,"BRANCH MANAGER,01429-268737",KADERA,JAIPUR,RAJASTHAN
SBBJ0010686,State Bank of Bikaner and Jaipur,SBBJ0010686,NON MICR,SIYANA,"TEHSIL - AMET,  DISTT.   RAJSAMAND - 313327","BRANCH MANAGER,02908-255490",SIYANA,RAJSAMAND,RAJASTHAN
SBBJ0010687,State Bank of Bikaner and Jaipur,SBBJ0010687,NON MICR,MACHIND,"VIA -   NATHDWARA,  DISTT.   RAJSAMAND - 313321","BRANCH MANAGER,02952-283409",MACHIND,RAJSAMAND,RAJASTHAN
SBBJ0010688,State Bank of Bikaner and Jaipur,SBBJ0010688,NON MICR,RULYANI,"VIA -   SIHOTBARI,  DISTT.   SIKAR - 332028","BRANCH MANAGER,01570-262313",RULYANI,SIKAR,RAJASTHAN
SBBJ0010689,State Bank of Bikaner and Jaipur,SBBJ0010689,NON MICR,KHERDEOLA,DISTT.  CHITTORGARH - 312404,"BRANCH MANAGER,01473-264713",KHERDEOLA,CHITTORGARH,RAJASTHAN
SBBJ0010690,State Bank of Bikaner and Jaipur,SBBJ0010690,NON MICR,BEMALI,DISTT.   BHILWARA - 311809,"BRANCH MANAGER,01486-262474",BEMALI,BHILWARA,RAJASTHAN
SBBJ0010691,State Bank of Bikaner and Jaipur,SBBJ0010691,NON MICR,RAHOLI,DISTT.   TONK - 304021,"BRANCH MANAGER,01438-227122",RAHOLI,TONK,RAJASTHAN
SBBJ0010692,State Bank of Bikaner and Jaipur,SBBJ0010692,NON MICR,SALWAN KALAN,DISTT.   JODHPUR - 342027,"BRANCH MANAGER,0291-2273005",SALWAN KALAN,JODHPUR,RAJASTHAN
SBBJ0010693,State Bank of Bikaner and Jaipur,SBBJ0010693,NON MICR,BIRANI,"BIRANI  KHURD,  DISTT.  JODHPUR - 342603","BRANCH MANAGER,02920-275469",BIRANI,JODHPUR,RAJASTHAN
SBBJ0010694,State Bank of Bikaner and Jaipur,SBBJ0010694,NON MICR,JHIRI,"TEHSIL  THANAGAJI,  DISTT.   ALWAR - 301027","BRANCH MANAGER,01465-229055",JHIRI,ALWAR,RAJASTHAN
SBBJ0010695,State Bank of Bikaner and Jaipur,SBBJ0010695,NON MICR,BHANPURA,"TEHSIL  GOGUNDA,  DISTT.   UDAIPUR - 313704","BRANCH MANAGER,02956-262234",BHANPURA,UDAIPUR,RAJASTHAN
SBBJ0010696,State Bank of Bikaner and Jaipur,SBBJ0010696,NON MICR,SURPAGLA,DISTT.   SIROHI - 307026,"BRANCH MANAGER,02974-224055",SURPAGLA,SIROHI,RAJASTHAN
SBBJ0010697,State Bank of Bikaner and Jaipur,SBBJ0010697,NON MICR,KAN  SINGH  KI  SEER,DISTT.   JODHPUR - 342301,"BRANCH MANAGER,",KAN  SINGH  KI  SEER,JODHPUR,RAJASTHAN
SBBJ0010698,State Bank of Bikaner and Jaipur,SBBJ0010698,NON MICR,GARHI SUKHA,DISTT.   DHOLPUR - 328021,"BRANCH MANAGER,9214759150",GARHI SUKHA,DHOLPUR,RAJASTHAN
SBBJ0010699,State Bank of Bikaner and Jaipur,SBBJ0010699,NON MICR,KOTRI,"VIA -  CHHABRA  GUGAR,  DISTT.   BARAN,  RAJASTHAN","BRANCH MANAGER,",KOTRI,BARAN,RAJASTHAN
SBBJ0010700,State Bank of Bikaner and Jaipur,SBBJ0010700,NON MICR,BHATAWALI,DISTT.   BHARATPUR - 321602,"BRANCH MANAGER,05644-244368",BHATAWALI,BHARATPUR,RAJASTHAN
SBBJ0010701,State Bank of Bikaner and Jaipur,SBBJ0010701,NON MICR,BHOOKA BHAGAT SINGH,DISTT.   BARMER  (RAJASTHAN),"BRANCH MANAGER,02984-235265",BHOOKA BHAGAT SINGH,BARMER,RAJASTHAN
SBBJ0010702,State Bank of Bikaner and Jaipur,SBBJ0010702,NON MICR,VAYAD,"VIA -  ROHAT, DISTT.   PALI,  RAJASTHAN","BRANCH MANAGER,02936-256608",VAYAD,PALI,RAJASTHAN
SBBJ0010704,State Bank of Bikaner and Jaipur,SBBJ0010704,NON MICR,SERWA,DISTT.   BARMER - 344706,"BRANCH MANAGER,02989-24621",SERWA,BARMER,RAJASTHAN
SBBJ0010705,State Bank of Bikaner and Jaipur,SBBJ0010705,NON MICR,BAMRALA,"DISTT.  BARMER,  RAJASTHAN","BRANCH MANAGER,02903-268435",BAMRALA,BARMER,RAJASTHAN
SBBJ0010706,State Bank of Bikaner and Jaipur,SBBJ0010706,NON MICR,HAMIRA,DISTT.   JAISALMER - 345001,"BRANCH MANAGER,02992-240060",HAMIRA,JAISALMER,RAJASTHAN
SBBJ0010707,State Bank of Bikaner and Jaipur,SBBJ0010707,NON MICR,MADASAR,"VIA -   NOKHA,  DISTT.   JAISALMER - 342310","BRANCH MANAGER,03017-232502",MADASAR,JAISALMER,RAJASTHAN
SBBJ0010708,State Bank of Bikaner and Jaipur,SBBJ0010708,NON MICR,GORKHANA.,DISTT.  HANUMANGARH - 335523,"BRANCH MANAGER,01555-283001",GORKHANA.,HANUMANGARH,RAJASTHAN
SBBJ0010709,State Bank of Bikaner and Jaipur,SBBJ0010709,NON MICR,KURLA,DISTT.   BARMER - 344001,"BRANCH MANAGER,02982-246355",KURLA,BARMER,RAJASTHAN
SBBJ0010713,State Bank of Bikaner and Jaipur,SBBJ0010713,NON MICR,PANCHALA,"VIA -  SANCHORE,  DISTT.   JALORE,  RAJASTHAN","BRANCH MANAGER,02979-225186",PANCHALA,JALOR,RAJASTHAN
SBBJ0010715,State Bank of Bikaner and Jaipur,SBBJ0010715,NON MICR,BICHAWADI,"VIA -  SANCHORE,  DISTT.   JALORE,  RAJASTHAN","BRANCH MANAGER,02979-233127",BICHAWADI,JALOR,RAJASTHAN
SBBJ0010716,State Bank of Bikaner and Jaipur,SBBJ0010716,530003001,VISHAKHAPATNAM,"PANDURANGPURAM,  PLOT  NO - 44,  VISHAKHAPATNAM - 530003","BRANCH MANAGER,0891-2562971",VISAKHAPATNAM,VISHAKAPATNAM,ANDHRA PRADESH
SBBJ0010717,State Bank of Bikaner and Jaipur,SBBJ0010717,400003015,"COMMERCIAL NETWORK BRANCH,  MUMBAI","239,  PD  MELLO  ROAD,  OPP  GPO,  FORT,  MUMBAI - 400001","BRANCH MANAGER,022-22625023",MUMBAI,GREATER BOMBAY,MAHARASHTRA
SBBJ0010718,State Bank of Bikaner and Jaipur,SBBJ0010718,302003033,"VIDHAN  SABHA,  JAIPUR ","VIDHAN  SABHA,  JAIPUR - 302002","BRANCH MANAGER,0141-2743932",JAIPUR,JAIPUR,RAJASTHAN
SBBJ0010719,State Bank of Bikaner and Jaipur,SBBJ0010719,NON MICR,"NAKA MADAR,  AJMER ","NAKA  MADAR,  AJMER - 305001","BRANCH MANAGER,0145-2670158",AJMER,AJMER,RAJASTHAN
SBBJ0010720,State Bank of Bikaner and Jaipur,SBBJ0010720,NON MICR,"UDHYOG VIHAR,  SRIGANGANAGAR ","UDHYOG  VIHAR,  SRIGANGANAGAR - 335001","BRANCH MANAGER,01509-2494406",SRI GANGANAGAR,GANGANAGAR,RAJASTHAN
SBBJ0010721,State Bank of Bikaner and Jaipur,SBBJ0010721,302003031,"MURLIPURA,  JAIPUR ","MURLIPURA,  JAIPUR - 302012","BRANCH MANAGER,0141-2331005",JAIPUR,JAIPUR,RAJASTHAN
SBBJ0010722,State Bank of Bikaner and Jaipur,SBBJ0010722,NON MICR,BADI,DISTT.   UDAIPUR - 313025,"BRANCH MANAGER,0294-2453503",BADI,UDAIPUR,RAJASTHAN
SBBJ0010723,State Bank of Bikaner and Jaipur,SBBJ0010723,700003012,KOLKATA ANGUS  CHAMPADANI,"P.O.  BAIDYABATI,  94  G.T.  ROAD,  KOLKATA - 712202",033-26322320,KOLKATA,KOLKATA,WEST BENGAL
SBBJ0010724,State Bank of Bikaner and Jaipur,SBBJ0010724,NON MICR,SHANKHWALI,DISTT.   JALORE - 307029,"BRANCH MANAGER,02978-255671",SHANKHWALI,JALOR,RAJASTHAN
SBBJ0010725,State Bank of Bikaner and Jaipur,SBBJ0010725,NON MICR,KHARA,DISTT.   BIKANER - 334601,"BRANCH MANAGER,01522-260104",KHARA,BIKANER,RAJASTHAN
SBBJ0010726,State Bank of Bikaner and Jaipur,SBBJ0010726,313003004,"HIRAN MAGRI,  UDAIPUR  ","SECTOR - 4,  PLOT  NO.  6,  MAIN  ROAD,  HIRAN  MAGRI,  UDAIPUR - 313002","BRANCH MANAGER,0294-2461836",UDAIPUR,UDAIPUR,RAJASTHAN
SBBJ0010727,State Bank of Bikaner and Jaipur,SBBJ0010727,220003003,"VIKAS NAGAR,  LUCKNOW","VIKAS  NAGAR,  LUCKNOW - 226001","BRANCH MANAGER,0522-2769495",LUCKNOW,LUCKNOW,UTTAR PRADESH
SBBJ0010728,State Bank of Bikaner and Jaipur,SBBJ0010728,NON MICR,"MAHAVIR NAGAR,  KOTA ","MAHAVIR  NAGAR,  KOTA - 324005","BRANCH MANAGER,0744-2429120",KOTAH,KOTA,RAJASTHAN
SBBJ0010729,State Bank of Bikaner and Jaipur,SBBJ0010729,NON MICR,"COLLECTRATE,  BARMER ","COLLECTRATE,  BARMER - 344001","BRANCH MANAGER,02982-220725",BARMER,BARMER,RAJASTHAN
SBBJ0010730,State Bank of Bikaner and Jaipur,SBBJ0010730,NON MICR,PUTHOLI,"HINDUSTAN  ZINC  LTD.  COMPLEX,  DISTT.  CHITTORGARH - 312021","BRANCH MANAGER,01472-255447",PUTHOLI,CHITTORGARH,RAJASTHAN
SBBJ0010731,State Bank of Bikaner and Jaipur,SBBJ0010731,400003016,"OVERSEAS BARNCH,  MUMBAI ","240 - 242,  NIRMAL  BUILDING,  NARIMAN  POINT,  MUMBAI - 400021","BRANCH MANAGER,022-22810295",MUMBAI,GREATER BOMBAY,MAHARASHTRA
SBBJ0010732,State Bank of Bikaner and Jaipur,SBBJ0010732,831003002,JAMSEDPUR,"BLOCK  NO. 1,  SHASHTRI  NAGAR,  JAMSEDPUR - 831005","BRANCH MANAGER,0657-2429538",JAMSHEDPUR,PURBI SINGHBHUM,JHARKHAND
SBBJ0010733,State Bank of Bikaner and Jaipur,SBBJ0010733,341003000,KUCHMAN CITY,"KUCHMAN  CITY,  DISTT.   NAGAUR - 341508","BRANCH MANAGER,01586-220506",KUCHAMAN CITY,NAGAUR,RAJASTHAN
SBBJ0010734,State Bank of Bikaner and Jaipur,SBBJ0010734,400003017,"BHANDUP EAST,  MUMBAI ","BHANDUP,  MUMBAI - 400078","BRANCH MANAGER,022-25615938",MUMBAI,GREATER BOMBAY,MAHARASHTRA
SBBJ0010735,State Bank of Bikaner and Jaipur,SBBJ0010735,NON MICR,"K U M,  NOKHA ","NOKHA,  DISTT.   BIKANER - 334803","BRANCH MANAGER,01531-220778",NOKHA,BIKANER,RAJASTHAN
SBBJ0010736,State Bank of Bikaner and Jaipur,SBBJ0010736,NON MICR,SADULSHAHAR,DISTT.   SRIGANGANAGAR - 335062,"BRANCH MANAGER,01503-222362",SADULSHAHAR,GANGANAGAR,RAJASTHAN
SBBJ0010737,State Bank of Bikaner and Jaipur,SBBJ0010737,302003032,"IND. AREA  SUDARSHANPURA,  JAIPUR","IND.  AREA  SUDARSHANPURA,  JAIPUR - 302006","BRANCH MANAGER,0141-2210004",JAIPUR,JAIPUR,RAJASTHAN
SBBJ0010738,State Bank of Bikaner and Jaipur,SBBJ0010738,NON MICR,RAJALDESAR,"RAJALDESAR,  DISTT.   CHURU - 331802","BRANCH MANAGER,01567-232584",RAJALDESAR,CHURU,RAJASTHAN
SBBJ0010739,State Bank of Bikaner and Jaipur,SBBJ0010739,NON MICR,BIJAINAGAR,DISTT.   AJMER - 305624,"BRANCH MANAGER,01462-230506",BIJAINAGAR,AJMER,RAJASTHAN
SBBJ0010740,State Bank of Bikaner and Jaipur,SBBJ0010740,NON MICR,MUKUNDGARH,DISTT.   JHUNJHUNU - 333706,"BRANCH MANAGER,01594-252553",MUKUNDGARH,JHUNJHUNU,RAJASTHAN
SBBJ0010741,State Bank of Bikaner and Jaipur,SBBJ0010741,NON MICR,LOSAL,DISTT.   SIKAR - 332025,"BRANCH MANAGER,01577-220418",LOSAL,SIKAR,RAJASTHAN
SBBJ0010742,State Bank of Bikaner and Jaipur,SBBJ0010742,NON MICR,MANDAWA,DISTT.   JHUNJHUNU - 333704,"BRANCH MANAGER,01592-233073",MANDAWA,JHUNJHUNU,RAJASTHAN
SBBJ0010743,State Bank of Bikaner and Jaipur,SBBJ0010743,110003023,"BADLI,  DELHI","A - 2,  SURAJ  PARK  IND.  AREA.,   BHAWANA  ROAD,  NEW  DELHI - 110042","BRANCH MANAGER,011-27855295",DELHI,NEW DELHI,DELHI
SBBJ0010744,State Bank of Bikaner and Jaipur,SBBJ0010744,734003744,SILIGURI,"MANGTURAM  ROAD,  DISTT.   DARJEELING - 734405","BRANCH MANAGER,0353-2500188",SILIGURI,DARJEELING,WEST BENGAL
SBBJ0010745,State Bank of Bikaner and Jaipur,SBBJ0010745,NON MICR,KHAIRTHAL,"DISTT.  ALWAR,  RAJASTHAN","BRANCH MANAGER,01460-222510",KHAIRTHAL,ALWAR,RAJASTHAN
SBBJ0010746,State Bank of Bikaner and Jaipur,SBBJ0010746,NON MICR,"IND.  AREA,  KISHANGARH",DISTT.   AJMER - 305801,"BRANCH MANAGER,01463-250737",KISHANGARH CITY,AJMER,RAJASTHAN
SBBJ0010747,State Bank of Bikaner and Jaipur,SBBJ0010747,NON MICR,"STATION  ROAD,  RAJGARH ",DISTT.   ALWAR - 301408,"BRANCH MANAGER,01464-220350",RAJGARH,ALWAR,RAJASTHAN
SBBJ0010748,State Bank of Bikaner and Jaipur,SBBJ0010748,NON MICR,RAMGARH SEKHAWATI,DISTT.   SIKAR - 331024,"BRANCH MANAGER,01571-241399",RAMGARH SIKAR,SIKAR,RAJASTHAN
SBBJ0010749,State Bank of Bikaner and Jaipur,SBBJ0010749,NON MICR,PHULERA,DISTT.  JAIPUR - 303338,"BRANCH MANAGER,01425-951425-24412",PHULERA,JAIPUR,RAJASTHAN
SBBJ0010750,State Bank of Bikaner and Jaipur,SBBJ0010750,312003002,"N. C. MARKET,  CHITTORGARH  CITY","NEW  CLOTH  MARKET,  CHITTORGARH - 312001","BRANCH MANAGER,01472-244408","N. C. MARKET,  CHITTORGARH  CITY",JAIPUR,RAJASTHAN
SBBJ0010751,State Bank of Bikaner and Jaipur,SBBJ0010751,281003751,VRINDAVAN,DISTT.   MATHURA - 221121,"BRANCH MANAGER,0565-2442169",VRINDAVAN,MATHURA,UTTAR PRADESH
SBBJ0010752,State Bank of Bikaner and Jaipur,SBBJ0010752,828003752,"KATRASGARH,  DHANBAD",DISTT.   DHANBAD - 828113,"BRANCH MANAGER,0326-2272303",DHANBAD,DHANBAD,JHARKHAND
SBBJ0010753,State Bank of Bikaner and Jaipur,SBBJ0010753,NON MICR,BIDASAR,DISTT.   CHURU - 331501,"BRANCH MANAGER,01560-262007",BIDASAR,CHURU,RAJASTHAN
SBBJ0010754,State Bank of Bikaner and Jaipur,SBBJ0010754,760003002,BERHAMPUR,"BRAHANAGAR  SQUARE,  NEW  BUS  STAND  ROAD,  BERHAMPUR - 760001","BRANCH MANAGER,06810-228111",BERHAMPUR,NAVARAGPUR,ORISSA
SBBJ0010755,State Bank of Bikaner and Jaipur,SBBJ0010755,384003001,MEHSANA,"B1,  JAGDISH  CHAMBERS,  RAJKAMAL  PUMP,  MEHSANA - 384002","BRANCH MANAGER,02762-253099",MEHSANA,MEHSANA,GUJARAT
SBBJ0010756,State Bank of Bikaner and Jaipur,SBBJ0010756,NON MICR,NEWEI,DISTT.  TONK - 304021,"BRANCH MANAGER,01438-222841",NEWAI,TONK,RAJASTHAN
SBBJ0010757,State Bank of Bikaner and Jaipur,SBBJ0010757,NON MICR,"K U M,  NIMBAHERA ",DISTT.  CHITTORGARH - 312601,"BRANCH MANAGER,01477-220001",NIMBAHERA,CHITTORGARH,RAJASTHAN
SBBJ0010758,State Bank of Bikaner and Jaipur,SBBJ0010758,NON MICR,"KUM,  DAUSA",DAUSA - 303303,"BRANCH MANAGER,01427-230262",DAUSA,DAUSA,RAJASTHAN
SBBJ0010759,State Bank of Bikaner and Jaipur,SBBJ0010759,NON MICR,SHAHJAHANPUR,DISTT.  ALWAR - 301706,"BRANCH MANAGER,01494-235202",SHAHJAHANPUR,ALWAR,RAJASTHAN
SBBJ0010760,State Bank of Bikaner and Jaipur,SBBJ0010760,600003004,"ASHOK NAGAR,  CHENNAI ","27,  10  AVENUE,  ASHOK  NAGAR,  CHENNAI - 600083","BRANCH MANAGER,044-24853089",CHENNAI,CHENNAI,TAMIL NADU
SBBJ0010761,State Bank of Bikaner and Jaipur,SBBJ0010761,302003034,"BRAHAMPURI,  JAIPUR ","BRAHAMPURI,  JAIPUR - 302002","BRANCH MANAGER,0141-2671691",JAIPUR,JAIPUR,RAJASTHAN
SBBJ0010762,State Bank of Bikaner and Jaipur,SBBJ0010762,342003012,"GULAB SAGAR,  JODHPUR","GULAB SAGAR,  JODHPUR - 342002","BRANCH MANAGER,0291-2634771",JODHPUR,JODHPUR,RAJASTHAN
SBBJ0010763,State Bank of Bikaner and Jaipur,SBBJ0010763,302003041,"VIDYADHAR  NAGAR,  JAIPUR ","VIDYADHAR  NAGAR,  JAIPUR - 302012","BRANCH MANAGER,0141-2336294",JAIPUR,JAIPUR,RAJASTHAN
SBBJ0010764,State Bank of Bikaner and Jaipur,SBBJ0010764,NON MICR,"K U M,  ALWAR ",DISTT.  ALWAR - 301001,"BRANCH MANAGER,0144-2370066",ALWAR,ALWAR,RAJASTHAN
SBBJ0010765,State Bank of Bikaner and Jaipur,SBBJ0010765,302003040,"DURGAPURA,  JAIPUR  ","DURGAPURA,  JAIPUR - 302018","BRANCH MANAGER,0141-5183803",JAIPUR,JAIPUR,RAJASTHAN
SBBJ0010766,State Bank of Bikaner and Jaipur,SBBJ0010766,313003008,"SSI,  UDAIPUR ","CITY  STATION  ROAD,  UDAIPUR - 313001","BRANCH MANAGER,0294-2417399",UDAIPUR,JAIPUR,RAJASTHAN
SBBJ0010767,State Bank of Bikaner and Jaipur,SBBJ0010767,302003039,"MANSAROVAR,  JAIPUR ","AGARWAL  FARM,  MANSAROVAR,  JAIPUR - 302020","BRANCH MANAGER,0141-5132394",JAIPUR,JAIPUR,RAJASTHAN
SBBJ0010768,State Bank of Bikaner and Jaipur,SBBJ0010768,302003037,"SHYAM NAGAR,  JAIPUR  ","SHYAM  NAGAR,  JAIPUR - 302006","BRANCH MANAGER,0141-5129690",JAIPUR,JAIPUR,RAJASTHAN
SBBJ0010769,State Bank of Bikaner and Jaipur,SBBJ0010769,NON MICR,"SANTER ROAD,  DHOLPUR  ","SANTER ROAD,  DHOLPUR - 328001","BRANCH MANAGER,05642-240225",DHOLPUR,DHOLPUR,RAJASTHAN
SBBJ0010770,State Bank of Bikaner and Jaipur,SBBJ0010770,110003026,BAHADURGARH,"DELHI  ROHTAK  ROAD,  DISTT.   ROHTAK,  HARYANA","BRANCH MANAGER,01262-237076",BAHADURGARH,ROHTAK,HARYANA
SBBJ0010771,State Bank of Bikaner and Jaipur,SBBJ0010771,NON MICR,"STATION ROAD,  HINDAUN CITY ","STATION  ROAD,   HINDAUN  CITY,   DISTT.  KARULI - 322230","BRANCH MANAGER,07469-231147",HINDAUN,KARAULI,RAJASTHAN
SBBJ0010772,State Bank of Bikaner and Jaipur,SBBJ0010772,302003038,"JLN MARG,  JAIPUR ","MAHAVEER  CANCER  HOSPITAL,  JLN  MARG,  JAIPUR - 302004","BRANCH MANAGER,0141-2550807",JAIPUR,JAIPUR,RAJASTHAN
SBBJ0010773,State Bank of Bikaner and Jaipur,SBBJ0010773,NON MICR,"NEW COLONY,  DUNGARPUR  ","NEW  COLONY,  DUNGARPUR - 314001","BRANCH MANAGER,02964-232515",DUNGARPUR,DUNGARPUR,RAJASTHAN
SBBJ0010774,State Bank of Bikaner and Jaipur,SBBJ0010774,NON MICR,ITAWA,"TEHSIL  PIPALDA,  DISTT.  KOTA - 325201","BRANCH MANAGER,07458-225038",ITAWA,KOTA,RAJASTHAN
SBBJ0010775,State Bank of Bikaner and Jaipur,SBBJ0010775,147003775,MANDI GOBINDGARH,DISTT.   FATEHGARH  SAHIB - 147301,"BRANCH MANAGER,01765-255807",MANDI GOVINDGAR,FATEHGARH SAHEB,PUNJAB
SBBJ0010776,State Bank of Bikaner and Jaipur,SBBJ0010776,440003003,"SURYA NAGAR,  NAGPUR  ","KALMANA  ROAD,191  SURYA  NAGAR,  NAGPUR - 440008","BRANCH MANAGER,0712-2682225",NAGPUR,NAGPUR,MAHARASHTRA
SBBJ0010777,State Bank of Bikaner and Jaipur,SBBJ0010777,NON MICR,KISHANGARH RENWAL,"DISTT.  JAIPUR,  RAJASTHAN","BRANCH MANAGER,01424-220283",KISHANGARH RENWAL,JAIPUR,RAJASTHAN
SBBJ0010778,State Bank of Bikaner and Jaipur,SBBJ0010778,370003001,GANDHIDHAM,"1ST  FLOOR,  PLAN  NO.  271,  WARD  12 - B,  DISTT.  KUTCHH - 370291,  GUJRAT","BRANCH MANAGER,02836-223272",GANDHI DHAM,KUTCH,GUJARAT
SBBJ0010779,State Bank of Bikaner and Jaipur,SBBJ0010779,NON MICR,GOTAN,"SIKHWAL  BHAVAN,  NEAR  PETROL  PUMP,  GOTAN,  DISTT.   NAGAUR - 342902","BRANCH MANAGER,01591-230012",GOTAN,NAGAUR,RAJASTHAN
SBBJ0010780,State Bank of Bikaner and Jaipur,SBBJ0010780,302003042,"GOVIND  NAGAR,  JAIPUR ","27,  GOVIND  NAGAR  EAST,  JAIPUR - 302002","BRANCH MANAGER,0141-2630312",JAIPUR,JAIPUR,RAJASTHAN
SBBJ0010781,State Bank of Bikaner and Jaipur,SBBJ0010781,302003043,"IND.  FINANCE  BRANCH,  JAIPUR ","TAMBI  TOWER,  SANSAR  CHANDRA  ROAD,  JAIPUR,  RAJASTHAN","BRANCH MANAGER,0141-2362794",JAIPUR,JAIPUR,RAJASTHAN
SBBJ0010782,State Bank of Bikaner and Jaipur,SBBJ0010782,NON MICR,KHERLI,"KATHUMAR  ROAD,  DISTT.  ALWAR,  RAJASTHAN","BRANCH MANAGER,01492-220945",KHERLI ALWAR,ALWAR,RAJASTHAN
SBBJ0010783,State Bank of Bikaner and Jaipur,SBBJ0010783,NON MICR,MAHUWA,DISTT.   DAUSA - 321608,"BRANCH MANAGER,07461-233511",MAHUA,DAUSA,RAJASTHAN
SBBJ0010784,State Bank of Bikaner and Jaipur,SBBJ0010784,311003005,"INDIRA MARKET,  BHILWARA","INDIRA  MARKET,  BHILWARA - 311001","BRANCH MANAGER,01482-229811","INDIRA MARKET,  BHILWARA",BHILWARA,RAJASTHAN
SBBJ0010785,State Bank of Bikaner and Jaipur,SBBJ0010785,342003011,"CHOPASNI HOUSING BOARD,  JODHPUR ","SECTOR - 12,  CHOPASNI  HOUSING  BOARD,  JODHPUR - 342008","BRANCH MANAGER,0291-2714772",JODHPUR,JODHPUR,RAJASTHAN
SBBJ0010786,State Bank of Bikaner and Jaipur,SBBJ0010786,NON MICR,ANTA,"DISTT.  BARAN,  RAJASTHAN","BRANCH MANAGER,07457-244790",ANTA,BARAN,RAJASTHAN
SBBJ0010787,State Bank of Bikaner and Jaipur,SBBJ0010787,NON MICR,TAPUKDA,DISTT.   ALWAR - 301707,"BRANCH MANAGER,01493-243250",TAPOOKDA ALWAR,ALWAR,RAJASTHAN
SBBJ0010788,State Bank of Bikaner and Jaipur,SBBJ0010788,NON MICR,DANTA,"KHETAN  MARKET,  DANTA,   DISTT.   SIKAR - 332702","BRANCH MANAGER,01577-272456",DANTA,SIKAR,RAJASTHAN
SBBJ0010789,State Bank of Bikaner and Jaipur,SBBJ0010789,110003025,"SARITA VIHAR,  NEW DELHI ","POCKET  B.CSC,  SARITA  VIHAR,  NEW  DELHI - 110044","BRANCH MANAGER,011-26940470",DELHI,NEW DELHI,DELHI
SBBJ0010790,State Bank of Bikaner and Jaipur,SBBJ0010790,800003005,"FRAZER ROAD,  PATNA ","HARSHWARDHAN,  LOK  NAYAK  BHAWAN,  PATNA - 800001","BRANCH MANAGER,0612-2231812",PATNA,PATNA,BIHAR
SBBJ0010791,State Bank of Bikaner and Jaipur,SBBJ0010791,713003791,ASANSOL,"32  GT  ROAD,  NEAR B.B. ROAD,  DISTT.  BURDWAN - 713301 (WEST  BENGAL)","BRANCH MANAGER,0341-2207800",ASANSOL,BARDHAMAN,WEST BENGAL
SBBJ0010792,State Bank of Bikaner and Jaipur,SBBJ0010792,302003044,"SITAPURA INDUST. AREA,  JAIPUR ","SITAPURA,  JAIPUR - 302020","BRANCH MANAGER,0141-2771616",JAI,JAIPUR,RAJASTHAN
SBBJ0010793,State Bank of Bikaner and Jaipur,SBBJ0010793,NON MICR,"THERMAL POWER PROJECT,  KOTA ",KOTA  (RAJASTHAN) -  324008,"BRANCH MANAGER,0744-2370777",KOTA,KOTA,RAJASTHAN
SBBJ0010794,State Bank of Bikaner and Jaipur,SBBJ0010794,NON MICR,"JAI NARAYAN  VYAS  COLONY,  BIKANER  ","NO.  11,  D - 107,  JAI NARAYAN  VYAS  COLONY,  BIKANER - 334003","BRANCH MANAGER,0151-2223062",BIKANER,BIKANER,RAJASTHAN
SBBJ0010795,State Bank of Bikaner and Jaipur,SBBJ0010795,302003045,"SODALA,  JAIPUR ","SODALA,  JAIPUR,  RAJASTHAN","BRANCH MANAGER,0141-5129768",JAIPUR,JAIPUR,RAJASTHAN
SBBJ0010796,State Bank of Bikaner and Jaipur,SBBJ0010796,NON MICR,"IND.  AREA,  NEEMRANA","DISTT.  ALWAR,  RAJASTHAN","BRANCH MANAGER,01494-246056",NEEMRANA,ALWAR,RAJASTHAN
SBBJ0010797,State Bank of Bikaner and Jaipur,SBBJ0010797,302003046,"KALWAR ROAD,  JAIPUR","VIJAY  BHAWAN,  KALWAR ROAD,   JAIPUR,  RAJASTHAN","BRANCH MANAGER,0141-2341439",JAIPUR,JAIPUR,RAJASTHAN
SBBJ0010798,State Bank of Bikaner and Jaipur,SBBJ0010798,302003047,"JAGATPURA,  JAIPUR ","JAGATPURA,  JAIPUR - 302004","BRANCH MANAGER,0141-2759673",JAIPUR,JAIPUR,RAJASTHAN
SBBJ0010799,State Bank of Bikaner and Jaipur,SBBJ0010799,400003018,VASHI,"OPP.  APMC  MARKET,  SECTOR 19,  VASHI,  NAVI  MUMBAI - 400703","BRANCH MANAGER,022-27657327",MUMBAI,GREATER BOMBAY,MAHARASHTRA
SBBJ0010801,State Bank of Bikaner and Jaipur,SBBJ0010801,NON MICR,LALGARH,DISTT.  BIKANER - 334001,"BRANCH MANAGER,0151-2223080",BIKANER,BIKANER,RAJASTHAN
SBBJ0010802,State Bank of Bikaner and Jaipur,SBBJ0010802,NON MICR,"KUM,  KOTA ","KRISHI UPAJ MANDI SAMITI  COMPLEX,  ANANTPURA,  KOTA - 324005","BRANCH MANAGER,0744-2490018",KOTA,KOTA,RAJASTHAN
SBBJ0010803,State Bank of Bikaner and Jaipur,SBBJ0010803,302003048,KANOTA,"DISTT.  JAIPUR,  RAJASTHAN","BRANCH MANAGER,0141-5143071",JAIPUR,JAIPUR,RAJASTHAN
SBBJ0010804,State Bank of Bikaner and Jaipur,SBBJ0010804,302003049,"BHANKROTA,  JAIPUR ","BHANKROTA,  JAIPUR - 302019","BRANCH MANAGER,0141-2250230",JAIPUR,JAIPUR,RAJASTHAN
SBBJ0010805,State Bank of Bikaner and Jaipur,SBBJ0010805,NON MICR,"AZAD CHOWK,  BANSWARA ","AZAD  CHOWK,  BANSWARA - 327001","BRANCH MANAGER,02962-245920",BANSWARA,BANSWARA,RAJASTHAN
SBBJ0010806,State Bank of Bikaner and Jaipur,SBBJ0010806,302003050,"PEETAL FACTORY,  JAIPUR ","PEETAL  FACTORY,  JHOTWARA  ROAD,  JAIPUR,  RAJASTHAN","BRANCH MANAGER,0141-2206502",JAIPUR,JAIPUR,RAJASTHAN
SBBJ0010807,State Bank of Bikaner and Jaipur,SBBJ0010807,313003010,"NEW FATEHPURA,  UDAIPUR  ","23 - A,  NEW  FATEHPURA,  UDAIPUR - 313004","BRANCH MANAGER,0294-2422166","NEW FATEHPURA,  UDAIPUR  ",UDAIPUR,RAJASTHAN
SBBJ0010808,State Bank of Bikaner and Jaipur,SBBJ0010808,125003808,HISSAR,"CSF - 7,  COMMUNITY  ESTATE - 1,  RED  SQUARE  MARKET,  HISSAR - 125001","BRANCH MANAGER,011-228421",HISSAR,HISSAR,HARYANA
SBBJ0010809,State Bank of Bikaner and Jaipur,SBBJ0010809,NON MICR,MANDAR,"VIA -  REODHAR,  DISTT.   SIROHI - 307513","BRANCH MANAGER,02975-235284",MANDAR,SIROHI,RAJASTHAN
SBBJ0010810,State Bank of Bikaner and Jaipur,SBBJ0010810,NON MICR,MOHANGARH,DISTT.   JAISALMER - 345033,"BRANCH MANAGER,02997-228396",MOHANGARH,JAISALMER,RAJASTHAN
SBBJ0010811,State Bank of Bikaner and Jaipur,SBBJ0010811,110003028,NOIDA,"G - 14/15,  SEC - 18,  NOIDA - 201301","BRANCH MANAGER,01191-245128",NOIDA,GAUTAM BODDA NAGAR,UTTAR PRADESH
SBBJ0010812,State Bank of Bikaner and Jaipur,SBBJ0010812,NON MICR,"COLLECTORATE,  SIKAR","COLLECTORATE,  SIKAR - 332001","BRANCH MANAGER,01572-254423",SIKAR,SIKAR,RAJASTHAN
SBBJ0010813,State Bank of Bikaner and Jaipur,SBBJ0010813,NON MICR,"AIR  FORCE  STATION,  SURATGARH  ","35  WING  AIR  FORCE  STATION,  SURATGARH,  DISTT.   SRIGANGANGAR - 335884","BRANCH MANAGER,01509-270423","AIR  FORCE  STATION,  SURATGARH  ",JAIPUR,RAJASTHAN
SBBJ0010814,State Bank of Bikaner and Jaipur,SBBJ0010814,124003814,ROHTAK,"OPP.  SERVICE  CLUB,  CIVIL  ROAD,  ROHTAK - 124001","BRANCH MANAGER,01262-258564",ROHATAK,ROHTAK,HARYANA
SBBJ0010815,State Bank of Bikaner and Jaipur,SBBJ0010815,311003006,"KUM,  BHILWARA","KRISHI  UPAJ  MANDI,  BHILWARA - 311001","BRANCH MANAGER,01482-220658",BHILWARA,BHILWARA,RAJASTHAN
SBBJ0010816,State Bank of Bikaner and Jaipur,SBBJ0010816,NON MICR,"CAD CIRCLE,  KOTA ","DADABARI,  KOTA - 324007","BRANCH MANAGER,0744-2500724",KOTA,KOTA,RAJASTHAN
SBBJ0010817,State Bank of Bikaner and Jaipur,SBBJ0010817,NON MICR,"TPS,  SURATGARH ",DISTT.   SRIGANGANAGAR - 335804,"BRANCH MANAGER,01509-265339",SURATGARH,GANGANAGAR,RAJASTHAN
SBBJ0010818,State Bank of Bikaner and Jaipur,SBBJ0010818,NON MICR,BIJOLIA,"NEAR  BUS STAND,  DISTT.  BHILWARA - 311602","BRANCH MANAGER,01489-236711",BIJOLIYA,BHILWARA,RAJASTHAN
SBBJ0010819,State Bank of Bikaner and Jaipur,SBBJ0010819,380003005,"SATELLITE ROAD,  AHMEDABAD  ","SATELLITE  ROAD,  24 - 28  ARJUN  TOWER,  AHMEDABAD - 380001","BRANCH MANAGER,079-26747217",AHMEDABAD,AHMEDABAD,GUJARAT
SBBJ0010820,State Bank of Bikaner and Jaipur,SBBJ0010820,302003051,"P W D COMPLEX,  JAIPUR","JACOB  ROAD,  PWD  COMPLEX,  JAIPUR,  RAJASTHAN","BRANCH MANAGER,0141-2221944",JAIPUR,JAIPUR,RAJASTHAN
SBBJ0010821,State Bank of Bikaner and Jaipur,SBBJ0010821,NON MICR,BUHANA,"DISTT.   JHUNJHUNU,  RAJASTHAN","BRANCH MANAGER,01593-288898",BUHANA,JHUNJHUNU,RAJASTHAN
SBBJ0010822,State Bank of Bikaner and Jaipur,SBBJ0010822,NON MICR,MANDAWARI,DISTT.  DAUSA - 303504,"BRANCH MANAGER,01431-264133",MANDAWARI,DAUSA,RAJASTHAN
SBBJ0010823,State Bank of Bikaner and Jaipur,SBBJ0010823,313003013,"TREASURY BRANCH,  UDAIPUR ","RAJASTHAN  VIDYAPEETH,  KOAL  BUILDING  TOWN,  UDAIPUR - 313001","BRANCH MANAGER,0294-2527571",UDAIPUR,UDAIPUR,RAJASTHAN
SBBJ0010824,State Bank of Bikaner and Jaipur,SBBJ0010824,110003824,"ASSET RECOVERY BRANCH,  NEW DELHI ","AHIMSA  BHAWAN,  SHANKAR  ROAD,  RAJENDRA  NAGAR,  NEW  DELHI - 110060","BRANCH MANAGER,011-28741935",DELHI,NEW DELHI,DELHI
SBBJ0010825,State Bank of Bikaner and Jaipur,SBBJ0010825,302003052,"GANPATI  PLAZA,  JAIPUR  ","GANPATI  PLAZA,  M.  I.  ROAD,  JAIPUR,  RAJASTHAN","BRANCH MANAGER,0141-5113355",JAIPUR,JAIPUR,RAJASTHAN
SBBJ0010826,State Bank of Bikaner and Jaipur,SBBJ0010826,NON MICR,"COLLECTORATE,  SAWAIMADHOPUR","COLLECTORATE,  SAWAIMADHOPUR - 322001","BRANCH MANAGER,07462-220403",SAWAI MADHOPUR,SAWAI MADHOPUR,RAJASTHAN
SBBJ0010828,State Bank of Bikaner and Jaipur,SBBJ0010828,302003053,"CHITRAKOOT,  JAIPUR  ","C  8  /  2,  CHITRAKOOT,  JAIPUR - 302021","BRANCH MANAGER,0141-5175353",JAIPUR,JAIPUR,RAJASTHAN
SBBJ0010829,State Bank of Bikaner and Jaipur,SBBJ0010829,110003029,GURGAON,"117  /  118,  SHOPPING  MALL  DLF,  PHASE - I,  ARJUN  MARG,  GURGAON - 122002","BRANCH MANAGER,0124-5050326",GURGAON,GURGAON,HARYANA
SBBJ0010830,State Bank of Bikaner and Jaipur,SBBJ0010830,NON MICR,"KUM,  SUMERPUR ",DISTT.   PALI - 306902,"BRANCH MANAGER,02933-258232",SUMERPUR,JAIPUR,RAJASTHAN
SBBJ0010839,State Bank of Bikaner and Jaipur,SBBJ0010839,141003004,"SSI,  LUDHIANA ","OPP.  MILITRY  CAMP,  NEAR  G.T.  ROAD,  LUDHIANA - 141003","BRANCH MANAGER,0161-2533277",LUDHIANA,LUDHIANA,PUNJAB
SBBJ0010840,State Bank of Bikaner and Jaipur,SBBJ0010840,302003054,"PRATAP NAGAR,  JAIPUR ","PRATAP  NAGAR,  KUMBHA  MARG,  JAIPUR - 302030","BRANCH MANAGER,0141-2793745",JAIPUR,JAIPUR,RAJASTHAN
SBBJ0010841,State Bank of Bikaner and Jaipur,SBBJ0010841,110003030,"ROHINI,  NEW DELHI  ","PLOT  NO.  7,  SECTOR - 05,  ROHINI,  NEW  DELHI","BRANCH MANAGER,011-27933411",NEW DELHI,NEW DELHI,DELHI
SBBJ0010842,State Bank of Bikaner and Jaipur,SBBJ0010842,NON MICR,"TREASURY BLDG.,  TONK ",TONK - 304001 (RAJASTHAN),"BRANCH MANAGER,0141-248083",TONK,TONK,RAJASTHAN
SBBJ0010843,State Bank of Bikaner and Jaipur,SBBJ0010843,302003055,"BAPU BAZAR,  JAIPUR ","BAPU  BAZAR,  JAIPUR,  RAJASTHAN","BRANCH MANAGER,0141-2576001",JAIPUR,JAIPUR,RAJASTHAN
SBBJ0010844,State Bank of Bikaner and Jaipur,SBBJ0010844,NON MICR,"COLLECTORATE,  HANUMANGARH","COLLETRORATE,  HANUMANGARH,  RAJASTHAN","BRANCH MANAGER,01552-262426",HANUMANGARH,HANUMANGARH,RAJASTHAN
SBBJ0010845,State Bank of Bikaner and Jaipur,SBBJ0010845,NON MICR,NADBAI,"DISTT.   BHARATPUR,  RAJASTHAN","BRANCH MANAGER,05643-224040",NADBAI,JAIPUR,RAJASTHAN
SBBJ0010846,State Bank of Bikaner and Jaipur,SBBJ0010846,302003056,"MAHESH NAGAR,  JAIPUR  ","MAHESH  NAGAR,  JAIPUR - 302018","BRANCH MANAGER,0141-2504871",JAIPUR,JAIPUR,RAJASTHAN
SBBJ0010847,State Bank of Bikaner and Jaipur,SBBJ0010847,302003057,"RKS SANKUL,  JAIPUR  ","RADHA  KRISHAN  SANKUL,  J.L.N.  MARG,  JAIPUR,  RAJASTHAN","BRANCH MANAGER,0141-5101638",JAIPUR,JAIPUR,RAJASTHAN
SBBJ0010848,State Bank of Bikaner and Jaipur,SBBJ0010848,NON MICR,KUMHER,"DISTT.   BHARATPUR,  RAJASTHAN","BRANCH MANAGER,05644-240777",KUMHER,BHARATPUR,RAJASTHAN
SBBJ0010849,State Bank of Bikaner and Jaipur,SBBJ0010849,302003058,"SMS HOSPITAL,  JAIPUR ","SMS  HOSPITAL,  JAIPUR - 302004","BRANCH MANAGER,0141-2562851",JAIPUR,JAIPUR,RAJASTHAN
SBBJ0010850,State Bank of Bikaner and Jaipur,SBBJ0010850,462003003,"KOLAR ROAD,  BHOPAL  ","CT  PLAZA,  1ST  FLOOR,  CHUNA  BHATTI,  BHOPAL,  MADHYA  PRADESH","BRANCH MANAGER,0755-2428111",BHOPAL,BHOPAL,MADHYA PRADESH
SBBJ0010851,State Bank of Bikaner and Jaipur,SBBJ0010851,NON MICR,PAOTA,"DISTT.   JAIPUR,  RAJASTHAN","BRANCH MANAGER,01421-243855",PAOTA,JAIPUR,RAJASTHAN
SBBJ0010852,State Bank of Bikaner and Jaipur,SBBJ0010852,160003003,PANCHKULA,PANCHKULA - 134109  (RAJASTHAN),"BRANCH MANAGER,0172-2561057",PANCHKULA,PANCHKULA,DELHI
SBBJ0010853,State Bank of Bikaner and Jaipur,SBBJ0010853,NON MICR,SIMALWARA,"DISTT.   DUNGARPUR,  RAJASTHAN","BRANCH MANAGER,02964-241138",SIMALWARA,DUNGARPUR,RAJASTHAN
SBBJ0010854,State Bank of Bikaner and Jaipur,SBBJ0010854,302003059,"NEW AATISH MARKET,  JAIPUR ","NEW  AATISH  MARKET,  JAIPUR - 302019","BRANCH MANAGER,0141-2391436",JAIPUR,JAIPUR,RAJASTHAN
SBBJ0010855,State Bank of Bikaner and Jaipur,SBBJ0010855,NON MICR,"U.I.T.,  BHARATPUR","UIT  CAMPUS,  BHARATPUR,  RAJASTHAN","BRANCH MANAGER,05644-223346",BHARATPUR,BHARATPUR,RAJASTHAN
SBBJ0010856,State Bank of Bikaner and Jaipur,SBBJ0010856,NON MICR,JHALRAPATAN,"DISTT.   JHALAWAR,  RAJASTHAN","BRANCH MANAGER,07432-241418",JHALRAPATAN,JAIPUR,RAJASTHAN
SBBJ0010857,State Bank of Bikaner and Jaipur,SBBJ0010857,NON MICR,"TALWANDI,  KOTA ","B - 311,  TALWANDI,  KOTA,  RAJASTHAN","BRANCH MANAGER,0744-2405712",KOTA,KOTA,RAJASTHAN
SBBJ0010858,State Bank of Bikaner and Jaipur,SBBJ0010858,NON MICR,NEEMUCH,"DIAMOND  HALL,  VEER  PARK  ROAD,  NEEMUCH - 458441","BRANCH MANAGER,07423-220435",NEEMUCH,NEEMUCH,MAHARASHTRA
SBBJ0010859,State Bank of Bikaner and Jaipur,SBBJ0010859,160003003,MOHALI,"SCO  4  &  5,  PHASE  11,  SAS  NAGAR,  MOHALI,  PUNJAB","BRANCH MANAGER,0172-2234600",MOHALI,RUPNAGAR,PUNJAB
SBBJ0010860,State Bank of Bikaner and Jaipur,SBBJ0010860,110003032,"DWARKA,  NEW DELHI  ","DWARKA, H/L  GALLERIA,  PLOT  NO. - 2,  SEC - 12,  DWARKA,   NEW  DELHI","BRANCH MANAGER,011-28081736",NEW DELHI,NEW DELHI,DELHI
SBBJ0010861,State Bank of Bikaner and Jaipur,SBBJ0010861,302003060,"CENTRAL SPINE,  JAIPUR  ","CENTRAL  SPINE,  VIDYADHAR  NAGAR,  JAIPUR,  RAJASTHAN","BRANCH MANAGER,0141-2230085",JAIPUR,JAIPUR,RAJASTHAN
SBBJ0010862,State Bank of Bikaner and Jaipur,SBBJ0010862,NON MICR,PISANGAN,"DIST - AJMER,   RAJASTHAN","BRANCH MANAGER,0145-2775984",PISANGAN,AJMER,RAJASTHAN
SBBJ0010864,State Bank of Bikaner and Jaipur,SBBJ0010864,751003002,BHUBANESWAR,"OCHC  COMPLEX,  NEAR  RAM  MANDIR,  JANPATH,  BHUBANESWAR - 750001","BRANCH MANAGER,0674-2535113",BHUBANESWAR,KHURDA,ORISSA
SBBJ0010865,State Bank of Bikaner and Jaipur,SBBJ0010865,302003062,"DIST COURT,  JAIPUR","DISTRICT  COURT  COMPLEX,  BANIPARK,  JAIPUR,  RAJASTHAN","BRANCH MANAGER,0141-2740717",JAIPUR,JAIPUR,RAJASTHAN
SBBJ0010866,State Bank of Bikaner and Jaipur,SBBJ0010866,302003061,"VIDYUT BHAVAN,  JAIPUR","VIDYUT  BHAVAN,  JYOTI  NAGAR,  JAIPUR,  RAJASTHAN","BRANCH MANAGER,0141-2200250",JAIPUR,JAIPUR,RAJASTHAN
SBBJ0010880,State Bank of Bikaner and Jaipur,SBBJ0010880,NON MICR,PACHERI KALAN,"TEHSIL BUHANA, DISTT. JHUNJHUNU, RAJASTHAN","BRANCH MANAGER,01593-271050",PACHERI KALAN,JHUNJHUNU,RAJASTHAN
SBBJ0010882,State Bank of Bikaner and Jaipur,SBBJ0010882,360003002,RAJKOT,"11 SOLITAIRE BUILDING, RAM KRISHNA NAGAR,RAJKOT-360001","BRANCH MANAGER,0281-2466325",RAJKOT,RAJKOT,GUJARAT
SBBJ0010889,State Bank of Bikaner and Jaipur,SBBJ0010889,NON MICR,RANI,"PRATAP BAZAR,RANI,DISTT. PALI-306115","BRANCH MANAGER,02934-222700",RANI,PALI,RAJASTHAN
SBBJ0010890,State Bank of Bikaner and Jaipur,SBBJ0010890,400003019,THANE,"SURAJ HOUSE,DONGARI PADU BUS STAND, GHOD BUNDER ROAD,THANE(WEST) - 400607","BRANCH MANAGER,022-25862127",THANE,THANE,MAHARASHTRA
SBBJ0010891,State Bank of Bikaner and Jaipur,SBBJ0010891,284003891,JHANSI,"524,SADAR BAZAR, JHANSI - 284 001 ","BRANCH MANAGER,0510-6450161",JHANSI,JHANSI,UTTAR PRADESH
SBBJ0010894,State Bank of Bikaner and Jaipur,SBBJ0010894,700003013,KOLKATA JODHPUR PARK,"71,JODHPUR PARK, KOLKATA - 700068","BRANCH MANAGER,033-24292921",KOLKATA,KOLKATA,WEST BENGAL
SBBJ0010895,State Bank of Bikaner and Jaipur,SBBJ0010895,700003014,KOLKATA AJAY NAGAR,"333,AJAY NAGAR, KOLKATA - 700075","BRANCH MANAGER,033-32436423",KOLKATA,KOLKATA,WEST BENGAL
SBBJ0010896,State Bank of Bikaner and Jaipur,SBBJ0010896,141003896,KHANNA,"PUREWAL TOWER,G.T.ROAD, SAMRALA CHOWK,KHANNA - 141401","BRANCH MANAGER,01628-223743",KHANNA,LUDHIANA,PUNJAB
SBBJ0010897,State Bank of Bikaner and Jaipur,SBBJ0010897,NON MICR,KACHHOLA,"KACHHOLA, DISTT. BHILWARA - 311605","BRANCH MANAGER,01489-239326",KACHHOLA,BHILWARA,RAJASTHAN
SBBJ0010898,State Bank of Bikaner and Jaipur,SBBJ0010898,NON MICR,AJMER VAISHALINAGAR,"14,ASHOK VIHAR, VAISHALI NAGAR, AJMER - 305001","BRANCH MANAGER,0145-2633777",AJMER,AJMER,RAJASTHAN
SBBJ0010899,State Bank of Bikaner and Jaipur,SBBJ0010899,282003004,AGRA KAMALA NAGAR,"G-685,KAMALA NAGAR, AGRA - 282005","BRANCH MANAGER,0562-2581696",AGRA,AGRA,UTTAR PRADESH
SBBJ0010900,State Bank of Bikaner and Jaipur,SBBJ0010900,NON MICR,KOTDA,"PANCHAYAT SAMITI BUILDING,KOTDA, TEHSIL-KOTDA, DISTT. UDAIPUR, RAJASTHAN","BRANCH MANAGER,02958-229722",KOTDA,UDAIPUR,RAJASTHAN
SBBJ0010901,State Bank of Bikaner and Jaipur,SBBJ0010901,826003002,DHANBAD,"V.I.P. HOTEL, BANK MORE,DHANBAD - 826001","BRANCH MANAGER,326-2301377",DHANBAD,DHANBAD,JHARKHAND
SBBJ0010902,State Bank of Bikaner and Jaipur,SBBJ0010902,132003902,KARNAL,"SCO 232,SECTOR-12, PART-I,URBAN ESTATE, KARNAL - 132001 ","BRANCH MANAGER,184-2266614",KARNAL,KARNAL,HARYANA
SBBJ0010908,State Bank of Bikaner and Jaipur,SBBJ0010908,136003908,KURUKSHETRA,"SCO 66,SECTOR 17, URBAN ESTATE,KURUKSHETRA","BRANCH MANAGER,01744-293340",KURUKSHETRA,KURUKSHETRA,HARYANA
SBBJ0010909,State Bank of Bikaner and Jaipur,SBBJ0010909,249003909,HARIDWAR,"HARIDWAR KANKHAL ROAD,RAM NAGAR, JWALAPUR,HARIDWAR","BRANCH MANAGER,01334-235590",HARIDWAR,HARIDWAR,UTTARAKHAND
SBBJ0010910,State Bank of Bikaner and Jaipur,SBBJ0010910,NON MICR,GUDA JASRAJPUR,"SHOP OF FAKARRUDIN ABBE ALI LULAWALA, MOHAMADDIN COLONY","BRANCH MANAGER,02966-230682",GUDA JASRAJPUR,DUNGARPUR,RAJASTHAN
SBBJ0010913,State Bank of Bikaner and Jaipur,SBBJ0010913,342003014,BORANADA,"E-69,BORANADA IND. AREA, PHASE-I,BARMER ROAD,JODHPUR - 342001","BRANCH MANAGER,02931-281615",BORANADA,JODHPUR,RAJASTHAN
SBBJ0010915,State Bank of Bikaner and Jaipur,SBBJ0010915,NOT ALLOTTED,OFFICE ADMINISTRATION DEPARTMENT,"STATE BANK OF BIKANER AND JAIPUR OFFICE ADMINISTRATION DEPARTMENT,  HEAD OFFICE ,TILAK MARG,                JAIPUR (RAJ) PIN-302 005",SHRI P.R. PUGALIA        0141-5101563(OFF)  9414795086,JAIPUR,JAIPUR,RAJASTHAN
SBBJ0010919,State Bank of Bikaner and Jaipur,SBBJ0010919,NON MICR,"DEEN DAYAL PARK KSHETRA, BARAN","DEEN DAYAL PARK KSHETRA, BARAN - 325005","BRANCH MANAGER,07453-234399 ",BARAN,BARAN,RAJASTHAN
SBBJ0010920,State Bank of Bikaner and Jaipur,SBBJ0010920,700003015,CHIRANGI GHATA KOLKATA,"SECTOR A / 76, METROPOLITAN CO-OPERATIVE HOUSING SOCIETY LTD., CANAL SOUTH ROAD,CHINGRIGHATA, KOLKATA - 700 105

","BRANCH MANAGER,033-23234645 ",KOLKATA,KOLKATA,WEST BENGAL
SBBJ0010924,State Bank of Bikaner and Jaipur,SBBJ0010924,NON MICR,TOONGA,"STATE BANK OF BIKANER AND JAIPUR, VILLAGE TOONGA, TEHSIL BASSI, DISTT. JAIPUR-303302",01429-281247,TOONGA,JAIPUR,RAJASTHAN
SBBJ0010929,State Bank of Bikaner and Jaipur,SBBJ0010929,NON MICR,BICHHWAL INDUSTRIAL AREA BIKANER,"STATE BANK OF BIKANER AND JAIPUR     PLOT NO. 71, RIICO RESIDENTIAL COLONY, BICHHWAL INDUSTRIAL AREA,                         BIKANER-334 006",0151-2223093,BIKANER,BIKANER,RAJASTHAN
SBBJ0010936,State Bank of Bikaner and Jaipur,SBBJ0010936,110003033,KRISHI BHAWAN NEW DELHI,"STATE BANK OF BIKANER AND JAIPUR, KRISHI BHAWAN, DR. RAJINDERA PRASAD ROAD, NEW DELHI-110001",011-23389250,NEW DELHI,NEW DELHI,DELHI
SBBJ0010937,State Bank of Bikaner and Jaipur,SBBJ0010937,APPLIED FOR,GANAPATHY COIMBATORE,"STATE BANK OF BIKANER AND JAIPUR, 1079, SATHY ROAD, GANAPATHY, COIMBATORE-641006",0422-2333909                    0422-2333985,COIMBATORE,COIMBOTORE,TAMIL NADU
SBBJ0010938,State Bank of Bikaner and Jaipur,SBBJ0010938,NON MICR,BEENJ BAYLA,BEENJ BAYLA     TEHSIL PADAMPUR            DISTT    GANGANAGAR-335 041,01505-271938,BEENJ BAYALA,GANGANAGAR,RAJASTHAN
SBBJ0010939,State Bank of Bikaner and Jaipur,SBBJ0010939,NON MICR,DRM OFFICE KOTA,"DRM OFFICE PREMISES,                                         NEAR RAIWAY STATION, KOTA-324001",0744-2441711,KOTA,KOTA,RAJASTHAN
SBBJ0010940,State Bank of Bikaner and Jaipur,SBBJ0010940,NON MICR,MEDICAL COLLEGE KOTA,"MEDICAL COLLEGE, KHADE GANESH JI ROAD, KOTA-324005",0744-2471521,KOTA,KOTA,RAJASTHAN
SBBJ0010941,State Bank of Bikaner and Jaipur,SBBJ0010941,NON MICR,MORDI,"NEAR DENIM DIVISION GATE, RAJASTHAN SPINNING & WEAVING MILLS LTD, MORDI             TEHSIL GHATOL,       DISTT- BANSWARA",02961-231441,MORDI,BANSWARA,RAJASTHAN
SBBJ0010942,State Bank of Bikaner and Jaipur,SBBJ0010942,NON MICR,MDS UNIVERSITY AJMER,"STATE BANK OF BIKANER & JAIPUR                       MDS UNIVERSITY, CHANKYA BHAWAN PREMISES,   AJMER-305 009",0145-2788221,AJMER,AJMER,RAJASTHAN
SBBJ0010943,State Bank of Bikaner and Jaipur,SBBJ0010943,422003002,MAHATMA NAGAR NASIK,"STATE BANK OF BIKANER & JAIPUR                       SHOWROOM NO.-2, RUSHIRAJ HEIGHTS,           MAHATMA NAGAR, NEAR WATER TANK,              NASIK ( MAHARASHTRA) PIN-422001",0253-2360157,NASIK,NASHIK,MAHARASHTRA
SBBJ0010949,State Bank of Bikaner and Jaipur,SBBJ0010949,NON-MICR,MINI SECRETARIAT JHALAWAR,"STATE BANK OF BIKANER & JAIPUR, MINI SECRETARIAT, NH-12,                KOTA ROAD, JHALAWAR-326001",07432-233676,JHALAWAR,JHALAWAR,RAJASTHAN
SBBJ0010967,State Bank of Bikaner and Jaipur,SBBJ0010967,313003501,RISHEBDEB,"STATE BANK OF BIKANER & JAIPUR, ANAND HOTEL PREMISES, BUSSTAND ROAD, RISHEBDEB DISTT. UDAIPUR-313 802",02907-231065                 FAX NO. 02907-231066,RISHEBDEB,UDAIPUR,RAJASTHAN
SBBJ0010968,State Bank of Bikaner and Jaipur,SBBJ0010968,341003501,SHRI BALAJI,"STATE BANK OF BIKANER & JAIPUR, SHRI BALAJI, DISTT. NAGAUR                                PIN -341029",9413397822                                     01582- 255227,SHRI BALAJI,NAGAUR,RAJASTHAN
SBBJ0010969,State Bank of Bikaner and Jaipur,SBBJ0010969,310003502,JHADOL,"STATE BANK OF BIKANER & JAIPUR, UDAIPUR ROAD, JHADOL DISTT UDAIPUR PIN-313701",02959-,JHADOL,UDAIPUR,RAJASTHAN
SBBJ0010971,State Bank of Bikaner and Jaipur,SBBJ0010971,323003502,TALERA,"STATE BANK OF BIKANER & JAIPUR, PATAN TIRAHA, TALERA DISTT. BUNDI PIN- 323021",0747- 243 8244                           0747- 243 8122,TALERA,BUNDI,RAJASTHAN
SBBJ0010972,State Bank of Bikaner and Jaipur,SBBJ0010972,324003017,"VIGYAN NAGAR, KOTA","STATE BANK OF BIKANER & JAIPUR, KALPTARU, 1-K-22, VIGYAN NAGAR, KOTA PIN-324005",0744- 2412013,KOTA,KOTA,RAJASTHAN
SBBJ0010973,State Bank of Bikaner and Jaipur,SBBJ0010973,313003017,"TFCPC, UDAIPUR","STATE BANK OF BIKANER & JAIPUR, TFCPC,                                              1ST FLOOR, CHETAK CIRCLE BRANCH,  UDAIPUR-313 001",0294-2422128                    0294-2422129,UDAIPUR,UDAIPUR,RAJASTHAN
SBBJ0010975,State Bank of Bikaner and Jaipur,SBBJ0010975,342003015,"TFCPC, JODHPUR","STATE BANK OF BIKANER & JAIPUR, TFCPC,                                              BASNI KRISHI MANDI, BHAGAT KI, KOTHI, JODHPUR-342005",0291-2723151                94141 33701,JODHPUR,JODHPUR,RAJASTHAN
SBBJ0010976,State Bank of Bikaner and Jaipur,SBBJ0010976,303003502,BORAJ,"STATE BANK OF BIKANER & JAIPUR, NEAR BUS STAND, BORAJ DISTT. JAIPUR      PIN -303338",9413396292                      01428-,DUDU,JAIPUR,RAJASTHAN
SBBJ0010977,State Bank of Bikaner and Jaipur,SBBJ0010977,303003778,PHAGI RENWAL,"STATE BANK OF BIKANER & JAIPUR, NEAR BUS STAND, PHAGI RENWAL DISTT. JAIPUR      PIN -303904",9413396566                       01430-,PHAGI,JAIPUR,RAJASTHAN
SBBJ0010978,State Bank of Bikaner and Jaipur,SBBJ0010978,302003065,RAJDHANI KRISHI UPAZ MANDI JAIPUR,"STATE BANK OF BIKANER & JAIPUR, VKI ROAD NO. 9,  BIGHA PLOT WITH HUGE GATE, OPPOSITE MARUTI SUZUKI SHOWROOM, SIKAR ROAD, KUKAR KHEDA, JAIPUR-302013",9413396775                 STD CODE-0141-,JAIPUR,JAIPUR,RAJASTHAN
SBBJ0010979,State Bank of Bikaner and Jaipur,SBBJ0010979,331003504,GOGASAR,"STATE BANK OF BIKANER AND JAIPUR, VPO GOGASAR, DISTT. CHURU PIN-331504","01567-250579, 9413397228",GOGASAR,CHURU,RAJASTHAN
SBBJ0010980,State Bank of Bikaner and Jaipur,SBBJ0010980,335003502,CHUNAWADH,"STATE BANK OF BIKANER & JAIPUR,    MAIN ROAD VILL. CHUNAWADH DISTT SRI GANGANAGAR (RAJASTHAN) PIN 335022  ",9413397017                 STD CODE-0154-2763684,CHUNAWADH,SRI GANGANAGAR,RAJASTHAN
SBBJ0010986,State Bank of Bikaner and Jaipur,SBBJ0010986,335 003 003,"UDHAMSINGH SINGH CHOWK, SRIGANGANAGAR","128, MUKHAGREE NAGAR, UDHAMSINGH CHOWK, SRIGANAGANAGAR 335001",0154-2475586,SRIGANGANAGAR,SRIGANAGNAGAR,RAJASTHAN
SBBJ0010987,State Bank of Bikaner and Jaipur,SBBJ0010987,110003034,SPECIALISED PERSONAL BANKING BRANCH,"STATE BANK OF BIKANER & JAIPUR, SPECIALISED PERSONAL BANKING BRANCH, R-4/90 CONNAUGHT CIRCUS, NEW DELHI - 110 001",011-23747220,NEW DELHI,NEW DELHI,DELHI
SBBJ0010988,State Bank of Bikaner and Jaipur,SBBJ0010988,325 003 501,NEW MOTIPURA CTPP,"STATE BANK OF BIKANER AND JAIPUR, MOTIPURA CTPP VILLAGE MOTIPURA TEHSIL CHHABRA DISTT. BARAN , KOTA RAJASTHAN PIN 325220 TEL.(STD) 07452 225015",07452 -225015,CHHABRA,BARAN,RAJASTHAN
SBBJ0010989,State Bank of Bikaner and Jaipur,SBBJ0010989,313003018,RNT MEDICAL COLLEGE CAMPUS BRANCH (10989),"RNT MEDICAL COLLEGE CAMPUS,UDAIPUR",0294-2424718,UDAIPUR,UDAIPUR,RAJASTHAN
SBBJ0010990,State Bank of Bikaner and Jaipur,SBBJ0010990,303003066,"NEW SANGANER ROAD, JAIPUR","STATE BANK OF BIKANER & JAIPUR, 2 DP COLONY, NEW SANGANER ROAD, JAIPUR",0141-2297911,JAIPUR,JAIPUR,RAJASTHAN
SBBJ0010992,State Bank of Bikaner and Jaipur,SBBJ0010992,325003502,SEESWALI,"STATE BANK OF BIKANER & JAIPUR, NEAR BUS STAND, SISWALI, TEHSIL MANGROL, DIST.BARAN - PIN 365206 (RAJASTHAN)",9784583864,SEESWALI,BARAN,RAJASTHAN
SBBJ0010993,State Bank of Bikaner and Jaipur,SBBJ0010993,323003501,DEI,"STATE BANK OF BIKANER & JAIPUR, OPP. KUM SAMITI, DEI, TEHSIL NAINWA, DISTT. BUNDI - PIN 323802 (RAJASTHAN)",9413398692,DEI,BUNDI,RAJASTHAN
SBBJ0010994,State Bank of Bikaner and Jaipur,SBBJ0010994,331003501,DULCHASAR,"MAIN BAZAR, NEAR SETH SAWAR DAS GUEST HOUSE, VILL-DULCHASAR, TEH-SRI DUNGARGARH, DISTT- BIKANER, PIN-331188 ",01566-250250,DULCHASAR,BIKANER,RAJASTHAN
SBBJ0010996,State Bank of Bikaner and Jaipur,SBBJ0010996,314003201,BICHHIWARA,"STATE BANK OF BIKANER & JAIPUR,V.P.O -BICHHIWARA,BICHHIWARA.DUNGARPUR TEHSIL  DUNGARPUR DISTRICT PIN 314801",02964-250001,BICHHIWARA,DUNGARPUR,RAJASTHAN
SBBJ0010999,State Bank of Bikaner and Jaipur,SBBJ0010999,NON MICR,PATAN,"STATE BANK OF BIKANER & JAIPUR,NEAR POLICE STATION, NEEM-KA-THANA ROAD, PATAN,  TEHSIL NEEM-KA-THANA DISTT. SIKAR PIN 332718",01574-282300,PATAN,SIKAR,RAJASTHAN
SBBJ0011000,State Bank of Bikaner and Jaipur,SBBJ0011000,302003072,KOHINOOR ROYALE BRANCH,"D-46-B, AGRASEN CIRCLE,       C-SCHEME, JAIPUR-302005",9413396257,JAIPUR,JAIPUR,RAJASTHAN
SBBJ0011002,State Bank of Bikaner and Jaipur,SBBJ0011002,303003139,DAUSA COLLECTORATE,"COLLECTORATE PARISAR,BY PASS ROAD, DAUSA",01427-224849,DAUSA,DAUSA,RAJASTHAN
SBBJ0011003,State Bank of Bikaner and Jaipur,SBBJ0011003,333003502,KUHARWAS,"KUHARWAS, TEH-. BUHANA, DISTT. JHUNJHUNU PIN-333034",,KUHARWAS,JHUNJHUNU,RAJASTHAN
SBBJ0011004,State Bank of Bikaner and Jaipur,SBBJ0011004,331003201,CHHAPAR,"SOMANI GUEST HOUSE, NEAR BUS STAND.  CHHAPAR, DIST- CHURU, PIN-331502",01568-242321,CHHAPAR,CHURU,RAJASTHAN
SBBJ0011005,State Bank of Bikaner and Jaipur,SBBJ0011005,306003501,KHINWARA,"STATE BANK OF BIKANER AND JAIPUR, PUROHIT KA BASS, MAIN MARKET, NEAR MAIN MAIN BUS STAND, KHINWARA -306502 (RAJASTHAN)",02934-248111 9413397745,KHEEWARA,PALI,RAJASTHAN
SBBJ0011006,State Bank of Bikaner and Jaipur,SBBJ0011006,306003300,SADRI,"RANAKPUR ROAD, PO SADRI, DISTT. PALI, RAJASTHAN 306702",02934-285121,SADRI,PALI,RAJASTHAN
SBBJ0011007,State Bank of Bikaner and Jaipur,SBBJ0011007,323003503,KAPREN,"SBBJ KAPREN, MOTOR MARKET, KOTA ROAD, KAPREN, TEHSIL PATAN KESHORAI, DIST BUNDI, RAJASTHAN",02969-233062,PATAN KESHORAI,BUNDI,RAJASTHAN
SBBJ0011008,State Bank of Bikaner and Jaipur,SBBJ0011008,305003201,ROOPANGARH,"STATE BANK OF BIKANER AND JAIPUR, NEAR BUS STAND, ROOPANGARH, DISTT-AJMER, PIN CODE- 305814","SH.V.D.KALANI 9413398600, 01497-220042",ROOPANGARH,AJMER,RAJASTHAN
SBBJ0011009,State Bank of Bikaner and Jaipur,SBBJ0011009,335003501,GANDHELI,"GANDHELI ,TEHSIL -RAWATSAR DISTT. HANUMANGARH-(RAJASTHAN)PIN-335523",SHRI  R.K.MEENA  TEL:01537-270687,RAWATSAR,HANUMANGARH,RAJASTHAN
SBBJ0011010,State Bank of Bikaner and Jaipur,SBBJ0011010,342003501,BALESAR,"OPPOSITE GOVT HOSPITAL POKARAN ROAD, BALESAR, DISTT. JODHPUR - 342023",9413397520   02929-242070,BALESAR,JODHPUR,RAJASTHAN
SBBJ0011011,State Bank of Bikaner and Jaipur,SBBJ0011011,322003501,SUKAR,"STATE BANK OF BIKANER & JAIPUR, SUKAR, TEHSIL-BAMANWAS, DISTT. SAWAI MADHOPUR, RAJASTHAN PIN 322212",07467-265000,BAMANWAS,SAWAI MADHOPUR,RAJASTHAN
SBBJ0011013,State Bank of Bikaner and Jaipur,SBBJ0011013,333003501,SULTANA,"NEAR BUS STAND, SULTANA, DISTT- JHUNJHUNU, STATE-RAJASTHAN, PIN-333028",01596-281530,SULTANA,JHUNJHUNU,RAJASTHAN
SBBJ0011014,State Bank of Bikaner and Jaipur,SBBJ0011014,302003069,RAJASTHAN PUSTAK MANDAL,"NEAR RAJYA PUSTAK MANDAL, JHALANA DOONGRI  ",0141-2711238,JAIPUR,JAIPUR,RAJASTHAN
SBBJ0011015,State Bank of Bikaner and Jaipur,SBBJ0011015,313003201,KANORE,"STATE BANK OF BIKANER & JAIPUR,UDAIPUR ROAD, KANORE, DISTT. UDAIPUR , RAJASTHAN PIN 313604",02957-233025,KANORE,UDAIPUR,RAJASTHAN
SBBJ0011016,State Bank of Bikaner and Jaipur,SBBJ0011016,333003503,BASAWA,"VILLAGE AND POST BASAWA,TEH. NAWALGARH, DISTT.- JHUNJHUNU, STATE-RAJASTHAN, PIN-333301",TEL:01594-244037   FAX:01594-244027,NAWALGARH,JHUNJHUNU,RAJASTHAN
SBBJ0011017,State Bank of Bikaner and Jaipur,SBBJ0011017,327003201,TALWARA,"V.P.O TALWARA,TALWARA BANSWARA DIST",9413398398,"TALWARA,BANSWARA",BANSWARA,RAJASTHAN
SBBJ0011018,State Bank of Bikaner and Jaipur,SBBJ0011018,323003251,INDERGARH,"COMMUNITY HALL, NAGAR PALIKA, WARD NO-8, INDERGARH",9667793313,INDERGARH,BUNDI,RAJASTHAN
SBBJ0011019,State Bank of Bikaner and Jaipur,SBBJ0011019,305003201,ARAIN,"STATE BANK OF BIKANER AND JAIPUR, POWER HOUSE CHOURAHA, VILL-ARAIN, VIA-KISHANGARH, DISTT-AJMER  PIN CODE-305813",01463-281101,ARAIN,AJMER,RAJASTHAN
SBBJ0011020,State Bank of Bikaner and Jaipur,SBBJ0011020,344003201,GADRA ROAD (BARMER),"SBBJ, GADRA ROAD CIRCLE, POST- GADRA ROAD - 344504",9413307227,GADRA RD,BARMER,RAJASTHAN
SBBJ0011021,State Bank of Bikaner and Jaipur,SBBJ0011021,334003201,RAMSAR,"RAMSAR, TEH-BIKANER, DISTT-BIKANER, RAJASTHAN, PIN-334201",SHRI T. R. BARWAR   TEL:0151-2774200,NAPASAR,BIKANER,RAJASTHAN
SBBJ0011022,State Bank of Bikaner and Jaipur,SBBJ0011022,331003300,SIDHMUKH,"SIDHMUKH ,DISTT. CHURU (RAJASTHAN)PIN-331701",SHRI  M.L.GOYAL  TEL:01559-240035,SIDHMUKH,CHURU,RAJASTHAN
SBBJ0011023,State Bank of Bikaner and Jaipur,SBBJ0011023,332003503,RANOLI,"BUS STAND RANOLI, TEH DANTA RAMGARH, DISTT. SIKAR, RAJASTHAN",SHRI B.L.JANGIR MOB NO. . 9413397386,RANOLI,SIKAR,RAJASTHAN
SBBJ0011024,State Bank of Bikaner and Jaipur,SBBJ0011024,302003070,CHOMU KUM,"KRISHI UPAAJ MANDI, CHOMU",01423  220084,CHOMU,CHOMU,RAJASTHAN
SBBJ0011025,State Bank of Bikaner and Jaipur,SBBJ0011025,345003501,FATEHGARH,FATEHGARH PIN- 345027      DIST - JAISALMER,02993-275266,FATEHGARH,JAISALMER,RAJASTHAN
SBBJ0011026,State Bank of Bikaner and Jaipur,SBBJ0011026,307003201,RAMSEEN,"JALORE SIROHI MARG CHAURAHA P.O. RAMSEEN, DISTT. JALORE, RAJASTHAN 307803",02969-233062,RAMSEEN,JALORE,RAJASTHAN
SBBJ0011027,State Bank of Bikaner and Jaipur,SBBJ0011027,327003300,PIPALKHUNT,"STATE BANK OF BIKANER & JAIPUR, PIPALKHUNT, DISTRICT-PARTABGARH, RAJASTHAN PIN-327029",02961-233501,PIPALKHUNT,PARTABGARH,RAJASTHAN
SBBJ0011028,State Bank of Bikaner and Jaipur,SBBJ0011028,313003300,CHARBHUJA GARHBOR,"SANTOSH VATIKA, CHARBHUJA SEVENTRI ROAD, CHARBHUJA GARHBOR PIN-313333 DISTT.RAJSAMAND, RAJASTHAN",9413398273,GARBOR,RAJSAMAND,RAJASTHAN
SBBJ0011029,State Bank of Bikaner and Jaipur,SBBJ0011029,302003071,"VAISHALI NAGAR, JAIPUR","SHOP NO.30,31, 'A' BLOCK, NURSARY CIRCLE, VAISHALI NAGAR, JAIPUR",0141-2359175,JAIPUR,JAIPUR,RAJASTHAN
SBBJ0011030,State Bank of Bikaner and Jaipur,SBBJ0011030,341003502,KHINWSAR,"NEAR BUS STAND, KHINWSAR, DISTRICT NAGAUR, RAJASTHAN",,NAGAUR,NAGAUR,RAJASTHAN
SBBJ0011031,State Bank of Bikaner and Jaipur,SBBJ0011031,303003201,MANOHARPUR,"HFM COMPLEX, BUS STAND ROAD, P.O. MANOHARPUR DISTT. JAIPUR-303104","01422-231210, 231243 (FAX)",MANOHARPUR,JAIPUR,RAJASTHAN
SBBJ0011033,State Bank of Bikaner and Jaipur,SBBJ0011033,342003019,"RATANADA, JODHPUR","OJHA SADAN, CENTRAL SCHOOL ROAD, OPP. SARDAR CLUB, RATANADA, JODHPUR -342003",0291-2634753,JODHPUR,JODHPUR,RAJASTHAN
SBBJ0011034,State Bank of Bikaner and Jaipur,SBBJ0011034,335003503,BANWALI,"BUS STAND ROAD, PO. BANWALI, TEH. SADULSHAHR","01503-257001, 09413397133",SADUL-SAHAR,GANGANAGAR,RAJASTHAN
SBBJ0011035,State Bank of Bikaner and Jaipur,SBBJ0011035,342003208,BHOPALGARH- JODHPUR,"STATE BANK OF BIKANER & JAIPUR,
BHOPALGARH DIST JODHPUR
PIN--342603  
",02920-240102,BHOPALGARH,JODHPUR,RAJASTHAN
SBBJ0011036,State Bank of Bikaner and Jaipur,SBBJ0011036,110003035,"SHALIMAR BAGH, DELHI","SBBJ, DARBARI LAL DAV MODEL SCHOOL, BN BLOCK, SHALIMAR BAGH, DELHI-110088",011-27470266,DELHI,DELHI,DELHI
SBBJ0011037,State Bank of Bikaner and Jaipur,SBBJ0011037,302003073,"POWER HOUSE, JAIPUR","OLD POWER HOUSE, RRVVNL, NEAR RAM MANDIR, BANI PARK, JAIPUR - 302006",TEL:0141-2201359,JAIPUR,JAIPUR,RAJASTHAN
SBBJ0011042,State Bank of Bikaner and Jaipur,SBBJ0011042,322003827,CHAKERI,POST CHAKERI DISTT. SAWAI MADHOPUR (RAJASTHAN) - 322034,07462-255109,SAWAI MADHOPUR,SAWAI MADHOPUR,RAJASTHAN
SBBJ0011043,State Bank of Bikaner and Jaipur,SBBJ0011043,305003943,PICHOLIYA,"NEAR BUS STAND, PICHOLIYA, TEHSIL PISANGAN DISTT. AJMER -305022",01452-778259,PISANGAN,AJMER,RAJASTHAN
SBBJ0011045,State Bank of Bikaner and Jaipur,SBBJ0011045,301003466,"SPECIALISED PERSONAL BANKING BRANCH, BHIWADI","A-8, BHAGAT SINGH COLONY, ALWAR BY PASS ROAD, BHIWADI",8107830100,BHIWADI,ALWAR,RAJASTHAN
SBBJ0011046,State Bank of Bikaner and Jaipur,SBBJ0011046,335003201,DHABAN,"6BGP-A (DHABAN), TEHSIL- SANGARIA, DIST- HANUMANGARH, STATE - RAJASTHAN, PIN-335063",01499-280477,SANGARIA,HANUMANGARH,RAJASTHAN
SBBJ0011047,State Bank of Bikaner and Jaipur,SBBJ0011047,334003619,SINTHAL,"NEAR KARNI MNADIR, POST - SINTHAL (VIA - NAPASAR) BIKANER - 334202 STATE-RAJASTHAN",,NAPASAR,BIKANER,RAJASTHAN
SBBJ0011048,State Bank of Bikaner and Jaipur,SBBJ0011048,334003802,"KHATURIA COLONY,BIKANER","A-21 KHATURIA COLONY, BIKANER, DISTT.- BIKANER, STATE-RAJASTHAN PIN- 334003",TEL:0151-2223540,BIKANER,BIKANER,RAJASTHAN
SBBJ0011049,State Bank of Bikaner and Jaipur,SBBJ0011049,328003502,SARMATHURA,"HOSPITAL ROAD, P.O. SARMATHURA DISTT. DHOLPUR - 328026",9413396281,SIRMATHURA,DHOLPUR,RAJASTHAN
SBBJ0011050,State Bank of Bikaner and Jaipur,SBBJ0011050,302003067,"SARNA DUNGAR, JAIPUR","STATE BANK OF BIKANER & JAIPUR,G-1 /93 ,SARNA DUNGAR I.E.  , JAIPUR",9413396481,JAIPUR,JAIPUR,RAJASTHAN
SBBJ0011051,State Bank of Bikaner and Jaipur,SBBJ0011051,302003075,"ONLINE TREASURY BRANCH, JAIPUR","ROOM NO.349, 3RD FLOOR, PANT KRISHI BHAWAN, JAIPUR - 302005",0141-5117011,JAIPUR,JAIPUR,RAJASTHAN
SBBJ0011053,State Bank of Bikaner and Jaipur,SBBJ0011053,302003074,"RESERVE POLICE LINE, JAIPUR","RESERVE POLICE LINE, STATION ROAD, JAIPUR - 302016",0141-2200610,JAIPUR,JAIPUR,RAJASTHAN
SBBJ0011054,State Bank of Bikaner and Jaipur,SBBJ0011054,302003076,"NIRMAN NAGAR, JAIPUR","STATE BANK OF BIKANER & JAIPUR,GYANPEETH VIHAR , NIRMAN NAGAR , GAUTAM MARG,JAIPUR",9950264522,JAIPUR,JAIPUR,RAJASTHAN
SBBJ0011055,State Bank of Bikaner and Jaipur,SBBJ0011055,341003503,DHANKOLI,"MAIN MARKET,  DHONKALI, THE- DIDWANA, DIST- NAGAUR                   ","01580-256121,256145",DHANKOLI,NAGAUR,RAJASTHAN
SBBJ0011056,State Bank of Bikaner and Jaipur,SBBJ0011056,343003315,BAGORA,"JAIN MOHALLAH, BAGORA-343032 (DISTRICT JALORE) RAJASTHAN",9413397682 / 02969-264222,BAGODA,JALORE,RAJASTHAN
SBBJ0011058,State Bank of Bikaner and Jaipur,SBBJ0011058,341003002,"DIDWANA ROAD, NAGAUR","DIDWANA ROAD, NAGAUR - 341001","01582-240468, 246070",NAGAUR,NAGAUR,RAJASTHAN
SBBJ0011059,State Bank of Bikaner and Jaipur,SBBJ0011059,344003501,INDRANA,"STATE BANK OF BIKANER & JAIPUR, MAIN MARKET, POST-INDRANA, DISTT. BARMER - 344044",02901-265206,SIWANA,BARMER,RAJASTHAN
SBBJ0011060,State Bank of Bikaner and Jaipur,SBBJ0011060,302003077,"CROSS SELLING BAZAR, TONK ROAD, JAIPUR","APEX MALL, TONK ROAD, JAIPUR - 302015",0141-2744415,JAIPUR,JAIPUR,RAJASTHAN
SBBJ0011063,State Bank of Bikaner and Jaipur,SBBJ0011063,305003501,SAWAR,"NEAR BUS STAND, POST SAWAR, TEHSIL KEKRI, DISTT. AJMER - 305407",01467-282710,SAWAR,AJMER,RAJASTHAN
SBBJ0011065,State Bank of Bikaner and Jaipur,SBBJ0011065,306003502,BAR,"NEAR BUS STAND POST-BAR, TEHSIL RAIPUR MARWAR, DISTT. PALI 306105","02937-284120, 284220",BAR,PALI,RAJASTHAN
SBBJ0011068,State Bank of Bikaner and Jaipur,SBBJ0011068,334003501,RODA,VILLAGE RODA TEHSIL NOKHA DISTT. BIKANER 334803,9413396871,NOKHA,BIKANER,RAJASTHAN
SBBJ0011069,State Bank of Bikaner and Jaipur,SBBJ0011069,342003503,BANAR,"BHOPALGARH ROAD, NEAR BANAR RLY STATION, POST BANAR DISTT. JODHPUR - 342027",9413397467,BANAD,JODHPUR,RAJASTHAN
SBBJ0011071,State Bank of Bikaner and Jaipur,SBBJ0011071,314003231,SABLA,"STATE BANK OF BIKANER & JAIPUR,  ABHINANDAN COMPLEX, ASPUR ROAD, VPO- SABLA DISTRICT DUNGARPUR,        PINCODE 314022, RAJASTHAN
",02967-236035,SABLA,DUNGARPUR,RAJASTHAN
SBBJ0011074,State Bank of Bikaner and Jaipur,SBBJ0011074,312003502,BASSI,"RAWALBAGH, BUS STAND, BASSI, DISTT. CHITTORGARH - 312022",01472-225111,BASSI,CHITTORGARH,RAJASTHAN
SBBJ0011075,State Bank of Bikaner and Jaipur,SBBJ0011075,312003340,"HIGH SCHOOL ROAD, PARTAPGARH","HIGH SCHOOL ROAD, PARTAPBARH - 312605",01478-220066,PARTAPBARH,CHITTORGARH,RAJASTHAN
SBBJ0011076,State Bank of Bikaner and Jaipur,SBBJ0011076,312003751,SENTHI,"23A, BAPU NAGAR, SENTHI, DISTT. CHITTORGARH - 312605",01472-246123,CHITTORGARH,CHITTORGARH,RAJASTHAN
SBBJ0RRMRGB,State Bank of Bikaner and Jaipur,SBBJ0RRMRGB,NOT ISSUED,MGB GRAMIN BANK,"HEAD OFFICE, 2ND FLOOR, LIC BUILDING, MANDIYA ROAD, PALI-MARWAR 306 401","02932-251208, 220003, 251211, 221047",PALI,PALI,RAJASTHAN
SBBJ0010995,State Bank of Bikaner and Jaipur,SBBJ0010995,342003016,SHRI KANHAIYA NAGAR JODHPUR,"STATE BANK OF BIKANER AND JAIPUR PLOT NO. 03 , SHRI KANHAIYA NAGAR , SHIKARGARH CHORAHA JODHPUR PIN CODE 342001",0291- 2512145  9413397901,JODHPUR,JODHPUR,RAJASTHAN
SBBJ0010997,State Bank of Bikaner and Jaipur,SBBJ0010997,342003018,PAL ROAD JODHPUR,STATE BANK OF BIKANER AND JAIPUR  NEAR PREKSH HOSPITAL PAL ROAD JODHPUR342001,0291- 2786066  9413397486,JODHPUR,JODHPUR,RAJASTHAN
SBBJ0010998,State Bank of Bikaner and Jaipur,SBBJ0010998,342003017,MANDORE INDUSTRIAL AREA JODHPUR,"STATE BANK OF BIKANER AND JAIPUR PLOT NO. W-3-4  , NAGAURE ROAD MANDORE INDUSTRIAL AREA  JODHPUR PIN CODE 342007",0291- 2577052 9413397493,JODHPUR,JODHPUR,RAJASTHAN
SBBJ0011001,State Bank of Bikaner and Jaipur,SBBJ0011001,332003502,REENGUS,"WARD NO. 3, RAMANAND SCHOOL ROAD, RINGAS, TEH. SRIMADHOPUR, DISTT. SIKAR.            PIN : 332404",9413397318    01575-224044   01575-224055,REENGUS,SIKAR,RAJASTHAN
SBBJ0011066,State Bank of Bikaner and Jaipur,SBBJ0011066,341003504,THANWALA,"STATE BANK OF BIKANER & JAIPUR, NEAR BUS STAND, TEHSIL DEGANA, DISTT. NAGAUR - 34102663","01587-268131, 268021",THANWALA,NAGAUR,RAJASTHAN
SBBJ0011070,State Bank of Bikaner and Jaipur,SBBJ0011070,335003504,GURUSAR MODIA 26 MOD,"STATE BANK OF BIKANER & JAIPUR,    GURUSAR MODIA 26 MOD VILL.GURSAR MODIA  DISTT SRI GANGANAGAR (RAJASTHAN) PIN 335802",9413314112                 STD CODE-01509-260363,SRIGANGANAGAR,SRI GANGANAGAR,RAJASTHAN
SBBJ0011077,State Bank of Bikaner and Jaipur,SBBJ0011077,332003150,KHANDELA,"STATE BANK OF BIKANER & JAIPUR, MANDI BAZAR, POST-KHANDELA, DISTT. SIKAR - 332709",9413397365,KHANDELA,SIKAR,RAJASTHAN
SBBJ0011080,State Bank of Bikaner and Jaipur,SBBJ0011080,313003019,SECTOR-14 UDAIPUR,"STATE BANK OF BIKANER & JAIPUR,  PLOT-2, G BLOCK OPP.COMMUNITY CENTRE
MAIN ROAD  HIRAN MAGRI SECTOR-14 UDAIPUR  PINCODE 313002, RAJASTHAN
",9413396616,UDAIPUR,UDAIPUR,RAJASTHAN
SBBJ0011062,State Bank of Bikaner and Jaipur,SBBJ0011062,304003501,KAKOD,"Opposie Telephone Excahnge KAKOD, Distt. Tonk, Rajasthan",01436-268888,KAKOD,TONK,RAJASTHAN
SBBJ0011064,State Bank of Bikaner and Jaipur,SBBJ0011064,324 003 018,SRINATHPURAM,"77/B , Srinathpuram KOTA , PIN 324005.",0744-2360260,KOTA,KOTA,RAJASTHAN
SBBJ0011087,State Bank of Bikaner and Jaipur,SBBJ0011087,842 003 501,KAFEN CHOUDHARY(DIST-MUZAFFARPUR),"DELHI PUBLIC SCHOOL CAMPUS,KAFEN ROAD,GARHAN,POST-SANATHI,THANA-BOCHAHA,DIST-MUZAFFARPUR,BIHAR-843103",0621-2901151/09334086975,BOCHAHA,MUZAFFARPUR,BIHAR
SBBJ0011088,State Bank of Bikaner and Jaipur,SBBJ0011088,800 003 501,BIHTA(DIST-PATNA),"BIHTA MAIN ROAD,OPPOSITE OLD BANDH OFFICE,POST-BIHTA,DIST.-PATNA,BIHAR-",06115-252209/ 09771457887,BIHTA,"PATNA,BIHAR-801103",BIHAR
SBBJ0011099,State Bank of Bikaner and Jaipur,SBBJ0011099,343003185,CHITALWANA,"Near Rajeev Gandhi Sewa Kendra, Ratanpur Road, Chitalwana",02979-286400 / 8003995093,CHITALWANA,JALORE,RAJASTHAN
SBBJ0011119,State Bank of Bikaner and Jaipur,SBBJ0011119,302003082,BAGRU INDUSTRIAL AREA,"H-140 BAGRU INDUSTRIAL ASSOCIATION BUILDING,RIICO INDUSTRAIL AREA BAGRU EXTENSION-303007",0141-2168499,BAGRU,JAIPUR,RAJASTHAN
SBBJ0011121,State Bank of Bikaner and Jaipur,SBBJ0011121,341003122,JASWANTGARH,"SHRI JASWANTGARH HITKARINI SABHA, MAIN MARKET, JASWANTGARH (TEHSIL: LADNUN), DIST: NAGAUR-341304",01581-280132,JASWANTGARH,JODHPUR,RAJASTHAN
SBBJ0011032,State Bank of Bikaner and Jaipur,SBBJ0011032,341003201,MERTA ROAD,"SBBJ, OPP. SINGHVI CLINIC, BUS STAND, MERTA ROAD, DISTT. NAGAUR - 341511","01591-275001, 9413397793",MERTA ROAD,NAGAUR,RAJASTHAN
SBBJ0011039,State Bank of Bikaner and Jaipur,SBBJ0011039,313003228,KALADWAS,"STATE BANK OF BIKANER & JAIPUR,  G-1/316,BHAMASHAH INDUSTRIAL AREA,
KALADWAS,TEHSIL GIRWA, DISTRICT UDAIPUR,        PINCODE 313003, RAJASTHAN
",0294-2650027,UDAIPUR,UDAIPUR,RAJASTHAN
SBBJ0011040,State Bank of Bikaner and Jaipur,SBBJ0011040,333003003,"COLLECTORATE, JHUNJHUNU","COLLECTORATE PREMISES, JHUNJHUNU - 333001","01592-232297, 9413397327",JHUNJHUNU,JHUNJHUNU,RAJASTHAN
SBBJ0011044,State Bank of Bikaner and Jaipur,SBBJ0011044,345003201,"GANDHI COLONY, JAISALMER","SBBJ, AGRI.INTENSIVE BRANCH, GANDHI COLONY, MAIN ROAD, NAV KHUNIA, JAISALMER - 345001","02992-250982, 250862",JAISALMER,JAISALMER,RAJASTHAN
SBBJ0011057,State Bank of Bikaner and Jaipur,SBBJ0011057,343003002,"INDUSTRIAL AREA, JALORE","INDUSTRIAL AREA, PHASE-III SHANTI MARKET, BHINMAL ROAD, JALORE PIN-343001",02973-224266,JALORE,JALORE,RAJASTHAN
SBBJ0011067,State Bank of Bikaner and Jaipur,SBBJ0011067,302003078,BANSKHO - JAIPUR,"GRAM PANCHAYAT BHAWAN, BUS STAND, BANSKHO, DISTT. JAIPUR PIN-303305",9414024538,BANSKHO,JAIPUR,RAJASTHAN
SBBJ0011073,State Bank of Bikaner and Jaipur,SBBJ0011073,302003088,SHIVDASPURA - JAIPUR,"BUS STAND, SHIVDASPURA, DISTT. JAIPUR PIN-303903",9413396667,SHIVDASPURA,JAIPUR,RAJASTHAN
SBBJ0011078,State Bank of Bikaner and Jaipur,SBBJ0011078,333003399,"LOHARU ROAD, PILANI","LOHARU ROAD, NEAR POLICE STATION PILANI DISTT. JHUNJHUNU PIN-333001",01595-244379,PILANI,JHUNJHUNU,RAJASTHAN
SBBJ0011079,State Bank of Bikaner and Jaipur,SBBJ0011079,333003504,SINGHANA,"KK HOSPITAL PREMISES, CHIRAWA BYE PASS ROAD, SINGHANA DISTT. JHUNJHUNU PIN-333516",01593-222101,SINGHANA,JHUNJHUNU,RAJASTHAN
SBBJ0011084,State Bank of Bikaner and Jaipur,SBBJ0011084,311 003 020,UNIVERSITY ROAD UDAIPUR,"STATE BANK OF BIKANER AND JAIPUR, 365, SURYA PLAZA,                         UDAIPUR,                            RAJASTHAN                                           PIN CODE 313001.               MOBILE 9413398108",9413398108,UDAIPUR,UDAIPUR,RAJASTHAN
SBBJ0011085,State Bank of Bikaner and Jaipur,SBBJ0011085,311003008,R.C. VYAS COLONY BHILWARA,"STATE BANK OF BIKANER AND JAIPUR, 4-A-10/B, R.C. VYAS COLONY, DISTRICT- BHILWARA, RAJASTHAN PIN CODE 311001.",1482-230163,BHILWARA,BHILWARA,RAJASTHAN
SBBJ0011101,State Bank of Bikaner and Jaipur,SBBJ0011101,313 003 021,UDAIPUR HIRAN MAGRI SECTOR-6,3-BH-16 HIRAN MAGRI SECTOR-5  MAIN ROAD  UDAIPUR  PIN 313002,"9413398119 
 8003994858",UDAIPUR,UDAIPUR,RAJASTHAN
SBBJ0011102,State Bank of Bikaner and Jaipur,SBBJ0011102,307 003 025,"INDUSTRIAL AREA, ABU ROAD","STATE BANK OF BIKANER AND JAIPUR,                                                    LIC BUILDING,  RIICO INDUSTRIAL AREA,  ABU ROAD     (RAJASTHAN)                                           PIN CODE 307026.               MOBILE 9414062504","9414062504
8003893943",ABU ROAD,SIROHI,RAJASTHAN
SBBJ0011112,State Bank of Bikaner and Jaipur,SBBJ0011112,334003318,AKASAR,"VILLAGE AKASAR, TEHSIL, DISTT. BIKANER, RAJASTHAN - 334001",PHONE NO. ONLY - 01534 - 235330,BIKANER,BIKANER,RAJASTHAN
SBBJ0011116,State Bank of Bikaner and Jaipur,SBBJ0011116,331003506,KATAR CHHOTI,"NEAR PETROL PUMP, VPO KATAR CHHOTI, TEHSIL SUJANGARH, DISTT. CHURU, RAJASTHAN - 331517",01569 - 245331,KATAR BARI,CHURU,RAJASTHAN
SBBJ0011117,State Bank of Bikaner and Jaipur,SBBJ0011117,331003505,RATAN NAGAR,"OPP. BUS STAND, VPO RATAN NAGAR, TEHSIL & DISTT. CHURU, RAJASTHAN - 331021",01562 - 281897,RATANNAGAR,CHURU,RAJASTHAN
SBBJ0011120,State Bank of Bikaner and Jaipur,SBBJ0011120,331003144,"SARDARSHAHAR, GVM ROAD","NEAR KACHCHA BUS STAND, SARDARSHAHAR,TEHSIL SARDARSHAHAR, DISTT. CHURU, RAJASTHAN - 331403",01564 -2229035,SARDARSHAHAR,CHURU,RAJASTHAN
SBBJ0011012,State Bank of Bikaner and Jaipur,SBBJ0011012,325003503,KAWAI,"NEAR POLICE STATION,                                                    KAWAI SALPURA                                       TEHSIL- ATRU                                    DIST-BARAN",07451-245355,KAWAI,BARAN,RAJASTHAN
SBBJ0011041,State Bank of Bikaner and Jaipur,SBBJ0011041,331003502,UPNI,"VILLAGE: UPNI (KALYAMSAR) TEHSIL: SRI DUNGARGARH DISTT. BIKANER PIN : 331803
",9602296500,DUNGARGARH,CHURU,RAJASTHAN
SBBJ0011052,State Bank of Bikaner and Jaipur,SBBJ0011052,334003006,"KARNI NAGAR (LALGARH) ,BIKANER","A-15 KARNINAGAR (LALGARH), BIKANER, DISTT.- BIKANER, STATE-RAJASTHAN PIN- 334001",TEL:0151-2223009,BIKANER,BIKANER,RAJASTHAN
SBBJ0011061,State Bank of Bikaner and Jaipur,SBBJ0011061,305 003 003,DHOLA BHATA,"SBBJ DHOLA BHATA, NEAR BSNL EXCHANGE, MAIN CHAURAHA, DHOLA BHATA, DISTT.- AJMER, RAJ-305001",0145-2626867,AJMER,AJMER,RAJASTHAN
SBBJ0011081,State Bank of Bikaner and Jaipur,SBBJ0011081,302003079,"SECTOR-4, JAWAHAR NAGAR, JAIPUR","MATRIX MALL, SECTOR-4, JAWAHAR NAGAR, JAIPUR",9460387166,JAIPUR,JAIPUR,RAJASTHAN
SBBJ0011082,State Bank of Bikaner and Jaipur,SBBJ0011082,324 003 019,RIDDHI SIDDHI NAGAR,"STATE BANK OF BIKANER & JAIPUR,    PLOT NO 10, RIDDHI SIDDHI NAGAR, KOTA -324008 (RAJASTHAN)",0744-2362521,KOTA,KOTA,RAJASTHAN
SBBJ0011089,State Bank of Bikaner and Jaipur,SBBJ0011089,305 003 004,"CHANDERVARDAI, AJMER","SBBJ CHANDERVARDAI, PLOT NO. 1, KHEL MAIDAN KE SAMNE, CHANDERVARDAI NAGAR, DISTT.- AJMER, RAJ-305002",0145-2692779,AJMER,AJMER,RAJASTHAN
SBBJ0011095,State Bank of Bikaner and Jaipur,SBBJ0011095,332003504,KULI KHACHARIAWAS,"IN FRONT OF SMT. KAMALA  DEVI DHOOT GOVT. CHC KULI KHACHRIAWAS, DISTT. SIKAR- 332710",8003397937,DANTA,SIKAR,RAJASTHAN
SBBJ0011096,State Bank of Bikaner and Jaipur,SBBJ0011096,332003128,AJITGARH,"NEAR HOTEL NARAIN PALACE, SHAHPURA ROAD AJEETGARH. DISTT. SIKAR 332701 ",8764151506,AJITGARH,SIKAR,RAJASTHAN
SBBJ0011097,State Bank of Bikaner and Jaipur,SBBJ0011097,303003056,JOBNER  (11097),"NEAR BUS STAND, JOBNER","01425 254116, 94133 96691",JOBNER,JAIPUR,RAJASTHAN
SBBJ0011098,State Bank of Bikaner and Jaipur,SBBJ0011098,303003202,LAWAN  (11098),"DAUSA BUS STAND, NEAR GOVT. PURBIA SCHOOL, LAWAN","01427 285833, 94133 96712",LAWAN,DAUSA,RAJASTHAN
SBBJ0011106,State Bank of Bikaner and Jaipur,SBBJ0011106,311003009,CHANDRA SHEKHAR AZAD NAGAR,"STATE BANK OF BIKANER & JAIPUR, YASH PALACE, NEAR PUBLIC WATER TANK, MAIN ROAD, CHANDRA SHEKHAR AZAD NAGAR, BHILWARA",9413398437,BHILWARA,BHILWARA,RAJASTHAN
SBBJ0011093,State Bank of Bikaner and Jaipur,SBBJ0011093,303003054,CHANDWAJI,"CHOMU ROAD, CHANDWAJI, TEHSIL AMER 303104","01426 284702, 8003591891",CHANDWAJI,JAIPUR,RAJASTHAN
SBBJ0011114,State Bank of Bikaner and Jaipur,SBBJ0011114,160003004,ZIRAKPUR,"S.C.F. 11-12, ROYALE PAAM, BLOCK C, VIP ROAD, ZIRAKPUR, DISTT. MOHALI (PUNJAB)",9463479927,ZIRAKPUR,PATIALA,PUNJAB
SBBJ0011126,State Bank of Bikaner and Jaipur,SBBJ0011126,380003006,CHHATRAL,SHOP 1 TO 5 SONANA PLAZA OPPOSITE UGVCL HOUSE CHHATRAL,9428218168,CHHATRAL,GANDHINAGAR,GUJARAT
SBBJ0011138,State Bank of Bikaner and Jaipur,SBBJ0011138,392003071,DAHEJ,"FF 45 TO 49 SHALIGRAM COMPLEX, IPCL ROAD DAHEJ, DISTRICT BHARUCH",9925236530 7829111198,DAHEJ,BHARUCH,GUJARAT
SBBJ0011110,State Bank of Bikaner and Jaipur,SBBJ0011110,335003360,19 Z SRIGANGANAGAR,"CENTRAL GURUDWARA 19 Z SRIKARANPUR MAIN ROAD, SRIGANGANAGAR DISTT. SRIGANGANAGAR RAJSATHAN 335038",0154-2869089,GANGANAGAR,GANGANAGAR,RAJASTHAN
SBBJ0011111,State Bank of Bikaner and Jaipur,SBBJ0011111,335003163,NEW DHAN MANDI SRIKARANPUR,NEAR GURUDWARA SHREE NANAK DARBAR SRIGANGANAGAR ROAD SRIKARANPUR DISTT. SRIGANGANAGAR RAJASTHAN 335073,01501-226124,KARANPUR,GANGANAGAR,RAJASTHAN
SBBJ0011137,State Bank of Bikaner and Jaipur,SBBJ0011137,325003504,KAITHOON,VILL/PO. KAITHOON DISTT- KOTA (RAJASTHAN),0744 - 2844600,KAITHUN,KOTA,RAJASTHAN
SBBJ0011130,State Bank of Bikaner and Jaipur,SBBJ0011130,325003268,SULTANPUR,"NEAR VIDYAPEETH, KOTA ROAD, SULTANPUR (RAJASTHAN)",07455 - 224160,Sultanpur,KOTA,RAJASTHAN
SBBJ0011086,State Bank of Bikaner and Jaipur,SBBJ0011086,302003080,"KARGHANI, JAIPUR","5A, SANJAY NAGAR, NEAR JOSHI MARG, KALWAR ROAD, (KARGHANI)    JAIPUR- 302012","0141-6000223, 9413398753",JAIPUR,JAIPUR,RAJASTHAN
SBBJ0011103,State Bank of Bikaner and Jaipur,SBBJ0011103,301003101,KOT KASIM,OPP.POLICE STATION,01274-235200,KOTKASIM,ALWAR,RAJASTHAN
SBBJ0011104,State Bank of Bikaner and Jaipur,SBBJ0011104,301003065,RAMGARH,"OPP. PETROL PUMP, THE. RAMGARH, DISTT. ALWAR",PHONE NO. ONLY 01468-231102,RAMGARH,ALWAR,RAJASTHAN
SBBJ0011115,State Bank of Bikaner and Jaipur,SBBJ0011115,342003210,MATHANIA,"OPP.GOVERNMENT HOSPITAL,OSIAN ROAD,MATHANIA,TEH.OSIAN DISTT.:JODHPUR, PIN CODE 342305","02926-222054, 9413396534",MATHANIA,JODHPUR,RAJASTHAN
SBBJ0011129,State Bank of Bikaner and Jaipur,SBBJ0011129,221003003,BABATPUR,"BABATPUR-BASNI ROAD, BABATPUR, VARANASI, UP-221006",0542-2622244,BABATPUR,VARANASI,UTTAR PRADESH
SBBJ0011133,State Bank of Bikaner and Jaipur,SBBJ0011133,400003021,SHAHPUR,"454, MANGALMURTI APARTMENT, PANDIT NAKA, SANT TUKARAM MAHARAJ CHOWK, CHERPOLI, SHAHPUR, DIST THANE 421601",02527-272666,SHAHAPUR,THANE,MAHARASHTRA
SBBJ0011136,State Bank of Bikaner and Jaipur,SBBJ0011136,334 003 502,LAKHUSAR,"SBBJ SAMUDAYAK BAHWAN PANCHAYAT SAMITI, POST LAKHUSAR-334001, DISTT. BIKANER",0151-210210  9413396948,BIKANER,BIKANER,RAJASTHAN
SBBJ0011094,State Bank of Bikaner and Jaipur,SBBJ0011094,342003209,BAORI,"NEAR MARUDHARA IOCL PETROL PUMP,NH-65,NAGAUR ROAD,BAORI,DISTT.-JODHPUR PIN CODE:342037","02927-265026, 9413397456",BAORI,JODHPUR,RAJASTHAN
SBBJ0011108,State Bank of Bikaner and Jaipur,SBBJ0011108,342003502,DECHU,"SAGAR ROAD ,JODHPUR NATIONAL HIGHWAY,OPP.PANCHAYAT BHAWAN,DECHU , DISTT.JODHPUR (RAJ.) PIN CODE:342314",9413397888,PHALODI,JODHPUR,RAJASTHAN
VARA0289001,State Bank of Bikaner and Jaipur,VARA0289001,325 003 268,SULTANPUR,"NEAR VIDYAPEETH, KOTA ROAD, SULTANPUR (RAJASTHAN)",07455 - 224160,SULTANPUR,KOTA,RAJASTHAN
SBBJ0011127,State Bank of Bikaner and Jaipur,SBBJ0011127,380003007,SANAND,"SHIVSHAKTI COMPLEX, SHIVKRUPA HOU. SOC, NEAR KOTAK BANK SANAND DISTRICT AHMEDABAD 382110",9167499050,SANAND,AHMEDABAD,GUJARAT
SBBJ0011131,State Bank of Bikaner and Jaipur,SBBJ0011131,323003252,LAKHERI,BUS STAND LAKHERI,07438-261066,LAKHERI,BUNDI,RAJASTHAN
SBBJ0011100,State Bank of Bikaner and Jaipur,SBBJ0011100,313003230,BALICHA,VILLAGE AND POST BALICHA DISTRICT -UDAIPUR,9413398012,GORDHAN VILAS,UDAIPUR,RAJASTHAN
SBBJ0011132,State Bank of Bikaner and Jaipur,SBBJ0011132,342003504,AAU,"HIMMAT SINGH BUILDING, BHOJASAR CHORAYA, NAGAUR ROAD, AAU VIA PHALODI, DISTT.-JODHPUR",9413397748,PHALODI,JODHPUR,RAJASTHAN
SBBJ0011118,State Bank of Bikaner and Jaipur,SBBJ0011118,335003162,4RRW(RODAWALI),"VILL. RODAWALI, THE. HANUMANGARH, DISTT. HANUMANGARH. RAJASTHAN",9413397243,HANUMANGARH,HANUMANGARH,RAJASTHAN
SBBJ0011134,State Bank of Bikaner and Jaipur,SBBJ0011134,306003503,NADOL,"VILL. & P.O. NADOL, THE. DESURI, DISTT. PALI, RAJASTHAN",02934240025/8003597123,NADOL,PALI,RAJASTHAN
SBBJ0011128,State Bank of Bikaner and Jaipur,SBBJ0011128,380003008,CHANGODAR,"TAJPUR PATIYA, CHANGODAR BAVLA ROAD, NEAR CENTRAL BANK, CHANGODAR DISTRICT AHMEDABAD",9099091140,CHANGODAR,AHMADABAD,GUJARAT
SBBJ0011092,State Bank of Bikaner and Jaipur,SBBJ0011092,303003055,SAMBHAR (11092),"NEAR BUS STAND , SAMBHAR LAKE, DISTT. JAIPUR, RAJASTHAN",1425225441,SAMBHAR LAKE,JAIPUR,RAJASTHAN
SBBJ0011113,State Bank of Bikaner and Jaipur,SBBJ0011113,344003515,MANDALI,"MAIN ROAD,PO-MANDALI-344026, TEHSIL-. PACHPADRA,DIST- ARMER",8003592736,MANDALI,BARMER,RAJASTHAN
SBBJ0011107,State Bank of Bikaner and Jaipur,SBBJ0011107,313003229,"KELWA, DISTT RAJSAMAND","BHIKSHU VIHAR, KELWA, DISTT. - RAJSAMAND, RAJASTHAN. PIN-313334","02952-274055, 09413398744",KELWA,RAJSAMAND,RAJASTHAN
SBBJ0011123,State Bank of Bikaner and Jaipur,SBBJ0011123,827003002,CHAS,"DHARAMSHALA MORE, OPPOSITE MARWARI PANCHAYAT,CHAS,DISTRICT -BOKARO,JHARKHAND-827013",6542235610,CHAS,BOKARO,JHARKHAND
SBBJ0011142,State Bank of Bikaner and Jaipur,SBBJ0011142,342003505,BAP,"NEAR BAP BUS STAND, OPPO. GRAM ANCHAYAT BHAWAN TEH:BAP,VIA PHALODI 
DISTT:JODHPUR PIN CODE:342307",02921-277006 09413397899,BAP  (PHALODI),JODHPUR,RAJASTHAN
SBBJ0011159,State Bank of Bikaner and Jaipur,SBBJ0011159,334003023,PUGAL ROAD BIKANER,OPP SABJI MANDI PUGAL ROAD BIKANER,9413396904,BIKANER,BIKANER,RAJSTHAN
SBBJ0011124,State Bank of Bikaner and Jaipur,SBBJ0011124,382003501,DHOLERA,"SHOP 1,2 & 3, RIDDHI SIDDHI COMPLEX, PORT ROAD, DHOLERA",9925237352,DHOLERA,AHMADABAD,GUJARAT
SBBJ0011125,State Bank of Bikaner and Jaipur,SBBJ0011125,382003502,BAGODARA,"SHOP.3,4,&5,KAMDHENU COMPLEX, NH-8A, BAGODARA",9925237439,BAGODARA,AHMADABAD,GUJARAT
SBBJ0011135,State Bank of Bikaner and Jaipur,SBBJ0011135,301003505,"NAOGAON, DISTT. ALWAR","VILLAGE NAOGAON, THE. RAMGARH, DISTT. ALWAR, RAJASTHAN - 301025",9549030888,ALWAR,ALWAR,RAJASTHAN
SBBJ0011139,State Bank of Bikaner and Jaipur,SBBJ0011139,380003009,KALOL,"GF-CITY MALL-3, NAVJIVAN MILL COMPOUND, KALOL",9428521283,KALOL,GANDHINAGAR,GUJARAT
SBBJ0011143,State Bank of Bikaner and Jaipur,SBBJ0011143,334 003 017,"JAWAHAR NAGAR, BIKANER","A-6, JAWAHAR NAGAR, JAISALMER ROAD, BIKANER-334001, RAJASTHAN",9413396813,BIKANER,BIKANER,RAJASTHAN
SBBJ0011146,State Bank of Bikaner and Jaipur,SBBJ0011146,311003010,"SUBHASH NAGAR, BHILWARA","73, LAXMI TOWERS, SUBHASH NAGAR EXTENSION, AJMER ROAD, BHILWARA-311001, RAJASTHAN",9413398411,BHILWARA,BHILWARA,RAJASTHAN
SBBJ0011147,State Bank of Bikaner and Jaipur,SBBJ0011147,311003011,SHASTRI NAGAR BHILWARA,"SHOP NO. 49,50,58-59, OPP. COMMUNITY CENTRE, SHASHTRI NAGAR, BHILWARA-311001 RAJASTHAN","01482-251147, 9413398163",BHILWARA,BHILWARA,RAJASTHAN
SBBJ0011148,State Bank of Bikaner and Jaipur,SBBJ0011148,332003025,"SANWALI ROAD, SIKAR","NEAR PANCHAYAT SAMITI, BHOG BHAWAN, SIKAR, RAJASTHAN. PIN-332001",9413397341,SIKAR,SIKAR,RAJASTHAN
SBBJ0011149,State Bank of Bikaner and Jaipur,SBBJ0011149,312003247,BUPALSAGAR,"BUS STAND,RANKA PLAZA,BHUPLASAGAR     DISTT-CHITTORGARH(RAJ.)               PIN-312204",9413398015,BUPALSAGAR,CHITTAURGARH,RAJASTHAN
SBBJ0011153,State Bank of Bikaner and Jaipur,SBBJ0011153,303 003 022,UDAIPUR SUKHER,"97-98 SUKHER  
MAIN ROAD  N.H. 8
SUKHER ,UDAIPUR
PIN 313001
",8003994960,UDAIPUR,UDAIPUR,RAJASTHAN
SBBJ0011165,State Bank of Bikaner and Jaipur,SBBJ0011165,313 003 023,UDAIPUR OLD FATEHPURA,7/1 FATEHPURA NEAR TRIVENI HOSPITAL MAIN ROAD FATEHPURA UDAIPUR 313001,9413398018,UDAIPUR,UDAIPUR,RAJASTHAN
SBBJ0011171,State Bank of Bikaner and Jaipur,SBBJ0011171,133003003,AMBALA CITY,"102, PREM NAGAR, AMBALA CITY","0171-2553563, 2553564",AMBALA,AMBALA,HARYANA
SBBJ0011172,State Bank of Bikaner and Jaipur,SBBJ0011172,144003002,"COOL ROAD, JALANDHAR","75, GURJEPAL NAGAR, JALANDHAR 144001","0181-2227919, 2457919",JALANDHAR,JALANDHAR,PUNJAB
SBBJ0011173,State Bank of Bikaner and Jaipur,SBBJ0011173,327003202,DANPUR,"GHODITEJPUR CHOURAHA, PLAZA,BHUPLASAGAR  BANSWARA RATLAM ROAD,  DANPUR                         DISTT-BANSWARA(RAJ.)               PIN-327001","08226002870 , 09425927311 ",DANPUR,BANSWARA,RAJASTHAN
SBBJ0011152,State Bank of Bikaner and Jaipur,SBBJ0011152,301003066,BARODAMEO,"ALWAR-BHARATPUR ROAD, BARODAMEO. DISTT. ALWAR. RAJASTHAN 301021",9549140777,BARODAMEO,ALWAR,RAJASTHAN
SBBJ0011154,State Bank of Bikaner and Jaipur,SBBJ0011154,302003089,"SIKAR ROAD, JAIPUR","SHANTI ASIATIC SCHOOL, PLOT NO. 1, SUNCITY, SIKAR ROAD, JAIPUR, RAJASTHAN, PIN CODE : 302013",9413397355,JAIPUR,JAIPUR,RAJASTHAN
SBBJ0011155,State Bank of Bikaner and Jaipur,SBBJ0011155,302003090,"SIRSI ROAD, JAIPUR","ROSEWOOD APARTMENTS, OPP. DHAKA NAGAR, VILL.-MEENAWALA, SIRSI ROAD, JAIPUR, RAJASTHAN, PIN CODE : 302012",9413396497,JAIPUR,JAIPUR,RAJASTHAN
SBBJ0011160,State Bank of Bikaner and Jaipur,SBBJ0011160,302003091,"VIJAY PATH, MANSAROVAR, JAIPUR","120/12, VIJAY PATH, MANSAROVAR,JAIPUR, RAJASTHAN, PIN CODE : 302020",8003093278,JAIPUR,JAIPUR,RAJASTHAN
SBBJ0011161,State Bank of Bikaner and Jaipur,SBBJ0011161,302003092,"TRANSPORT NAGAR, JAIPUR","SHOW ROOM-5, TRANSPORT NAGAR, AGRA ROAD, JAIPUR, RAJASTHAN, PIN CODE : 302004",9413397172,JAIPUR,JAIPUR,RAJASTHAN
SBBJ0011162,State Bank of Bikaner and Jaipur,SBBJ0011162,302003093,"TEXTILE MARKET, JAIPUR","TEXTILE MARKET, JAGATPURA, JAIPUR, RAJASTHAN, PIN CODE : 302015",9413399435,JAIPUR,JAIPUR,RAJASTHAN
SBBJ0011163,State Bank of Bikaner and Jaipur,SBBJ0011163,302003094,"METROPOLIS MALL, JAIPUR","METROPOLIS MALL, NEAR PURANI CHUNGI, AJMER ROAD, JAIPUR, RAJASTHAN, PIN CODE : 302063",9413396446,JAIPUR,JAIPUR,RAJASTHAN
SBBJ0011168,State Bank of Bikaner and Jaipur,SBBJ0011168,335003164,"NEW DHAN MANDI, PADAMPUR","KRISHI UPAJ MANDI PARISAR, PADAMPUR, SRIGANGANAGAR, RAJASTHAN PIN-335041",01505-232152,PADAMPUR,GANGANAGAR,RAJASTHAN
SBBJ0011169,State Bank of Bikaner and Jaipur,SBBJ0011169,335003004,"AGRASEN CHOWK, SRIGANGANAGAR","5 Q 1 AGRASEN CHOWK, JAWAHAR NAGAR, SRIGANGANAGAR. PIN-335001 RAJASTHAN",0154-2461203,GANGANAGAR,GANGANAGAR,RAJASTHAN
SBBJ0011174,State Bank of Bikaner and Jaipur,SBBJ0011174,135003002,YAMUNA NAGAR,"E-20, INDUSTRIAL AREA, NEAR BUS STAND, YAMUNA NAGAR-135001 HARYANA","01732-290002, 290003",YAMUNANAGAR,YAMUNANAGAR,HARYANA
SBBJ0011176,State Bank of Bikaner and Jaipur,SBBJ0011176,302003095,"NIVARU ROAD, JAIPUR","12, GANESH NAGAR, NIVARU ROAD, JAIPUR RAJASTHAN, PIN CODE : 302012",9413397355,JAIPUR,JAIPUR,RAJASTHAN
SBBJ0011179,State Bank of Bikaner and Jaipur,SBBJ0011179,560003005,KORAMANGALA,"GROUND FLOOR, 610, 80 FEET ROAD,6TH BLOCK, KORAMANGALA, BANGALORE",8220622822,BANGALORE,BANGALORE URBAN,KARNATAKA
SBBJ0011180,State Bank of Bikaner and Jaipur,SBBJ0011180,520003001,VIJAYAWADA,"45-1-3/3,45-1-3/2, AB TWINS APARTMENT, GUNADALA, VIJAYAWADA",9703460382,VIJAYAWADA,KRISHNA,ANDHRA PRADESH
SBBJ0011122,State Bank of Bikaner and Jaipur,SBBJ0011122,802003002,BUXAR,"PLOT  NO.112 & 113 ,OPPOSITE PANCHMUKHI MAHAVIR TEMPLE,MAIN ROAD,BUXAR,BIHAR-802101",9162355768,BUXAR,BUXAR,BIHAR
SBBJ0011150,State Bank of Bikaner and Jaipur,SBBJ0011150,110 003 038,"SWASTHYA VIHAR, DELHI ","A-1, SWASTHYA VIHAR, VIKAS MARG, DELHI-110092",8130799528,DELHI,DELHI,DELHI
SBBJ0011151,State Bank of Bikaner and Jaipur,SBBJ0011151,226 003 004,"GOMTI NAGAR, LUCKNOW","2/144, VIPUL KHAND, GOMTI NAGAR, LUCKNOW-226010",9473746304,LUCKNOW,LUCKNOW,UTTAR PRADESH
SBBJ0011166,State Bank of Bikaner and Jaipur,SBBJ0011166,342003021,"SHASTRI NAGAR,JODHPUR","A-23,SHASTRI NAGAR,JODHPUR  (RAJ.),PIN CODE:342003",0291- 09413397417,JODHPUR,JODHPUR,RAJASTHAN
SBBJ0011167,State Bank of Bikaner and Jaipur,SBBJ0011167,342003020,"CIRCUIT HOUSE, JODHPUR","1-A-HANUMAT NAGAR,OPP.LIC OFFICE,CIRCUIT HOUSE ROAD,JODHPUR (RAJ.)PIN:342011


",0291- 09413397476,JODHPUR,JODHPUR,RAJASTHAN
SBBJ0011170,State Bank of Bikaner and Jaipur,SBBJ0011170,306003026,"NAYAGAON INDUSTRIAL AREA, PALI","VISHAWAS BHAWAN, GAUTAM VIHAR, NAYA GAON ROAD, PALI-306401",8003597098,PALI,PALI,RAJASTHAN
SBBJ0011175,State Bank of Bikaner and Jaipur,SBBJ0011175,305003747,SBBJ MASUDA,"SBBJ MASUDA, OUT SIDE AJMERI GATE, NEAR BUS STAND, MASUDA, DISTT.- AJMER, RAJ-305624",01462-266009,MASUDA,AJMER,RAJASTHAN
SBBJ0011187,State Bank of Bikaner and Jaipur,SBBJ0011187,305003535,SBBJ DEOLIYA KALAN,"STATE BANK OF BIKANER & JAIPUR  DEOLIYAKALAN BRANCH (11187) , NEAR BUS STAND, MAIN ROAD DEOLIYAKALAN,TEHSIL - BHINAY, DISTT.- AJMER, RAJASTHAN-305624",01466-271033,DEOLIA KALAN,AJMER,RAJASTHAN