ID,BANK,IFSC_CODE,MICR_CODE,BRANCH_NAME,ADDRESS,CONTACT,CITY,DISTRICT,STATE
CIUB0000001,City Union Bank Ltd,CIUB0000001,600054003,THIYAGARAYA NAGAR (CHENNAI),"19 MAHALAKSHMI STREET,T NAGAR",,CHENNAI,CHENNAI,TAMIL NADU
CIUB0000002,City Union Bank Ltd,CIUB0000002,NON-MICR,THANJAVUR,"1609 - 1611, GROUND FLOOR, KANAKA RAMA VILAS SOUTH MAIN STREET",,THANJAVUR,THANJAVUR,TAMIL NADU
CIUB0000003,City Union Bank Ltd,CIUB0000003,NON-MICR,KUMBAKONAM TOWN,"42,  MUTT STREET,TOWN BRANCH",,KUMBAKONAM,THANJAVUR,TAMIL NADU
CIUB0000004,City Union Bank Ltd,CIUB0000004,NON-MICR,KUMBAKONAM MAIN,"149, T.S.R (BIG) STREET",,KUMBAKONAM,THANJAVUR,TAMIL NADU
CIUB0000005,City Union Bank Ltd,CIUB0000005,NON-MICR,MAYILADUTHURAI,"87,  PATTAMANGALA STREET",,MAYILADUTHURAI,NAGAPATTINAM,TAMIL NADU
CIUB0000006,City Union Bank Ltd,CIUB0000006,NON-MICR,NAGAPATTINAM,"INDIRANI COMPLEX  NO. 68, GROUND FLOOR       NEELA SOUTH STREET",,NAGAPPATTINAM,NAGAPATTINAM,TAMIL NADU
CIUB0000007,City Union Bank Ltd,CIUB0000007,NON-MICR,MANNARGUDI,"174, MAHATMA GANDHI ROAD",,MANNARGUDI,TIRUVARUR,TAMIL NADU
CIUB0000008,City Union Bank Ltd,CIUB0000008,NON-MICR,TIRUVARUR VIJAYAPURAM,"MUTHU SHOPPING COMPLEX, GROUND FLOOR - NO. 84MARKET ROAD",,VIJAYAPURAM,TIRUVARUR,TAMIL NADU
CIUB0000009,City Union Bank Ltd,CIUB0000009,NON-MICR,ADUTHURAI,"359, MAIN ROAD",,ADUTHURAI,THANJAVUR,TAMIL NADU
CIUB0000010,City Union Bank Ltd,CIUB0000010,NON-MICR,AYYAMPET,"337- 338,   EAST SALAI STREET",,AYYAMPET,THANJAVUR,TAMIL NADU
CIUB0000011,City Union Bank Ltd,CIUB0000011,NON-MICR,ERAVANCHERI,"2/332,      MAIN ROAD",,ERAVANCHERI,TIRUVARUR,TAMIL NADU
CIUB0000012,City Union Bank Ltd,CIUB0000012,NON-MICR,KORADACHERI,"220, V.K.M.BUILDINGS,KAMARAJAR SALAI",,KORADACHERY,TIRUVARUR,TAMIL NADU
CIUB0000013,City Union Bank Ltd,CIUB0000013,NON-MICR,KODAVASAL,"45,  BAZAAR STREET",,KODAVASAL,TIRUVARUR,TAMIL NADU
CIUB0000014,City Union Bank Ltd,CIUB0000014,NON-MICR,KUTTALAM,"8,   SANTHARAM STREET",,KUTTALAM,NAGAPATTINAM,TAMIL NADU
CIUB0000015,City Union Bank Ltd,CIUB0000015,NON-MICR,NANNILAM,"53,  B. BAZAR STREET",,NANNILAM,TIRUVARUR,TAMIL NADU
CIUB0000016,City Union Bank Ltd,CIUB0000016,NON-MICR,SANNANALLUR,"CRESCENT COMPLEX  32/2, GROUND FLOOR, NAGAPATTINAM MAIN ROAD",,SANNANALLUR,TIRUVARUR,TAMIL NADU
CIUB0000017,City Union Bank Ltd,CIUB0000017,NON-MICR,PORAYAR,"NIVEDHA COMPLEX  DOOR NO. 14 AND 15, SANDHAVELI STREET",,PROYAR,NAGAPATTINAM,TAMIL NADU
CIUB0000018,City Union Bank Ltd,CIUB0000018,NON-MICR,SEMBANARKOIL,"1/34,MAIN ROAD",,SEMBANARKOIL,NAGAPATTINAM,TAMIL NADU
CIUB0000019,City Union Bank Ltd,CIUB0000019,NON-MICR,TIRUKKATTUPALLI,"30,  BAZAAR STREET",,TIRUKATTUPALLI,THANJAVUR,TAMIL NADU
CIUB0000020,City Union Bank Ltd,CIUB0000020,NON-MICR,TIRUPPANANDAL,"JMR COMPLEX  NO.10,  SOUTH STREET",,TIRUPPANANDAL,THANJAVUR,TAMIL NADU
CIUB0000021,City Union Bank Ltd,CIUB0000021,NON-MICR,TIRUVADAIMARUDUR,"103, NORTH STREET",,THIRUVIDAIMARUDUR,THANJAVUR,TAMIL NADU
CIUB0000022,City Union Bank Ltd,CIUB0000022,NON-MICR,VALANGAIMAN,"SRIRAM NIVAS  DOOR NO. 27 ,  KAILASANATHUR SOUTH STREET",,VALANGAIMAN,TIRUVARUR,TAMIL NADU
CIUB0000023,City Union Bank Ltd,CIUB0000023,620 054 002,TIRUCHIRAPALLI,SMT. INDIRA GANDHI COLLEGE CAMPUS            KALIAMMANKOIL STREET.,,TIRUCHIRAPALLI,TIRUCHIORAPPALLI,TAMIL NADU
CIUB0000024,City Union Bank Ltd,CIUB0000024,NON-MICR,ARIYALUR,"12,  CHINNAKADAI STREET",,ARIYALUR,PERAMBALUR,TAMIL NADU
CIUB0000025,City Union Bank Ltd,CIUB0000025,NON-MICR,JAYANKONDA CHOLAPURAM,"63-A,SANNATHI STREET",,JAYAMKONDAM,PERAMBALUR,TAMIL NADU
CIUB0000026,City Union Bank Ltd,CIUB0000026,NON-MICR,MANAPPARAI,"56/57,      NEW STREET",,MANAPPARAI,TIRUCHIORAPPALLI,TAMIL NADU
CIUB0000027,City Union Bank Ltd,CIUB0000027,625 054 002,MADURAI,"70,  TAMIL SANGAM ROAD",,MADURAI,MADURAI,TAMIL NADU
CIUB0000028,City Union Bank Ltd,CIUB0000028,NON-MICR,DINDIGUL,"8, 1ST FLOOR,        PENSIONER STREEET",,DINDUGAL,DINDIGUL,TAMIL NADU
CIUB0000029,City Union Bank Ltd,CIUB0000029,NON-MICR,KEELAPALUR,"V/152,      TRICHY CHIDAMBARAM ROAD",,KEELAPALUR,PERAMBALUR,TAMIL NADU
CIUB0000030,City Union Bank Ltd,CIUB0000030,NON-MICR,TIRUMAKKOTTAI,"NO.1/85,    MAIN ROAD",,THIRUMAKOTTAI,TIRUVARUR,TAMIL NADU
CIUB0000031,City Union Bank Ltd,CIUB0000031,NON-MICR,KOTTUR,"3/551,MAIN ROAD,KOTTUR- 614708",,KOTTUR,TIRUVARUR,TAMIL NADU
CIUB0000032,City Union Bank Ltd,CIUB0000032,NON-MICR,CENTRAL OFFICE,"NO.149, T.S.R BIG STREET, KUMBAKONAM, THANJAVUR DT, TAMIL NADU. 612001",,KUMBAKONAM,THANJAVUR,TAMIL NADU
CIUB0000033,City Union Bank Ltd,CIUB0000033,NON-MICR,TIRUVARUR TOWN,"G.R.T BUILDING  45/F,SOUTH MAIN STREET",,TIRUVARUR TOWN,TIRUVARUR,TAMIL NADU
CIUB0000034,City Union Bank Ltd,CIUB0000034,641054002,RAMNAGAR (COIMBATORE),"DOOR NO. 27 -30,     SAROJINI STREET,     RAM NAGAR",,COIMBATORE,COIMBOTORE,TAMIL NADU
CIUB0000035,City Union Bank Ltd,CIUB0000035,NON-MICR,PERIYAKULAM,"NO.2,VAIGAI DAM ROAD,     TENKARAI",,PERIYANKULAM,THENI,TAMIL NADU
CIUB0000036,City Union Bank Ltd,CIUB0000036,600 054 002,MANDAVELI (CHENNAI),"30 MANDAVELI STREET,RAJA ANNAMALAIPURAM",,CHENNAI,CHENNAI,TAMIL NADU
CIUB0000037,City Union Bank Ltd,CIUB0000037,NON-MICR,PATTUKKOTTAI,"42-A, I FLOOR,       THALAIYARI STREET",,PATTUKOTTAI,THANJAVUR,TAMIL NADU
CIUB0000038,City Union Bank Ltd,CIUB0000038,600 054 004,TRIPLICANE (CHENNAI),"74 TRIPLICANE HIGH ROAD, TRIPLICANE",,CHENNAI,CHENNAI,TAMIL NADU
CIUB0000039,City Union Bank Ltd,CIUB0000039,NON-MICR,CUDDALORE,"22,  NETHAJI ROAD",,CUDDALORE,CUDDALORE,TAMIL NADU
CIUB0000040,City Union Bank Ltd,CIUB0000040,NON-MICR,PUDUKKOTTAI,SRI COMPLEX  DOOR NO. 3182                   NELLIMANDI STREET,,PUDUKKOTTAI,PUDUKKOTTAI,TAMIL NADU
CIUB0000041,City Union Bank Ltd,CIUB0000041,NON-MICR,CHIDAMBARAM,"164, WEST CAR STREET",,CHIDAMBARAM,CUDDALORE,TAMIL NADU
CIUB0000042,City Union Bank Ltd,CIUB0000042,636 054 002,SALEM,"NO 98, 99,100 - FIRST FLOOR, ARUNACHALA ACGARI STREET, NEAR OLD BUS STAND",,SALEM,SALEM,TAMIL NADU
CIUB0000043,City Union Bank Ltd,CIUB0000043,600 054 006,GEORGE TOWN (CHENNAI),"50 ARMENIAN STREET,OPPO CATHOLIC CENTRE)",,CHENNAI,CHENNAI,TAMIL NADU
CIUB0000044,City Union Bank Ltd,CIUB0000044,NON-MICR,TIRUPPOONDI,"""SAS BUILDING"",GROUND FLOOR,3/61, B-1, MAIN ROAD,TIRUPPOONDI - 611 110",,THIRUPPONDI,NAGAPATTINAM,TAMIL NADU
CIUB0000045,City Union Bank Ltd,CIUB0000045,NON-MICR,TIRUNELLIKKAVAL,"2/128, EAST STREET,TIRUNELLIKAVAL 610 205,NEEDAMANGALAM TALUK,TIRUVARUR DISTRICT.",,THIRUNELLIKAVAL,TIRUVARUR,TAMIL NADU
CIUB0000046,City Union Bank Ltd,CIUB0000046,NON-MICR,THIRUMARUGAL,"1/74,WEST STREET",,THIRUMARUGAL,NAGAPATTINAM,TAMIL NADU
CIUB0000047,City Union Bank Ltd,CIUB0000047,NON-MICR,ULLIKKOTTAI,"1/18 - A.1, MAIN ROAD",,ULLIKKOTAI,TIRUVARUR,TAMIL NADU
CIUB0000048,City Union Bank Ltd,CIUB0000048,627 054 002,TIRUNELVELI,"10,  NORTH CAR STREET",,TIRUNELVELI,TIRUNELVELI,TAMIL NADU
CIUB0000049,City Union Bank Ltd,CIUB0000049,600 054 005,MOUNT ROAD (CHENNAI),"706 MOUNT ROAD,P B NO 475",,CHENNAI,CHENNAI,TAMIL NADU
CIUB0000050,City Union Bank Ltd,CIUB0000050,NON-MICR,KARAIKUDI,"333/1, 1ST FLOOR,    SEKKALAI ROAD",,KARAIKUDI,SIVAGANGA,TAMIL NADU
CIUB0000051,City Union Bank Ltd,CIUB0000051,NON-MICR,THAMARANGKOTTAI,"RAJAM BUILDING  3/62, GROUND FLOOR           MUTHUPETTAI ROAD",,THAMARANGKOTTAI,PUDUKKOTTAI,TAMIL NADU
CIUB0000052,City Union Bank Ltd,CIUB0000052,NON-MICR,RISHIVANDIYAM,"5/63-A, FIRST FLOOR,MAHATMA GANDHI ROAD,RISHIVANDIYAM - 606 205.SANKARAPURAM TALUK,VILLUPURAM - DIST",,RISHIVANDIYAM,VILLUPURAM,TAMIL NADU
CIUB0000053,City Union Bank Ltd,CIUB0000053,641 054 004,VILANKURICHI (COIMBATORE),"1638,AVANASHI ROAD,       BR PURAM, PEELAMEDU",,COIMBATORE,COIMBOTORE,TAMIL NADU
CIUB0000054,City Union Bank Ltd,CIUB0000054,560 054 002,SULTANPET (BANGALORE),"231 - 236 SREENATH BUILDINGS                 SULTANPET CIRCLE,    P B NO. 7162",,BANGALORE,BANGALORE URBAN,KARNATAKA
CIUB0000055,City Union Bank Ltd,CIUB0000055,NON-MICR,SENGURICHI,"979, VINAYAKAR KOIL ST.SENGURICHI - 606 115.ULLUNDURPET TK.VILLUPURAM DIST,TAMIL NADU.",,SENGURICHI,VILLUPURAM,TAMIL NADU
CIUB0000056,City Union Bank Ltd,CIUB0000056,NON-MICR,VEERAPANDY,"MUSLIM STREET,       MUSLIM STREET",,VEERAPANDI,VILLUPURAM,TAMIL NADU
CIUB0000057,City Union Bank Ltd,CIUB0000057,NON-MICR,MADURAPAKKAM,"17564,      KAMMAVAR ST",,MADURAPAKKAM,VILLUPURAM,TAMIL NADU
CIUB0000058,City Union Bank Ltd,CIUB0000058,NON-MICR,THALAIYUTHU,"1/86, MAIN ROAD,THALAIYUTHU - 624 618,PALANI TALUK,DINDIGUL DIST,TAMIL NADU.",,THALAIYUTHU,DINDIGUL,TAMIL NADU
CIUB0000059,City Union Bank Ltd,CIUB0000059,638054002,ERODE,"907, BROUGH ROAD",,ERODE,ERODE,TAMIL NADU
CIUB0000060,City Union Bank Ltd,CIUB0000060,NON-MICR,SILLATUR,"3/16 NORTH  STREET,SILATTUR - 614 622.ARANTHANKI TALUK,PUDUKKOTTAI  DIST.TAMIL NADU.",,SILATTUR,PUDUKKOTTAI,TAMIL NADU
CIUB0000061,City Union Bank Ltd,CIUB0000061,500 054 002,HYDERABAD,"3-6-365 / A AND B, 1ST FLOOR, SAMA TOWERS    LIBERTY X ROAD,      HIMAYAT NAGAR",,HYDERABAD,HYDERABAD URBAN,ANDHRA PRADESH
CIUB0000062,City Union Bank Ltd,CIUB0000062,NON-MICR,VEPPAMPATTU,"61,  RAILWAY STATION ROAD",,VEPPAMPATTU,TIRUVALLUR,TAMIL NADU
CIUB0000063,City Union Bank Ltd,CIUB0000063,NON-MICR,VEERAPERUMANALLUR,"305, VEERARAGHAVA PERUMAL KOIL STREET",,VEERAPERUMANALLUR,CUDDALORE,TAMIL NADU
CIUB0000064,City Union Bank Ltd,CIUB0000064,NON-MICR,THIMMACHIPURAM,"2 / 151 - A, MELA KODI THERU                 TRICHY - KARUR MAIN ROAD",,THIMMACHIPURAM,KARUR,TAMIL NADU
CIUB0000065,City Union Bank Ltd,CIUB0000065,NON-MICR,VELLORE,"138 / 54,   GANDHI ROAD",,VELLORE,VELLORE,TAMIL NADU
CIUB0000066,City Union Bank Ltd,CIUB0000066,641 054 102,TIRUPPUR,OLD NO:16-17 NEW NO:94-94(1)                 COURT STREET,,TIRUPUR,COIMBOTORE,TAMIL NADU
CIUB0000067,City Union Bank Ltd,CIUB0000067,600 054 007,CHINMAYA NAGAR (CHENNAI),"26, I MAIN ROAD,   SAYEE,NAGAR,CHINMAYA NAGAR",,CHENNAI,CHENNAI,TAMIL NADU
CIUB0000068,City Union Bank Ltd,CIUB0000068,NON-MICR,ALANGUDI,"2 / 58,     BAZAAR STREET",,ALANGUDI,TIRUVARUR,TAMIL NADU
CIUB0000069,City Union Bank Ltd,CIUB0000069,NON-MICR,ATHANKOTTAI,"BLOCK - 3,TANJORE-PUDUKOTTAI MAIN ROAD,ATHANAKOTTAI - 622 203,PUDUKOTTAI DIST.",,ATHANAKOTTAI,PUDUKKOTTAI,TAMIL NADU
CIUB0000070,City Union Bank Ltd,CIUB0000070,NON-MICR,KURICHI,"50,  MAIN ROAD",,KURICHI -TIRUPANANDAL (VIA),THANJAVUR,TAMIL NADU
CIUB0000071,City Union Bank Ltd,CIUB0000071,631 054 002,KANCHEEPURAM,"68,  VALLAL PACHAYAPPAN STREET",,KANCHEEPURAM,KANCHEEPURAM,TAMIL NADU
CIUB0000072,City Union Bank Ltd,CIUB0000072,NON-MICR,MANJANAICKENPATTI,"5 / 44,     MAIN ROAD",,MANJANAICKEN PATTI,DINDIGUL,TAMIL NADU
CIUB0000073,City Union Bank Ltd,CIUB0000073,NON-MICR,NADUPATTI,"NO. 4 / 221, A.S.M. BUILDING                  DINDIGUL MAIN ROAD, VAIYAMPATTY BLOCK",,NADUPATTI,TIRUCHIORAPPALLI,TAMIL NADU
CIUB0000074,City Union Bank Ltd,CIUB0000074,NON-MICR,POLLACHI,"16-17,      IMMAMKHAN STREET",,POLLACHI,COIMBOTORE,TAMIL NADU
CIUB0000075,City Union Bank Ltd,CIUB0000075,NON-MICR,MADAPATTU,"PADMINI BUILDING,    PADMINI BUILDING,    G.S.T. ROAD",,MADAPATTU,VILLUPURAM,TAMIL NADU
CIUB0000076,City Union Bank Ltd,CIUB0000076,500 054 003,SECUNDERABAD,"LALA LANDMARK  5-4-94                        M.G ROAD,   RANIGUNJ",,SECUNDERABAD,HYDERABAD URBAN,ANDHRA PRADESH
CIUB0000077,City Union Bank Ltd,CIUB0000077,NON-MICR,RAJAPALAYAM,"406, TENKASI ROAD",,RAJAPALAYAM,VIRUDHUNAGAR,TAMIL NADU
CIUB0000078,City Union Bank Ltd,CIUB0000078,641 054 003,PAPPANAICKEN PALAYAM (C,"NO 3 / 220, NEW SCHEME ROAD,     PAPPANAICKEN PALAYAM",,COIMBATORE,COIMBOTORE,TAMIL NADU
CIUB0000079,City Union Bank Ltd,CIUB0000079,NON-MICR,PULIYUR,"PUDHUKOTTAI,TRICHY MAIN ROAD",,KULATHUR,PUDUKKOTTAI,TAMIL NADU
CIUB0000080,City Union Bank Ltd,CIUB0000080,520054103,GUNTUR,"23-6-128 AND 129, RANGANAYAKASWAMI COMPLEX   PATNAM BAZAAR",,GUNTUR,GUNTUR,ANDHRA PRADESH
CIUB0000081,City Union Bank Ltd,CIUB0000081,NON-MICR,THOGUR,"AGRAHARAM,THOGOOR - 613 102,THIRUVAIYARU TALUK,THANJAVUR DIST.",,THOGOOR,THANJAVUR,TAMIL NADU
CIUB0000082,City Union Bank Ltd,CIUB0000082,NON-MICR,IBD,,,CHENNAI,CHENNAI,TAMIL NADU
CIUB0000083,City Union Bank Ltd,CIUB0000083,524 054 002,NELLORE,"13 / 356, SOMISETTY KASIAH MARKET            ACHARI STREET",,NELLORE,NELLORE,ANDHRA PRADESH
CIUB0000084,City Union Bank Ltd,CIUB0000084,400 054 002,KHAR WEST (MUMBAI),"1ST FLOOR JAINS ARCADE                       402, 14TH ROAD - JUNCTION                    KHAR WEST",,MUMBAI,GREATER MUMBAI,MAHARASHTRA
CIUB0000085,City Union Bank Ltd,CIUB0000085,627 054 003,TUTICORIN,"103, A/5-6, V.E ROAD",,TUTICORIN,THOOTHKUDI,TAMIL NADU
CIUB0000086,City Union Bank Ltd,CIUB0000086,682054002,ERNAKULAM,"BRITE HOUSE, 1ST FLOOR, P B NO. 1841         NO.4332, KARIMPATTA CROSS ROAD               PALLIMULKKU",,ERNAKULAM,ERNAKULAM,KERALA
CIUB0000087,City Union Bank Ltd,CIUB0000087,605054002,PONDICHERRY,SINGAPORE PLAZA  NO. 53 AND 55               MISSION STREET,,PONDICHERRY,PONDICHERRY,PONDICHERRY
CIUB0000088,City Union Bank Ltd,CIUB0000088,NON-MICR,NAMAKKAL,"169, C / 1 IST FLOOR,THURIYUR ROAD,       P B NO 17",,NAMAKKAL,NAMAKKAL,TAMIL NADU
CIUB0000089,City Union Bank Ltd,CIUB0000089,NON-MICR,KARUR,"18,  RAMAKRISHNA PURAM",,KARUR,KARUR,TAMIL NADU
CIUB0000090,City Union Bank Ltd,CIUB0000090,NON-MICR,VIRUDHUNAGAR,NEW NO. 250 OLD NO. 133                      MADURAI ROAD,,VIRUDHUNAGAR,VIRUDHUNAGAR,TAMIL NADU
CIUB0000091,City Union Bank Ltd,CIUB0000091,NON-MICR,VILLUPURAM,"NO.12,      CHAIRMAN SUBBARAYAN STREET                   WEST SHANMUGAPURAM COLONY",,VILLUPURAM,VILLUPURAM,TAMIL NADU
CIUB0000092,City Union Bank Ltd,CIUB0000092,638 054 004,GOBICHETTIPALAYAM,"25,  RAJA STREET,PUDUPALAYAM",,GOBICHETTIPALAYAM,ERODE,TAMIL NADU
CIUB0000093,City Union Bank Ltd,CIUB0000093,NON-MICR,TIPTUR,"CHANDRAMOULI COMPLEX, 721/1                  BANGALORE HANOVAR ROAD",,TIPTUR,TUMKUR,KARNATAKA
CIUB0000094,City Union Bank Ltd,CIUB0000094,NON-MICR,GUDIVADA,"11 / 218,   ELURU ROAD",,GUDIVADA,KRISHNA,ANDHRA PRADESH
CIUB0000095,City Union Bank Ltd,CIUB0000095,NON-MICR,CHAVAKKAD,"1ST FLOOR 490 / CMC, MAIN ROAD",,CHAVAKKAD,TRISSUR,KERALA
CIUB0000096,City Union Bank Ltd,CIUB0000096,NON-MICR,THIRUVALLA,"ILLAMPALLIL TOWERS,  M.C ROAD - RAMANCHIRA",,THIRUVALLA,PATHANAMTHITTA,KERALA
CIUB0000097,City Union Bank Ltd,CIUB0000097,641 054 005,SOMANUR,"NO. 64, 1ST FLOOR,   KARUMATHAMPATTI MAIN ROAD",,SOMANUR,COIMBOTORE,TAMIL NADU
CIUB0000098,City Union Bank Ltd,CIUB0000098,400 054 003,MIRA ROAD (MUMBAI),"RASHMI PARK, NO 79 AND 80, OPP. SHANTI PARK  MTNL ROAD,  MIRA ROAD(E)",,MUMBAI,THANE,MAHARASHTRA
CIUB0000099,City Union Bank Ltd,CIUB0000099,641 054 103,PALLADAM,"3 / 212 - H,TRICHY ROAD",,PALLADAM,COIMBOTORE,TAMIL NADU
CIUB0000100,City Union Bank Ltd,CIUB0000100,395 054 002,SURAT,"BELGIUM CHAMBERS  SILVER PLAZA COMPLEX       OPP. LINEAR BUS STOP,                        RING ROAD",,SURAT,SURAT,GUJARAT
CIUB0000101,City Union Bank Ltd,CIUB0000101,380 054 002,AHMEDABAD,"G-19, 1ST FLOOR  NIRMAN COMPLEX              NAVRANGPURA AREA,    OFF C.G ROAD",,AHMEDABAD,AHMEDABAD,GUJARAT
CIUB0000102,City Union Bank Ltd,CIUB0000102,110 054 002,NEW DELHI,"KELTRON CHAMBERS,1ST FLOOR                   18 / 7 WEA ARYA SAMAJ ROAD                   KAROL BAGH",,NEW DELHI,NEW DELHI,DELHI
CIUB0000103,City Union Bank Ltd,CIUB0000103,NON-MICR,KARAIKAL,"159-161,    TIRUVALLAR ROAD",,KARAIKAL,KARAIKAL,TAMIL NADU
CIUB0000104,City Union Bank Ltd,CIUB0000104,600 054 008,NANGANALLUR (CHENNAI),"NO.19,4TH MAIN ROAD,NANGANALLUR",,CHENNAI,KANCHEEPURAM,TAMIL NADU
CIUB0000105,City Union Bank Ltd,CIUB0000105,520054001,VIJAYAWADA,"1ST FLOOR,  27 - 14 - 5 / 2, M.S. ROAD                   GOVERNORPET",,VIJAYAWADA,KRISHNA,ANDHRA PRADESH
CIUB0000106,City Union Bank Ltd,CIUB0000106,530054001,VISAKHAPATNAM,"PAVAN ARCADE, 1ST FLOOR                      NO. 30-12-39, DABA GARDEN                    MAIN ROAD",,VISAKHAPATNAM,VISHAKAPATNAM,ANDHRA PRADESH
CIUB0000107,City Union Bank Ltd,CIUB0000107,695054002,TIRUVANANTHAPURAM,"TC.38 / 607 (2), 1ST FLOOR                   POWER HOUSE ROAD",,TIRUVANANTHAPURAM,TRIVANDRUM,KERALA
CIUB0000108,City Union Bank Ltd,CIUB0000108,390 054 002,VADODARA,"HOTEL G.R.G COMPLEX, 33, SAMPATRAO COLONY,OFF JETHALPUR ROAD",,VADODARA,VADODARA,GUJARAT
CIUB0000109,City Union Bank Ltd,CIUB0000109,560 054 003,KORAMANGALA (BANGALORE),"NO 75, 17 TH F MAIN, 5TH BLOCK, INDUSTRIAL ESTATE LAYOUT          KORAMANGALA",,BANGALORE,BANGALORE URBAN,KARNATAKA
CIUB0000110,City Union Bank Ltd,CIUB0000110,700054002,KOLKATA,"TODI CHAMBERS, 1ST FLOOR                     NO.2 LAL BAZAAR STREET",,KOLKATA,KOLKATA,WEST BENGAL
CIUB0000111,City Union Bank Ltd,CIUB0000111,411054002,PUNE,"309, RASTA PETH,     OPP. K.E.M HOSPITAL",,PUNE,PUNE,MAHARASHTRA
CIUB0000112,City Union Bank Ltd,CIUB0000112,600 054 009,PURASAWALKAM (CHENNAI),"I FLOOR 204 PURASAWAKKAM HIGH ROAD,",,CHENNAI,CHENNAI,TAMIL NADU
CIUB0000113,City Union Bank Ltd,CIUB0000113,600 054 010,ANNANAGAR    (CHENNAI),"I FLOOR DEE CEE TOWERS NO.F37&38 II AVENUE ROAD,",,CHENNAI,CHENNAI,TAMIL NADU
CIUB0000114,City Union Bank Ltd,CIUB0000114,NON-MICR,SIVAKASI,"THANJGA MAHAL,NO. 13, GROUND FLOOR           CHAIRMAN NPSN,       ARUMUGA NADAR ROAD",,SIVAKASI,VIRUDHUNAGAR,TAMIL NADU
CIUB0000115,City Union Bank Ltd,CIUB0000115,620 054 003,SRIRANGAM (TRICHY),"KAMAKOTI  NO. 29, 1ST FLOOR                  E.V.S CHARI ROAD",,SRIRANGAM,TIRUCHIORAPPALLI,TAMIL NADU
CIUB0000116,City Union Bank Ltd,CIUB0000116,625 054 003,MADURAI S.S COLONY,"NO. 85 L,   VADAKKU VASAL STREET,S S COLONY",,MADURAI,MADURAI,TAMIL NADU
CIUB0000117,City Union Bank Ltd,CIUB0000117,600 054 011,TAMBARAM,"19, I FLOOR, SIVASHANMUGAM ROAD",,CHENNAI,KANCHEEPURAM,TAMIL NADU
CIUB0000118,City Union Bank Ltd,CIUB0000118,600 054 012,TIRUVANMIYUR,"9, OLD NO 2/1, I FLOOR II EAST STREET,",,CHENNAI,CHENNAI,TAMIL NADU
CIUB0000119,City Union Bank Ltd,CIUB0000119,572 054 002,TUMKUR,"PARIJATHA ARCADE, GROUND FLOOR               OPP TO GAYATHRI TALKIES                        B.H ROAD",,TUMKUR,TUMKUR,KARNATAKA
CIUB0000120,City Union Bank Ltd,CIUB0000120,NON-MICR,RAJAHMUNDRY,NO:10-15-39 AND 10-15-40/1 FORT GATE         MAIN ROAD,,RAJAHMUNDRY,EAST GODAVARI,TAMIL NADU
CIUB0000122,City Union Bank Ltd,CIUB0000122,400 054 004,FORT (MUMBAI),"24, BD GROUND FLOOR, RAJABAHADUR COMPOUND    AMBALA DOSHI MARG,   FORT",,MUMBAI,GREATER MUMBAI,MAHARASHTRA
CIUB0000123,City Union Bank Ltd,CIUB0000123,680054002,THRISSUR,PATHONS BUILDING COMPLEX  25/72               (NEW NO.25/121)  ROUND SOUTH,,THRISSUR,TRISSUR,KERALA
CIUB0000124,City Union Bank Ltd,CIUB0000124,533 054 002,KAKINADA,"SUPER BAZAAR,        ""L"" TYPE, 1ST FLOOR, NO. 21-1-10-A, MAIN ROAD",,KAKINADA,EAST GODAVARI,ANDHRA PRADESH
CIUB0000125,City Union Bank Ltd,CIUB0000125,520054202,TENALI,"P.S.R COMPLEX  16-1-33, 1ST FLOOR              MAIN ROAD",,TENALI,GUNTUR,ANDHRA PRADESH
CIUB0000126,City Union Bank Ltd,CIUB0000126,NON-MICR,PALAKKAD,"YAMBO TOWERS, NO. 11/1059 - 12, 1ST FLOOR                TOWN BUS STAND ROAD",,PALAKKAD,PALAKKAD,KERALA
CIUB0000127,City Union Bank Ltd,CIUB0000127,534 054 402,BHIMAVARAM,SHANTHINIVAS GROUND FLOOR NO. 17-2-50        REST HOUSE ROAD,,BHIMAVARAM,WEST GODAVARI,ANDHRA PRADESH
CIUB0000128,City Union Bank Ltd,CIUB0000128,627 054 004,KOVILPATTI,"18 / 40 RAJAKUMARI TOWERS, 1ST FLOOR         A.K.S THEATER ROAD",,KOVILPATTI,THOOTHKUDI,TAMIL NADU
CIUB0000129,City Union Bank Ltd,CIUB0000129,641 054 006,OPPANAKARA STREET (COIM,"859-860, RAJA STREET,OPPANAKARA STREET",,COIMBATORE,COIMBOTORE,TAMIL NADU
CIUB0000130,City Union Bank Ltd,CIUB0000130,600 054 013,ASHOK NAGAR,CITY UNION BANK LTD ASHOK NAGAR,,CHENNAI,CHENNAI,TAMIL NADU
CIUB0000131,City Union Bank Ltd,CIUB0000131,500054004,AMEERPET,"7-1-613/14A, 1ST FLOOR                       AMEERPET",,HYDERABAD,HYDERABAD URBAN,ANDHRA PRADESH
CIUB0000132,City Union Bank Ltd,CIUB0000132,560 054 004,MALLESWARAM (BANGALORE),"82, 6TH CROSS,       MALLESWARAM",,BANGALORE,BANGALORE URBAN,KARNATAKA
CIUB0000133,City Union Bank Ltd,CIUB0000133,673054002,CALICUT,"ESHA ARCADE,1ST FLOOR                        AZHKODY TEMPLE ROAD, OPP ASMA TOWER",,CALICUT,KOZHIKODE,KERALA
CIUB0000134,City Union Bank Ltd,CIUB0000134,NON-MICR,NAGERCOIL,"THASSOR PINIAL COMPLEX  NO. 35, 1ST FLOOR    CAPE ROAD,  VEPPAMADU JUNCTION",,NAGERCOIL,KANNIYAKUMARI,TAMIL NADU
CIUB0000135,City Union Bank Ltd,CIUB0000135,NON-MICR,ELURU,"AGRI PLAZA 1ST FLOOR,23-A-10-5, MAIN ROAD,R.R PET (RAMACHANDRA RAO PET)",,ELURU,WEST GODAVARI,ANDHRA PRADESH
CIUB0000136,City Union Bank Ltd,CIUB0000136,NON-MICR,ONGOLE,"MCBH COMPLEX,        3-2-19, KURNOOL ROAD,OPP R.T.C BUS STAND",,ONGOLE,PRAKASAM,ANDHRA PRADESH
CIUB0000137,City Union Bank Ltd,CIUB0000137,NON-MICR,THENI,"1ST FLOOR,  NO 914-915, CUMBUM ROAD",,THENI,THENI,TAMIL NADU
CIUB0000138,City Union Bank Ltd,CIUB0000138,NON-MICR,UDUMALPET,"314, 1ST FLOOR,      DHALI ROAD",,UDUMALPET,COIMBOTORE,TAMIL NADU
CIUB0000139,City Union Bank Ltd,CIUB0000139,560 054 005,INDIRA NAGAR (BANGALORE),"194, 1ST FLOOR,      7TH CROSS, 1ST STAGE,INDIRA NAGAR",,BANGALORE,BANGALORE URBAN,KARNATAKA
CIUB0000140,City Union Bank Ltd,CIUB0000140,NON-MICR,CUDDAPAH,"VCSR COMPLEX  21/14 AND 14, 1ST FLOOR        RAILWAY STATION ROAD",,CUDDAPAH,CUDDAPAH,ANDHRA PRADESH
CIUB0000141,City Union Bank Ltd,CIUB0000141,NON-MICR,KURNOOL,"NO. 40-304, BAGHYA NAGAR                     MOURYA INN",,KURNOOL,KURNOOL,ANDHRA PRADESH
CIUB0000142,City Union Bank Ltd,CIUB0000142,400 054 005,VASHI (MUMBAI),"NO.108 - 110, SHIVAJI MARKET                 1ST FLOOR, PLOT NO. 8 AND 9, SECTOR 19 - D   VASHI",,MUMBAI,GREATER MUMBAI,MAHARASHTRA
CIUB0000143,City Union Bank Ltd,CIUB0000143,638 054 003,TIRUCHENGODE,"1ST FLOOR, 23,24,    GURUKKAL STREET",,TIRUCHENGODE,NAMAKKAL,TAMIL NADU
CIUB0000144,City Union Bank Ltd,CIUB0000144,520054002,VIJAYAWADA - 2,"NO. 11 - 24 - 29, 1ST FLOOR, ""RAJA TOWERS""   BHAVANA NARAYANA STREET",,VIJAYAWADA,VISHAKAPATNAM,ANDHRA PRADESH
CIUB0000145,City Union Bank Ltd,CIUB0000145,520054104,GUNTUR - II,"NO. 5 - 37 - 217, 1ST FLOOR                  4 / 2,  BRODIEPET",,GUNTUR,GUNTUR,ANDHRA PRADESH
CIUB0000146,City Union Bank Ltd,CIUB0000146,NON-MICR,KANNUR,"THE FORTE 1ST FLOOR, BUILDING NO. TV 33/170  E-FORTE ROAD",,KANNANUR,KANNUR,KERALA
CIUB0000147,City Union Bank Ltd,CIUB0000147,635 054 402,HOSUR,"12, 1ST FLOOR,       SRI KRISHNA COMPLEX, TANK STREET",,HOSUR,DHARMAPURI,TAMIL NADU
CIUB0000148,City Union Bank Ltd,CIUB0000148,560 054 006,JAYANAGAR - BANGALORE,"1ST FLOOR, 315 A / 72, 9TH MAIN ROAD         5TH BLOCK,  JAYANAGAR",,BANGALORE .,BANGALORE URBAN,KARNATAKA
CIUB0000149,City Union Bank Ltd,CIUB0000149,570 054 002,MYSORE,"28 D,DEVARAJ URS ROAD",,MYSORE,MYSORE,KARNATAKA
CIUB0000150,City Union Bank Ltd,CIUB0000150,600 054 014,CHROMPET,"NO.77,STATION ROAD, I FLOOR,  RADHA NAGAR",,CHENNAI,KANCHEEPURAM,TAMIL NADU
CIUB0000151,City Union Bank Ltd,CIUB0000151,600 054 015,MADIPAKKAM,"168, MEDAVAKKAM MAIN ROAD,",,CHENNAI,KANCHEEPURAM,TAMIL NADU
CIUB0000152,City Union Bank Ltd,CIUB0000152,600 054 016,THORAIPAKKAM,"NO. 1, CUSTOMERS COLONY , I FLOOR, OLD MAHABALIPURAM",,CHENNAI,KANCHEEPURAM,TAMIL NADU
CIUB0000153,City Union Bank Ltd,CIUB0000153,620 054 004,"CONTONMENT, TRICHY","26, WARNERS ROAD,    CONTONMENT, TRICHY 620 00",,TRICHY,TIRUCHIORAPPALLI,TAMIL NADU
CIUB0000154,City Union Bank Ltd,CIUB0000154,686 054 002,KOTTAYAM,"I FLOOR, CSI COMMERCIAL COMPLEX              PHASE II M.C. ROAD,  KOTTAYAM",,KOTTAYAM,KOTTAYAM,KERALA
CIUB0000155,City Union Bank Ltd,CIUB0000155,500 054 005,MALKAJGIRI,"I FLOOR,    292, RADHAKRISHNAN NAGAR COLONY              MALKAJGIRI VALLABH NAGAR TALUK",,HYDERABAD,HYDERABAD URBAN,ANDHRA PRADESH
CIUB0000156,City Union Bank Ltd,CIUB0000156,NON-MICR,SRIKAKULAM,"9-4-10,     7 ROAD JUNCTION",,SRIKAKULAM,SRIKAKULAM,ANDHRA PRADESH
CIUB0000157,City Union Bank Ltd,CIUB0000157,NON-MICR,MACHILIPATNAM,"24/32, MAIN ROAD,    RAMANAIDUPET,,       MACHILIPATNAM",,MACHILIPATNAM,KRISHNA,ANDHRA PRADESH
CIUB0000158,City Union Bank Ltd,CIUB0000158,638 054 005,KANGAYAM,"BAZAR STREET,        BAZAR STREET",,KANGAYAM,ERODE,TAMIL NADU
CIUB0000159,City Union Bank Ltd,CIUB0000159,NON-MICR,RASIPURAM,"GROUND FLOOR, NO.12, C.P. KANNIAH STREET",,RASIPURAM,NAMAKKAL,TAMIL NADU
CIUB0000160,City Union Bank Ltd,CIUB0000160,NON-MICR,TIRUKOILUR,"NORTH STREET,        NORTH STREET",,TIRUKOILUR,VILLUPURAM,TAMIL NADU
CIUB0000161,City Union Bank Ltd,CIUB0000161,NON-MICR,DARAPURAM,"OLD NO 39, NEW NO 108-109, CHURCH ROAD DARAPURAM",,DARAPURAM,ERODE,TAMIL NADU
CIUB0000162,City Union Bank Ltd,CIUB0000162,NON-MICR,SATTUR,"469,MAIN ROAD,SATTUR-636203 ",,SATTUR,ERODE,TAMIL NADU
CIUB0000163,City Union Bank Ltd,CIUB0000163,NON-MICR,KRISHNAGIRI,"FIRST FLOOR, 14-14A, 4TH CROSS,  CO-OPERATIVE COLONY",,KRISHNAGIRI,KRISHNAGIRI,TAMIL NADU
CIUB0000164,City Union Bank Ltd,CIUB0000164,NON-MICR,PARAMAKUDI,"GROUND FLOOR, 4/324, GANDHIJI ROAD",,PARAMAKUDI,RAMANATHAPURAM,TAMIL NADU
CIUB0000165,City Union Bank Ltd,CIUB0000165,590 054 002,BELGAUM,"I FLOOR, G5, RADHAKRISHNAN TOWERS            SAMADEVI GALLI",,BELGAUM,BELGAUM,KARNATAKA
CIUB0000166,City Union Bank Ltd,CIUB0000166,580 054 002,HUBLI,"GROUND FLOOR, J C NAGAR                      THIRD CROSS",,HUBLI,DHARWAD,KARNATAKA
CIUB0000167,City Union Bank Ltd,CIUB0000167,575 054 002,MANGALORE,"FIRST FLOOR, 23-7-826                        GANAPATHI HIGH SCHOOL CROSS ROAD,",,MANGALORE,DAKSHINA KANNADA,KARNATAKA
CIUB0000168,City Union Bank Ltd,CIUB0000168,NON-MICR,DAVENGERE,"GROUND FLOOR, 134/17,MAHAVEERA ROAD,      MANDIPET",,DAVENGERE.,DAVANAGARE,KARNATAKA
CIUB0000169,City Union Bank Ltd,CIUB0000169,NON-MICR,PRODDATUR,"12,14,15 GROUND FLOOR                        KONATIKALVA STREET,  KONATIKALVA",,PRODDATUR,CUDDAPAH,ANDHRA PRADESH
CIUB0000170,City Union Bank Ltd,CIUB0000170,506 054 002,WARANGAL,"DOOR NO 12-1-21 TO 23, 1ST FLOOR             S V N ROAD, WARANGAL",,WARANGAL,WARANGAL,ANDHRA PRADESH
CIUB0000171,City Union Bank Ltd,CIUB0000171,NON-MICR,GANDHI NAGAR (KUMBAKONA,"16  77,     1ST CROSS,SRI NAGAR COLONY                   GANDHI NAGAR EAST",,KUMBAKONAM,THANJAVUR,TAMIL NADU
CIUB0000172,City Union Bank Ltd,CIUB0000172,NON-MICR,TIRUVANNAMALAI,"3,   SOUTH OTHAVADAI STREET                       TIRUVANNAMALAI",,TIRUVANNAMALAI,TIRUVANNAMALAI,TAMIL NADU
CIUB0000173,City Union Bank Ltd,CIUB0000173,NON-MICR,SIVAGANGAI,"DOOR NO 115,NEEDHIPATHI  RAJASEKARAN ROAD                SIVAGANGAI",,SIVAGANGAI,SIVAGANGA,TAMIL NADU
CIUB0000174,City Union Bank Ltd,CIUB0000174,NON-MICR,NANDYAL,"I FLOOR,DOOR NO. 2/418 C2                    N.K. ROAD,  NANDYAL",,NANDYAL,KURNOOL,ANDHRA PRADESH
CIUB0000175,City Union Bank Ltd,CIUB0000175,NON-MICR,RAMANATHAPURAM,"KTM CASIM CENTRE, DR NO 406 52  FIRST FLOOR, SALAI STREET , RAMANATHAPURAM",,RAMANATHAPURAM,RAMANATHAPURAM,TAMIL NADU
CIUB0000176,City Union Bank Ltd,CIUB0000176,400 054 006,THANE,"2,   SUVIDHI, BUNGALOW NO.2,GAUTAM PARK, M L DINGRPANCHPKHADI, NEAR HARINIVAS",,THANE (WEST),THANE,MAHARASHTRA
CIUB0000177,City Union Bank Ltd,CIUB0000177,NON-MICR,ICHALKARANJI,"10,286,     BUNGALOW ROAD,       ICHALKARANJI",,ICHALKARANJI,KOLHAPUR,MAHARASHTRA
CIUB0000178,City Union Bank Ltd,CIUB0000178,440056252,NAGPUR,"I FLOOR, NO. 73, KAMDAR COMPLEX, SEVASADAN SQUARE,CENTRAL AVENUE ROAD,NAGPUR 440 018.",,NAGPUR,NAGPUR,MAHARASHTRA
CIUB0000179,City Union Bank Ltd,CIUB0000179,515 054 002,ANANTHAPUR,"I FLOOR, M.C.H. NO.18/161-A,RAILWAY FEEDERS ROAD,ANANTAPUR 515005",,ANANTHAPUR,ANANTPUR,ANDHRA PRADESH
CIUB0000180,City Union Bank Ltd,CIUB0000180,515 054 202,DHARMAVARAM,"I FLOOR, D.NO. 12-730,P.R.T. CIRCLE,DHARMAVARAM 515671,ANANTAPUR DIST.,ANDHRA PRADESH",,DHARMAVARAM,ANANTPUR,ANDHRA PRADESH
CIUB0000181,City Union Bank Ltd,CIUB0000181,360 054 002,RAJKOT,"I FLOOR,NAKSHATRA COMPLEX,101.150 FEET RING ROAD,RAJKOT – 360 005,GUJARAT",,RAJKOT,RAJKOT,GUJARAT
CIUB0000182,City Union Bank Ltd,CIUB0000182,422054002,NASIK,"GROUND FLOOR,NO.201, PATEL RETREAT,PATIL LANE4, OFF. COLLEGE ROAD, NASHIK – 422 005.",,NASIK,NASHIK,MAHARASHTRA
CIUB0000183,City Union Bank Ltd,CIUB0000183,NON-MICR,DEVAKOTTAI,"17,  THIAGIGAL ROAD,      DEVAKOTTAI",,DEVAKOTTAI,SIVAGANGA,TAMIL NADU
CIUB0000184,City Union Bank Ltd,CIUB0000184,600064019,K K NAGAR,"GROUND FLOOR,PLOTNO - 590, D.NO 30,OLD(35), ALAGIRISAMI SALAI, K K NAGAR CHENNAI.PIN:- 600078",,CHENNAI,CHENNAI,TAMIL NADU
CIUB0000185,City Union Bank Ltd,CIUB0000185,600064018,MARAIMALAI NAGAR,"GROUND FLOOR, 1/73,PAVENDAR STREET,MARAIMALAI NAGAR CHENGLEPUT DIST - 603209",,KANCHEEPURAM,KANCHEEPURAM,TAMIL NADU
CIUB0000186,City Union Bank Ltd,CIUB0000186,641054104,UTHUKULI,"32/6 TIRUPUR ROAD , UTHUKULI . PIN :- 638751",,ERODE,ERODE,TAMIL NADU
CIUB0000187,City Union Bank Ltd,CIUB0000187,600054020,CHENGALPET,"GROUND FLOOR , 86,GST ROAD ,THIMMAKULAM , CHENGALPET. PIN:- 603001",,CHENNAI,CHENNAI,TAMIL NADU
CIUB0000188,City Union Bank Ltd,CIUB0000188,636054004,FAIRLANDS - SALEM,"GROUND FLOOR , 44, BRINDAVAN ROAD, FAIRLANDS , SALEM. PIN:- 636016",,SALEM,SALEM,TAMIL NADU
CIUB0000189,City Union Bank Ltd,CIUB0000189,636054003,ELLAMPILLAI,"14-261/489, D. MAIN ROAD,NEAR BUS STAND, ELLAMPILLAI , SALEM DISTRICT",,SALEM,SALEM,TAMIL NADU
CIUB0000190,City Union Bank Ltd,CIUB0000190,NON-MICR,NADUKKADAI,"GROUND FLOOR,1/114 MAIN ROAD, NADUKKADAI , THANJAVUR DISTRICT",,THANJAVUR,THANJAVUR,TAMIL NADU
CIUB0000191,City Union Bank Ltd,CIUB0000191,638054006,PALLIPALAYAM,"GROUND FLOOR ,24, SANGAGIRI MAIN ROAD,PALLIPALAYAM PIN:- 638006",,ERODE,ERODE,TAMIL NADU
CIUB0000192,City Union Bank Ltd,CIUB0000192,641054007,R.S PURAM - COIMBATORE,"79,VENKATASAMY ROAD (WEST),R.S PURAM, COIMBATORE 641002",,COIMBATORE,COIMBATORE,TAMIL NADU
CIUB0000193,City Union Bank Ltd,CIUB0000193,600054021,KELAMBAKKAM,"1/61,K.S.S.STREET,KELAMBAKKAM,KANCHEEPURAM DISTRICT",,KANCHEEPURAM,KANCHEEPURAM,TAMIL NADU
CIUB0000194,City Union Bank Ltd,CIUB0000194,700054003,RASHBEHARI,"SURNA HOUSE, 208/1A,RASH BEHARI AVENUE,KOLKATA – 700 029",,KOLKATA,KOLKATA,WEST BENGAL
CIUB0000195,City Union Bank Ltd,CIUB0000195,625054004,ANNA NAGAR,"80 FEET ROAD ,(OPP AMBIGA THEATRE) ,ANNA NAGAR , MADURAI - 625020",,MADURAI,MADURAI,TAMIL NADU
CIUB0000196,City Union Bank Ltd,CIUB0000196,NON-MICR,NACHIARKOIL,"6/116 NORTH STREET,NACHIARKOIL – 612 602",,THANJAVUR,THANJAVUR,TAMIL NADU
CIUB0000197,City Union Bank Ltd,CIUB0000197,NON-MICR,PERAMBALUR,"GROUND FLOOR, 25/1,ELANGO STREET,(TRICHY MAIN ROAD),PERAMBALUR – 621 212",,PERAMBALUR,PERAMBALUR,TAMIL NADU
CIUB0000198,City Union Bank Ltd,CIUB0000198,NON-MICR,RAMANAGARA-BANGALORE,"GROUND FLOOR,B.M.ROAD, 316, IJOOR I STAGE, NEAR BUS STAND, BANGALORE-MYSORE MAIN ROAD,RAMANAGARA.KARNATAKA - 571511",,BANGALORE RURAL,BANGALORE,KARNATAKA
CIUB0000199,City Union Bank Ltd,CIUB0000199,560054007,RAJAJI NAGAR - BANGALORE,"1002/55,KRK CHAMBERS, FIRST MAIN, FOURTH BLOCK,80 FEET DR.RAJKUMAR ROAD,BANGALORE -560010",,BANGALORE URBAN,BANGALORE,KARNATAKA
CIUB0000200,City Union Bank Ltd,CIUB0000200,NON-MICR,KOLLAM,"FIRST FLOOR,SAIT TOWER,BEACH ROAD,CHINAKKADA,KOLLAM - 691001",,KOLLAM,KOLLAM,KERALA
CIUB0000201,City Union Bank Ltd,CIUB0000201,NON-MICR,MADURAPURI,"GROUND FLOOR,TRICHY MAIN ROAD,OPP TO GANAPATHY THIRUMANAMANDAPAM,MATHURAPURI - 621010",,TIRUCHIRAPALLI,TIRUCHIRAPALLI,TAMIL NADU
CIUB0000202,City Union Bank Ltd,CIUB0000202,NON-MICR,SIRKALI,"GROUND FLOOR,PIDARI NORTH STREET,SIRKALI - 609110",,NAGAPATTINAM,NAGAPATTINAM,TAMIL NADU
CIUB0000203,City Union Bank Ltd,CIUB0000203,560054008,BHANASHANKARI,"784,II PHASE,7TH BLOCK,BANASHANKARI,III STAGE,100 FT ROAD,BANGALORE KARNATAKA -560085",,BANGALORE,BANGALORE URBAN,KARNATAKA
CIUB0000204,City Union Bank Ltd,CIUB0000204,515054102,HINDUPUR,"DOOR NO-13-2C,SVR COMPLEX,PENUKONDA ROAD,HINDUPUR ,ANATAPUR DIST,ANDHRA PRADESH - 515201",,HINDUPUR,ANANTAPUR,ANDHRA PRADESH
CIUB0000205,City Union Bank Ltd,CIUB0000205,638054007,THINDAL,"SF.NO.15/2A,PERUNDURAI ROAD,THINDAL , ERODE,TAMIL NADU  -638002",,ERODE,ERODE,TAMIL NADU
CIUB0000206,City Union Bank Ltd,CIUB0000206,500054006,DILSUKHNAGAR,"H.NO:16-11-741/C/1,SRI DATTA SAI COMPLEX,PLOT NO.14,GADDIANARAM,DILSUKHNAGAR,HYDERABAD - 500060",,HYDERABAD,HYDERABAD,ANDHRA PRADESH
CIUB0000207,City Union Bank Ltd,CIUB0000207,500054007,KUKATPALLY,"15-24-182,MIG.182. I PHASE,KPHB COLONY, KUKATPALLY,HYDERABAD - 500072",,HYDERABAD,HYDERABAD,ANDHRA PRADESH
CIUB0000208,City Union Bank Ltd,CIUB0000208,110054003,JANAKPURI,"GROUND FLOOR,DOOR NO:30,BLOCK-B1,JANAKPURI,NEW DELHI-110058",,DELHI,DELHI,DELHI
CIUB0000209,City Union Bank Ltd,CIUB0000209,211054002,ALLAHABAD,"2/2B,BHAGWAN RAM MANDIR MARG(NEAR VISHAL MEGA MART),CIVIL LINES,ALLAHABAD UTTAR PRADESH -211001",,ALLAHABAD,ALLAHABAD,UTTAR PRADESH
CIUB0000210,City Union Bank Ltd,CIUB0000210,620054005,THUVAKUDI,"OLD NO.8/55,ANNA SALAI,THUVAKUDI MALAI NORTH,NEAR ANNA ARCH,TIRUCHIRAPALLI - 620022",,THUVAKUDI,TIRUCHIRAPALLI,TAMIL NADU
CIUB0000211,City Union Bank Ltd,CIUB0000211,641054008,"SAIBABA COLONY,COIMBATORE","THACHIL COMPLEX,10,ANNAMALAI ROAD,SAIBABA COLONY,COIMBATORE -641011",,COIMBATORE,COIMBATORE,TAMIL NADU
CIUB0000212,City Union Bank Ltd,CIUB0000212,600054022,SRIPERUMBUDUR,"67,GANDHI ROAD,GROUND FLOOR,SRIPERUMBUDUR,CHENNAI-602105",,CHENNAI,CHENNAI,TAMIL NADU
CIUB0000213,City Union Bank Ltd,CIUB0000213,431054002,AURANGABAD,"NO,6 ANNAPURNA TOWER,KUSHAL NAGAR,JALNA ROAD,AURANGABAD-431005",,AURANGABAD,AURANGABAD,MAHARASHTRA
CIUB0000214,City Union Bank Ltd,CIUB0000214,641054010,RAMANATHAPURAM,"730,IST FLOOR,DIAMOND COMPLEX,TRICHY ROAD,RAMANATHAPURAM,COIMBATORE-621045",,COIMBATORE,COIMBATORE,TAMIL NADU
CIUB0000215,City Union Bank Ltd,CIUB0000215,NON MICR,KINATHUKADAVU,"62,UPSTAIRS OF SOUTH INDIAN BANK LTD,COIMBATORE-POLLACHI MAIN ROAD,KINATHUKADAVU,POLLACHI-642109",,POLLACHI,COIMBATORE,TAMIL NADU
CIUB0000216,City Union Bank Ltd,CIUB0000216,416054002,KOLHAPUR,"520/2,E WARD,S.L.BENADIKAR PATH,NEAR CBS,SHAHUPURIKOLHAPUR-416001",,KOLHAPUR,KOLHAPUR,MAHARASHTRA
CIUB0000217,City Union Bank Ltd,CIUB0000217,641054009,THONDAMUTHUR,"189,GROUND FLOOR,MADHAVANPATTY MAIN ROAD,9TH WARD,THONDAMUTHUR-641109",,THONDAMUTHUR,COIMBATORE,TAMIL NADU
CIUB0000218,City Union Bank Ltd,CIUB0000218,600054023,VALASARAWALKAM,"NO 1,THANDAVAMOORTHY NAGAR,VALASARAWALKAM,CHENNAI-600087",,CHENNAI,CHENNAI,TAMIL NADU
CIUB0000219,City Union Bank Ltd,CIUB0000219,141054002,LUDHIANA,"NO 925 A SALH COMPLEX,DASMESH NAGAR,GILL ROAD,LUDHIANA-141003",,LUDHIANA,LUDHIANA,PUNJAB
CIUB0000220,City Union Bank Ltd,CIUB0000220,452054002,INDORE,"6/1,THE MAGNATE,NEW PALASIA,CURE WELL HOSPITAL ROAD,INDORE-452001",,INDORE,INDORE,MADHYA PRADESH
CIUB0000221,City Union Bank Ltd,CIUB0000221,302054002,JAIPUR,"PLOT NO 12 EMERALD HOTEL BUILDING,M I ROAD,JAIPUR-302001",,JAIPUR,JAIPUR,RAJASTHAN
CIUB0000222,City Union Bank Ltd,CIUB0000222,311054002,BHILWARA,"SHOP NO 3-7,SRINATH TOWER,GANGAPUR CHORAHA,PUR ROAD,BHILWARA-311001",,BHILWARA,BHILWARA,RAJASTHAN
CIUB0000223,City Union Bank Ltd,CIUB0000223,400054007,DOMBIVILI,"SHOP NO 1&2,BUILDING NO 9,ELLORA COMPLEX-2,CO-OP HSG SOCIETY LTD,GHANSHYAM GUPTE ROAD,DOMBIVILI(WEST)-421201",,THANE,DOMBIVLI,MAHARASHTRA
CIUB0000224,City Union Bank Ltd,CIUB0000224,364054002,BHAVNAGAR,"NO 1&2 ""EVA"", OPP GULISTA GROUND,WAGAHWADI ROAD,BHAVNAGAR-364001",,BHAVNAGAR,BHAVNAGAR,GUJARAT
CIUB0000225,City Union Bank Ltd,CIUB0000225,395054003,SURAT-II,"SHOP NO U-29-30,38-42 MEGH MAYUR PLAZA,NEAR RATAN BAUG,(OPP TO JANIPARSAN MART),PARLE POINT SURAT-395007",,SURAT,SURAT,GUJARAT
CIUB0000233,City Union Bank Ltd,CIUB0000233,VIJAYNAGAR,BANGALORE,"NO.23/1, 17TH CROSS, M.C.LAYOUT,NEAR MARUTHI MANDIR,VIJAYNAGAR,BANGALORE, 560040",,VIJAYNAGAR,BANGALORE URBAN,KARNATAKA
CIUB0000234,City Union Bank Ltd,CIUB0000234,WHITE FIELD,BANGALORE,"295, MAIN ROAD,OPP.MAYURA BAKERY,WHITE FIELD,BANGALORE,560066",,WHITE FIELD,BANGALORE URBAN,KARNATAKA
CIUB0000235,City Union Bank Ltd,CIUB0000235,,SHEVAPET,"273,275,277, NAVALAR NEDUNCHEZIANSALAI, FORT MAIN ROAD,SHEVAPET, SALEM – 636 002.",,SALEM,SALEM,TAMIL NADU
CIUB0000236,City Union Bank Ltd,CIUB0000236,,J.P.NAGAR,"DOOR NO.253, 24TH MAIN,16TH CROSS, 5TH PHASE,J.P.NAGAR,BANGALURU – 560078.",,BANGALORE,BANGALORE,KARNATAKA
CIUB0000237,City Union Bank Ltd,CIUB0000237,YELAHANKA,YELAHANKA,"NO.324, 3RD A CROSS FIRST PHASE,YELAHANKA NEW TOWN,BANGALURU, 560 106",,YELAHANKA,BANGALORE URBAN,KARNATAKA
CIUB0000238,City Union Bank Ltd,CIUB0000238,ATTUR,ATTUR,"RAJKRISHNA RESIDENCY,664/19, KAMARAJANAR ROAD,ATTUR  636 102",,ATTUR,SALEM,TAMIL NADU
CIUB0000239,City Union Bank Ltd,CIUB0000239,CHITTOOR,CHITTOOR,"JAIL KHANNA STREET,NAIDU BUILDING,CHITTOOR  517 001",,CHITTOOR,CHITTOOR,ANDHRA PRADESH
CIUB0000240,City Union Bank Ltd,CIUB0000240,NON-MICR,KARIM NAGAR,"2/3/184, KAMAN ROAD",,KARIM NAGAR,KARIMNAGAR,ANDHRA PRADESH
CIUB0000241,City Union Bank Ltd,CIUB0000241,NON-MICR,PERUNDURAI,"S.F.NO.823/11, R.S.ROAD,OPP. TO GOVT.HOSPITAL",,PERUNDURAI,ERODE,TAMIL NADU
CIUB0000242,City Union Bank Ltd,CIUB0000242,NON-MICR,MANALI,"14, KAMARAJAR SALAI",,MANALI,THIRUVALLUR,TAMIL NADU
CIUB0000243,City Union Bank Ltd,CIUB0000243,NON-MICR,THIRUVALLUR,"14, J.N.ROAD,(OPP. TO REVENUEDIVISIONAL OFFICE)",,TIRUVALLUR,THIRUVALLUR,TAMIL NADU
CIUB0000244,City Union Bank Ltd,CIUB0000244,NON-MICR,ROHINI -NEW DELHI,"C-9/123, SECTOR D,ROHINI, NEW DELHI – 110085",,DELHI,DELHI,DELHI
CIUB0000245,City Union Bank Ltd,CIUB0000245,NON-MICR,JALANDHAR,"ES-245,JULKA ARCADE,NAKODAR ROAD,144001",,JALANDHAR,JALANDHAR,PUNJAB
CIUB0000246,City Union Bank Ltd,CIUB0000246,,MADURAVAYAL,"K.R.M TOWERS, 4-A, PALLADAM NAGAR MAIN ROAD, SINGARAVELAN NAGAR, CHENNAI – 600095",,MADURAVAYAL,THIRUVALLUR,TAMIL NADU
CIUB0000247,City Union Bank Ltd,CIUB0000247,,GUDIYATHAM,"NO.7, CONGRESS HOUSEROAD, PUDUPET, GUDIYATHAM – 632602",,GUDIYATHAM,VELLORE,TAMIL NADU
CIUB0000248,City Union Bank Ltd,CIUB0000248,,KALLAKURICHI,"SALEM MAIN ROAD,(NEAR GOVINDARAJANTHEATRE)KALLAKURICHI – 606202",,KALLAKURICHI,VILLUPURAM,TAMIL NADU
CIUB0000249,City Union Bank Ltd,CIUB0000249,,BHAVANI,"176-178, BHAVANI MAIN ROAD,BHAVANI – 638301",,BHAVANI,ERODE,TAMIL NADU
CIUB0000250,City Union Bank Ltd,CIUB0000250,NON MICR,BELLARY,"119A, KALAMMA STREET,BELLARY – 583101",,BELLARY,BELLARY,KARNATAKA
CIUB0000251,City Union Bank Ltd,CIUB0000251,NON MICR,RENGARAJAPURAM,"99/1, VISWANATHAPURAM MAIN ROAD,RENGARAJAPURAM,CHENNAI – 600024",,CHENNAI,CHENNAI,TAMIL NADU
CIUB0000252,City Union Bank Ltd,CIUB0000252,NON MICR,ARANI,"NO.30, THATCHUR MAIN ROAD,KOSAPALAYAM",,ARANI,TIRUVANNAMALAI,TAMIL NADU
CIUB0000253,City Union Bank Ltd,CIUB0000253,NON MICR,CHANDINI CHOWK,"284,285 FATEH PURI,DELHI – 110006",,DELHI,DELHI,DELHI
CIUB0000254,City Union Bank Ltd,CIUB0000254,,VELLAKOVIL,"NO.210/D, MUTHAIAH TOWERS,MUTHUR ROAD,VELLAKOVIL , 638 111",,VELLAKOVIL,TIRUPPUR,TAMIL NADU
CIUB0000255,City Union Bank Ltd,CIUB0000255,,PAMMAL,"NO.20, PAMMAL MAIN ROAD,MUTHAMIZH NAGAR,CHENNAI – 600075.",,PAMMAL,KANCHEEPURAM,TAMIL NADU
CIUB0000256,City Union Bank Ltd,CIUB0000256,,NIZAMABAD,"NIZAMABAD NO.1-13-395/4, VINAYAK NAGAR,HYDERABAD ROAD-503003",,NIZAMABAD,NIZAMABAD,ANDHRA PRADESH
CIUB0000257,City Union Bank Ltd,CIUB0000257,,THIRUTHURAIPOONDI,"DOOR NO.1/D, NORTH STREET,NAGAI ROAD,THIRUTHURAIPOONDI – 614 713",,THIRUTHURAIPOONDI,THIRUVARUR,TAMIL NADU
CIUB0000258,City Union Bank Ltd,CIUB0000258,,VARANASI,"DOOR NO. 35/91-A,92,92A,JANGAMBARI ROAD,GODOWLIA,VARANASI – 221 001",,VARANASI,VARANASI,UTTAR PRADESH
CIUB0000259,City Union Bank Ltd,CIUB0000259,,RANIPET,"DOOR NO. 27A,M.B.T.ROAD,RANIPET – 632 402",,RANIPET,VELLORE,TAMIL NADU
CIUB0000260,City Union Bank Ltd,CIUB0000260,,AMBATTUR,"18/6, MOUNASAMY MADAM STREET,AMBATTUR,CHENNAI – 600 053",,AMBATTUR,CHENNAI,TAMIL NADU
CIUB0000261,City Union Bank Ltd,CIUB0000261,,PERAMBUR,"56/127, MADAVARAM MAIN ROAD,PERAMBUR,CHENNAI – 600 011.",,PERAMBUR,CHENNAI,TAMIL NADU
CIUB0000262,City Union Bank Ltd,CIUB0000262,,VELACHERRY,"NO.1, ORANDIAMMAN KOIL STREET,VELACHERRY,CHENNAI – 600 042.",,VELACHERRY,CHENNAI,TAMIL NADU
CIUB0000263,City Union Bank Ltd,CIUB0000263,,THILLAI NAGAR,"C-28, 11TH CROSS, THILLAI NAGAR,TIRICHIRAPALLI – 620 018.",,TIRUCHIRAPALLI,TIRUCHIRAPALLI,TAMIL NADU
CIUB0000264,City Union Bank Ltd,CIUB0000264,NON MICR,HYDERABAD-SIDDIAMBER BAZAAR,"“SHIKA ENCLAVE”, 1ST FLOOR,15-1-515 TO 521 & 539,SIDDIAMBER BAZAAR,HYDERABAD - 500 012,ANDHRA PRADESH.",,HYDERABAD-SIDDIAMBER BAZAAR,HYDERABAD,ANDHRA PRADESH
CIUB0000265,City Union Bank Ltd,CIUB0000265,NON MICR,KHAMMAM,"1-7-64, 64/1, 65,65/1,TRUNK ROAD,KHAMMAM – 507 003,ANDHRA PRADESH.",,KHAMMAM,KHAMMAM,ANDHRA PRADESH
CIUB0000266,City Union Bank Ltd,CIUB0000266,NON MICR,AVADI,"NO.246, NEW MILITARY ROAD,AVADI, CHENNAI – 600 054",,AVADI,CHENNAI,TAMIL NADU
CIUB0000267,City Union Bank Ltd,CIUB0000267,NON MICR,KADAYANALLUR,"216, MAIN ROAD,KADAYANALLUR – 627 751,TIRUNELVELI",,KADAYANALLUR,TIRUNELVELI,TAMIL NADU
CIUB0000268,City Union Bank Ltd,CIUB0000268,NON MICR,MADURAI - TVS NAGAR,"OLD NO.9, NEW NO.A-32,LAKSHMI STREET, (NEAR TVS SCHOOL)TVS NAGAR,MADURAI – 625 003",,MADURAI,MADURAI,TAMIL NADU
CIUB0000269,City Union Bank Ltd,CIUB0000269,NON MICR,MUMBAI ANDHERI (EAST),"GALA 18 &19A, GROUND FLOOR ,BUILDING NO 2,SANJAY MITTAL INDUSTRY,MITTAL INDUSTRIAL ESTATE,SAKINAKA KURLA-ANDHERI ROAD,ANDHERI EAST, MUMBAI - 400 059,MAHARASTRA",,ANDHERI(EAST),MUMBAI,MAHARASHTRA
CIUB0000270,City Union Bank Ltd,CIUB0000270,NON MICR,MUMBAI KALYAN,"GROUND FLOOR 1-E, RAMAKRISHNA,NAGAR (NEAR OLD POORNIMA THEATRE),MURBAD ROAD, KALYAN WEST 421304,THANE,MAHARASTRA",,KALYAN (WEST),THANE,MAHARASHTRA
CIUB0000271,City Union Bank Ltd,CIUB0000271,NON MICR,SINGAPERUMAL KOIL,"2/18, STATION ROAD,SINGAPERUMALKOIL – 603 204.CHENGALPET",,SINGAPERUMAL KOIL,CHENGALPET,TAMIL NADU
CIUB0000272,City Union Bank Ltd,CIUB0000272,NON MICR,THANJAVUR MEDICAL COLLEGE ROAD,"SINDU COMPLEX, 115, MEDICAL,COLLEGE ROAD, KENNEDY SQUARE,THANJAVUR – 613 007",,THANJAVUR,THANJAVUR,TAMIL NADU
CIUB0000273,City Union Bank Ltd,CIUB0000273,NON MICR,THIRUMANGALAM,"1-3, CHRISTIAMANGALAM STREET,MADURAI ROAD,THIRUMANGALAM – 625 706,MADURAI",,THIRUMANGALAM,MADURAI,TAMIL NADU
CIUB0000274,City Union Bank Ltd,CIUB0000274,NON MICR,VADAVALLI,"DOOR NO.3, SELVAM NAGAR,(NEAR KARUPPARAYANKOIL),VADAVALLI, COIMBATORE- 641 041.",,VADAVALLI,COIMBATORE,TAMIL NADU
CIUB0000275,City Union Bank Ltd,CIUB0000275,NON MICR,VALLAM,"506/11, DESIGA VINAYAGAR KOIL ST.,VALLAM – 613 403. THANJAVUR",,VALLAM,THANJAVUR,TAMIL NADU
CIUB0000276,City Union Bank Ltd,CIUB0000276,NON-MICR,KEELAKARAI,"WARD NO.OLD 1, NEW 21,NEAR CSI CHURCH,KONTHAKARUNAI APPA DARGAH –VIA,KEELAKARAI – 623 517",,KEELAKARAI,RAMANATHAPURAM,TAMIL NADU
CIUB0000277,City Union Bank Ltd,CIUB0000277,NON-MICR,NERUL (E) - NAVI MUMBAI,"SHOP NO. G 26B & C HARDWARE’S,CENTURIAN, PLOT 88/91, SECTOR 19A,NERUL (E) – 400 706, NAVI MUMBAI",,NAVI MUMBAI,KANCHEEPURAM,TAMIL NADU
CIUB0000278,City Union Bank Ltd,CIUB0000278,NON-MICR,NAGORE,"NO.598, NAGAI MAIN ROAD,NAGORE – 611 002.",,NAGORE,NAGAPATTINAM,TAMIL NADU
CIUB0000279,City Union Bank Ltd,CIUB0000279,NON-MICR,CHENNAI - MYLAPORE,"OLD NO.18-19, NEW NO.29,EAST MADA STREET,MYLAPORE,CHENNAI - 600 004",,MYLAPORE,CHENNAI,TAMIL NADU
CIUB0000280,City Union Bank Ltd,CIUB0000280,NON-MICR,KUMBAKONAM-DHARASURAM,"42/2, THANJAVUR MAIN ROAD,DHARASURAM – 612 702",,DHARASURAM,THANJAVUR,TAMIL NADU
CIUB0000281,City Union Bank Ltd,CIUB0000281,NON-MICR,MUMBAI -CHEMBUR,"349-A, S-1, SILVANTO,CENTRAL AVENUE ROAD,CHEMBUR,MUMBAI – 400 071",,CHEMBUR,MUMBAI,MAHARASHTRA
CIUB0000282,City Union Bank Ltd,CIUB0000282,NON-MICR,COIMBATORE-PERUR,"D.NO.3/14 F TO 3/14J,SIRUVANI MAIN ROAD,PERUR – 641 010.",,PERUR,COIMBATORE,TAMIL NADU
CIUB0000283,City Union Bank Ltd,CIUB0000283,NON-MICR,MADURAI-VILAKKUTHOON,"168-A, EAST VELI STREET,VILAKKUTHOON,MADURAI – 625 001",,VILAKKUTHOON,MADURAI,TAMIL NADU
CIUB0000284,City Union Bank Ltd,CIUB0000284,NON-MICR,NEYVELI,"13-A/1,40 FEET ROAD,GANDHIGRAMAM,GANDHI NAGAR – POST,NEYVELI – 607 308",,NEYVELI,CUDDALORE,TAMIL NADU
CIUB0000285,City Union Bank Ltd,CIUB0000285,NON-MICR,POONAMALLEE,"OLD NO.776, NEW NO.70,TRUNK ROAD, POONAMALLEE,CHENNAI – 600 056",,POONAMALLEE,TIRUVALLUR,TAMIL NADU
CIUB0000286,City Union Bank Ltd,CIUB0000286,NON-MICR,SELAIYUR," NO.1, MADAMPAKKAM MAIN,ROAD, RAJAKILPAKKAM,SELAIYUR,CHENNAI – 600 073.",,SELAIYUR,KANCHIPURAM,TAMIL NADU
CIUB0000287,City Union Bank Ltd,CIUB0000287,NON-MICR,RAIPUR,"RAIPUR HOTEL CENTRAL AVENUE,ANAND TALKIES ROAD,(BACK SIDE OF SBI MAIN BRANCH),JAISTAMB CHOWK,RAIPUR – 492 001",,RAIPUR,RAIPUR,CHHATTISGARH
CIUB0000288,City Union Bank Ltd,CIUB0000288,NON MICR,BHUBANESWAR,"777, SAHEED NAGAR,BHUBANESWAR – 751 007,ORISSA",,BHUBANESWAR,BHUBANESWAR,ORISSA
CIUB0000289,City Union Bank Ltd,CIUB0000289,NA,SULUR,"3/17C, TRICHY ROAD,SULUR – 641402 COIMBATORE DIST.",,SULUR,COIMBATORE,TAMIL NADU
CIUB0000290,City Union Bank Ltd,CIUB0000290,NA,SAKKOTTAI,"5/33, NEEDAMANGALAM MAIN ROAD,SAKKOTTAI - (PO),KUMBAKONAM - 612 401.",,KUMBAKONAM,THANJAVUR,TAMIL NADU
CIUB0000291,City Union Bank Ltd,CIUB0000291,NA,MADUKKUR,"373/4, MAS CITY TOWER,PATTUKOTTAI MANNARGUDI MAIN ROAD,MADUKKUR - 614903.",,MADUKKUR,THANJAVUR,TAMIL NADU
CIUB0000292,City Union Bank Ltd,CIUB0000292,NA,MANJAKKUDI,"OLD NO.222, AGRAHARAM,MANJAKKUDI – 612610",,KODAVASAL,THIRUVARUR,TAMIL NADU
CIUB0000307,City Union Bank Ltd,CIUB0000307,,JALLADIAMPET,"1/27, Rice Mill Road,, Jalladiampet",9382270025,CHENNAI,CHENNAI,TAMIL NADU
CIUB0000308,City Union Bank Ltd,CIUB0000308,,SEMMANJERI,"3, OMR ROAD, SEMMENJERI",9382267678,CHENNAI,CHENNAI,TAMIL NADU
CIUB0000293,City Union Bank Ltd,CIUB0000293,KATPADI,KATPADI,VELLORE,TAMIL NADU,"VIT UNIVERSITY CAMPUS,KATPADI",0416-2242344,CUB293@CITYUNIONBANK.COM
CIUB0000294,City Union Bank Ltd,CIUB0000294,SATHUVACHERI,SATHUVANCHARY,VELLORE,TAMIL NADU,"631, PHASE II,SATHUVACHARI",0416-2258999,CUB294@CITYUNIONBANK.COM
CIUB0000295,City Union Bank Ltd,CIUB0000295,CHITLAPAKKAM,CHITLAMBAKKAM,KANCHEEPURAM,TAMIL NADU,"23A, GANDHI STREET,CHITLAPAKKAM, CHENNAI 600064",9380350736,CUB295@CITYUNIONBANK.COM
CIUB0000296,City Union Bank Ltd,CIUB0000296,MUDICHUR,TAMBARAM,KANCHEEPURAM,TAMIL NADU,"NO.51,HABIBULLAH NAGAR,MUDICHUR, CHENNAI 600068",9382271182,CUB296@CITYUNIONBANK.COM
CIUB0000297,City Union Bank Ltd,CIUB0000297,TINDIVANAM,TINDIVANAM,VILLUPURAM,TAMIL NADU,"NO.203, JAWAHARLAL NEHRU STREET, TINDIVANAM  604001",9382267333,CUB297@CITYUNIONBANK.COM
CIUB0000298,City Union Bank Ltd,CIUB0000298,TIRUNAGESWARAM,KUMBAKONAM,THANJAVUR,TAMIL NADU,"15, NORTH STREET,THIRUNAGESWARAM  612204",0435-2463678,CUB298@CITYUNIONBANK.COM
CIUB0000299,City Union Bank Ltd,CIUB0000299,VIRUDHACHALAM,VRIDHACHALAM,CUDDALORE,TAMIL NADU,"NO.701, JUNCTION ROAD,VIRUDHACHALAM  606001",9382267228,CUB299@CITYUNIONBANK.COM
CIUB0000300,City Union Bank Ltd,CIUB0000300,AYYAPPANTHANGAL,CHENNAI,CHENNAI,TAMIL NADU,"D.NO.1, RAMACHANDRA NAGAR,CHENNAI  600056",044-24765445,CUB300@CITYUNIONBANK.COM
CIUB0000301,City Union Bank Ltd,CIUB0000301,KOOTHANALLUR,KUTHANALLUR,THIRUVARUR,TAMIL NADU,"A.R.ROAD, (NEAR MUNICIPALITYOFFICE),KOOTHANALLUR  614101",9380350731,CUB301@CITYUNIONBANK.COM
CIUB0000302,City Union Bank Ltd,CIUB0000302,METTUPALAYAM,METTUPALAYAM,COIMBATORE,TAMIL NADU,"20, PRASAD COMPLEX,RAILWAY STATION ROAD,METTUPALAYAM  641301",9382270627,CUB302@CITYUNIONBANK.COM
CIUB0000303,City Union Bank Ltd,CIUB0000303,PALAVATHANKATTALAI,KUMBAKONAM,THANJAVUR,TAMIL NADU,"530,KARAIKKAL MAIN ROAD,PALAVATHANKATTALAI  612401",9382270306,CUB303@CITYUNIONBANK.COM
CIUB0000304,City Union Bank Ltd,CIUB0000304,GIRUGAMBAKKAM,CHENNAI,CHENNAI,TAMIL NADU,"453/1, KUNDRATHUR MAIN ROAD, GERUGAMBAKKAM,CHENNAI",9380351758,CUB304@CITYUNIONBANK.COM
CIUB0000305,City Union Bank Ltd,CIUB0000305,MEDAVAKKAM,CHENNAI,CHENNAI,TAMIL NADU,"9/959, TAMBARAM-VELACHERY MAIN ROAD, MEDAVAKKAM,CHENNAI",9380351760,CUB305@CITYUNIONBANK.COM
CIUB0000306,City Union Bank Ltd,CIUB0000306,SURAMPATTI,ERODE,ERODE,TAMIL NADU,"NO 311,SKC ROAD,SURAMPATTI,ERODE",9380351772,CUB306@CITYUNIONBANK.COM
CIUB0000226,City Union Bank Ltd,CIUB0000226,,KULASEKARAM,"VPM HOSPITAL COMPLEX,SRI MOOGAMBIGAI MEDICAL COLLEGE CAMPUS",04651-277737,KULASEKARAM,TIRUNELVEI,TAMIL NADU
CIUB0000227,City Union Bank Ltd,CIUB0000227,641 054 105,VEERAPANDY(TIRUPPUR),"USHA COMPLEX,4/9, PALLADAM ROAD",0421-2216124,VEERAPANDY(TIRUPPUR),TIRUPPUR,TAMIL NADU
CIUB0000228,City Union Bank Ltd,CIUB0000228,631054102,ARAKKONAM,"67/189,GANDHI ROAD,SUVALPET",04177-236283,ARAKKONAM,ARAKKONAM,TAMIL NADU
CIUB0000229,City Union Bank Ltd,CIUB0000229,,VEDARANYAM,"NO.4, NORTH STREET",04177-236283,VEDARANYAM,NAGAPATTINAM,TAMIL NADU
CIUB0000230,City Union Bank Ltd,CIUB0000230,627 054 005,PALAYAMKOTTAI,"JESUS PLAZA,250, TIRUCHENDUR ROAD,",0462-2585700,PALAYAMKOTTAI,TIRUNELVELI,TAMIL NADU
CIUB0000231,City Union Bank Ltd,CIUB0000231,636 054 102,DHARMAPURI,"14Q & 14R,NETHAJI BYE PASS ROAD",04342-264477,DHARMAPURI,DHARMAPURI,TAMIL NADU
CIUB0000232,City Union Bank Ltd,CIUB0000232,636 054 007,JALAKANDAPURAM,2-1-22/1 THARAMANGALAM MAIN ROAD,04298 –260678,JALAKANDAPURAM,VELLORE,TAMIL NADU
CIUB0000309,City Union Bank Ltd,CIUB0000309,600054047,POLICHALUR,"PLOT NO.13, NEHRU NAGAR,, POLICHALUR MAIN ROAD,CHENNAI,CHENNAI",9382270066,CHENNAI,CHENNAI,TAMIL NADU
CIUB0000310,City Union Bank Ltd,CIUB0000310,600054048,NANMANGALAM,"1/92A, GROUND FLOOR, MEDAVAKKAM MAIN ROAD,NANMANGALAM,CHENNAI",9382270055,CHENNAI,CHENNAI,TAMIL NADU
CIUB0000311,City Union Bank Ltd,CIUB0000311,641054017,SINGANALLUR,"NO.548/1, TRICHY ROAD,, NEAR AMBAL THEATRE,SINGANALLUR,COIMBATORE",9380351730,COIMBATORE,COIMBATORE,TAMIL NADU
CIUB0000312,City Union Bank Ltd,CIUB0000312,600054047,KUNDRATHUR,"NO.16, THULUKA STREET,KUNDRATHUR,CHENNAI – 600 069 KANCHEEPURAM – DIST",9344023512,KUNRATHUR,KANCHEEPURAM,TAMIL NADU
CIUB0000313,City Union Bank Ltd,CIUB0000313,600054048,MADHAVARAM,"1-B, ROJA NAGAR,MADHAVARAM – RED HILLS HIGH ROAD, BAZAAR STREET,MADHAVARAM,CHENNAI – 600 060.TIRUVALLUR - DIST.",9344023513,MADHAVARAM,THIRUVALLUR,TAMIL NADU
CIUB0000314,City Union Bank Ltd,CIUB0000314,636054010,IDAPPADI,"NO.2, BAZAAR STREET,IDAPPADI – 637 101.SALEM – DIST.",9344023514,SALEM,SALEM,TAMIL NADU
CIUB0000315,City Union Bank Ltd,CIUB0000315,600054049,KOTTIVAKKAM,"OLD NO.1/161, NEW NO.1/618, EAST COAST ROAD, KOTTIVAKKAM,CHENNAI – 600 041.",9344023515,CHENNAI,CHENNAI,TAMIL NADU
CIUB0000316,City Union Bank Ltd,CIUB0000316,632054005,MELVISHARAM,"C.ABDUL HAKEEM COLLEGE OF ENGINEERING AND TECHNOLOGY,HAKEEM NAGAR,MELVISHARAM – 632 509,VELLORE – DIST",9344023517,MELVISHARAM,VELLORE,TAMIL NADU
CIUB0000317,City Union Bank Ltd,CIUB0000317,600054050,TIRUVOTTIYUR,"NEW NO.645, OLD NO.336, T.H.ROAD, TIRUVOTTIYUR,CHENNAI – 600 019.",9344023516,CHENNAI,CHENNAI,TAMIL NADU
CIUB0000318,City Union Bank Ltd,CIUB0000318,,BANASWADI,"NO.6 GANESH CHAMBERS DODDA BANASWADI MAIN ROAD, BANASWADI,BANGALORE,BANGALORE",9344023520,BANGALORE,BANGALORE URBAN,KARNATAKA
CIUB0000319,City Union Bank Ltd,CIUB0000319,600054051,KARAPAKKAM,"NO.1/14, OMR ROAD,",9344023521,CHENNAI,KANCHEEPURAM,TAMIL NADU
CIUB0000320,City Union Bank Ltd,CIUB0000320,625054010,ODDANCHATRAM,"DINDIGUL-PALANI MAIN ROAD, NEAR GANDHI MARKET,",9344023518,ODDANCHATRAM,DINDIGUL,TAMIL NADU
CIUB0000321,City Union Bank Ltd,CIUB0000321,624054104,PALANI,"72-A PALANI - DINDIGUL MAIN ROAD,",9344023519,PALANI,DINDIGUL,TAMIL NADU
CIUB0000322,City Union Bank Ltd,CIUB0000322,533054302,AMALAPURAM,"D.NO.3-1-141, OPP. HEAD POSTOFFICE,K.AGRAHARAM,",9395361234,AMALAPURAM,EAST GODAVARI,ANDHRA PRADESH
CIUB0000323,City Union Bank Ltd,CIUB0000323,635054102,TIRUPATHUR,"KAP TIRUNATHAR NAGAR,TIRUPATHUR",9344023524,TIRUPATHUR,VELLORE,TAMIL NADU
CIUB0000324,City Union Bank Ltd,CIUB0000324,641054018,KARAMADAI,"21/23-1,SOUTH CAR STREET, KARAMADAI",9344023525,KARAMADAI,COIMBATORE,TAMIL NADU
CIUB0000325,City Union Bank Ltd,CIUB0000325,641054019,SARAVANAMPATTI,"227-A, SATHY ROAD,SARAVANAMPATTI",9344023526,SARAVANAMPATTI,COIMBATORE,TAMIL NADU
CIUB0000326,City Union Bank Ltd,CIUB0000326,600054052,ANAKAPUTHUR,"S.NO.168/3-D,KAMARAJAR SALAI, ANAKAPUTHUR",9344023527,CHENNAI,KANCHEEPURAM,TAMIL NADU
CIUB0000327,City Union Bank Ltd,CIUB0000327,625054011,OTHAKADAI,"2/109,MELUR MAIN ROAD,OTHAKADAI",9344023528,OTHAKADAI,MADURAI,TAMIL NADU
CIUB0000328,City Union Bank Ltd,CIUB0000328,626054505,SRIVILLIPUTHUR,"144/2,SOUTH CAR STREET,SRIVILLIPUTHUR",9344023529,SRIVILLIPUTHUR,VIRUDHUNAGAR,TAMIL NADU
CIUB0000329,City Union Bank Ltd,CIUB0000329,,CHIRALA,"14-21-85, DHARBAV ROAD,OPP. STATE BANK OF INDIA,CHIRALA",9397081234,CHIRALA,PRAKASAM,ANDHRA PRADESH
CIUB0000330,City Union Bank Ltd,CIUB0000330,,KAVALI,"D.NO.10-15-39A, GROUND FLOOR,G.T.ROAD,NEAR R.D.O.OFFICE,KAVALI",9346591234,KAVALI,NELLORE,ANDHRA PRADESH
CIUB0000331,City Union Bank Ltd,CIUB0000331,620054011,MUSIRI,"PLOT NO.397, SALEM BYE PASS ROAD,NEAR NEW BUS STAND,MUSIRI",9344023534,MUSIRI,TRICHY,TAMIL NADU
CIUB0000332,City Union Bank Ltd,CIUB0000332,620054012,TRICHY - K.K.NAGAR,"PLOT NO.379, RAJARAM SALAI,K.K.NAGAR,TRICHY",9344023561,TRICHY,TRICHY,TAMIL NADU
CIUB0000333,City Union Bank Ltd,CIUB0000333,,BOMMASANDRA,"NO.17, 5TH CROSS, VIDYANAGAR, NEXT TO LARK HOTEL, HOSUR ROAD, BOMMASANDRA – 560 099.
BANGALORE RURAL","9341822834,CUB333@CITYUNIONBANK.IN",BOMMASANDRA,BANGALORE URBAN,KARNATAKA
CIUB0000334,City Union Bank Ltd,CIUB0000334,,DODDABALLAPUR,"1108/1116/925, HUNGI, COMPLEX, CINEMA STREET, NEXT TO LAKSHMI THEATRE, DODDABALLAPUR – 561 203 BANGALORE ","9341673937,CUB334@CITYUNIONBANK.IN",DODDABALLAPUR,BANGALORE RURAL,KARNATAKA
CIUB0000335,City Union Bank Ltd,CIUB0000335,,PANRUTI,"NO.9, R.C.COMPLEX, KUMBAKONAM ROAD, PANRUTI-607106 CUDDALORE","9344085030,CUB335@CITYUNIONBANK.IN",PANRUTI,CUDDALORE,TAMIL NADU
CIUB0000336,City Union Bank Ltd,CIUB0000336,,GUDUVANCHERY,"5, SRINIVASAPURAM, NANDHIVARAM, GUDUVANCHERY – 603202. KANCHEEPURAM","9344085033,CUB336@CITYUNIONBANK.IN",GUDUVANCHERI,KANCHEEPURAM,TAMIL NADU
CIUB0000337,City Union Bank Ltd,CIUB0000337,,URAPAKKAM,"145, GST ROAD, URAPAKKAM – 603 202 KANCHEEPURAM","9344085031,CUB337@CITYUNIONBANK.IN",KANCHIPURAM,KANCHEEPURAM,TAMIL NADU
CIUB0000338,City Union Bank Ltd,CIUB0000338,,MANAPAKKAM,"NO.1/100, MANAPAKKAM MAIN ROAD, MANAPAKKAM, CHENNAI – 600 125","9344085034,CUB338@CITYUNIONBANK.IN",CHENNAI,CHENNAI,TAMIL NADU
CIUB0000339,City Union Bank Ltd,CIUB0000339,,ABIRAMAPURAM,"63-A, C.P.RAMASWAMI ROAD, ABIRAMAPURAM ALWARPET, CHENNAI – 600 018","9344085035,CUB339@CITYUNIONBANK.IN",CHENNAI,CHENNAI,TAMIL NADU
CIUB0000340,City Union Bank Ltd,CIUB0000340,,ADONI,"SY.NO.79/1A, ESI HOSPITAL ROAD, BEHIND NTR STATUE, ADONI – 518 301 
KURNOOL – DIST.
",CUB340@CITYUNIONBANK.IN,ADONI,KURNOOL,ANDHRA PRADESH
CIUB0000341,City Union Bank Ltd,CIUB0000341,,ADILABAD,"DOOR NO.4-3-75/2, HAMEEDPURA, NEAR NETAJI CHOWK, ADILABAD – 504 001
ADILABAD – DIST.",CUB341@CITYUNIONBANK.IN,ADILABAD,ADILABAD,ANDHRA PRADESH
CIUB0000342,City Union Bank Ltd,CIUB0000342,,ANAKAPALLI,"DOOR NO.12-1-41, RAMACHANDRA COMPLEX, OPP – NTR STADIUM, ANAKAPALLI – 531 001 VISAKHAPATNAM – DIST",CUB342@CITYUNIONBANK.IN,ANAKAPALLI,VISHAKHAPATNAM,ANDHRA PRADESH
CIUB0000343,City Union Bank Ltd,CIUB0000343,,TANUKU,"D.NO.18-5-8, 9&10, RASHTRAPATHI ROAD, TANUKU –534 211 WEST GODAVARI – DIST",CUB343@CITYUNIONBANK.IN,TANUKU,WEST GODAVARI,ANDHRA PRADESH
CIUB0000344,City Union Bank Ltd,CIUB0000344,,PERIYANAIKEN PALAYAM,"S.F.NO.319/1E, METTUPALAYAM MAIN ROAD, (OPP. TO PRICOL PLANT NO.1), PERIYANAIKENPALAYAM, COIMBATORE – 641 020",CUB344@CITYUNIONBANK.IN,PERIYANAICKANPALAYAM,COIMBATORE,TAMIL NADU
CIUB0000345,City Union Bank Ltd,CIUB0000345,,PANNIMADAI,"ALIPRI COMPLEX, GROUND FLOOR, S.F.NO.55/1, PANNIMADAI MAIN ROAD, COIMBATORE –641 017",CUB345@CITYUNIONBANK.IN,,,
CIUB0000346,City Union Bank Ltd,CIUB0000346,,BODINAYAKANUR,"NEAR LIC OFFICE, THEVARAM ROAD, BODINAYAKANUR – 625 513. THENI – DIST",CUB346@CITYUNIONBANK.IN,BODINAYAKANUR,THENI,TAMIL NADU
CIUB0000347,City Union Bank Ltd,CIUB0000347,,CUMBUM,"WARD NO.21, D.NO.79, 79A, VELAPPAR KOIL STREET, CUMBUM – 625 516. THENI – DIST",CUB347@CITYUNIONBANK.IN,CUMBUM,THENI,TAMIL NADU
CIUB0000348,City Union Bank Ltd,CIUB0000348,,SANKARANKOIL,"NO.6, SOUTH CAR STREET, SANKARANKOIL – 627 756. TIRUNELVELI – DIST",CUB348@CITYUNIONBANK.IN,SANKARANKOIL,TIRUNELVALI,TAMIL NADU
CIUB0000349,City Union Bank Ltd,CIUB0000349,,PULIYANGUDI,"158-C, GROUND FLOOR, MAIN ROAD, (NEAR BSNL OFFICE), PULIANGUDI – 627 855. TIRUNELVELI – DIST",CUB349@CITYUNIONBANK.IN,PULIYANGUDI,TIRUNELVALI,TAMIL NADU
CIUB0000350,City Union Bank Ltd,CIUB0000350,,NARASARAOPET,"D.NO.9-7-47, BANK STREET, ARUNDELPET, NARASARAOPET – 522 601 GUNTUR – DIST",CUB350@CITYUNIONBANK.IN,NARSARAOPET,GUNTUR,ANDHRA PRADESH
CIUB0000351,City Union Bank Ltd,CIUB0000351,,CHILAKALURIPET,"7-376/1, GANDHIPETTA, (OPP. TO INDIAN BANK), N.R.T.CENTER, CHILAKALURIPET - 522 616 GUNTUR – DIST",CUB351@CITYUNIONBANK.IN,CHILAKALURIPET,GUNTUR,ANDHRA PRADESH
CIUB0000352,City Union Bank Ltd,CIUB0000352,,GUDUR,"8/202 HOSPITAL ROAD, OPP. SANGAM THEATRE, MITTA PALEM, GUDUR-524101 NELLORE – DIST",CUB352@CITYUNIONBANK.IN,GUDUR,NELLORE,ANDHRA PRADESH
CIUB0000353,City Union Bank Ltd,CIUB0000353,,TIRUPATI,"TIRUMALA BY-PASS ROAD, NEAR LEELA MAHAL JUNCTION, TIRUPATI – 517 501 CHITTOOR – DIST",CUB353@CITYUNIONBANK.IN,TIRUPATI,CHITTOOR,ANDHRA PRADESH
CIUB0000355,City Union Bank Ltd,CIUB0000355,,MAYUR VIHAR –NEW DELHI,"DOOR NO.C-15, ACHARYA NIKETAN, MAYUR VIHAR – PHASE -I NEW DELHI – 110 091","9344023593,CUB355@CITYUNIONBANK.IN",DELHI,DELHI,DELHI
CIUB0000356,City Union Bank Ltd,CIUB0000356,,LAJPAT NAGAR – NEW DELHI,"M-17, GROUND FLOOR, LAJPAT NAGAR II, SOUTH DELHI, NEW DELHI – 110 024","9344023594,CUB356@CITYUNIONBANK.IN",DELHI,DELHI,DELHI
CIUB0000357,City Union Bank Ltd,CIUB0000357,,GURGAON,"SCO – 28, SECTOR – 14, GURGAON – 122 001 HARYANA","9344023592,CUB357@CITYUNIONBANK.IN",GURGAON,GURGAON,HARYANA
CIUB0000358,City Union Bank Ltd,CIUB0000358,,CHANDIGARH,"SCO-2433-34, SECTOR – 22C, CHANDIGARH – 160 022","9344023591,CUB358@CITYUNIONBANK.IN",CHANDIGARH,CHANDIGARH,CHANDIGARH
CIUB0000359,City Union Bank Ltd,CIUB0000359,,AMRITSAR,"NO.3-A, LAWRANCE ROAD, AMRITSAR – 143 001. PUNJAB","9344023585,CUB359@CITYUNIONBANK.IN",AMRITSAR,AMRITSAR,PUNJAB
CIUB0000360,City Union Bank Ltd,CIUB0000360,,THIRUVERKADU,"PLOT 14 & 15, LINGESWAR NAGAR, THIRUVERKADU, CHENNAI – 600 077 KANCHEEPURAM – DIST","9344023538, CUB360@CITYUNIONBANK.IN",KANCHIPURAM,KANCHEEPURAM,TAMIL NADU
CIUB0000361,City Union Bank Ltd,CIUB0000361,,PERUNGULATHUR,"46/57, KAMARAJ NEDUNCHALAI, NEW PERUNGALATHUR CHENNAI – 600 063. KANCHEEPURAM – DIST","9344023536, CUB361@CITYUNIONBANK.IN",PERUNGALATHUR,KANCHEEPURAM,TAMIL NADU
CIUB0000362,City Union Bank Ltd,CIUB0000362,,PADAPPAI,"NO.5, NAVASAKTHI NAGAR, PADAPPAI - 601 301 KANCHEEPURAM – DIST","9344023535, CUB362@CITYUNIONBANK.IN",PADAPPAI,KANCHEEPURAM,TAMIL NADU
CIUB0000363,City Union Bank Ltd,CIUB0000363,,CHEYYAR,"6, ARCOT ROAD, SBI-LIC COMPLEX, CHEYYAR – 604 407 TIRUVANNAMALAI – DIST","9344023552,CUB363@CITYUNIONBANK.IN",TIRUVATTIPURAM(CHEYYAR),TIRUVANNAMALAI,TAMIL NADU
CIUB0000364,City Union Bank Ltd,CIUB0000364,,DHALAVAIPURAM,"54 C, PUTHUR MAIN ROAD, CHETTIARPATTI DHALAVAIPURAM-626188 VIRUDHUNAGAR – DIST","9344023546,CUB364@CITYUNIONBANK.IN",DHALAVOIPURAM,VIRUDHUNAGAR,TAMIL NADU
CIUB0000365,City Union Bank Ltd,CIUB0000365,,GUMMIDIPOONDI,"NO.267, GNT ROAD, GUMMIDIPOONDI-601201 TIRUVALLUR – DIST","9344023539,CUB365@CITYUNIONBANK.IN",GUMMIDIPUNDI,THIRUVALLUR,TAMIL NADU
CIUB0000366,City Union Bank Ltd,CIUB0000366,,KATTUMANNARKOIL,"CHELLAM TOWERS, 144/41-A, ERATAI STREET, KATTUMANNAR KOVIL-608301 CUDDALORE – DIST","9344023553,CUB366@CITYUNIONBANK.IN",KATTUMANNARKOIL,CUDDALORE,TAMIL NADU
CIUB0000367,City Union Bank Ltd,CIUB0000367,,MANGADU  CHENNAI,"1/2, KUNDRATHUR ROAD, MURUGAN NAGAR, MANGADU, CHENNAI- 600122 KANCHEEPURAM - DIST","9344023540,CUB367@CITYUNIONBANK.IN",MANGADU,KANCHEEPURAM,TAMIL NADU
CIUB0000368,City Union Bank Ltd,CIUB0000368,,MINJUR  CHENNAI,"S.NO.213/3, C1J, T.H.ROAD, MINJUR, PONNERI TK- 601203 TIRUVALLUR – DIST","9344023541,CUB368@CITYUNIONBANK.IN",MINJUR,THIRUVALLUR,TAMIL NADU
CIUB0000369,City Union Bank Ltd,CIUB0000369,,KAMAREDDY,"7, HYDERABAD ROAD, NATIONAL HIGHWAY, KAMAREDDY-503 111 NIZAMABAD - DIST., ANDHRA PRADESH","9344023604,CUB369@CITYUNIONBANK.IN",KAMAREDDY,NIZAMABAD,ANDHRA PRADESH
CIUB0000370,City Union Bank Ltd,CIUB0000370,,MEDCHAL,"RTC COLONY, NEAR MUKUND THEATRE, H 44, MEDCHAL -501401 RENGA REDDY – DIST, ANDHRA PRADESH","9344023603,CUB370@CITYUNIONBANK.IN",MEDCHAL,RANGAREDDY,ANDHRA PRADESH
CIUB0000371,City Union Bank Ltd,CIUB0000371,,MEERPET,"PLOT NO.1, BLOCK NO.4,, SURVEY NO.56, GANHDI NAGAR, MEERPET VILLAGE, SAROOR NAGAR, HYDERABAD – 500 097 RENGAREDDY – DIST, ANDHRA PRADESH","9344023606,CUB371@CITYUNIONBANK.IN",MEERKHANPET,RANGAREDDY,ANDHRA PRADESH
CIUB0000372,City Union Bank Ltd,CIUB0000372,,BODUPPAL,"PLOT NO.216, S.NO.46,48, MAIN ROAD, OPP.UPPAL BUS DEPOT, NH- 202 PEERZADIGUDA, HYDERABAD 500039. RENGAREDDY – DIST, ANDHRA PRADESH","9344023602,CUB372@CITYUNIONBANK.IN",UPPAL,RANGAREDDY,ANDHRA PRADESH
CIUB0000373,City Union Bank Ltd,CIUB0000373,,AVINASHI,"416/9 MAIN ROAD, (OPP) OLD BUS STAND, AVINASHI – 641 654","9344023554,CUB373@CITYUNIONBANK.IN",AVANASHI,COIMBATORE,TAMIL NADU
CIUB0000374,City Union Bank Ltd,CIUB0000374,,ARUPUKOTTAI,"45, SOUTH STREET, ARUPPUKOTTAI-626101 VIRUDHUNAGAR – DIST ","9344023543,CUB374@CITYUNIONBANK.IN",ARUPPUKOTTAI,VIRUDHUNAGAR,TAMIL NADU
CIUB0000375,City Union Bank Ltd,CIUB0000375,,USILAMPATTI,"NO.6A/3, PERAIYUR MAIN ROAD, WARD NO.21, USILAMPATTI – 625 532 MADURAI – DIST ","9344023551,CUB375@CITYUNIONBANK.IN",USILAMPATTI,MADURAI,TAMIL NADU
CIUB0000376,City Union Bank Ltd,CIUB0000376,,TENKASI,"DOOR NO.342-D,COURTALLAM ROAD, NEAR YANAIPALAM, TENKASI - 627 811 TIRUNELVELI – DIST","9344023547,CUB376@CITYUNIONBANK.IN",TENKASI,TIRUNELVALI,TAMIL NADU
CIUB0000377,City Union Bank Ltd,CIUB0000377,,AMBASAMUDRAM,"NO.58,SANJEEVI VILAS COMPOUND, THILAGARPURAM MAIN ROAD, AMBASAMUDRAM - 627 401. TIRUNELVELI – DIST ","9344023542,CUB377@CITYUNIONBANK.IN",AMBASAMUDRAM,TIRUNELVALI,TAMIL NADU
CIUB0000378,City Union Bank Ltd,CIUB0000378,,THIRUNAGAR  MADURAI,"NO.5, GROUND FLOOR, GST ROAD, THIRUNAGAR – 625006 MADURAI – DIST ","9344023550,CUB378@CITYUNIONBANK.IN",TIRUNAGAR,MADURAI,TAMIL NADU
CIUB0000379,City Union Bank Ltd,CIUB0000379,,THRIPUNITHURA,"KANNETH BUILDING, NEAR GOVT. HOSPITAL, THRIPUNITHURA – 682 301. ERNAKULAM – DIST",CUB379@CITYUNIONBANK.IN,TRIPPUNITHURA,ERNAKULAM,KERALA
CIUB0000380,City Union Bank Ltd,CIUB0000380,,ALAPUZHA,"17/420, NANA’S COMPLEX, CULLEN ROAD, MULLACKAL ALAPUZHA – 688 011 ALAPUZHA – DIST",CUB380@CITYUNIONBANK.IN,ALAPPUZHA,ALAPUZHA,KERALA