ID,BANK,IFSC_CODE,MICR_CODE,BRANCH_NAME,ADDRESS,CONTACT,CITY,DISTRICT,STATE
KVGB0000001,Karnataka Vikas Grameena Bank,KVGB0000001,,HEAD OFFICE,"KARNATAKA VIKAS GRAMEENA BANK HEAD OFFICE BUILDING,BELGAUM ROAD DHARWAD-580008",9480699079,HUBLI-DHARWAD,DHARWAD,KARNATAKA
KVGB0001001,Karnataka Vikas Grameena Bank,KVGB0001001,587483501,BADAMI,BADAMI BRANCH  NEAR BUS-STAND   BADAMI- 587 201  DIST: BAGALKOT,9480699402,BADAMI,BAGALKOTE,KARNATAKA
KVGB0001002,Karnataka Vikas Grameena Bank,KVGB0001002,587483502,BELUR," BELUR BRANCH  GRAM PANCHAYAT BLDG,   BELUR - 587 113, TQ:BADAMI, DIST:BAGALKOT.                           ",9480699405,BELUR,BAGALKOTE,KARNATAKA
KVGB0001003,Karnataka Vikas Grameena Bank,KVGB0001003,587483503,CHOLACHAGUDDA," CHOLACHAGUDDA BRANCH  S.C.HUMBI BLDG,  CHOLACHAGUDDA-587201  TQ:BADAMI DIST:BAGALKOT",9480699411,CHOLACHAGUDDA,BAGALKOTE,KARNATAKA
KVGB0001004,Karnataka Vikas Grameena Bank,KVGB0001004,587483504,HEBBALLI,"HEBBALLI BRANCH  GRAM PANCHAYAT BLDG,  BAZAAR ROAD, HEBBALLI - 582 203, TQ:BADAMI  DIST:BAGALKOT.",9480699417,HEBBALLI,BAGALKOTE,KARNATAKA
KVGB0001005,Karnataka Vikas Grameena Bank,KVGB0001005,587483505,KATAGERI,"KATAGERI BRANCH  KATAGERI MILK PRODUCERS' CO-OP. SOCIETY'S BUILDING,MAIN  ROAD,  KATAGERI - 587 205, TQ : BADAMI DIST : BAGALKOT.",9480699425,KATAGERI,BAGALKOTE,KARNATAKA
KVGB0001006,Karnataka Vikas Grameena Bank,KVGB0001006,587483506,MUSTIGERI," MUSTIGERI BRANCH  P A C C BANK,  BUILDING D.NO.504, MAIN STREET,  MUSTIGERI - 587 206,  TQ : BADAMI. DIST : BAGALKOT.                      ",9480699434,MUSTIGERI,BAGALKOTE,KARNATAKA
KVGB0001007,Karnataka Vikas Grameena Bank,KVGB0001007,587483507,NANDIKESHWAR," NANDIKESHWAR BRANCH  KULKARNI'S BLDG, MAIN ROAD,  NANDIKESHWAR - 587 320,   TQ:BADAMI DIST:BAGALKOT.",9480699436,NANDIKESHWAR,BAGALKOTE,KARNATAKA
KVGB0001008,Karnataka Vikas Grameena Bank,KVGB0001008,587483508,NEELAGUND," NEELAGUND BRANCH  MAIN ROAD, NEELAGUND - 587 201, TQ : BADAMI DIST : BAGALKOT.    PH.NO.08357-238003",9480699439,NEELAGUND,BAGALKOTE,KARNATAKA
KVGB0001009,Karnataka Vikas Grameena Bank,KVGB0001009,587483509,GULEDAGUDDA,"SANGAMESHWAR PRINTING PRESS BLDG, GULEDGUDDA, TQ: BADAMI DIST : BAGALKOT",9480699506,GULEDAGUDDA,BAGALKOTE,KARNATAKA
KVGB0001101,Karnataka Vikas Grameena Bank,KVGB0001101,587483102,BAGALKOT,"BAGALKOT BRANCH  SHREYAS OMPLEX, I FLOOR, NEAR BUS STAND,  Q& DT: BAGALKOT",9480699000,BAGALKOT,BAGALKOTE,KARNATAKA
KVGB0001102,Karnataka Vikas Grameena Bank,KVGB0001102,587483510,BENAKATTI,"BENAKATTI BRANCH MALLAMMAMBE MAHILA MANDAL BUILDING,  D.NO.93, MAIN ROAD, BENAKATTI - 587 111, TQ :DIST : BAGALKOT.",9480699406,BENAKATTI,BAGALKOTE,KARNATAKA
KVGB0001103,Karnataka Vikas Grameena Bank,KVGB0001103,587483511,GADDANKERI," GADDANAKERI BRANCH  KKGS SANGHA BUILDING, D.NO.157/1,KALADAGI RD, GADDANAKERI - 587 115, TQ : BAGALKOT. DIST : BAGALKOT.",9480699413,GADDANKERI,BAGALKOTE,KARNATAKA
KVGB0001104,Karnataka Vikas Grameena Bank,KVGB0001104,587483512,SUTAGUNDAR," SUTAGUNDAR BRANCH MAIN ROAD, SUTAGUNDAR-587 207, TQ : BAGALKOT. DIST :BAGALKOT.",9480699443,SUTAGUNDAR,BAGALKOTE,KARNATAKA
KVGB0001105,Karnataka Vikas Grameena Bank,KVGB0001105,587483103,NAVANAGAR (BGK),"NAVANAGAR BRANCH  PLOT NO.C-69, SECTOR 33  SBM BUILDING, NEAR DIST CONSUMERS FORUM , NAVANAGAR - 587 103, TQ: DIST BAGALKOT.",9480699438,BAGALKOT,BAGALKOTE,KARNATAKA
KVGB0001106,Karnataka Vikas Grameena Bank,KVGB0001106,587483549,KALADGI,"HNNU BELEGARARA SANGH BLDG, NEAR POLICE STATION,KALADGI TQ & DT. BAGALKOT",9480699525,KALADGI,BAGALKOTE,KARNATAKA
KVGB0001201,Karnataka Vikas Grameena Bank,KVGB0001201,587483553,AMALZARI," AMALZARI BRANCH  MARUTI SEVA SAMEETI  BUILDING,  AMALZARI - 587 125, TQ : BILAGI. DIST : BAGALKOT.",9480699400,AMALZARI,BAGALKOTE,KARNATAKA
KVGB0001202,Karnataka Vikas Grameena Bank,KVGB0001202,587483514,ANAGWADI," ANAGAWADI BRANCH  ANAGAWADI - 587 116, TQ : BILAGI. DIST : BAGALKOT.",9480699401,ANAGWADI,BAGALKOTE,KARNATAKA
KVGB0001203,Karnataka Vikas Grameena Bank,KVGB0001203,587483515,BILGI,"BILAGI BRANCH MAIN ROAD, S.S. PATIL BUILDING, BILAGI – 587 116 DIST: BAGALKOT",9480699408,BILGI,BAGALKOTE,KARNATAKA
KVGB0001204,Karnataka Vikas Grameena Bank,KVGB0001204,587483516,KATARKI,"KATARAKI BRANCH  MATHAD BUILDING, D.NO.1/A, MAIN ROAD, KATARAKI - 587 204, TQ : BILAGI. DIST : BAGALKOT.",9480699426,KATARKI,BAGALKOTE,KARNATAKA
KVGB0001205,Karnataka Vikas Grameena Bank,KVGB0001205,587483517,SUNAG,"SUNAG BRANCH  GRAM PANCHAYAT  BLDG,  D.NO.196,     MAIN ROAD, SUNAG - 587 128,  TQ : BILAGI. DIST : BAGALKOT.",9480699442,SUNAG,BAGALKOTE,KARNATAKA
KVGB0001206,Karnataka Vikas Grameena Bank,KVGB0001206,587483518,TEGGI,"KARNATAKAVIKASGRAMEENA BANK J B KUDAGI BLDG,           MAIN ROAD, TEGGI TQ. BILAGI DT: BAGALKOT  PIN –  587 117",9480699617,TEGGI,BAGALKOTE,KARNATAKA
KVGB0001301,Karnataka Vikas Grameena Bank,KVGB0001301,587483519,AIHOLE," AIHOLE BRANCH  C.M.NASHI BLDG,  AIHOLE – 587 138    TQ : HUNGUND   DIST : BAGALKOT          ",9480699398,AIHOLE,BAGALKOTE,KARNATAKA
KVGB0001302,Karnataka Vikas Grameena Bank,KVGB0001302,587483520,CHITTARGI,"  CHITTARAGI BRANCH   VIJAYA MAHANTESH TRUST, CHITTARAGI –587 112 TQ: HUNGUND DIST : BAGALKOT.",9480699410,CHITTARGI,BAGALKOTE,KARNATAKA
KVGB0001303,Karnataka Vikas Grameena Bank,KVGB0001303,587483521,DHANNUR," DHANNUR BRANCH  DHANESHWAR VACHANALAYA  BUILDING, BELAGALL ROAD,  DHANNUR – 587 118 TQ: HUNAGUNDDIST: BAGALKOT",9480699412,DHANNUR,BAGALKOTE,KARNATAKA
KVGB0001304,Karnataka Vikas Grameena Bank,KVGB0001304,587483522,GANJIHAL," GANJIHAL BRANCH  GRAM PANCHAYAT BLDG,  DOOR NO. 487, MAIN ROAD,  GANJIHAL –587115  TQ : HUNGUND,  DIST: BAGALKOT                  ",9480699414,GANJIHAL,BAGALKOTE,KARNATAKA
KVGB0001305,Karnataka Vikas Grameena Bank,KVGB0001305,587483523,HUNGUND," HUNGUND BRANCH  M.S.KADAPATTI BUILDING, OPPOSITE BUS-STAND  HUNAGUND. DIST: BAGALKOT",9480699421,HUNGUND,BAGALKOTE,KARNATAKA
KVGB0001306,Karnataka Vikas Grameena Bank,KVGB0001306,587483524,KANDAGAL," KANDAGAL BRANCH  POLICE PATIL BUILDING, MAIN ROAD,  KANDAGAL – 587154. TQ : HUNAGUND, DIST : BAGALKOT",9480699424,KANDAGAL,BAGALKOTE,KARNATAKA
KVGB0001307,Karnataka Vikas Grameena Bank,KVGB0001307,587483525,NAGUR," NAGUR BRANCH  NARAGUNDCOMPLEX, MAINROAD,   NAGUR – 587118  TQ : HUNGUND DIST : BAGALKOT                   ",9480699435,NAGUR,BAGALKOTE,KARNATAKA
KVGB0001308,Karnataka Vikas Grameena Bank,KVGB0001308,587483526,ILKAL,"NEAR KANTHI CIRCLE ILKAL TQ: HUNAGUND, DIST : BAGALKOT.",9480699029,ILKAL,BAGALKOTE,KARNATAKA
KVGB0001309,Karnataka Vikas Grameena Bank,KVGB0001309,587483550,KOODAL SANGAM,"SRI SANGAMESHWAR UCHIT PRASAD NILAY BLDG,KUDALASANGAMTQ. HUNAGUND",9480699545,KOODAL SANGAM,BAGALKOTE,KARNATAKA
KVGB0001401,Karnataka Vikas Grameena Bank,KVGB0001401,587483527,ALAGUR," ALAGUR BRANCH PARAMAGONDA BUILDING, DOOR NO. 221, ALAGUR - 587 301, TQ : JAMAKHANDI. DIST : BAGALKOT.",9480699399,ALAGUR,BAGALKOTE,KARNATAKA
KVGB0001402,Karnataka Vikas Grameena Bank,KVGB0001402,587483352,RABKAVI BANHATTI," BANAHATTI BRANCH  V.R.KADAM BUILDING,   BANAHATTI -587311  TQ : JAMAKHANDI. DIST : BAGALKOT.",9480699403,RABKAVI BANHATTI,BAGALKOTE,KARNATAKA
KVGB0001403,Karnataka Vikas Grameena Bank,KVGB0001403,587483529,BIDRI,"  BIDARI BRANCH  BIDARI'S BUILDING,  BIDARI - 586 125, TQ : JAMAKHANDI. DIST : BAGALKOT.",9480699407,BIDRI,BAGALKOTE,KARNATAKA
KVGB0001404,Karnataka Vikas Grameena Bank,KVGB0001404,587483530,GOTHE," GOTHE BRANCH  SRI PAWAD BASAVESHWAR SADBHAKTA   MANDALI BUILDING,  NEAR BUS STAND, GOTHE - 586 126, TQ : JAMAKHANDI. DIST : BAGALKOT.",9480699415,GOTHE,BAGALKOTE,KARNATAKA
KVGB0001405,Karnataka Vikas Grameena Bank,KVGB0001405,587483544,HALINGALI," HALINGALI BRANCH  A.R.MUNNOLLI BLDG  HALINGALI - 587 315,  TQ : JAMAKHANDI. DIST : BAGALKOT.",9480699416,HALINGALI,BAGALKOTE,KARNATAKA
KVGB0001406,Karnataka Vikas Grameena Bank,KVGB0001406,587483532,HIPPARGI," HIPPARAGI BRANCH  KANNOLLI 'S BUILDING,MAIN ROAD,  HIPPARAGI - 587 318,  TQ : JAMAKHANDI. DIST : BAGALKOT.",9480699418,HIPPARGI,BAGALKOTE,KARNATAKA
KVGB0001407,Karnataka Vikas Grameena Bank,KVGB0001407,587483533,HIREPADASALGI," HIREPADASALAGI BRANCH  HUTAGI  BUILDING, D.NO.108,  HIREPADASALAGI- 587 323, TQ : JAMAKHANDI. DIST : BAGALKOT.",9480699419,HIREPADASALGI,BAGALKOTE,KARNATAKA
KVGB0001408,Karnataka Vikas Grameena Bank,KVGB0001408,587483534,JAKANUR," JAKANUR BRANCH  GRAM PANCHAYAT BLDG,  MAIN ROAD, JAKANUR - 587 301, TQ: JAMAKHANDI. DIST : BAGALKOT.",9480699422,JAKANUR,BAGALKOTE,KARNATAKA
KVGB0001409,Karnataka Vikas Grameena Bank,KVGB0001409,587483302,JAMKHANDI," JAMAKHANDI BRANCH  R.M.BURJI BLDG,   NEAR BUS-STAND  JAMAKHANDI   DIST; BAGALKOT.",9480699423,JAMKHANDI,BAGALKOTE,KARNATAKA
KVGB0001410,Karnataka Vikas Grameena Bank,KVGB0001410,587483535,KONNUR," KONNUR BRANCH  KARISIDDESHWAR TEMPLE BUILDING,  MAIN ROAD, KONNUR - 587 121, TQ : JAMAKHANDI. DIST : BAGALKOT.",9480699427,KONNUR,BAGALKOTE,KARNATAKA
KVGB0001411,Karnataka Vikas Grameena Bank,KVGB0001411,587483545,NAVALAGI,"NAVALAGI BRANCH  HANUMAN TEMPLE COMMITTEE BUILDING, NAVALAGI - 587 320, TQ : JAMAKHANDI. DIST : BAGALKOT.",9480699437,NAVALAGI,BAGALKOTE,KARNATAKA
KVGB0001412,Karnataka Vikas Grameena Bank,KVGB0001412,587483546,SASALATTI," SASALATTI BRANCH  HANAGANDI BUILDING, DOOR NO. 92, SASALATTI - 587 327, TQ : JAMAKHANDI. DIST : BAGALKOT.",9480699440,SASALATTI,BAGALKOTE,KARNATAKA
KVGB0001413,Karnataka Vikas Grameena Bank,KVGB0001413,587483547,TERDAL," TERDAL BRANCH  GANACHARI BUILDING, NEAR PRABHUDEV TEMPLE TQ : JAMKHANDI. DIST : BAGALKOT.",9480699067,TERDAL,BAGALKOTE,KARNATAKA
KVGB0001417,Karnataka Vikas Grameena Bank,KVGB0001417,,KUNCHANUR CIRCLE JAMAKANDI,"BAGWAN COMPLEX, TIPPU SULTAN CIRCLE, JAMAKANDI - 587301",9480699636,JAMKHANDI,BAGALKOTE,KARNATAKA
KVGB0001501,Karnataka Vikas Grameena Bank,KVGB0001501,587483548,BELAGALI," BELAGALI BRANCH  M.A.SIDDAPUR BUILDING,  DOOR NO. 511, BELAGALI - 587 113, TQ : MUDHOL. DIST : BAGALKOT.",9480699404,BELAGALI,BAGALKOTE,KARNATAKA
KVGB0001502,Karnataka Vikas Grameena Bank,KVGB0001502,587483540,CHINCHKHANDI(K D)," CHINCHAKHANDI K.D. BRANCH  B.S.HUNSHI BLDG,  CHINCHAKHANDI K.D.- 587 313, TQ : MUDHOL. DIST : BAGALKOT.",9480699409,CHINCHKHANDI(K D),BAGALKOTE,KARNATAKA
KVGB0001503,Karnataka Vikas Grameena Bank,KVGB0001503,587483541,HOSAKOTI," HOSAKOTI BRANCH  GRAM PANCHAYAT BLDG, HOSAKOTI- 587 122, TQ : MUDHOL.DIST : BAGALKOT.",9480699420,HOSAKOTI,BAGALKOTE,KARNATAKA
KVGB0001504,Karnataka Vikas Grameena Bank,KVGB0001504,587483528,MACHAKNUR," MACHAKANUR BRANCH  MAIN ROAD, MACHAKNUR - 587 313,  TQ : MUDHOL. DIST : BAGALKOT.",9480699429,MACHAKNUR,BAGALKOTE,KARNATAKA
KVGB0001505,Karnataka Vikas Grameena Bank,KVGB0001505,587483513,MAHALINGPUR,"MAHALINGPUR BRANCH  SAKRI BUILDING, D.NO.57/A, MAIN  ROAD, MAHALINGAPUR -587 312,   TQ : MUDHOL.  DIST : BAGALKOT.",9480699430,MAHALINGPUR,BAGALKOTE,KARNATAKA
KVGB0001506,Karnataka Vikas Grameena Bank,KVGB0001506,587483542,MUDDAPUR,"MUDDAPUR BRANCH  SARKAVAS BUILDING, MUDDAPUR - 587 122,TQ : MUDHOL. DIST : BAGALKOT.                         ",9480699431,MUDDAPUR,BAGALKOTE,KARNATAKA
KVGB0001507,Karnataka Vikas Grameena Bank,KVGB0001507,587483543,MUDHOL," MUDHOL BRANCH  BAKSHI BUILDING,W.NO.1, MAIN ROAD, MUDHOL - 587 313, TQ : MUDHOL. DIST : BAGALKOT.",9480699432,MUDHOL,BAGALKOTE,KARNATAKA
KVGB0001508,Karnataka Vikas Grameena Bank,KVGB0001508,587483531,MUGALKHOD," MUGALKHOD BRANCH  A.P.SUNAGAD BUILDING  MUGALKHOD - 587 113, TQ : MUDHOL.DIST : BAGALKOT.",9480699433,MUGALKHOD,BAGALKOTE,KARNATAKA
KVGB0001509,Karnataka Vikas Grameena Bank,KVGB0001509,587483536,SHIROL," SHIROL BRANCH  GRAM PANCHAYAT  BLDG,  DOOR NO 71,SHIROL - 587 328, TQ : MUDHOL. DIST: BAGALKOT.",9480699441,SHIROL,BAGALKOTE,KARNATAKA
KVGB0001510,Karnataka Vikas Grameena Bank,KVGB0001510,587483537,UTTUR,"UTTUR BRANCH   CHINIWAL BUILDINGG, D.NO.1/A, MAIN ROAD, UTTUR - 587 313, TQ : MUDHOL, DIST:BAGALKOT.                         ",9480699444,UTTUR,BAGALKOTE,KARNATAKA
KVGB0001511,Karnataka Vikas Grameena Bank,KVGB0001511,587483538,VAJJARMATTI," VAJJRAMATTI BRANCH  MANTUR BUILDING, H.NO.289, VAJJRAMATTI - 587 313, TQ : MUDHOL. DIST : BAGALKOT. ",9480699445,VAJJARMATTI,BAGALKOTE,KARNATAKA
KVGB0001512,Karnataka Vikas Grameena Bank,KVGB0001512,587483539,LOKAPUR," LOKAPUR BRANCH  NINGANURGOUDAR BUILDING,  DURGADEVI TEMPLE ROAD , LOKAPUR - 587 122, TQ : MUDHOL. DIST :BAGALKOT",9480699428,LOKAPUR,BAGALKOTE,KARNATAKA
KVGB0002001,Karnataka Vikas Grameena Bank,KVGB0002001,591483521,ADHALLI,"ADAHALLI BRANCH   KENCHANNAVAR BUILDING,   ADAHALLI-591266.  TQ :ATHANI. DIST :BELGAUM.",9480699299,ADHALLI,BELGAUM,KARNATAKA
KVGB0002002,Karnataka Vikas Grameena Bank,KVGB0002002,591483402,ATHANI," ATHANI BRANCH   TMC BUILDING, SAREE MARKET,  ATHANI – 591 304   ",9480699301,ATHANI,BELGAUM,KARNATAKA
KVGB0002003,Karnataka Vikas Grameena Bank,KVGB0002003,591483522,HALYAL," HALYAL BRANCH   PANCHAYAT BUILDING,  HALYAL - 591 304.  TQ. : ATHANI,  DIST. : BELGAUM",9480699310,HALYAL,BELGAUM,KARNATAKA
KVGB0002004,Karnataka Vikas Grameena Bank,KVGB0002004,591483523,KAGWAD," KAGAWAD BRANCH   PATIL BUILDING, BAJARPETH,  KAGAWAD - 591 223.  TQ. : ATHANI,  DIST. : BELGAUM.             ",9480699317,KAGWAD,BELGAUM,KARNATAKA
KVGB0002005,Karnataka Vikas Grameena Bank,KVGB0002005,591483524,KHILEGAON,"KHILEGAON BRANCH  BAGADI BUILDING,  KHILEGAON - 591 212.  TQ. : ATHANI,  DIST. : BELGAUM.      ",9480699323,KHILEGAON,BELGAUM,KARNATAKA
KVGB0002006,Karnataka Vikas Grameena Bank,KVGB0002006,591483525,KOKATNUR,"KOKATNUR BRANCH  B.D.O. BUILDING,  NEAR BUS STAND,  KOKATNUR - 591 230  TQ. : ATHANI,  DIST. : BELGAUM",9480699325,KOKATNUR,BELGAUM,KARNATAKA
KVGB0002007,Karnataka Vikas Grameena Bank,KVGB0002007,591483526,MADABHAVI," MADABHAVI BRANCH   BHANDARI BUILDING,  MAIN STREET,  MADABHAVI - 591 232.  TQ. : ATHANI,  DIST. : BELGAUM",9480699328,MADABHAVI,BELGAUM,KARNATAKA
KVGB0002008,Karnataka Vikas Grameena Bank,KVGB0002008,591483527,MANGSULI," MANGASULI BRANCH   SOCIETY BUILDING,  MANGASULI - 591 234  TQ. : ATHANI,  DIST. : BELGAUM.           ",9480699330,MANGSULI,BELGAUM,KARNATAKA
KVGB0002009,Karnataka Vikas Grameena Bank,KVGB0002009,591483528,MOLE," MOLE BRANCH   PATIL BUILDING, BAZAR ROAD,  MOLE - 591 332.   TQ. : ATHANI,  DIST. : BELGAUM.          ",9480699333,MOLE,BELGAUM,KARNATAKA
KVGB0002010,Karnataka Vikas Grameena Bank,KVGB0002010,591483529,SHANKRATTI," SHANKRATTI BRANCH   GRAM PANCHAYAT BUILDING,  SHANKRATTI - 591 220.  TQ. : ATHANI,  DIST. : BELGAUM.     ",9480699344,SHANKRATTI,BELGAUM,KARNATAKA
KVGB0002011,Karnataka Vikas Grameena Bank,KVGB0002011,591483530,SHIRGUPPI,"SHIRAGUPPI BRANCH   BHAGYALAXMI LIFT IRRIGATION  SOCIETY BUILDING, KAGAWAD ROAD,  SHIRAGUPPI - 591 242. TQ. : ATHANI,  DIST. : BELGAUM.    ",9480699345,SHIRGUPPI,BELGAUM,KARNATAKA
KVGB0002012,Karnataka Vikas Grameena Bank,KVGB0002012,591483531,SHIRHATTI,"SHIRAHATTI BRANCH   V.P.C. NO. 180/2,  KULKARNI BUILDING,  MAIN ROAD,  SHIRAHATTI - 591 341.                 ",9480699346,SHIRHATTI,BELGAUM,KARNATAKA
KVGB0002013,Karnataka Vikas Grameena Bank,KVGB0002013,591483532,TELSANG,"  TELSANG BRANCH    A.S. UNDODI BUILDING,  TELSANG - 591 265.  TQ. : ATHANI,  DIST. : BELGAUM.        ",9480699349,TELSANG,BELGAUM,KARNATAKA
KVGB0002101,Karnataka Vikas Grameena Bank,KVGB0002101,590483501,BAILHONGAL,BAILHONGAL BRANCH  OPP: BUS STAND    BAILHONGAL-591102. TQ :BAILHONGAL. DIST:BELGAUM                        ,9480699242,BAILHONGAL,BELGAUM,KARNATAKA
KVGB0002102,Karnataka Vikas Grameena Bank,KVGB0002102,590483502,BAILUR,"BAILUR BRANCH  R.R DEGAU BUILDING,  BAILUR-591115. TQ :BAILHONGAL. DIST :BELGAUM.",9480699243,BAILUR,BELGAUM,KARNATAKA
KVGB0002103,Karnataka Vikas Grameena Bank,KVGB0002103,590483503,DODAWAD,"DODWAD BRANCH  ZILLA PANCHAYAT BUILDING, NO. M.P. 1395, BUS STAND ROAD,  DODWAD-591104. TQ :BAILHONGAL. DIST :BELGAUM.    ",9480699248,DODAWAD,BELGAUM,KARNATAKA
KVGB0002105,Karnataka Vikas Grameena Bank,KVGB0002105,590483505,KITTUR,"  KITTUR BRANCH     LANGOTI BUILDING, KITTUR - 591 115. TQ. : BAILHONGAL,  DIST. : BELGAUM. ",9480699275,KITTUR,BELGAUM,KARNATAKA
KVGB0002106,Karnataka Vikas Grameena Bank,KVGB0002106,590483506,MUGUTKHAN HUBLI," M.K. HUBLI BRANCH  PANCHAYAT BUILDING, P. B. ROAD, M. K. HUBLI - 591 153. TQ. : BAILHONGAL,  DIST. : BELGAUM.",9480699278,MUGUTKHAN HUBLI,BELGAUM,KARNATAKA
KVGB0002107,Karnataka Vikas Grameena Bank,KVGB0002107,590483507,NEGINAHAL,"  NEGINHAL BRANCH     SRI MADIWALESHWAR MATH BUILDING, NEGINAHAL - 591 190. TQ. : BAILHONGAL,  DIST. : BELGAUM.",9480699281,NEGINAHAL,BELGAUM,KARNATAKA
KVGB0002108,Karnataka Vikas Grameena Bank,KVGB0002108,590483508,NESARGI,"   NESARAGI BRANCH   ZILLA PANCHAYAT BUILDING, EXTENSION AREA, NESARAGI - 591 121. TQ. : BAILHONGAL,  DIST. : BELGAUM",9480699282,NESARGI,BELGAUM,KARNATAKA
KVGB0002109,Karnataka Vikas Grameena Bank,KVGB0002109,590483509,SANGOLLI,"   SANGOLLI BRANCH  PANCHAYAT BUILDING, SANGOLLI - 591 191. TQ. : BAILHONGAL,  DIST. : BELGAUM",9480699287,SANGOLLI,BELGAUM,KARNATAKA
KVGB0002110,Karnataka Vikas Grameena Bank,KVGB0002110,590483510,TIGADI,"  TIGADI BRANCH    VPC NO. 254, PATIL BUILDING,  MAIN ROAD, TIGADI - 591 171. TQ. : BAILHONGAL,  DIST. : BELGAUM.      ",9480699293,TIGADI,BELGAUM,KARNATAKA
KVGB0002111,Karnataka Vikas Grameena Bank,KVGB0002111,590483511,UDAKERI,"    UDUKERI BRANCH  PANCHAYAT BUILDING, UDUKERI - 591 104. TQ. : BAILHONGAL,  DIST. : BELGAUM.   ",9480699295,UDAKERI,BELGAUM,KARNATAKA
KVGB0002112,Karnataka Vikas Grameena Bank,KVGB0002112,591483594,VANNUR,"ANNUR BRANCH  PANCHAYAT BUILDING, VANNUR - 591 122. TQ. : BAILHONGAL,  DIST. : BELGAUM.    ",9480699297,VANNUR,BELGAUM,KARNATAKA
KVGB0002201,Karnataka Vikas Grameena Bank,KVGB0002201,590483008,AZAMNAGAR BGM," BELGAUM – AZAMNAGAR  BRANCH  R.S KADALASKAR BUILDING,  BOXITE ROAD,  TQ : & DIST :BELGAUM.",9480699241,BELGAUM,BELGAUM,KARNATAKA
KVGB0002202,Karnataka Vikas Grameena Bank,KVGB0002202,590483002,BELGAUM,"  BELGAUM MAIN BRANCH   SHIVAMALE BUILDING,   KHADAK GALLI,  BELGAUM-590002.TQ & DIST :BELGAUM.",9480699001,BELGAUM,BELGAUM,KARNATAKA
KVGB0002203,Karnataka Vikas Grameena Bank,KVGB0002203,590483003,FORT-RD BELGAUM,"  BELGAUM FORT ROAD BRANCH    KSRTC COMPLEX,  BUS STAND ROAD,   BELGAUM – 590 001                   ",9480699249,BELGAUM,BELGAUM,KARNATAKA
KVGB0002204,Karnataka Vikas Grameena Bank,KVGB0002204,590483007,GOAWAS-BELGAUM,"  BELGAUM GOAVES BRANCH   KAVALE BUILDING,   NEAR R.P.D. CROSS, TILKAWADI,  BELGAUM-590006.   TQ & DIST :BELGAUM.",9480699252,BELGAUM,BELGAUM,KARNATAKA
KVGB0002205,Karnataka Vikas Grameena Bank,KVGB0002205,590483005,HINDALAGE," HINDALAGA BRANCH     NAIK BUILDING,   VENGURLA ROAD, HINDALAGA - 591 108.  TQ. : BELGAUM,  DIST. : BELGAUM.",9480699259,HINDALAGE,BELGAUM,KARNATAKA
KVGB0002206,Karnataka Vikas Grameena Bank,KVGB0002206,590483512,HIRE BAGEWADI,"  HIREBAGEWADI BRANCH   M. P. HADIMANI BUILDING,  BAILHONGAL ROAD,  HIREBAGEWADI - 591 109.  TQ. : BELGAUM,  DIST. : BELGAUM",9480699260,HIRE BAGEWADI,BELGAUM,KARNATAKA
KVGB0002207,Karnataka Vikas Grameena Bank,KVGB0002207,590483513,HUDLI," HUDLI BRANCH   B. R. BIKKANNAAR BUILDING,  HUDLI - 591 148. TQ. : BELGAUM,  DIST. : BELGAUM.",9480699263,HUDLI,BELGAUM,KARNATAKA
KVGB0002208,Karnataka Vikas Grameena Bank,KVGB0002208,590483514,KANAVI-KARAVIN-KOP,"K.K.KOP BRANCH  KAMBI BUILDING, K. K. KOP - 591 145. TQ. : BELGAUM,  DIST. : BELGAUM",9480699271,KANAVI-KARAVIN-KOP,BELGAUM,KARNATAKA
KVGB0002209,Karnataka Vikas Grameena Bank,KVGB0002209,590483515,MARIHAL," MARIHAL BRANCH  GAJAPATHI, BUILDING, MARIHAL - 591 167. TQ. : BELGAUM,  DIST. : BELGAUM",9480699279,MARIHAL,BELGAUM,KARNATAKA
KVGB0002210,Karnataka Vikas Grameena Bank,KVGB0002210,590483006,PEERANAWADI,"PEERANAWADI BRANCH  MAIN ROAD, PEERANAWADI - 591 014. TQ. : BELGAUM,  DIST. : BELGAUM  ",9480699284,PEERANAWADI,BELGAUM,KARNATAKA
KVGB0002211,Karnataka Vikas Grameena Bank,KVGB0002211,590483004,SHAHPUR-BELGAUM,"  BELGAUM SHAHAPUR –BRANCH  DAMANEKAR BUILDING,     NATH PAI CIRCLE, SHAHAPUR  BELGAUM-590003. TQ & DIST :BELGAUM",9480699289,BELGAUM,BELGAUM,KARNATAKA
KVGB0002212,Karnataka Vikas Grameena Bank,KVGB0002212,590483516,UCHAGAON," UCHAGAON BRANCH  KADAM BUILDING, UCHAGAON - 591 128. TQ. : BELGAUM,  DIST. : BELGAUM. ",9480699294,UCHAGAON,BELGAUM,KARNATAKA
KVGB0002213,Karnataka Vikas Grameena Bank,KVGB0002213,590483009,HANUMAN NAGAR,"HANUMAN NAGAR BRANCH   CTS PLOT NO.62, KADAM BUILDING, HANUMAN NAGAR. DOORADARSHAN NAGAR, TQ. : BELGAUM,  DIST. : BELGAUM.        ",9480699257,BELGAUM,BELGAUM,KARNATAKA
KVGB0002214,Karnataka Vikas Grameena Bank,KVGB0002214,590483010,SAMBRA,"SAMBRA BRANCH ""J.L.TIPPACHE BLDG S.NO.751,MAIN ROAD TQ.BELGAUM DT.BELGAUM",9480699503,SAMBRA,BELGAUM,KARNATAKA
KVGB0002215,Karnataka Vikas Grameena Bank,KVGB0002215,590483011,VAIBHAV NAGAR BELGAUM,"DR C R PATIL BLDG,  BAUXITE ROAD, NEHARU NAGAR POST,VAIBHAV NAGAR BELGAUM TQ & DT. BELGAUM",9480699527,BELGAUM,BELGAUM,KARNATAKA
KVGB0002216,Karnataka Vikas Grameena Bank,KVGB0002216,590483012,SHRINAGAR BELGAUM,",MD NARGUND BLDG, H NO 643,SECTOR 5< DOUBLE ROAD BELGAUM",9480699533,BELGAUM,BELGAUM,KARNATAKA
KVGB0002217,Karnataka Vikas Grameena Bank,KVGB0002217,,DESHNUR,UPSTAIR GRAM PANCHAYAT BUILDING DESUR TQ. BELGAUM PIN – 590 014,9480699569,DESHNUR,BELGAUM,KARNATAKA
KVGB0002218,Karnataka Vikas Grameena Bank,KVGB0002218,,UDHYAM BAGH,"OPP. GOVT. ITI COLLEGE, MAZAGAON ROAD,  UDYAM BAG, BELGAUM   TQ. BELGAUM PIN – 590 008",9480699604,BELGAUM,BELGAUM,KARNATAKA
KVGB0002301,Karnataka Vikas Grameena Bank,KVGB0002301,591483533,BENADI,"BENADI BRANCH   V.P.C NO.1359  JANAWADE BUILDING,  BENADI-591215. TQ: CHIKKODI, DIST :BELGAUM",9480699302,BENADI,BELGAUM,KARNATAKA
KVGB0002302,Karnataka Vikas Grameena Bank,KVGB0002302,591483534,BHOJ,"HOJ BRANCH  SHINDHE BUILDING,   NEAR HANUMAN TEMPLE,  BHOJ-591263. TQ: CHIKKODI, DIST :BELGAUM",9480699304,BHOJ,BELGAUM,KARNATAKA
KVGB0002303,Karnataka Vikas Grameena Bank,KVGB0002303,591483535,BORGAON,"K  BORGAON BRANCH  PANCHAYAT BUILDING, BADIGER GALLI.  BORGAON-591216.  TQ: CHIKKODI, DIST :BELGAUM.",9480699305,BORGAON,BELGAUM,KARNATAKA
KVGB0002304,Karnataka Vikas Grameena Bank,KVGB0002304,591483202,CHIKODI,"HIKKODI BRANCH   MIRJE COMPLEX, K.C ROAD .  CHIKKODI-591201. TQ: CHIKKODI, DIST :BELGAUM",9480699306,CHIKODI,BELGAUM,KARNATAKA
KVGB0002305,Karnataka Vikas Grameena Bank,KVGB0002305,591483563,HIREKUDI,"  HIREKODI BRANCH    MAIN ROAD, HIREKODI - 591 274.  TQ. : CHIKKODI,  DIST. : BELGAUM         ",9480699314,HIREKUDI,BELGAUM,KARNATAKA
KVGB0002306,Karnataka Vikas Grameena Bank,KVGB0002306,591483555,INGALI,"  INGALI BRANCH  VITHOBHA MANDIR BUILDING, INGALI - 591 277. TQ. : CHIKKODI,  DIST. : BELGAUM. ",9480699315,INGALI,BELGAUM,KARNATAKA
KVGB0002307,Karnataka Vikas Grameena Bank,KVGB0002307,591483556,KABBUR," KABBUR BRANCH  VIJAYANAGAR BUILDING, MAIN ROAD, KABBUR - 591 222. TQ. : CHIKKODI,  DIST. : BELGAUM. ",9480699316,KABBUR,BELGAUM,KARNATAKA
KVGB0002308,Karnataka Vikas Grameena Bank,KVGB0002308,591483557,KALLOL,"  KALLOL BRANCH  MANGAVATE BUILDING, KALLOL - 591 282. TQ. : CHIKKODI,  DIST. : BELGAUM",9480699318,KALLOL,BELGAUM,KARNATAKA
KVGB0002309,Karnataka Vikas Grameena Bank,KVGB0002309,591483558,KERUR," KERUR BRANCH   SRI. D. R. MALI BUILDING,  V.P.C. NO. 363, KERUR - 591 283.  TQ. : CHIKKODI,  DIST. : BELGAUM",9480699321,KERUR,BELGAUM,KARNATAKA
KVGB0002310,Karnataka Vikas Grameena Bank,KVGB0002310,591483536,KONGANOLLI,"   KOGNOLI BRANCH  CHOUGALA BUILDING,   MARKET ROAD,  KOGANALLI - 591 229.  TQ. : CHIKKODI,  DIST. : BELGAUM. ",9480699324,KONGANOLLI,BELGAUM,KARNATAKA
KVGB0002311,Karnataka Vikas Grameena Bank,KVGB0002311,591483537,KURLI,"URLI BRANCH  S. A. DIVATE BUILDING, MAIN ROAD, KURLI -  591 241. TQ. : CHIKKODI,  DIST. : BELGAUM",9480699327,KURLI,BELGAUM,KARNATAKA
KVGB0002312,Karnataka Vikas Grameena Bank,KVGB0002312,591483559,MANJARI," MANJARI BRANCH   P.K.P.S. SOCIETY BUILDING,  H. NO. 114, MANJARI - 591 264.  TQ. : CHIKKODI,  DIST. : BELGAUM",9480699331,MANJARI,BELGAUM,KARNATAKA
KVGB0002313,Karnataka Vikas Grameena Bank,KVGB0002313,591483560,NAGARMUNOLI,"NAGARMUNOLI BRANCH  PANCHAYAT BUILDING, NAGARMUNOLI - TQ. : CHIKKODI,  BELGAUM  ",9480699338,NAGARMUNOLI,BELGAUM,KARNATAKA
KVGB0002314,Karnataka Vikas Grameena Bank,KVGB0002314,591483573,NIPPANAL," NIPPANI BRANCH    KOTEWALE BUILDING, ASHOK NAGAR,  NIPPANI - 591 237.  TQ. : CHIKKODI,  DIST. : BELGAUM",9480699340,NIPPANAL,BELGAUM,KARNATAKA
KVGB0002315,Karnataka Vikas Grameena Bank,KVGB0002315,591483538,PATTANAKUDI,"ATTANAKUDI BRANCH   B. A. PATIL BUILDING, WALAKI ROAD,  PATTANAKUDI - 591 238.  TQ. : CHIKKODI,  DIST. : BELGAUM         ",9480699342,PATTANAKUDI,BELGAUM,KARNATAKA
KVGB0002316,Karnataka Vikas Grameena Bank,KVGB0002316,591483561,YADUR,"YADUR BRANCH   “SHIVA KRUPA”  SAVADATTI BUILDING,  YADUR - 591 512.  TQ. : CHIKKODI,  DIST. : BELGAUM.  ",9480699350,YADUR,BELGAUM,KARNATAKA
KVGB0002317,Karnataka Vikas Grameena Bank,KVGB0002317,591483562,EXAMBA,"   EXAMBA BRANCH     S.S.MALI BUILDING, TQ: CHIKODI, DIST: BELGAUM",9480699308,EXAMBA,BELGAUM,KARNATAKA
KVGB0002318,Karnataka Vikas Grameena Bank,KVGB0002318,591483542,GALATGA,"PATIL BLDG, NEAR BUS STAND GALATAGA   TQ. CHIKKODI DT: BELGAUM  PIN – 591 219",9480699607,GALATGA,BELGAUM,KARNATAKA
KVGB0002401,Karnataka Vikas Grameena Bank,KVGB0002401,591483502,ARABHAVI," ARABHAVI BRANCH  AGADI BUILDING ,   NEAR DURADUNDESHWAR MATH, GOKAK-GHATAPRABHAROAD,    ARABHAVI- 591318. TQ:GOKAK, DIST :BELGAUM",9480699300,ARABHAVI,BELGAUM,KARNATAKA
KVGB0002402,Karnataka Vikas Grameena Bank,KVGB0002402,591483543,GOKAK,"OKAK BRANCH  WALI BUILDING,  NEAR COURT CIRCLE, GOKAK - 591 307. TQ. : GOKAK,  DIST. : BELGAUM.",9480699309,GOKAK,BELGAUM,KARNATAKA
KVGB0002403,Karnataka Vikas Grameena Bank,KVGB0002403,591483544,KALLOLLI,"KALLOLI BRANCH  PANCHAYAT BUILDING, KALLOLI - 591 224. TQ. : GOKAK,  DIST. : BELGAUM.",9480699319,KALLOLLI,BELGAUM,KARNATAKA
KVGB0002404,Karnataka Vikas Grameena Bank,KVGB0002404,591483545,KHANAGAON," KHANAGAON BRANCH  PANCHAYAT BUILDING, V. P. C. NO. 408, KHANAGAON - 591 334. TQ. : GOKAK,  DIST. : BELGAUM.         ",9480699322,KHANAGAON,BELGAUM,KARNATAKA
KVGB0002405,Karnataka Vikas Grameena Bank,KVGB0002405,591483546,KOUJALAGI," KOUJALAGI BRANCH  SHIVANMARI BUILDING, KOUJALAGI - 591 227. TQ. : GOKAK,  DIST. : BELGAUM.         ",9480699326,KOUJALAGI,BELGAUM,KARNATAKA
KVGB0002406,Karnataka Vikas Grameena Bank,KVGB0002406,591483547,MAMADAPUR,"MAMADAPUR BRANCH  CHIKKANNAVAR BUILDING, H. NO. 1365, NEAR BUS STAND, MAMADAPUR - 591 233. TQ. : GOKAK,  DIST. : BELGAUM ",9480699329,MAMADAPUR,BELGAUM,KARNATAKA
KVGB0002407,Karnataka Vikas Grameena Bank,KVGB0002407,591483548,MUDALGI,"MUDALAGI BRANCH  TMC NO. 1228, D. P. PHIROJI BUILDING, NEAR BUS STAND, MAIN ROAD, MUDALAGI - 591 312. TQ. : GOKAK,  DIST. : BELGAUM",9480699335,MUDALGI,BELGAUM,KARNATAKA
KVGB0002408,Karnataka Vikas Grameena Bank,KVGB0002408,591483549,NAGANUR," NAGANUR BRANCH  A.D. KOLUR BUILDING,  NAGANUR - 591 319. TQ. : GOKAK,  DIST. : BELGAUM.",9480699337,NAGANUR,BELGAUM,KARNATAKA
KVGB0002409,Karnataka Vikas Grameena Bank,KVGB0002409,591483550,SHINDIKURBET,"  SHINDHIKURBET BRANCH  KURBAR SAMAJ BUILDING,  NEAR VITTAL TEMPLE, MAIN ROAD, SHINDHIKURBET - 591 310. TQ.: GOKAK,  DT.: BELGAUM.           ",9480699347,SHINDIKURBET,BELGAUM,KARNATAKA
KVGB0002410,Karnataka Vikas Grameena Bank,KVGB0002410,591483551,SUNADHOLI,"UNADHOLI BRANCH   NARAGUND BUILDING, SUNADHOLI - 591 508. TQ. : GOKAK,  DIST. : BELGAUM.            ",9480699348,SUNADHOLI,BELGAUM,KARNATAKA
KVGB0002411,Karnataka Vikas Grameena Bank,KVGB0002411,,YADWAD,"DAWAD BRANCH  KALYANI BUILDING, MAIN MARKET ROAD,  YADAWAD. TQ. : GOKAK,  DIST. : BELGAUM",9480699351,YADWAD,BELGAUM,KARNATAKA
KVGB0002413,Karnataka Vikas Grameena Bank,KVGB0002413,590483517,ANKALGI,"BHUSANNAVAR BLDG, MAIN ROAD, ANKALAGI. TQ.GOKAK DT: BELGAUM  PIN – 591 101",9480699609,ANKALGI,BELGAUM,KARNATAKA
KVGB0002414,Karnataka Vikas Grameena Bank,KVGB0002414,591483552,KONNUR,KARNATAKAVIKASGRAMEENA BANK DR. KAMMAR BLDG KONNUR TQ.GOKAK DT; BELGAUM  PIN –  591 231,9480699610,KONNUR,BELGAUM,KARNATAKA
KVGB0002501,Karnataka Vikas Grameena Bank,KVGB0002501,591483553,BASAPUR,"BASAPUR BRANCH   SHRI LAXMI DEVI BUILDING TEMPLE, BASAPUR-591122.  TQ: HUKKERI, DIST :BELGAUM",9480699244,BASAPUR,BELGAUM,KARNATAKA
KVGB0002502,Karnataka Vikas Grameena Bank,KVGB0002502,591483539,GUDAS,"UDAS BRANCH  J. R. Y. BUILDING,  GUDAS - 591 106. TQ. : HUKKERI,  DIST. : BELGAUM.",9480699253,GUDAS,BELGAUM,KARNATAKA
KVGB0002503,Karnataka Vikas Grameena Bank,KVGB0002503,591483540,HIDAKAL-DAM,"HIDKAL-DAM BRANCH  EX. ENGINEERS BUILDING, HIDKAL DAM - 591 107. TQ. : HUKKERI,  DIST. : BELGAUM.          ",9480699258,HIDKAL,BELGAUM,KARNATAKA
KVGB0002504,Karnataka Vikas Grameena Bank,KVGB0002504,591483576,HUKKERI,"  HUKKERI BRANCH    DESAI BUILDING,  OPP. BUS STAND, HUKKERI - 591 309. TQ. : HUKKERI,  DIST. : BELGAUM          ",9480699264,HUKKERI,BELGAUM,KARNATAKA
KVGB0002505,Karnataka Vikas Grameena Bank,KVGB0002505,591483541,KANAGALE," KANAGALE BRANCH  H. NO. 942, LAXMI ROAD, KANAGALE - 591 225.  TQ. : HUKKERI,  DIST. : BELGAUM",9480699272,KANAGALE,BELGAUM,KARNATAKA
KVGB0002506,Karnataka Vikas Grameena Bank,KVGB0002506,591483577,NIDASOSI,"NIDASOSI BRANCH  S. N. J. P. S. N. M. S. TRUST BUILDING, NIDASOSHI - 591 236.  TQ. : HUKKERI,  DIST. : BELGAUM.  ",9480699283,NIDASOSI,BELGAUM,KARNATAKA
KVGB0002507,Karnataka Vikas Grameena Bank,KVGB0002507,,SANKESHWAR," SANKESHWAR BRANCH   NALAWADE COMPLEX, MAIN ROAD,  SANKESHWAR - 591 313.  TQ. : HUKKERI,  DIST. : BELGAUM.",9480699288,SANKESHWAR,BELGAUM,KARNATAKA
KVGB0002508,Karnataka Vikas Grameena Bank,KVGB0002508,,BELLAD BAGEWADI,"BELLADA BAGEWADI BRANCH  .  TQ. : HUKKERI,  DIST. : BELGAUM.",9480699246,BELLAD BAGEWADI,BELGAUM,KARNATAKA
KVGB0002509,Karnataka Vikas Grameena Bank,KVGB0002509,,NIDASOSHI EXTENSION COUNTER,"THE OFFICER INCHARGE , HIT COLLEGE COMPLEX , NIDASOSHI",0,NIDASOSI,BELGAUM,KARNATAKA
KVGB0002601,Karnataka Vikas Grameena Bank,KVGB0002601,590483520,BIDI,"BEEDI BRANCH  SRI DAFEDAR BUILDING ,    NO.916,  BEEDI- 591106. TQ: KHANAPUR, DIST :BELGAUM.",9480699247,BIDI,BELGAUM,KARNATAKA
KVGB0002602,Karnataka Vikas Grameena Bank,KVGB0002602,590483521,GANDIGWAD,"ANDIGAWAD BRANCH  PADMA NIVAS, MAIN ROAD, GANDIGWAD - 591 112. TQ. : KHANAPUR,  DIST. : BELGAUM",9480699250,GANDIGWAD,BELGAUM,KARNATAKA
KVGB0002603,Karnataka Vikas Grameena Bank,KVGB0002603,590483522,GARLAGUNJI,"ARLAGUNJI BRANCH  SIDDANI BUILDING, GARLGUNJI - 591 331. TQ. : KHANAPUR,  DIST. : BELGAUM.",9480699251,GARLAGUNJI,BELGAUM,KARNATAKA
KVGB0002604,Karnataka Vikas Grameena Bank,KVGB0002604,590483523,GUNJI,"UNJI BRANCH  SRI K. S. KULKARNI BUILDING, LONDA ROAD, GUNJI - 591 302. TQ. : KHANAPUR,  DIST. : BELGAUM.",9480699254,GUNJI,BELGAUM,KARNATAKA
KVGB0002605,Karnataka Vikas Grameena Bank,KVGB0002605,590483524,HALASI,"ALASHI BRANCH  PANCHAYAT BUILDING, HALASHI - 591 142. TQ. : KHANAPUR,  DIST. : BELGAUM.",9480699255,HALASI,BELGAUM,KARNATAKA
KVGB0002606,Karnataka Vikas Grameena Bank,KVGB0002606,590483525,JAMBOTI,"JAMBOTI BRANCH  H.NO. 59, KUDATARKAR BUILDING,  RAMPUR PETH,   JAMBOTI-591302. TQ:KHANAPUR, DIST :BELGAUM.",9480699270,JAMBOTI,BELGAUM,KARNATAKA
KVGB0002607,Karnataka Vikas Grameena Bank,KVGB0002607,590483526,KHANAPUR,"KHANAPUR BRANCH  DAMALE BUILDING, STATION ROAD, KHANAPUR - 591 302. TQ. : KHANAPUR,  DIST. : BELGAUM",9480699274,KHANAPUR,BELGAUM,KARNATAKA
KVGB0002608,Karnataka Vikas Grameena Bank,KVGB0002608,,LINGANMATH,"LINGANAMATH BRANCH  MIRASHI BUILDING, LINGANAMATH - 591 106. TQ. : KHANAPUR,  DIST. : BELGAUM.",9480699276,LINGANMATH,BELGAUM,KARNATAKA
KVGB0002609,Karnataka Vikas Grameena Bank,KVGB0002609,,LONDA,"LONDA BRANCH  1ST FLOOR, KALPANA HOTEL BUILDING, NEAR RAILWAY STATION, LONDA - 591 301. TQ. : KHANAPUR,  DIST. : BELGAUM.",9480699277,LONDA,BELGAUM,KARNATAKA
KVGB0002610,Karnataka Vikas Grameena Bank,KVGB0002610,591483564,NANDGAD,"KARNATAKAVIKASGRAMEENA BANK 633,K.C.DINNIMATH BLDG MATH GALLI, NANDGAD TQ. KHANAPUR                  DT. BELGAUM  PIN – 591 120",9480699612,NANDGAD,BELGAUM,KARNATAKA
KVGB0002611,Karnataka Vikas Grameena Bank,KVGB0002611,591483565,PARISHWAD,"501, LAVAGI BLDG, NEAR POST OFFICE PARISHWADTQ. KHANAPUR                DT: BELGAUM PIN – 591 131",9480699605,PARISHWAD,BELGAUM,KARNATAKA
KVGB0002701,Karnataka Vikas Grameena Bank,KVGB0002701,591483566,BHENDWAD," BHENDWAD BRANCH   PANCHAYAT BUILDING ,    BHENDWAD-591318.  TQ:RAIBAG, DIST :BELGAUM",9480699303,BHENDWAD,BELGAUM,KARNATAKA
KVGB0002702,Karnataka Vikas Grameena Bank,KVGB0002702,591483567,CHINCHALI," CHINCHALI BRANCH   HARUGERI BUILDING ,  MAINROAD,     CHINCHALI -591217. TQ: RAIBAG, DIST :BELGAUM.",9480699307,CHINCHALI,BELGAUM,KARNATAKA
KVGB0002703,Karnataka Vikas Grameena Bank,KVGB0002703,591483568,HANDIGUND," HANDIGUND BRANCH   UNAGALL BUILDING,   HANDIGUND - 591 235.  TQ. : RAIBAG,  DIST. : BELGAUM.",9480699311,HANDIGUND,BELGAUM,KARNATAKA
KVGB0002704,Karnataka Vikas Grameena Bank,KVGB0002704,591483569,HARUGERI,"HARUGERI BRANCH   CHOUGULA BUILDING,  CHANDRAMA TALKIES ROAD,  HARUGERI - 591 220.  TQ. : RAIBAG,  DIST. : BELGAUM",9480699312,HARUGERI,BELGAUM,KARNATAKA
KVGB0002705,Karnataka Vikas Grameena Bank,KVGB0002705,591483570,HIDAKAL," HIDKAL BRANCH   DR. KOKATNUR BUILDING,  HIDKAL - 591 255.  TQ. : RAIBAG,  DIST. : BELGAUM.",9480699313,HIDAKAL,BELGAUM,KARNATAKA
KVGB0002706,Karnataka Vikas Grameena Bank,KVGB0002706,591483571,KANKANWADI,"KANKANAWADI BRANCH   “GANESH KRUPA”   KANKANWADI - 591 222.  TQ. : RAIBAG,  DIST. : BELGAUM.",9480699320,KANKANWADI,BELGAUM,KARNATAKA
KVGB0002707,Karnataka Vikas Grameena Bank,KVGB0002707,591483572,MEKHALI,"  MEKHALI BRANCH   KARIGAR BUILDING,  MEKHALI - 591 317.  TQ. : RAIBAG,  DIST. : BELGAUM",9480699332,MEKHALI,BELGAUM,KARNATAKA
KVGB0002708,Karnataka Vikas Grameena Bank,KVGB0002708,591483302,MORAB,"MORAB BRANCH  SHINDAGI BUILDING,BAZAR ROAD,  MORAB - 591 317.  TQ. : RAIBAG,  DIST. : BELGAUM",9480699334,MORAB,BELGAUM,KARNATAKA
KVGB0002709,Karnataka Vikas Grameena Bank,KVGB0002709,591483574,MUGALKHOD,"MUGALKHOD BRANCH   PANCHAYAT BUILDING (JRY),  MUGALKHOD - 591 235.  TQ. : RAIBAG,  DIST. : BELGAUM.   ",9480699336,MUGALKHOD,BELGAUM,KARNATAKA
KVGB0002710,Karnataka Vikas Grameena Bank,KVGB0002710,591483575,NIPANI,"NIPPANAL BRANCH GRAM PANCHAYAT BUILDING,    NIPPANAL - 591 222.TQ. : RAIBAG,  DIST. : BELGAUM.   ",9480699339,NIPANI,BELGAUM,KARNATAKA
KVGB0002711,Karnataka Vikas Grameena Bank,KVGB0002711,,PARAMANANDAWADI,"PARAMANDAWADI BRANCH  KOULGUDDA BUILDING, PARAMANANDAWADI - 591 329. TQ. : RAIBAG,  DIST. : BELGAUM",9480699341,PARAMANANDAWADI,BELGAUM,KARNATAKA
KVGB0002712,Karnataka Vikas Grameena Bank,KVGB0002712,591483554,RAIBAG,"RAIBAG BRANCH  C. B. BADORE BUILDING, V. P. C. NO. 1560, ANKALI ROAD, RAIBAG - 591 317. TQ. : RAIBAG,  DIST. : BELGAUM.        ",9480699343,RAIBAG,BELGAUM,KARNATAKA
KVGB0002801,Karnataka Vikas Grameena Bank,KVGB0002801,591483579,BATAKURKI," BATAKURKI BRANCH  MUDHOLI BUILDING,  LOKAPURROAD   BATAKURKI-591151.  TQ: RAMDURG, DIST :BELGAUM",9480699245,BATAKURKI,BELGAUM,KARNATAKA
KVGB0002802,Karnataka Vikas Grameena Bank,KVGB0002802,591483580,HOSAKOTI," HOSAKOTI BRANCH  L. S. KOLACHE BUILDING, NEAR BUS STAND,  HOSAKOTI - 591 187.  TQ. : RAMDURG,  DIST. : BELGAUM.",9480699261,HOSAKOTI,BELGAUM,KARNATAKA
KVGB0002803,Karnataka Vikas Grameena Bank,KVGB0002803,591483581,HULKUND," HULKUND BRANCH  MAIN ROAD, HULKUND - 591 160.  TQ. : RAMDURG,  DIST. : BELGAUM  ",9480699266,HULKUND,BELGAUM,KARNATAKA
KVGB0002804,Karnataka Vikas Grameena Bank,KVGB0002804,591483582,KATKOL,"KATKOL BRANCH  SHETTISADAURTI BUILDING, BAZAR ROAD, KATKOL - 591 114.  TQ. : RAMDURG,  DIST. : BELGAUM.",9480699273,KATKOL,BELGAUM,KARNATAKA
KVGB0002805,Karnataka Vikas Grameena Bank,KVGB0002805,,RAMDURG," RAMDURG BRANCH  HALYAL BUILDING, JUNIPETH,  RAMADURG - 591 123.  TQ. : RAMADURG,  DIST. : BELGAUM.",9480699285,RAMDURG,BELGAUM,KARNATAKA
KVGB0002806,Karnataka Vikas Grameena Bank,KVGB0002806,591483583,SALAHALLI," SALAHALLI BRANCH  BATAKURKI BUILDING, SALAHALLI - 591 130. TQ. : RAMADURG,  DIST. : BELGAUM.",9480699286,SALAHALLI,BELGAUM,KARNATAKA
KVGB0002901,Karnataka Vikas Grameena Bank,KVGB0002901,591483585,HANCHINAL,"HANCHINAL BRANCH V. P. C. NO. 924  HULAGANNAVAR BUILDING, MAIN ROAD, HANCHINAL - 591 157. TQ. : SAUNDATTI,  DIST. : BELGAUM ",9480699256,HANCHINAL,BELGAUM,KARNATAKA
KVGB0002902,Karnataka Vikas Grameena Bank,KVGB0002902,591483586,HOSUR,"HOSUR BRANCH   PATIL BUILDING, MAIN ROAD, HOSUR - 591 111. TQ. : SAUNDATTI,  DIST. : BELGAUM.",9480699262,HOSUR,BELGAUM,KARNATAKA
KVGB0002903,Karnataka Vikas Grameena Bank,KVGB0002903,591483587,HULIKATTI,"HULIKATTI BRANCH   ADRUSHANNAVAR BUILDING, NEAR BUS STAND, HULIKATTI - 591 126  TQ. : SAUNDATTI,  DIST. : BELGAUM       ",9480699265,HULIKATTI,BELGAUM,KARNATAKA
KVGB0002904,Karnataka Vikas Grameena Bank,KVGB0002904,591483588,INAMHONGAL,"   INAM-HONGAL BRANCH   MAIN ROAD, INAMHONGAL - 591 162. TQ. : SAVADATTI,  DIST. : BELGAUM.",9480699268,INAMHONGAL,BELGAUM,KARNATAKA
KVGB0002905,Karnataka Vikas Grameena Bank,KVGB0002905,591483589,INCHAL,"INCHAL BRANCH  SHIVANAND BHARATHI  SWAMIJI MATH BUILDING, INCHAL - 591 126.  TQ. : SAUNDATTI,  DIST. : BELGAUM.",9480699269,INCHAL,BELGAUM,KARNATAKA
KVGB0002906,Karnataka Vikas Grameena Bank,KVGB0002906,591483588,MUNAVALLI,"MUNAVALLI BRANCH  HOTEL SHIVA BUILDING, YARAGATTI ROAD, MUNAVALLI - 591 117.  TQ. : SOUNDATTI,  DIST. : BELGAUM",9480699280,MANOLI,BELGAUM,KARNATAKA
KVGB0002907,Karnataka Vikas Grameena Bank,KVGB0002907,591483590,SIRASANGI," SIRASANGI BRANCH   KALAL BUILDING, SIRASANGI - 591 126. TQ. : SAVADATTI,  DIST. : BELGAUM. ",9480699290,SIRASANGI,BELGAUM,KARNATAKA
KVGB0002908,Karnataka Vikas Grameena Bank,KVGB0002908,591483591,SAUNDATTI,"SOUNDATTI BRANCH  INGALAGI BUILDING, MAIN ROAD, SOUNDATTI - 591 126. TQ. : SOUNDATTI,  DIST. : BELGAUM.   ",9480699291,SAUNDATTI,BELGAUM,KARNATAKA
KVGB0002909,Karnataka Vikas Grameena Bank,KVGB0002909,591483592,TALLUR,"  TALLUR BRANCH   UPPIN BUILDING,OPP. BUS STAND, TALLUR - 591 170. TQ. : SAVADATTI,  DIST. : BELGAUM.   ",9480699292,TALLUR,BELGAUM,KARNATAKA
KVGB0002910,Karnataka Vikas Grameena Bank,KVGB0002910,590483527,UGARGOL,"  UGARGOL BRANCH    SRI BASAVESHWAR DEVASTHAN BUILDING, UGARGOL - 591 196. TQ. : SAVADATTI,  DIST. : BELGAUM        ",9480699296,UGARGOL,BELGAUM,KARNATAKA
KVGB0002911,Karnataka Vikas Grameena Bank,KVGB0002911,,YAKKUNDI,"JAKKANVAR BUILDING YAKKUNDI TQ: SOUNDATTI, DIST; BELGAUM",9480699298,YAKKUNDI,BELGAUM,KARNATAKA
KVGB0002912,Karnataka Vikas Grameena Bank,KVGB0002912,586483501,YARAGATTI,REBBANAVAR COMPLEX< GOKAK ROAD YARAGATTI TQ.SOUNDATTI PIN- 591 129,9480699013,YARAGATTI,BELGAUM,KARNATAKA
KVGB0003001,Karnataka Vikas Grameena Bank,KVGB0003001,586483503,BASAVANA BAGEVADI,"BASAVANA BAGEWADI BRANCH SAJJAN BUILDING,  CTS 3117, INGALESHWAR CROSS ROAD,BASAVANA BAGEWADI - 586 203, TQ: BASAVANA BAGEWADIDIST :BIJAPUR.",9480699359,BASAVANA BAGEVADI,BIJAPUR,KARNATAKA
KVGB0003002,Karnataka Vikas Grameena Bank,KVGB0003002,586483504,ITAGI,"ITAGI BRANCH S.S.SAJJAN BUILDING, DOOR NO.502, MAIN ROAD,ITAGI - 586 213,TQ : BASAVANA BAGEWADI. DIST :BIJAPUR.",9480699372,ITAGI,BIJAPUR,KARNATAKA
KVGB0003003,Karnataka Vikas Grameena Bank,KVGB0003003,586483505,KOLHAR,"KOLHAR BRANCH  MAIN ROAD, KOLHAR - 586 210, TQ : BASAVANA BAGEWADI. DIST :BIJAPUR.",9480699379,KOLHAR,BIJAPUR,KARNATAKA
KVGB0003004,Karnataka Vikas Grameena Bank,KVGB0003004,586483506,MASUTI,"ASUTI BRANCH S.S.PATIL BUILDING, DOOR NO.4,NEAR BUS STAND MASUTI - 586 150, TQ : BASAVANA BAGEWADI DIST :BIJAPUR.",9480699383,MASUTI,BIJAPUR,KARNATAKA
KVGB0003005,Karnataka Vikas Grameena Bank,KVGB0003005,586483507,MULAWAD,"MULWAD BRANCH GRAM PANCHAYAT, MULWAD - 586 149, TQ : BASAVANA BAGEWADI. DIST :BIJAPUR.",9480699386,MULAWAD,BIJAPUR,KARNATAKA
KVGB0003006,Karnataka Vikas Grameena Bank,KVGB0003006,586483508,MUTTAGI,",  MUTTAGI BRANCH  B.C.CHIMMALAGI’S  BLDG, D.NO.245/1, BUS STAND ROAD, MUTTAGI - 586 232, TQ : BASAVANA BAGEWADI. DIST :BIJAPUR. PH.NO.08426-284121",9480699387,MUTTAGI,BIJAPUR,KARNATAKA
KVGB0003007,Karnataka Vikas Grameena Bank,KVGB0003007,,UKKALI,"UKKALI BRANCH B.N.JUMANAL BUILDING, UKKALI - 586 152, 1TQ : BASAVANA BAGEWADI DIST :BIJAPUR.",9480699394,UKKALI,BIJAPUR,KARNATAKA
KVGB0003008,Karnataka Vikas Grameena Bank,KVGB0003008,,NIDAGUNDI,"NIDAGUNDI BRANCH  KEMBHAVI BUILDING,  NEAR MUDDEBIHAL CIRCLE , NIDAGUNDI - 586 213, TQ : BASAVAN BAGEWADI. DIST :BIJAPUR",9480699390,NIDAGUNDI,BIJAPUR,KARNATAKA
KVGB0003010,Karnataka Vikas Grameena Bank,KVGB0003010,586483002,MANAGULI,PANCHAYAT BUILDING MANGULI TQ. BASAVAN BAGEWADI  DT: BIJAPUR PIN – 586 112,9480699620,MANAGULI,BIJAPUR,KARNATAKA
KVGB0003101,Karnataka Vikas Grameena Bank,KVGB0003101,586483511,ARJUNAGI,"ARJUNAGI BRANCH DESAI BUILDING,  D.NO.260/A, MAIN ROAD,  ARJUNAGI - 586 113, TQ: BIJAPUR DIST:BIJAPUR.",9480699354,ARJUNAGI,BIJAPUR,KARNATAKA
KVGB0003102,Karnataka Vikas Grameena Bank,KVGB0003102,586483510,BIJAPUR,"BIJAPUR MAIN BRANCH  APTE BUILDING, MEENAKSHI CHOWK, BIJAPUR - 586 101, TQ: BIJAPUR DIST:BIJAPUR.",9480699002,BIJAPUR,BIJAPUR,KARNATAKA
KVGB0003103,Karnataka Vikas Grameena Bank,KVGB0003103,586483512,HONNUTAGI,"HONAWAD BRANCH  U.P.GOKHALE  BUILDING, HONAWAD - 586 130, TQ: BIJAPUR DIST:BIJAPUR.",9480699369,HONNUTAGI,BIJAPUR,KARNATAKA
KVGB0003104,Karnataka Vikas Grameena Bank,KVGB0003104,586483517,HONWAD,"HONNUTAGI BRANCH  MAIN ROAD, HONNUTAGI - 586 127, TQ: DIST:BIJAPUR.",9480699370,HONWAD,BIJAPUR,KARNATAKA
KVGB0003105,Karnataka Vikas Grameena Bank,KVGB0003105,586483513,JAINAPUR,"JAINAPUR BRANCH JAINAPUR - 586 102, TQ: BIJAPUR DIST:BIJAPUR.",9480699373,JAINAPUR,BIJAPUR,KARNATAKA
KVGB0003106,Karnataka Vikas Grameena Bank,KVGB0003106,586483514,JAMBAGI(A),"JAMBAGI BRANCH G.S.HUGAR BUILDING,VPC NO. 59/1,59/2,  WARD NO. 2, JAMBAGI  - 586 112,TQ: BIJAPUR DIST:BIJAPUR.",9480699375,JAMBAGI(A),BIJAPUR,KARNATAKA
KVGB0003107,Karnataka Vikas Grameena Bank,KVGB0003107,586483515,KANAMADI,"KANAMADI BRANCH KALYANI’S BUILDING,H.NO.768, MAIN ROAD, KANAMADI - 586 138,TQ: BIJAPUR DIST :BIJAPUR.",9480699377,KANAMADI,BIJAPUR,KARNATAKA
KVGB0003108,Karnataka Vikas Grameena Bank,KVGB0003108,586483516,NAGATHAN,"NAGATHAN BRANCH  METRI'S BUILDING, NAGATHAN - 586 161,TQ: BIJAPUR DIST:BIJAPUR.",9480699389,NAGATHAN,BIJAPUR,KARNATAKA
KVGB0003109,Karnataka Vikas Grameena Bank,KVGB0003109,586483003,SARAWAD,"SARAWAD BRANCH  NEAR GRAM PANCHAYAT OFFICE  SARAWAD - 586 125, TQ: BIJAPUR DIST:BIJAPUR",9480699391,SARAWAD,BIJAPUR,KARNATAKA
KVGB0003110,Karnataka Vikas Grameena Bank,KVGB0003110,586483518,TIKOTA,"TIKOTA BRANCH CHATRE BUILDING, D.G.CHATRE BUILDING TIKOTA - 586 130,TQ BIJAPUR DIST:BIJAPUR.",9480699393,TIKOTA,BIJAPUR,KARNATAKA
KVGB0003111,Karnataka Vikas Grameena Bank,KVGB0003111,586483004,VIVEKANAGAR,"BIJAPUR-VIVEKNAGAR BRANCH  VIVEKNAGAR (WEST), BASAVANA BAGEWADI ROAD, BIJAPUR – 586 101",9480699395,BIJAPUR,BIJAPUR,KARNATAKA
KVGB0003112,Karnataka Vikas Grameena Bank,KVGB0003112,586483005,BABALESHWAR,"BABALESHWAR BRANCH G N KOKARE BUILDING,  BABALESHWAR - 586 113, TQ :BIJAPUR. DIST :BIJAPUR.",9480699357,BABALESHWAR,BIJAPUR,KARNATAKA
KVGB0003113,Karnataka Vikas Grameena Bank,KVGB0003113,586483547,"ASHRAM ROAD, BIJAPUR","ASHRAM ROAD BRANCH JADIMATH COMPLEX, NEAR BLDE MEDICAL COLLEGE, ASHRAM ROAD. TQ: BIJAPUR DIST:BIJAPUR",9480699355,BIJAPUR,BIJAPUR,KARNATAKA
KVGB0003114,Karnataka Vikas Grameena Bank,KVGB0003114,586483006,SAINIK SCHOOL BIJAPUR,"SAINIK SCHOOL BRANCH MUNDARGI BUILDING, SHASTRI NAGAR,SAINIK SCHOOL ROAD. TQ: BIJAPUR DIST:BIJAPUR",9480699507,BIJAPUR,BIJAPUR,KARNATAKA
KVGB0003116,Karnataka Vikas Grameena Bank,KVGB0003116,586483521,STATION ROAD BIJAPUR,"KOTAGI BLDG, NEAR LIC OFFICE< MUKUND NAHGAR STATION ROAD BIJAPUR",9480699534,BIJAPUR,BIJAPUR,KARNATAKA
KVGB0003201,Karnataka Vikas Grameena Bank,KVGB0003201,586483523,BHATAGUNAKI,"BHATAGUNAKI BRANCH  MAIN ROAD, BHATAGUNAKI -586 227 TQ : INDI  DIST :BIJAPUR",9480699360,BHATAGUNAKI,BIJAPUR,KARNATAKA
KVGB0003202,Karnataka Vikas Grameena Bank,KVGB0003202,586483524,DHULAKHED,"DULKHED BRANCH Z.P.BUILDING, BIJAPUR-SOLAPUR ROAD,DHULKHED - 586 207,TQ : INDI   DIST :BIJAPUR",9480699365,DHULAKHED,BIJAPUR,KARNATAKA
KVGB0003203,Karnataka Vikas Grameena Bank,KVGB0003203,586483525,INDI,"INDI BRANCH R.D.SHAH BUILDING,MAIN ROAD, NEAR BUS STAND, INDI - 586 209  TQ : INDI       DIST :BIJAPUR",9480699371,INDI,BIJAPUR,KARNATAKA
KVGB0003204,Karnataka Vikas Grameena Bank,KVGB0003204,586483526,JIGAJEEVANI,"JIGAJIVANI BRANCH Z.P.BUILDING, MAIN ROAD,JIGAJIVANI – 586 204,TQ : INDI   DIST :BIJAPUR",9480699376,JIGAJEEVANI,BIJAPUR,KARNATAKA
KVGB0003205,Karnataka Vikas Grameena Bank,KVGB0003205,586483527,LONI(B.K.),"DONI B.K. BRANCH KORE'S  BUILDING,LONI B.K. - 586 204,TQ : INDI   DIST :BIJAPUR",9480699381,LONI(B.K.),BIJAPUR,KARNATAKA
KVGB0003206,Karnataka Vikas Grameena Bank,KVGB0003206,,NAD(B.K.),"NAD B.K. BRANCH MAIN ROAD,NAD B.K. - 586 217 TQ : INDI    DIST :BIJAPUR",9480699388,NAD(B.K.),BIJAPUR,KARNATAKA
KVGB0003207,Karnataka Vikas Grameena Bank,KVGB0003207,,CHADCHAN,"SRI K B PATIL, COMPLEX, PANDHARPUR ROAD, CHADCHAN-586205",9480699508,CHADCHAN,BIJAPUR,KARNATAKA
KVGB0003210,Karnataka Vikas Grameena Bank,KVGB0003210,586483529,TAMBA,"PADMAVATI BLDG,         MAIN ROAD, TAMBA TQ. INDI       DT: BIJAPUR  PIN – 586 215",9480699619,TAMBA,BIJAPUR,KARNATAKA
KVGB0003301,Karnataka Vikas Grameena Bank,KVGB0003301,586483530,ALUR,"ALUR BRANCH GRAM PANCHAYAT BUILDING, ALUR - 586 129 TQ : MUDDEBIHAL. DIST :BIJAPUR.",9480699353,ALUR,BIJAPUR,KARNATAKA
KVGB0003302,Karnataka Vikas Grameena Bank,KVGB0003302,586483531,MINAJAGI,"MINAJAGI BRANCH BENNUR'S BUILDING, D.NO.344, TAILKOTI-MUDDEBIHAL ROAD, MINAJAGI - 586 214, TQ : MUDDEBIHAL. DIST :BIJAPUR.",9480699384,MINAJAGI,BIJAPUR,KARNATAKA
KVGB0003303,Karnataka Vikas Grameena Bank,KVGB0003303,586483532,MUDDEBIHAL,"MUDDEBIHAL BRANCH VVV SANGH’S GIRLS HIGH SCHOOL BLDG. MAIN ROAD, NEAR : BUS STAND,MUDDEBIHAL.",9480699385,MUDDEBIHAL,BIJAPUR,KARNATAKA
KVGB0003304,Karnataka Vikas Grameena Bank,KVGB0003304,586483533,TALIKOTI,"TALIKOT BRANCH BILEBHAVI BUILDING APMC YARD,  TALIKOT TQ: MUDDEBIHAL  DIST:BIJAPUR",9480699022,TALIKOTI,BIJAPUR,KARNATAKA
KVGB0003401,Karnataka Vikas Grameena Bank,KVGB0003401,586483534,ALMEL,", ALMEL BRANCH M.B.TAMBOLI BUILDING,D.NO.1158/3, WARD NO.3, MAIN ROAD,ALMEL - 586 202, TQ: SINDAGI. DIST :BIJAPUR",9480699352,ALMEL,BIJAPUR,KARNATAKA
KVGB0003402,Karnataka Vikas Grameena Bank,KVGB0003402,586483535,ASKI,", 1ASKI BRANCH PATIL BUILDING, D.NO.256, MAIN ROAD, ASKI –586118 TQ: SINDAGI. DIST :BIJAPUR",9480699356,ASKI,BIJAPUR,KARNATAKA
KVGB0003403,Karnataka Vikas Grameena Bank,KVGB0003403,586483536,BALAGANUR,", BALAGANUR BRANCH CHOUDESHWAR TEMPLE BUILDING, MAIN ROAD, BALAGANUR– 586128,TQ: SINDAGI. DIST :BIJAPUR",9480699358,BALAGANUR,BIJAPUR,KARNATAKA
KVGB0003404,Karnataka Vikas Grameena Bank,KVGB0003404,586483537,CHANDKAVATHE," CHANDKAWATE BRANCH D.G.PATIL'S BUILDING,D.NO.91, MAIN ROAD,                      CHANDAKAVATE - 586 143, TQ: SINDAGI.DIST :BIJAPUR",9480699361,CHANDKAVATHE,BIJAPUR,KARNATAKA
KVGB0003405,Karnataka Vikas Grameena Bank,KVGB0003405,586483538,CHIKRUGI,"CHIKKA RUGI BRANCH A.B.CHANDAKI BUILDING HOUSE NO.49, MAIN ROAD, CHIKKA RUGI – 586 215, TQ: SINDAGI. DIST :BIJAPUR",9480699362,RUGI,BIJAPUR,KARNATAKA
KVGB0003406,Karnataka Vikas Grameena Bank,KVGB0003406,586483539,DEVANGAO,"DEVANAGAON BRANCH GRAM PANCHAYAT BLDG,816/3, MAIN ROAD,DEVANAGAON-586 206, TQ: SINDAGI. DIST :BIJAPUR",9480699363,DEVANGAO,BIJAPUR,KARNATAKA
KVGB0003407,Karnataka Vikas Grameena Bank,KVGB0003407,586483540,DEVARNAVADGI,"DEVARANAVADAGI BRANCH KULKARNI'S BUILDING,D.NO.111, MAIN ROAD,DEVARA NAVADAGI - 586 206,TQ: SINDAGI. DIST :BIJAPUR",9480699364,DEVARNAVADGI,BIJAPUR,KARNATAKA
KVGB0003408,Karnataka Vikas Grameena Bank,KVGB0003408,586483541,GABASAVALGI," GABASAVALAGI GRAM PANCHAYAT BLDG, D.NO.44, MAIN ROAD, GABASAVALAGI-586123, TQ: SINDAGI  DIST :BIJAPUR",9480699366,GABASAVALGI,BIJAPUR,KARNATAKA
KVGB0003409,Karnataka Vikas Grameena Bank,KVGB0003409,586483542,GOLGERI," GOLAGERI BRANCH PATIL'S BUILDING, NEAR BUS STAND, GOLAGERI – 586 169, TQ: SINDAGI. DIST :BIJAPUR",9480699367,GOLGERI,BIJAPUR,KARNATAKA
KVGB0003410,Karnataka Vikas Grameena Bank,KVGB0003410,586483543,GUBBEWAD,",GUBBEWAD BRANCH G.S.MANGALAGI BUILDING,MAIN ROAD,GUBBEWAD - 586 128, TQ: SINDAGI  DIST :BIJAPUR",9480699368,GUBBEWAD,BIJAPUR,KARNATAKA
KVGB0003411,Karnataka Vikas Grameena Bank,KVGB0003411,586483544,JALWAD,",JALAWAD BRANCH U.H.MANNUR'S BUILDING,MAIN ROAD,JALAWAD – 586 120,TQ: SINDAGI. DIST :BIJAPUR",9480699374,JALWAD,BIJAPUR,KARNATAKA
KVGB0003412,Karnataka Vikas Grameena Bank,KVGB0003412,586483520,KANNOLLI," KANNOLLI BRANCH P.Y.JANGINAMATH'S BLDG,D.NO.535, MAIN ROAD,KANNOLLI - 586 115,TQ: SINDAGI. DIST :BIJAPUR",9480699378,KANNOLLI,BIJAPUR,KARNATAKA
KVGB0003413,Karnataka Vikas Grameena Bank,KVGB0003413,586483519,KONDGULI,",KONDAGULI BRANCH PATIL BUILDING,D.NO.96/477, MAIN ROAD,KONDAGULI - 586 120,TQ: SINDAGI. DIST :BIJAPUR",9480699380,KONDGULI,BIJAPUR,KARNATAKA
KVGB0003414,Karnataka Vikas Grameena Bank,KVGB0003414,586483545,MALAGHAN,", MALAGHAN BRANCH S.G. DESAI  BUILDING, MALAGHAN - 586 128, TQ: SINDAGI  DIST :BIJAPUR",9480699382,MALAGHAN,BIJAPUR,KARNATAKA
KVGB0003415,Karnataka Vikas Grameena Bank,KVGB0003415,586483546,SINDGI,", SINDAGI BRANCH  SMT.G.M.PATIL BLDG, BIJAPUR ROAD  SINDAGI. TQ : SINDAGI, DIST :BIJAPUR",9480699392,SINDGI,BIJAPUR,KARNATAKA
KVGB0003416,Karnataka Vikas Grameena Bank,KVGB0003416,586483549,YANKANCHI,", YANKANCHI BRANCH M.M.DAMBAL BUILDING,DOOR NO. 692, YANKANCHI - 586 144, TQ: SINDAGI. DIST :BIJAPUR",9480699396,YANKANCHI,BIJAPUR,KARNATAKA
KVGB0003417,Karnataka Vikas Grameena Bank,KVGB0003417,,YARGAL(BK)," YARAGAL B.K. BRANCH GRAM PANCHAYAT BLDG, D.NO.1,MAIN BAZAR ROAD, YARAGAL B.K- 586123, TQ: SINDAGI. DIST :BIJAPUR",9480699397,YARGAL(BK),BIJAPUR,KARNATAKA
KVGB0004001,Karnataka Vikas Grameena Bank,KVGB0004001,580483502,ALNAWAR,"ARAWATAGI BRANCH S. G. BHUMANNAVAR BUILDING,ARAWATAGI - 580 008.TQ. : DHARWAD, DIST. : DHARWAD.",9480699102,ALNAWAR,DHARWAD,KARNATAKA
KVGB0004002,Karnataka Vikas Grameena Bank,KVGB0004002,580483014,APMC DHARWAD,"DHARWAD – APMC BRANCHJADHAV BUILDING, FORT ROAD,MRUTYUNJAYA MARKET, APMC DHARWAD - 580 008.TQ. : DHARWAD,  DIST. : DHARWAD.",9480699103,HUBLI-DHARWAD,DHARWAD,KARNATAKA
KVGB0004003,Karnataka Vikas Grameena Bank,KVGB0004003,580483013,ARWATGI,"ARAWATAGI BRANCH S. G. BHUMANNAVAR BUILDING,ARAWATAGI - 580 008.TQ. : DHARWAD, DIST. : DHARWAD.",9480699104,ARWATGI,DHARWAD,KARNATAKA
KVGB0004004,Karnataka Vikas Grameena Bank,KVGB0004004,580483019,DBHPS DWD," DHARWAD – DBHPS BRANCH  CTS 139/1, C. B. GUTTAL COMPLEX, D. C. COMPOUND,DHARWAD - 580 001. TQ. : DHARWAD,  DIST. : DHARWAD",9480699109,HUBLI-DHARWAD,DHARWAD,KARNATAKA
KVGB0004005,Karnataka Vikas Grameena Bank,KVGB0004005,580483015,DHARWAD MAIN,"DHARWAD MAIN BRANCH  ANJUMAN COMPLEX, VIJAYA ROAD, NEAR C.B.T. DHARWAD - 580 001.TQ. : DHARWAD,  DIST. : DHARWAD",9480699003,HUBLI-DHARWAD,DHARWAD,KARNATAKA
KVGB0004006,Karnataka Vikas Grameena Bank,KVGB0004006,580483016,D.N. KOPPA - DWR,"  DHARWAD – D.N.KOP BRANCH PLOT NO. 40, R. R. ARALIKATTI BLDG, KELAGERI ROAD, DHARWAD - 580 008. TQ. : DHARWAD,  DIST. : DHARWAD PH.NO. 0836 2771468",9480699110,HUBLI-DHARWAD,DHARWAD,KARNATAKA
KVGB0004007,Karnataka Vikas Grameena Bank,KVGB0004007,580483020,GANDHINAGAR,"  DHARWAD – GANDHINAGAR BRANCH SHAKAMBARI COMMERCIAL COMPLEX, SHAMBHAVI COLONY, GANDHI NAGAR, DHARWAD - 580 008.TQ. : DHARWAD,  DIST. : DHARWAD    PH.NO. 0836 2460750",9480699112,HUBLI-DHARWAD,DHARWAD,KARNATAKA
KVGB0004008,Karnataka Vikas Grameena Bank,KVGB0004008,580483017,H O BRANCH   DHARWAD," DHARWAD – HO BRANCH H.O. BUILDING, P. B. NO. 111, BELGAUM ROAD, DHARWAD - 580 008. TQ. : DHARWAD,  DIST. : DHARWAD",9480699114,HUBLI-DHARWAD,DHARWAD,KARNATAKA
KVGB0004009,Karnataka Vikas Grameena Bank,KVGB0004009,580483503,JAYANAGAR  DWD," DHARWAD – JAYANAGAR BRANCH CTS 41, PATIL BUILDING, 1ST FLOOR, JAYANAGAR, 2ND CROSS, DHARWAD - 580 001. TQ. : DHARWAD,  DIST. : DHARWAD",9480699121,HUBLI-DHARWAD,DHARWAD,KARNATAKA
KVGB0004010,Karnataka Vikas Grameena Bank,KVGB0004010,580483504,LINE BAZAR DWD," DHARWAD – LINE BAZAR BRANCH S. N. KARANTH BUILDING,OPP. BAGALKOT PETROL BUNK, HUBLI ROAD, DHARWAD - 580 001. TQ. : DHARWAD,  DIST. : DHARWAD.",9480699128,HUBLI-DHARWAD,DHARWAD,KARNATAKA
KVGB0004011,Karnataka Vikas Grameena Bank,KVGB0004011,580483505,MUGAD," MUGAD BRANCH  DHARWAD BUILDING, MAIN ROAD, NEAR BUS STAND, MUGAD - 580 007. TQ. : DHARWAD,  DIST. : DHARWAD",9480699130,MUGAD,DHARWAD,KARNATAKA
KVGB0004012,Karnataka Vikas Grameena Bank,KVGB0004012,580483506,MUMMIGATTI,"K MUMMIGATTI BRANCH  V.P.C.NO. 556,KYATAPPANAVAR BUILDING, MUMMIGATTI - 581 203. TQ. : DHARWAD,  DIST. : DHARWAD",9480699131,MUMMIGATTI,DHARWAD,KARNATAKA
KVGB0004013,Karnataka Vikas Grameena Bank,KVGB0004013,580483507,NAVALUR," NAVALUR BRANCH BALLUR BUILDING,MELINA AGASI, NAVALUR - 580 009. TQ. : DHARWAD,  DIST. : DHARWAD",9480699135,NAVALUR,DHARWAD,KARNATAKA
KVGB0004014,Karnataka Vikas Grameena Bank,KVGB0004014,580483508,NIGADI," NIGADI BRANCH PANCHAYAT BUILDING, NIGADI - 580 008. TQ. : DHARWAD,  DIST. : DHARWAD.",9480699137,NIGADI,DHARWAD,KARNATAKA
KVGB0004015,Karnataka Vikas Grameena Bank,KVGB0004015,580483509,SHIVALLI," SHIVALLI BRANCH PANCHAYAT BUILDING, NEAR BUS STAND, SHIVALLI - 580 112. TQ. : DHARWAD,  DIST. : DHARWAD.",9480699143,SHIVALLI,DHARWAD,KARNATAKA
KVGB0004016,Karnataka Vikas Grameena Bank,KVGB0004016,580483510,TADAKOD," TADAKOD BRANCH PANCHAYAT BUILDING, TADAKOD - 581 105. TQ. : DHARWAD,  DIST. : DHARWAD.",9480699146,TADAKOD,DHARWAD,KARNATAKA
KVGB0004017,Karnataka Vikas Grameena Bank,KVGB0004017,580483511,TEGUR," TEGUR BRANCH TIMMAPUR BUILDING, TEGUR - 580 008. TQ. : DHARWAD,  DIST. : DHARWAD",9480699147,TEGUR,DHARWAD,KARNATAKA
KVGB0004018,Karnataka Vikas Grameena Bank,KVGB0004018,580483022,UPPIN BETAGERE," UPPIN BETAGERI BRANCH  DR. TOTAR BUILDING,  OPP, BUT STAND UPPIN BETAGERI, TQ & DT: DHARWAD",9480699149,UPPIN BETAGERE,DHARWAD,KARNATAKA
KVGB0004019,Karnataka Vikas Grameena Bank,KVGB0004019,,WALMI," WALMI BRANCH  WALMI COMPLEX BELGAUM ROAD, DHARWAD. TQ. &  DIST. : DHARWAD",9480699151,HUBLI-DHARWAD,DHARWAD,KARNATAKA
KVGB0004020,Karnataka Vikas Grameena Bank,KVGB0004020,,GANDHI  CHOWK," PRATIMA PLAZA, DAROGA ONI GANDHI CHOWK TQ: DHARWAD, DIST: DHARWAD",9480699500,HUBLI-DHARWAD,DHARWAD,KARNATAKA
KVGB0004023,Karnataka Vikas Grameena Bank,KVGB0004023,,VIKAS NAGAR DHARWAD,"PLOT NO 141, NEAR BGS SCHOOL, VIKAS NAGAR DHARWAD -580008",9480699634,HUBLI-DHARWAD,DHARWAD,KARNATAKA
KVGB0004024,Karnataka Vikas Grameena Bank,KVGB0004024,,MALAMADDI DHARWAD,"MALAMADDI BRANCH , MANJUNATH PURA NEAR RAYAR MATT DHARAWD - 580007",9480699646,HUBLI-DHARWAD,DHARWAD,KARNATAKA
KVGB0004101,Karnataka Vikas Grameena Bank,KVGB0004101,580483520,CBT HUBLI," HUBLI – BARDAN SAL BRANCH  NEELI BUILDING, BARADAN GALLI, NEAR C.B.T.  HUBLI - 580 020. TQ. : HUBLI,  DIST. : DHARWAD.",9480699108,BHANDIWAD,DHARWAD,KARNATAKA
KVGB0004102,Karnataka Vikas Grameena Bank,KVGB0004102,580483002,GOKUL-RD HUBLI,"  HUBLI – GOKUL ROAD BRANCH   E & F BLOCK, STALL NO. 7 & 8, AKSHAYA PARK, GOKUL ROAD, HUBLI - 580 030. TQ. : HUBLI,  DIST. : DHARWAD",9480699113,HUBLI-DHARWAD,DHARWAD,KARNATAKA
KVGB0004103,Karnataka Vikas Grameena Bank,KVGB0004103,580483521,HALLIHAL," HALLIHAL BRANCH GRAM PANCHAYAT BUILDING,MAIN ROAD,HALLIHAL - 580 023. TQ. : HUBLI,  DIST. : DHARWAD.",9480699115,HALLIHAL,DHARWAD,KARNATAKA
KVGB0004104,Karnataka Vikas Grameena Bank,KVGB0004104,580483008,HUBLI," HUBLI MAIN BRANCH CLUB ROAD HUBLI - 580 028. TQ. : HUBLI,  DIST. : DHARWAD.",9480699118,HUBLI-DHARWAD,DHARWAD,KARNATAKA
KVGB0004105,Karnataka Vikas Grameena Bank,KVGB0004105,580483522,INGALAHALLI," INGALAHALLI BRANCH PANCHAYAT BUILDING, INGALAHALLI - 581 231. TQ. : HUBLI,  DIST. : DHARWAD.",9480699120,INGALAHALLI,DHARWAD,KARNATAKA
KVGB0004106,Karnataka Vikas Grameena Bank,KVGB0004106,580483010,KESHWAPUR,"  HUBLI –KESHWAPUR JAGAJYOTHI COMPLEX, NAGESHETTIKOPPA ROAD, KESHAVAPUR, HUBLI - 580 023.",9480699125,KESHWAPUR,DHARWAD,KARNATAKA
KVGB0004107,Karnataka Vikas Grameena Bank,KVGB0004107,580483523,KUSUGAL,"  KUSUGAL BRANCH D.K. PATIL BUILDING,  KILLA ROAD, KUSUGAL - 581 100. TQ. : HUBLI,  DIST. : DHARWAD.",9480699127,KUSUGAL,DHARWAD,KARNATAKA
KVGB0004108,Karnataka Vikas Grameena Bank,KVGB0004108,580483009,NAVANAGAR," NAVANAGAR BRANCH  MIG-17, OPP. CANCER HOSPITAL, NAVANAGAR - 580 025(HUBLI)  DIST. : DHARWAD.",9480699136,HUBLI-DHARWAD,DHARWAD,KARNATAKA
KVGB0004109,Karnataka Vikas Grameena Bank,KVGB0004109,580483004,NULVI," NULVI BRANCH M. G. DHARWAD BUILDING, NULVI - 580 214. TQ. : HUBLI,  DIST. : DHARWAD",9480699138,NULVI,DHARWAD,KARNATAKA
KVGB0004110,Karnataka Vikas Grameena Bank,KVGB0004110,580483003,OLD HUBLI," HUBLI – OLD HUBLI BRANCH JOSHI BUILDING,VENKATESHWAR COMPLEX, FORT ROAD, OLD HUBLI, HUBLI - 580 024. TQ. : HUBLI,  DIST. : DHARWAD",9480699139,HUBLI-DHARWAD,DHARWAD,KARNATAKA
KVGB0004111,Karnataka Vikas Grameena Bank,KVGB0004111,580483006,SHIRUR PARK HUBLI," HUBLI – SHIRUR PARK BRANCH  CB, 3749,  MISKIN BUILDING, MAIN ROAD, SHIRUR PARK, HUBLI - 580 031 TQ. : HUBLI,  DIST. : DHARWAD.",9480699142,HUBLI-DHARWAD,DHARWAD,KARNATAKA
KVGB0004112,Karnataka Vikas Grameena Bank,KVGB0004112,580483524,SHRINAGAR  HUBLI," HUBLI –SHRINAGAR BRANCH  C.B. NO. 2/A, SMT. S. S. PATIL BUILDING, SAI NAGAR UNKAL, HUBLI - 580 031 TQ. : HUBLI,  DIST. : DHARWAD.",9480699144,HUBLI-DHARWAD,DHARWAD,KARNATAKA
KVGB0004113,Karnataka Vikas Grameena Bank,KVGB0004113,580483021,VIJAYNAGAR," HUBLI – VIJAYNAGAR BRANCH PLOT NO. 151 (A), CHACHADI BUILDING, NEAR VIJAYANAGAR POST OFFICE, VIJAYANAGAR, HUBLI - 580 032. TQ. : HUBLI,  DIST. : DHARWAD.",9480699150,HUBLI-DHARWAD,DHARWAD,KARNATAKA
KVGB0004114,Karnataka Vikas Grameena Bank,KVGB0004114,580483011,WARUR," WARUR BRANCH HIREMATH BUILDING, P. B. ROAD, WARUR - 581 234. TQ. : HUBLI,  DIST. : DHARWAD.",9480699152,WARUR,DHARWAD,KARNATAKA
KVGB0004115,Karnataka Vikas Grameena Bank,KVGB0004115,580483012,BHANDIWAD," BHAIRIDEVARAKOPPA BRANCH YUVAKA MANDALA BUILDING, NEAR BUS STOP, P.B.ROAD HUBLI. BHAIRIDEVARAKOPPA TQ. : HUBLI,  DIST. : DHARWAD.",9480699106,BHANDIWAD,DHARWAD,KARNATAKA
KVGB0004116,Karnataka Vikas Grameena Bank,KVGB0004116,580483011,MADHURA COLONY," AKSHAYA ENCLAVES MADHURA COLONY, KUSUGAL ROAD, HUBLI 580023",9480699502,HUBLI-DHARWAD,DHARWAD,KARNATAKA
KVGB0004117,Karnataka Vikas Grameena Bank,KVGB0004117,580483542,STATION ROAD HUBLI,", KAMKAR BUILDING, OPPOSITE DECCAN TAKIES , STATION ROAD , HUBLI",9480699512,HUBLI-DHARWAD,DHARWAD,KARNATAKA
KVGB0004201,Karnataka Vikas Grameena Bank,KVGB0004201,580483533,BOMMIGATTI," BOMMIGATTI BRANCH PANCHAYAT BUILDING, BOMMIGATTI - 581 223. TQ. : KALAGHATAGI,  DIST. : DHARWAD",9480699107,BOMMIGATTI,DHARWAD,KARNATAKA
KVGB0004202,Karnataka Vikas Grameena Bank,KVGB0004202,580483534,GHALGI HULKOPPA," GHALAGI-HULKOP BRANCH MANDALGIRI, MARKET, GALAGI HULKOP - 581 208. TQ. : KALAGHATAGI,  DIST. : DHARWAD.",9480699111,GHALGI HULKOPPA,DHARWAD,KARNATAKA
KVGB0004203,Karnataka Vikas Grameena Bank,KVGB0004203,580483535,HIREHONNIHALLI," HIREHONNIHALLI BRANCH J. R. Y. BUILDING, HIREHONNIHALLI - 581 225.TQ. : KALAGHATAGI,  DIST. : DHARWAD.",9480699117,HIREHONNIHALLI,DHARWAD,KARNATAKA
KVGB0004204,Karnataka Vikas Grameena Bank,KVGB0004204,580483536,KALGHATGI," KALAGHATAGAI BRANCH CTS 4536/2/1 NAIK BUILDING HUBLI-KARWAR ROAD  KALAGHATAGI - 581 204. TQ. : KALAGHATAGI,  DIST. : DHARWAD.",9480699122,KALGHATGI,DHARWAD,KARNATAKA
KVGB0004205,Karnataka Vikas Grameena Bank,KVGB0004205,580483537,MISHRIKOTI," MISHRIKOTI BRANCH JRY BUILDING, NEAR BUS STAND, MISHRIKOTI - 581 226. TQ. : KALAGHATAGI,  DIST. : DHARWAD.",9480699129,MISHRIKOTI,DHARWAD,KARNATAKA
KVGB0004206,Karnataka Vikas Grameena Bank,KVGB0004206,580483525,MUTTIAGI,"MUTTAGI BRANCH PANCHAYAT BUILDING, MUTTAGI - 581 204. TQ. : KALAGHATAGI,  DIST. : DHARWAD",9480699132,MUTTIAGI,DHARWAD,KARNATAKA
KVGB0004207,Karnataka Vikas Grameena Bank,KVGB0004207,580483526,TABAKADAHONNIHALLI," TABADAHONNIHALLI BRANCH PANCHAYAT BUILDING, TABAKADAHONNIHALLI - 581 212. TQ. : KALAGHATAGI,  DIST. : DHARWAD.",9480699145,TABAKADAHONNIHALLI,DHARWAD,KARNATAKA
KVGB0004301,Karnataka Vikas Grameena Bank,KVGB0004301,580483527,INGALAGI," INGALAGI BRANCH PATIL KULKARNI BUILDING, INGALAGI - 581 128. TQ. : KUNDGOL,  DIST. : DHARWAD",9480699119,INGALAGI,DHARWAD,KARNATAKA
KVGB0004302,Karnataka Vikas Grameena Bank,KVGB0004302,580483528,KALASA," KALAS BRANCH WALAD BUILDING, KALAS - 581 107. TQ. : KUNDAGOL,  DIST. : DHARWAD",9480699123,KALASA,DHARWAD,KARNATAKA
KVGB0004303,Karnataka Vikas Grameena Bank,KVGB0004303,580483530,KAMADOLLI," KAMADOLLI BRANCH LIBRARY BUILDING, KAMADOLLI - 581 113.TQ. : KUNDGOL,  DIST. : DHARWAD",9480699124,KAMADOLLI,DHARWAD,KARNATAKA
KVGB0004304,Karnataka Vikas Grameena Bank,KVGB0004304,580483529,KUNDGOL," KUNDAGOL BRANCH BALIKAI BUILDING, KUNDAGOL - 581 113. TQ. : KUNDAGOL,  DIST. : DHARWAD",9480699126,KUNDGOL,DHARWAD,KARNATAKA
KVGB0004305,Karnataka Vikas Grameena Bank,KVGB0004305,580483512,YERAGUPPI," YARAGUPPI BRANCH YALIGAR BUILDING, KUNDGOL ROAD, YARAGUPPI - 580 215. TQ. : KUNDAGOL,  DIST. : DHARWAD",9480699153,YERAGUPPI,DHARWAD,KARNATAKA
KVGB0004306,Karnataka Vikas Grameena Bank,KVGB0004306,580483513,YAREBUDIHAL," YAREBUDIHAL BRANCH KANOJI BUILDING, YAREBUDIHAL - 581 162.TQ. : KUNDGOL,  DIST. : DHARWAD.",9480699154,YAREBUDIHAL,DHARWAD,KARNATAKA
KVGB0004401,Karnataka Vikas Grameena Bank,KVGB0004401,580483514,ALAGAWADI,", ALNAVAR BRANCH  ACHARI COMPLEX, AZAD ROAD, ALNAVAR - 581 103. TQ. : DHARWAD  DIST. : DHARWAD",9480699101,ALAGAWADI,DHARWAD,KARNATAKA
KVGB0004402,Karnataka Vikas Grameena Bank,KVGB0004402,580483515,AREKURAHATT,"AREKURAHATTI BRANCH HARIHAR BUILDING,AREKURAHATTI - 581 208. TQ. : NAVALAGUND, DIST. : DHARWAD.",9480699105,AREKURAHATT,DHARWAD,KARNATAKA
KVGB0004403,Karnataka Vikas Grameena Bank,KVGB0004403,580483516,HALLIKERI," HALLIKERI BRANCH  MADALLI BUILDING, BAZAR ROAD,  HALLIKERI - 582 201. TQ. : NAVALAGUND,  DIST. : DHARWAD.",9480699116,HALLIKERI,DHARWAD,KARNATAKA
KVGB0004404,Karnataka Vikas Grameena Bank,KVGB0004404,580483517,NALAWADI," NALAWADI BRANCH MUDAREDDY BUILDING, MAIN ROAD, NALAWADI - 582 220. TQ. : NAVALAGUND,  DIST. : DHARWAD",9480699133,NALAWADI,DHARWAD,KARNATAKA
KVGB0004405,Karnataka Vikas Grameena Bank,KVGB0004405,580483518,NAVALGUND," NAVALGUND BRANCH JAIN BUILDING, MARKET ROAD, NAVALAGUND - 582 208. TQ. : NAVALAGUND,  DIST. : DHARWAD.",9480699134,NAVALGUND,DHARWAD,KARNATAKA
KVGB0004406,Karnataka Vikas Grameena Bank,KVGB0004406,580483519,SHALAWADI,"  SHALAWADI BRANCH  KADLI BUILDING  NEAR BUS STAND, SHALAWADI - 582 238. TQ. : NAVALAGUND,  DIST. : DHARWAD",9480699140,SHELAVADI,DHARWAD,KARNATAKA
KVGB0004407,Karnataka Vikas Grameena Bank,KVGB0004407,,SHIRKOL," SHIRKOL BRANCH TEMPLE BUILDING, SHIRKOL - 582 208. TQ. : NAVALAGUND,  DIST. : DHARWAD.",9480699141,SHIRKOL,DHARWAD,KARNATAKA
KVGB0004408,Karnataka Vikas Grameena Bank,KVGB0004408,575483004,TIRLAPUR," TIRLAPUR BRANCH PANCHAYAT BUILDING, TIRLAPUR - 582 221. TQ. : NAVALAGUND,  DIST. : DHARWAD",9480699148,TIRLAPUR,DHARWAD,KARNATAKA
KVGB0004410,Karnataka Vikas Grameena Bank,KVGB0004410,575483504,MORAB,"NEAR PANCHAYAT OFFICE , OPP KALMESHWAR TEMPLE MORAB, AT & PO MORAB , TQ : NAVALGUND , DHRAWDA - 580112",9480699630,MORAB,DHARWAD,KARNATAKA
KVGB0005001,Karnataka Vikas Grameena Bank,KVGB0005001,575483009,B.C.ROAD," B.C. ROAD BRANCH,NEAR BUS STAND B.C. ROAD, BANTWAL TQ,DAKSHINA KANNADA DIST.",9480699450,B.C.ROAD,DAKSHIN KANNAD,KARNATAKA
KVGB0005002,Karnataka Vikas Grameena Bank,KVGB0005002,575483501,KALLADKA," PANCHAVATI COMMERCIAL COMPLEX KALLADKA BRANCH,BANTWAL TQ,DAKSHINA KANNADA DIST.",9480699472,KALLADKA,DAKSHIN KANNAD,KARNATAKA
KVGB0005003,Karnataka Vikas Grameena Bank,KVGB0005003,575483502,VITTAL," VH ASHRAF COMPLEX, VITTAL BRANCH,BANTWAL TQ,DAKSHINA KANNADA DIST.",9480699498,VITTAL,DAKSHIN KANNAD,KARNATAKA
KVGB0005101,Karnataka Vikas Grameena Bank,KVGB0005101,575483503,ARASINAMAKKI," ARASINAMAKKI BRANCH,BELTHANGADI TQ, DAKSHINA KANNADA DIST.",9480699449,REKHYA,DAKSHIN KANNAD,KARNATAKA
KVGB0005102,Karnataka Vikas Grameena Bank,KVGB0005102,575483005,UJRE," UJIRE BRANCH,BELTHANGADI TQ,DAKSHINA KANNADA DIST.",9480699490,UJRE,DAKSHIN KANNAD,KARNATAKA
KVGB0005103,Karnataka Vikas Grameena Bank,KVGB0005103,575483002,VENOOR," VENUR BRANCH,BELTHANGADI TQ,DAKSHINA KANNADA DIST.",9480699497,VENOOR,DAKSHIN KANNAD,KARNATAKA
KVGB0005201,Karnataka Vikas Grameena Bank,KVGB0005201,575483006,KAIKAMBA," KAIKAMBA  BRANCH,MANGALORE TQ,DAKSHINA KANNADA DIST.",9480699471,KAIKAMBA,DAKSHIN KANNAD,KARNATAKA
KVGB0005202,Karnataka Vikas Grameena Bank,KVGB0005202,,MANGALORE," KARANGALAPADY (MANGALORE) BRANCH,MANGALORE TQ,DAKSHINA KANNADA DIST.",9480699007,MANGALORE,DAKSHIN KANNAD,KARNATAKA
KVGB0005203,Karnataka Vikas Grameena Bank,KVGB0005203,575483003,MOODABIDRI," MOODABIDARE BRANCH,MANGALORE TQ,DAKSHINA KANNADA DIST.",9480699480,MOODABIDRI,DAKSHIN KANNAD,KARNATAKA
KVGB0005204,Karnataka Vikas Grameena Bank,KVGB0005204,575483014,Z P EXTENSION MANGALORE,"THE OFFICER INCHARGE , ZILLA PANCHAYAT OFFICE COMPLEX , URVA MANGALORE",0,MANGALORE,DAKSHIN KANNAD,KARNATAKA
KVGB0005205,Karnataka Vikas Grameena Bank,KVGB0005205,575483011,SURATKAL," SURATKAL,SHANKAR SADAN OPP: POST OFFICE N H 17 SUARAT KAL TQ:MANGALORE  DIST: DAKSHINA KANNADA",9480699510,MANGALORE,DAKSHIN KANNAD,KARNATAKA
KVGB0005206,Karnataka Vikas Grameena Bank,KVGB0005206,575483012,TALPADY," NJATH COMPLEX, OPP: RTO CHECK POST N H 17 TALAPADY TQ: MANGALORE, DIST: DAXINA KANNADA",9480699509,TALPADY,DAKSHIN KANNAD,KARNATAKA
KVGB0005207,Karnataka Vikas Grameena Bank,KVGB0005207,575483013,KATEEL," HOTEL SOUDARYA OALACE COMPLEX, KATEEL- KINNIGOLI ROAD KATEEL TQ & DT. MANGALORE",9480699530,KATEEL,DAKSHIN KANNAD,KARNATAKA
KVGB0005208,Karnataka Vikas Grameena Bank,KVGB0005208,575483007,KAVOOR," KVOOR JUNCTION, KAVOOR MANGALORE TQ & DT.MANGALORE",9480699531,MANGALORE,DAKSHIN KANNAD,KARNATAKA
KVGB0005209,Karnataka Vikas Grameena Bank,KVGB0005209,575483010,BUNDER MANGALORE," LAXMAN COMMERCIAL COMPLEX OPP:ATTUR VASUDEV PRABHU,JM-2ND CROSS ROAD,BUNDER MANGALORE",9480699532,MANGALORE,DAKSHIN KANNAD,KARNATAKA
KVGB0005401,Karnataka Vikas Grameena Bank,KVGB0005401,574483501,PUTTUR," PUTTUR BRANCH,PUTTUR TQ,DAKSHINA KANNADA DIST.",9480699484,PUTTUR,DAKSHIN KANNAD,KARNATAKA
KVGB0005402,Karnataka Vikas Grameena Bank,KVGB0005402,574483302,UPPINANGADY," UPPINGADI BRANCH,PUTTUR TQ, DAKSHINA KANNADA DIST.",9480699493,UPPINANGADY,DAKSHIN KANNAD,KARNATAKA
KVGB0005501,Karnataka Vikas Grameena Bank,KVGB0005501,574483502,BELLARE," BELLARE BRANCH,SULLIA TQ, DAKSHINA KANNADA DIST.",9480699452,BELLARE,DAKSHIN KANNAD,KARNATAKA
KVGB0005502,Karnataka Vikas Grameena Bank,KVGB0005502,582483501,SULLIA," SULLIA BRANCH,SULLIA TQ,DAKSHINA KANNADA DIST.",9480699489,SULLIA,DAKSHIN KANNAD,KARNATAKA
KVGB0005503,Karnataka Vikas Grameena Bank,KVGB0005503,582483003,SUBRAMANYA," GRAMA PANCHYAT BUILDING,SUBRAMANYA BRANCH,ULLIA TQ,DAKSHINA KANNADA DIST.",9480699488,SUBRAMANYA,DAKSHIN KANNAD,KARNATAKA
KVGB0006001,Karnataka Vikas Grameena Bank,KVGB0006001,582483002,BALAGANUR," BALAGANUR BRANCH  MARUTI DEVASTAN BUILDING, MAIN ROAD, BALAGANUR - 582 231. TQ. : GADAG, DIST. : GADAG",9480699157,BALAGANUR,GADAG,KARNATAKA
KVGB0006002,Karnataka Vikas Grameena Bank,KVGB0006002,582483502,GADAG-BETIGERI,"BETAGERI BRANCH KABADI BUILDING, PALA-BADAMI ROAD, BETAGERI - 582 102. TQ. : GADAG,  DIST. : GADAG.",9480699158,GADAG-BETIGERI,GADAG,KARNATAKA
KVGB0006003,Karnataka Vikas Grameena Bank,KVGB0006003,582483503,GADAG,"GADAG MAIN BRANCH S. P. GADAG BUILDING,J. T. MATH ROAD, GADAG - 582 101. TQ. : GADAG,  DIST. : GADAG.",9480699004,GADAG,GADAG,KARNATAKA
KVGB0006004,Karnataka Vikas Grameena Bank,KVGB0006004,582483504,HARTI,"HARTI BRANCH SOCIETY BUILDING,HARTI - 582 123.TQ. : GADAG,  DIST. : GADAG.",9480699165,HARTI,GADAG,KARNATAKA
KVGB0006005,Karnataka Vikas Grameena Bank,KVGB0006005,582483004,HOMBAL,"HOMBAL BRANCH PANCHAYAT BUILDING,HOMBAL - 582 204 TQ. : GADAG,  DIST. : GADAG.",9480699169,HOMBAL,GADAG,KARNATAKA
KVGB0006006,Karnataka Vikas Grameena Bank,KVGB0006006,582483505,KURTAKOTI,"KURTHAKOTI BRANCH GADAREDDY BUILDING,KURTHAKOTI - 582 214.TQ. : GADAG,  DIST. : GADAG.",9480699172,KURTAKOTI,GADAG,KARNATAKA
KVGB0006007,Karnataka Vikas Grameena Bank,KVGB0006007,582483506,MULGUNDNAKA GDG,"MULGUNDNAKA BRANCH HOSALLIMATH COMPLEX,MULGUND NAKA BARANCH TQ. : GADAG,  DIST. : GADAG.",9480699177,GADAG,GADAG,KARNATAKA
KVGB0006008,Karnataka Vikas Grameena Bank,KVGB0006008,582483507,NAGAVI,"NAGAVI BRANCH PANCHAYAT BUILDING,NAGAVI - 582 124.TQ:GADAG, DIST:GADAG",9480699180,NAGAVI,GADAG,KARNATAKA
KVGB0006009,Karnataka Vikas Grameena Bank,KVGB0006009,582483508,SORTUR,"SORTUR BRANCH NEAR BUS STAND,SORTUR - 582 213.TQ. : GADAG,  DIST. : GADAG",9480699187,SORTUR,GADAG,KARNATAKA
KVGB0006010,Karnataka Vikas Grameena Bank,KVGB0006010,582483509,MULGUND,"MULGUND BRANCH BADNI BUILDING, MAIN MARKET ROAD  MULGUND TQ. : MULAGUND,  DIST. : GADAG",9480699176,MULGUND,GADAG,KARNATAKA
KVGB0006011,Karnataka Vikas Grameena Bank,KVGB0006011,582483510,HATALGERI NAKA," PLOT NO. 7 S T BALLARY BUILDING, VIJAYA TARA COMPLEX, HATALGERI ROAD, OPP J T COLLEGE.",9480699036,GADAG,GADAG,KARNATAKA
KVGB0006101,Karnataka Vikas Grameena Bank,KVGB0006101,582483511,BAGEWADI,"BAGEWADI BRANCH V. P. C. BUILDING, BAGEWADI - 582 118. TQ. : MUNDARAGI, DIST. : GADAG",9480699156,BAGEWADI,GADAG,KARNATAKA
KVGB0006102,Karnataka Vikas Grameena Bank,KVGB0006102,582483512,DAMBAL,"DAMBAL BRANCH PANCHAYAT BUILDING, DAMBAL - 582 113. TQ. : MUNDARAGI, DIST. : GADAG.",9480699160,DAMBAL,GADAG,KARNATAKA
KVGB0006103,Karnataka Vikas Grameena Bank,KVGB0006103,582483513,HALLIGULI,"HALLIGUDI BRANCH NEAR BASAVESHWAR TEMPLE,V. P. C. BUILDING, STATION ROAD,HALLIGUDI - 582 115. TQ. : MUNDARAGI,  DIST. : GADAG.",9480699163,HALLIGULI,GADAG,KARNATAKA
KVGB0006104,Karnataka Vikas Grameena Bank,KVGB0006104,582483514,HAMMIGI,"HAMMIGI BRANCH JRY BUILDING,HAMMIGI - 582 118.TQ. : MUNDARAGI,  DIST. : GADAG.",9480699164,HAMMIGI,GADAG,KARNATAKA
KVGB0006105,Karnataka Vikas Grameena Bank,KVGB0006105,582483515,KALKERI,"KALKERI BRANCH J.R.Y. BUILDING, KALAKERI - 582 118. TQ. : MUNDARAGI,  DIST. : GADAG.",9480699170,KALKERI,GADAG,KARNATAKA
KVGB0006106,Karnataka Vikas Grameena Bank,KVGB0006106,582483516,KORLHALLI,"A.H. HEMADRI BUILDING,KORLAHALLI BRANCH  CHANALDAR ONI, KORLAHALLI - 582 118. TQ. : MUNDARAGI,  DIST. : GADAG.",9480699171,KORLHALLI,GADAG,KARNATAKA
KVGB0006107,Karnataka Vikas Grameena Bank,KVGB0006107,,MEUNDI,"MEVUNDI BRANCH HARUGERI BUILDING, MUNDARGI ROAD,MEVUNDI - 581 317. TQ. : MUNDARAGI,  DIST. : GADAG.",9480699175,MEUNDI,GADAG,KARNATAKA
KVGB0006108,Karnataka Vikas Grameena Bank,KVGB0006108,,MUNDARGI,"MUNDARAGI BRANCH METI BUILDING, MARKET ROAD,MUNDARAGI - 582 118. TQ. : MUNDARAGI,  DIST. : GADAG.  PH.NO. 08371 262107",9480699178,MUNDARGI,GADAG,KARNATAKA
KVGB0006201,Karnataka Vikas Grameena Bank,KVGB0006201,582483519,CHIKKANARGUND,"  CHIKKANARAGUND BRANCH PANCHAYAT BUILDING, CHIKKANARANGUND - 582 235. TQ. : NARAGUND, DIST. : GADAG.",9480699159,CHIKKANARGUND,GADAG,KARNATAKA
KVGB0006202,Karnataka Vikas Grameena Bank,KVGB0006202,582483520,HADLI,"HADLI BRANCH PANCHAYAT BUILDING,HADLI - 582 228. TQ. : NARAGUND,  DIST. : GADAG.",9480699162,HADLI,GADAG,KARNATAKA
KVGB0006203,Karnataka Vikas Grameena Bank,KVGB0006203,582483521,NARGUND,"NARAGUND BRANCH GUDISAGAR BUILDING, NEAR COURT, KEMPAGASI ROAD, NARAGUND - 582 207. TQ. : NARAGUND,  DIST. : GADAG",9480699181,NARGUND,GADAG,KARNATAKA
KVGB0006204,Karnataka Vikas Grameena Bank,KVGB0006204,582483522,KONNUR," HORAKERI BLDG OLD VIJAYA BANK BLDG, MAIN ROAD, KONNUR TQ: NARAGUND, DIST : GADAG",9480699504,KONNUR,GADAG,KARNATAKA
KVGB0006301,Karnataka Vikas Grameena Bank,KVGB0006301,582483523,ABBIGERI,"ABBIGERI BRANCH NEAR GANDHI CIRCLE,TARUNA SANGH BUILDING,ABBIGERI - 582 111. TQ. : RON, DIST. : GADAG.",9480699155,ABBIGERI,GADAG,KARNATAKA
KVGB0006302,Karnataka Vikas Grameena Bank,KVGB0006302,582483524,GAJENDRAGAD,"GAJENDRAGAD BRANCH MEHARWADE BUILDING,MAIN ROAD,GAJENDRAGAD - 582 114. TQ. : RON,  DIST. : GADAG.",9480699161,GAJENDRAGAD,GADAG,KARNATAKA
KVGB0006303,Karnataka Vikas Grameena Bank,KVGB0006303,582483525,HIREHAL,"HIREHAL BRANCH SRI VEERABHADRESHWAR TRUST COMMITTEE BUILDING,HIREHAL - 582 217. TQ. : RON,  DIST. : GADAG.",9480699166,HIREHAL,GADAG,KARNATAKA
KVGB0006304,Karnataka Vikas Grameena Bank,KVGB0006304,582483526,MENASIGI,"MENASAGI BRANCH  KULKARNI BUILDING, MENASAGI - 582 232 TQ. : RON,  DIST. : GADAG.",9480699174,MENASIGI,GADAG,KARNATAKA
KVGB0006305,Karnataka Vikas Grameena Bank,KVGB0006305,582483527,MUSHIGERI,"MUSHIGERI BRANCH V. B. SAJJANAR BUILDING, NEAR BUS STAND, MUSHIGERI - 582 211. TQ. : RON,  DIST. : GADAG.",9480699179,MUSHIGERI,GADAG,KARNATAKA
KVGB0006306,Karnataka Vikas Grameena Bank,KVGB0006306,582483528,NAREGAL,"NAREGAL BRANCH RAMABAI B. KULKARNI BUILDING, NAREGAL - 582 119. TQ. : RON,  DIST. : GADAG.",9480699182,NAREGAL,GADAG,KARNATAKA
KVGB0006307,Karnataka Vikas Grameena Bank,KVGB0006307,582483529,NIDAGUNDI,"NIDAGUNDI BRANCH  PANCHAYAT BUILDING, NIDAGUNDI - 582 130. TQ. : RON,  DIST. : GADAG.",9480699183,NIDAGUNDI,GADAG,KARNATAKA
KVGB0006308,Karnataka Vikas Grameena Bank,KVGB0006308,582483530,RON,"RON BRANCH G.S. PATIL COMPLEX, MAIN ROAD, RON - 582 209. TQ. : RON,  DIST. : GADAG.                   PH.NO. 08381 267261",9480699184,RON,GADAG,KARNATAKA
KVGB0006309,Karnataka Vikas Grameena Bank,KVGB0006309,582483531,SAWADI,"SAVADI BRANCH PANCHAYAT BUILDING, MAIN ROAD, SAVADI - 582 219. TQ. : RON,  DIST. : GADAG",9480699185,SAWADI,GADAG,KARNATAKA
KVGB0006310,Karnataka Vikas Grameena Bank,KVGB0006310,582483538,SUDI,"SUDI BRANCH M. S. BIDARUR BUILDING,SUDI - 582 211. TQ. : RON,  DIST. : GADAG.",9480699188,SUDI,GADAG,KARNATAKA
KVGB0006311,Karnataka Vikas Grameena Bank,KVGB0006311,582483539,HOLE ALUR,"HOLE ALUR BRANCH KALAMANI. BUILDING, NEAR I.B HOLE ALUR- 582 118. TQ. : RON, DIST. : GADAG",9480699167,HOLE ALUR,GADAG,KARNATAKA
KVGB0006401,Karnataka Vikas Grameena Bank,KVGB0006401,582483534,HOLE-ITAGI,"HOLE-ITAGI BRANCH GANIGER BUILDING,HOLE ITAGI - 582 112. TQ. : SHIRAHATTI,  DIST. : GADAG.",9480699168,HOLE-ITAGI,GADAG,KARNATAKA
KVGB0006402,Karnataka Vikas Grameena Bank,KVGB0006402,582483535,LAKSHMESHWAR,"LAXMESHWAR BRANCH SHETH BUILDING,  NEAR BUS STAND,LAXMESHWAR - 582 116. TQ. : SHIRAHATTI,  DIST. : GADAG",9480699173,LAKSHMESHWAR,GADAG,KARNATAKA
KVGB0006403,Karnataka Vikas Grameena Bank,KVGB0006403,582483536,SHIRAHATTI,"  SHIRAHATTI BRANCH KUBASAD BUILDING,MARKET ROAD, SHIRAHATTI - 582 120. DT: GADAG",9480699186,SHIRAHATTI,GADAG,KARNATAKA
KVGB0006404,Karnataka Vikas Grameena Bank,KVGB0006404,582483537,SURANGGI,"SURANAGI BRANCH PANCHAYAT BUILDING,SURANAGI - 582 215. TQ. : SHIRAHATTI,  DIST. : GADAG.",9480699189,SURANGGI,GADAG,KARNATAKA
KVGB0006405,Karnataka Vikas Grameena Bank,KVGB0006405,582483540,YALAVATTI,"YALAWATTI BRANCH V.P.C. BUILDING,YALAWATTI - 582 114. TQ. : SHIRAHATTI,  DIST. : GADAG",9480699190,YALAVATTI,GADAG,KARNATAKA
KVGB0006406,Karnataka Vikas Grameena Bank,KVGB0006406,,BELLATTI,", BELLATTI, SHIRAHATTIMATH BUILDING , NEAR BUS STAND, TQ: SHIRAHATTI, DIST GADAG",9480699505,BELLATTI,GADAG,KARNATAKA
KVGB0006409,Karnataka Vikas Grameena Bank,KVGB0006409,581483542,SHIGLI,R.F.KUSANUR BUILDING SHIGLI  TQ. SHIRAHATTI DT: GADAG PIN – 582 210,9480699613,SHIGLI,GADAG,KARNATAKA
KVGB0007001,Karnataka Vikas Grameena Bank,KVGB0007001,581483565,BYADGI,"   BYADAGI BRANCH   T.M.C. BUILDING,  NEAR BUS STAND,  BYADAGI - 581 106.  TQ. : BYADAGI, DIST. : HAVERI.",9480699197,BYADGI,HAVERI,KARNATAKA
KVGB0007002,Karnataka Vikas Grameena Bank,KVGB0007002,581483566,CHIKKAUNSHI HOSUR,"  CHIKKABASUR BRANCH    SRI MALLIGER BUILDING, CHIKKABASUR - 581 120. TQ. : BYADAGI, DIST. : HAVERI.",9480699200,CHIKKAUNSHI HOSUR,HAVERI,KARNATAKA
KVGB0007003,Karnataka Vikas Grameena Bank,KVGB0007003,581483567,KADARMANDALGI,"   KADARMANDALAGI BRANCH   ANJANEYASWAMY TRUST BUILDING,  KADARAMANDALAGI - 581 146.  TQ. : BYDAGI,  DIST. : HAVERI.",9480699215,KADARMANDALGI,HAVERI,KARNATAKA
KVGB0007004,Karnataka Vikas Grameena Bank,KVGB0007004,581483540,KAGINELLI,"   KAGINELLI BRANCH   ANJUMAN-E-ISLAM BUILDING,  KAGINELLI - 581 153.  TQ. : BYADAGI,  DIST. : HAVERI         ",9480699216,KAGINELLI,HAVERI,KARNATAKA
KVGB0007005,Karnataka Vikas Grameena Bank,KVGB0007005,581483541,MOTEBENNUR,"    MOTEBENNUR BRANCH   PANCHAYAT BUILDING,  MOTEBENNUR . TQ. : BYADAGI,  DIST. : HAVERI.",9480699225,MOTEBENNUR,HAVERI,KARNATAKA
KVGB0007101,Karnataka Vikas Grameena Bank,KVGB0007101,581483564,ADUR,"  ADUR BRANCH    MAIN ROAD,  ADUR - 581 101.   TQ. : HANAGAL  DIST. : HAVERI",9480699191,ADUR,HAVERI,KARNATAKA
KVGB0007102,Karnataka Vikas Grameena Bank,KVGB0007102,581483543,AKKIALUR,"   AKKI-ALUR BRANCH   MARKET ROAD,  AKKI ALUR - 581 102.  TQ. : HANAGAL, DIST. : HAVERI.",9480699193,AKKIALUR,HAVERI,KARNATAKA
KVGB0007103,Karnataka Vikas Grameena Bank,KVGB0007103,581483557,CHIKKABASUR," CHIKKAUNSHI-HOSUR BRANCH   HARAVI BUILDING,   CHIKKAUNSHIHOSUR - 581 104.  TQ. : HANAGAL,  DIST. : HAVERI.",9480699199,CHIKKABASUR,HAVERI,KARNATAKA
KVGB0007104,Karnataka Vikas Grameena Bank,KVGB0007104,581483545,HANGAL," HANGAL BRANCH   PARANDE BUILDING,  NEAR UDASHI KALAYAN MANTAP,  BUS STAND ROAD,  HANAGAL - 581 104. TQ. : HANAGAL,  DIST. : HAVERI.        ",9480699206,HANGAL,HAVERI,KARNATAKA
KVGB0007105,Karnataka Vikas Grameena Bank,KVGB0007105,581483546,KUSNUR," KUSANUR BRANCH  KODANDI BUILDING, HALEPETH, KUSANUR - 581 120. TQ. : HANAGAL,  DIST. : HAVERI.",9480699223,KUSNUR,HAVERI,KARNATAKA
KVGB0007106,Karnataka Vikas Grameena Bank,KVGB0007106,581483554,NAREGAL,"  NAREGAL BRANCH   NEAR BUS STAND,  NAREGAL - 581 165. TQ. : HANAGAL,  DIST. : HAVERI.",9480699226,NAREGAL,HAVERI,KARNATAKA
KVGB0007107,Karnataka Vikas Grameena Bank,KVGB0007107,,SHESHAGIRI,"SHESHAGIRI BRANCH   PANCHAYAT BUILDING,  SHESHAGIRI - 581 138. TQ. : HANAGAL,  DIST. : HAVERI.",9480699232,SHESHAGIRI,HAVERI,KARNATAKA
KVGB0007108,Karnataka Vikas Grameena Bank,KVGB0007108,,TILAVALLI," TILAVALLI BRANCH   TQ. : HANAGAL,  DIST. : HAVERI.     ",9480699237,TILAVALLI,HAVERI,KARNATAKA
KVGB0007109,Karnataka Vikas Grameena Bank,KVGB0007109,581483521,BOMMANAHALLI,"GRAM PANCHAYAT BLDG MAIN ROAD, BOMMANAHALLI TQ. HANGAL DT: HAVERI PIN – 581 203",9480699585,BOMMANAHALLI,HAVERI,KARNATAKA
KVGB0007201,Karnataka Vikas Grameena Bank,KVGB0007201,581483526,AGADI,"  AGADI BRANCH  PRABHU SWAMYMATH BUILDING, AGADI - 581 128. TQ. : HAVERI, DIST. HAVERI.",9480699192,AGADI,HAVERI,KARNATAKA
KVGB0007202,Karnataka Vikas Grameena Bank,KVGB0007202,581483527,BELAVIGI," BELAVIGI BRANCH  V.P.C. NO. 67,  M. H. DADDI BUILDING, BELAVIGI - 581 108. TQ. : HAVERI, DIST. : HAVERI.",9480699196,BELAVIGI,HAVERI,KARNATAKA
KVGB0007203,Karnataka Vikas Grameena Bank,KVGB0007203,581483528,DEVGIRI,"  DEVAGIRI BRANCH   PANCHAYAT BUILDING,  DEVAGIRI - 581 132. TQ. : HAVERI, DIST. : HAVERI.",9480699201,DEVGIRI,HAVERI,KARNATAKA
KVGB0007204,Karnataka Vikas Grameena Bank,KVGB0007204,581483052,DEVI.HOSUR,"  DEVIHOSUR BRANCH   PANCHAYAT BUILDING, DEVIHOSUR - 581 152. TQ. : HAVERI, DIST. : HAVERI.",9480699202,DEVI.HOSUR,HAVERI,KARNATAKA
KVGB0007205,Karnataka Vikas Grameena Bank,KVGB0007205,581483529,HAVANUR,"  HAVANUR BRANCH  J. R. Y. BUILDING, HAVANUR - 581 133. TQ. : HAVERI,  DIST. : HAVERI.            ",9480699210,HAVANUR,HAVERI,KARNATAKA
KVGB0007206,Karnataka Vikas Grameena Bank,KVGB0007206,581483523,HAVERI,"  HAVERI MAIN BRANCH  G. G. MAGAVI CHAMBERS   NEAR BUS STAND, P. B. ROAD, HAVERI - 581 110.  TQ. : HAVERI,  DIST. : HAVERI",9480699005,HAVERI,HAVERI,KARNATAKA
KVGB0007207,Karnataka Vikas Grameena Bank,KVGB0007207,581483524,HOSARITTI,"  HOSARITTI BRANCH  KRISHNA COMPLEX, NEAR BUS STAND, HOSARITTI - 581 213. TQ. : HAVERI,  DIST. : HAVERI.",9480699214,HOSARITTI,HAVERI,KARNATAKA
KVGB0007209,Karnataka Vikas Grameena Bank,KVGB0007209,581483530,SANGUR,"  SANGUR BRANCH  P. G. BELAVIGI BUILDING, HAVERI - HANAGAL ROAD, SANGUR - 581 148. TQ. : HAVERI,  DIST. : HAVERI.",9480699230,SANGUR,HAVERI,KARNATAKA
KVGB0007210,Karnataka Vikas Grameena Bank,KVGB0007210,,VIDYANAGAR,"  HAVERI – VIDYANAGAR BRANCH  DC OFFICE ROAD, VIDYANAGAR, HAVERI –581 110",9480699239,HAVERI,HAVERI,KARNATAKA
KVGB0007211,Karnataka Vikas Grameena Bank,KVGB0007211,581483590,GUTTAL,"GUTTAL BRANCH   BHUSANUR MATH BUILDING, BAZAAR ROAD, GUTTAL -    TQ. : GUTTAL,  DIST. : HAVERI.          PH.NO. 08375 291656",9480699204,GUTTAL,HAVERI,KARNATAKA
KVGB0007212,Karnataka Vikas Grameena Bank,KVGB0007212,,DC EXTEN VIDYANAGAR HVR,DC OFFICE COMPLEX HAVERI DT HAVERI,0,HAVERI,HAVERI,KARNATAKA
KVGB0007301,Karnataka Vikas Grameena Bank,KVGB0007301,581483550,HAUNSBHAVI,"NK   HAUNSABHAVI BRANCH   SRI M. M. MALIMATH BUILDING   D. NO. 409, MAIN ROAD,  HAUNSABHAVI - 581 109.  TQ. : HIREKERUR,  DIST. : HAVERI.   ",9480699209,HAUNSBHAVI,HAVERI,KARNATAKA
KVGB0007302,Karnataka Vikas Grameena Bank,KVGB0007302,581483538,HIREKERUR,"   HIREKERUR BRANCH   SRI N. C. BANAKAR BUILDING,  OPP. K.S.R.T.C. BUS STAND,  HIREKERUR - 581 111.  TQ. : HIREKERUR,  DIST. : HAVERI",9480699212,HIREKERUR,HAVERI,KARNATAKA
KVGB0007304,Karnataka Vikas Grameena Bank,KVGB0007304,581483553,KUDAPALI,"  KUDUPALI BRANCH  RAMAGIRI BUILDING,  KUDUPALI -  581 115.  TQ. : HIREKERUR,  DIST. : HAVERI.",9480699221,KUDAPALI,HAVERI,KARNATAKA
KVGB0007305,Karnataka Vikas Grameena Bank,KVGB0007305,581483554,RATTIHALLI,"RATTIHALLI BRANCH   BAJIRAYA BUILDING,  MASUR ROAD,  RATTIHALLI - 581 116.  TQ. : HIREKERUR,  DIST. : HAVERI.          ",9480699229,RATTIHALLI,HAVERI,KARNATAKA
KVGB0007306,Karnataka Vikas Grameena Bank,KVGB0007306,581483589,TADAKANAHALLI,"   TADAKANAHALLI  PANCHAYAT BUILDING,  TADAKANAHALLI - 581 210.  TQ. : HIREKERUR,  DIST. : HAVERI.       ",9480699235,TADAKANAHALLI,HAVERI,KARNATAKA
KVGB0007307,Karnataka Vikas Grameena Bank,KVGB0007307,,TIPPAIKOPPA," TIPPAIKOPPA BRANCH       CHALAGERI BUILDING,  TIPPAIKOPPA - 581 210.  TQ. : HIREKERUR,  DIST. : HAVERI.   ",9480699238,YATTINAHALLI,HAVERI,KARNATAKA
KVGB0007309,Karnataka Vikas Grameena Bank,KVGB0007309,581483560,CHIKKERUR,GRAM PANCHAYATI BLDG A/P:  CHIKKERUR TQ.HIREKERUR     DT: HAVERI,9480699593,CHIKKERUR,HAVERI,KARNATAKA
KVGB0007401,Karnataka Vikas Grameena Bank,KVGB0007401,581483561,AREMALLAPUR,"   AREMALLAPUR BRANCH  GIDDAPPANAVAR BUILDING, AREMALLAPUR - 581 221.   TQ. : RANEBENNUR, DIST. : HAVERI.",9480699194,AREMALLAPUR,HAVERI,KARNATAKA
KVGB0007402,Karnataka Vikas Grameena Bank,KVGB0007402,581483562,CHALAGERI,"  CHALAGERI BRANCH KERUR BUILDING,  CHALAGERI - 581 145.  TQ. : RANEBENNUR, DIST. : HAVERI.",9480699198,CHALAGERI,HAVERI,KARNATAKA
KVGB0007403,Karnataka Vikas Grameena Bank,KVGB0007403,581483563,HALGERI,"  HALAGERI BRANCH  DR. V. V. GIRIGOUDAR BUILDING, NEAR BUS STAND,   HALAGERI - 581 208. TQ. : RANEBENNUR,  DIST. : HAVERI.",9480699205,HALGERI,HAVERI,KARNATAKA
KVGB0007404,Karnataka Vikas Grameena Bank,KVGB0007404,581483555,HARANAGIRI,"   HARANAGIRI BRANCH   GRAM PANCHAYAT BUILDING,  HARANAGIRI - 581 115  TQ. : RANEBENNUR,  DIST. : HAVERI",9480699207,HARANAGIRI,HAVERI,KARNATAKA
KVGB0007405,Karnataka Vikas Grameena Bank,KVGB0007405,581483551,HONNATTI,"  HONNATTI BRANCH   PANCHAYAT BUILDING,  HONNATTI - 581 141.  TQ. : RANEBENNUR,  DIST. : HAVERI",9480699213,HONNATTI,HAVERI,KARNATAKA
KVGB0007406,Karnataka Vikas Grameena Bank,KVGB0007406,581483556,KAKOL,"   KAKOL BRANCH   DYMANGOUDAR BUILDING,  KAKOL - 581 118.   TQ. : RANEBENNUR,  DIST. : HAVERI.",9480699217,KAKOL,HAVERI,KARNATAKA
KVGB0007407,Karnataka Vikas Grameena Bank,KVGB0007407,581483544,KUMARAPATNAM," KODIYAL-HOSPET BRANCH   J.D.H. COMPLEX,   KODIYAL-HOSPET - 581 123  (KUMARPATTANAM) TQ. : RANEBENNUR, DIST. : HAVERI.",9480699219,KUMARAPATNAM,HAVERI,KARNATAKA
KVGB0007408,Karnataka Vikas Grameena Bank,KVGB0007408,581483102,KUPPELUR," KUPPELUR BRANCH   PANCHAYAT BUILDING,  KUPPELUR - 581 144.  TQ. : RANEBENNUR,  DIST. :HAVERI ",9480699222,KUPPELUR,HAVERI,KARNATAKA
KVGB0007409,Karnataka Vikas Grameena Bank,KVGB0007409,581483547,MEDLERI,"NK   MEDLERI BRANCH    SRI V. S. KOTTUR BUILDING,  MAIN ROAD, MEDLERI - 581 211.  TQ. : RANEBENNUR,  DIST. : HAVERI.",9480699224,MEDLERI,HAVERI,KARNATAKA
KVGB0007410,Karnataka Vikas Grameena Bank,KVGB0007410,581483103,RANEBENNUR,"  RANEBENNUR BRANCH   “SHIVAPARVATI” HANAGODIMATH COMPLEX,  NEHRU MARKET,  RANEBENNUR - 581 115.  TQ. : RANEBENNUR,  DIST. :  HAVERI.",9480699228,RANEBENNUR,HAVERI,KARNATAKA
KVGB0007411,Karnataka Vikas Grameena Bank,KVGB0007411,,SUNKALBIDRI,"SUNAKALBIDRI BRANCH   BASAVESHWAR DEVASTHAN BUILDING,  SUNAKALBIDRI - 581 115. TQ. : RANEBENNUR,  DIST. : HAVERI.",9480699234,SUNKALBIDRI,HAVERI,KARNATAKA
KVGB0007412,Karnataka Vikas Grameena Bank,KVGB0007412,581483531,MEDLERI ROAD RANEBENNUR," KANAVI COMPLEX, NEAR DR R B PATIL, MEDLERI ROAD TQ. RANEBENNUR DT. HAVERI",9480699528,RANEBENNUR,HAVERI,KARNATAKA
KVGB0007501,Karnataka Vikas Grameena Bank,KVGB0007501,581483525,HATTIMATTUR,"  HATTIMATTUR BRANCH    GRAM PANCHAYAT BUILDING,   MAIN ROAD,   HATTIMATTUR - 581 109 TQ. : SAVANUR,  DIST. : HAVERI",9480699208,HATTIMATTUR,HAVERI,KARNATAKA
KVGB0007502,Karnataka Vikas Grameena Bank,KVGB0007502,581483534,SAVANUR,"   SAVANUR BRANCH   GUDISAGAR BUILDING, MARKET ROAD,  SAVANUR - 581 118.  TQ. : SAVANUR,  DIST. : HAVERI      ",9480699231,SAVANUR,HAVERI,KARNATAKA
KVGB0007503,Karnataka Vikas Grameena Bank,KVGB0007503,581483588,TAVARMELLIHALLI,"  TEVARMELLIHALLI BRANCH   PANCHAYAT BUILDING,  MAIN ROAD,  TEVAREMELLIHALLI - 581 214.  TQ. : SAVANUR,  DIST. : HAVERI.",9480699236,TAVARMELLIHALLI,HAVERI,KARNATAKA
KVGB0007504,Karnataka Vikas Grameena Bank,KVGB0007504,,YELAVIGI,"YALAVIGI BRANCH   J. R. Y. BUILDING,  STATION ROAD,  YALAVIGI - 581 118. TQ. : SAVANUR,  DIST. : HAVERI.",9480699240,YELAVIGI,HAVERI,KARNATAKA
KVGB0007601,Karnataka Vikas Grameena Bank,KVGB0007601,581483537,BANKAPUR,"BANKAPUR BRANCH   B. C. SHETTAR BUILDING,  MARKET ROAD, NEAR BUS STAND,  BANKAPUR - 581 202.  TQ. : SHIGGAON, DIST. : HAVERI",9480699195,BANKAPUR,HAVERI,KARNATAKA
KVGB0007602,Karnataka Vikas Grameena Bank,KVGB0007602,581483550,DHUNDSHI,"   DHUNDASHI BRANCH   GRAM PANCHAYAT BUILDING,  MAIN ROAD,   DHUNDASHI - - 581 193.  TQ. : SHIGGAON,  DIST. : HAVERI",9480699203,DHUNDSHI,HAVERI,KARNATAKA
KVGB0007603,Karnataka Vikas Grameena Bank,KVGB0007603,581483539,HIREBENDIGERI,"   HIREBENDIGERI BRANCH   KADEEM DEEVAN BUILDING,  HIREBENDIGERI - 581 203.  TQ. : SHIGGAON, DIST. : HAVERI",9480699211,HIREBENDIGERI,HAVERI,KARNATAKA
KVGB0007604,Karnataka Vikas Grameena Bank,KVGB0007604,581483533,KONANKERI," KONANKERI BRANCH  V.P.C. BUILDING,  NEAR BUS STAND,  KONANAKERI - 581 193. TQ. : SHIGGAON,  DIST. : HAVERI.   ",9480699220,KONANKERI,HAVERI,KARNATAKA
KVGB0007605,Karnataka Vikas Grameena Bank,KVGB0007605,,SHIGGAON," SHIGGAON BRANCH  PRABHU NURSING HOME BUILDING, NEAR OLD BUS STAND, SHIGGAON - 581 205. TQ. : SHIGGAON,  DIST. : HAVERI.       ",9480699233,SHIGGAON,HAVERI,KARNATAKA
KVGB0007607,Karnataka Vikas Grameena Bank,KVGB0007607,576483504,TADAS," GRAM PANCHAYAT BLDG,TADAS TQ.SHIGGAON DT:HAVERI",9480699524,TADAS,HAVERI,KARNATAKA
KVGB0008001,Karnataka Vikas Grameena Bank,KVGB0008001,575483506,BELMAN,", BELMAN BRANCH,KARKALA TQ,UDUPI DISTRICT.",9480699453,BELMAN,UDIPI,KARNATAKA
KVGB0008002,Karnataka Vikas Grameena Bank,KVGB0008002,575483008,HEBRI,", HEBRI BRANCH, KARKALA TQ, UDUPI DISTRICT.",9480699463,HEBRI,UDIPI,KARNATAKA
KVGB0008003,Karnataka Vikas Grameena Bank,KVGB0008003,575483507,HOSMARU (EEDU),", HOSMAR BRANCH, KARKALA TQ, UDUPI DISTRICT",9480699467,IDU,UDIPI,KARNATAKA
KVGB0008004,Karnataka Vikas Grameena Bank,KVGB0008004,576483501,KARKALA,", KARAKALA BRANCH, KARKALA TQ, UDUPI DISTRICT.",9480699473,KARKALA,UDIPI,KARNATAKA
KVGB0008101,Karnataka Vikas Grameena Bank,KVGB0008101,576483503,BYNDOOR,", BYNDOOR BRANCH, KUNDAPURA TQ, UDUPI DISTRICT.",9480699456,BYNDOOR,UDIPI,KARNATAKA
KVGB0008102,Karnataka Vikas Grameena Bank,KVGB0008102,576483202,HALLIHOLE,", HALLIHOLE BRANCH, KUNDAPURA TQ, UDUPI DISTRICT.",9480699461,HALLIHOLE,UDIPI,KARNATAKA
KVGB0008103,Karnataka Vikas Grameena Bank,KVGB0008103,576483508,HEMMADI,", HEMMADI BRANCH,KUNDAPURA TQ,UDUPI DISTRICT",9480699464,HEMMADI,UDIPI,KARNATAKA
KVGB0008104,Karnataka Vikas Grameena Bank,KVGB0008104,576483202,KUNDAPUR,", KUNDAPUR BRANCH, KUNDAPURA TQ, UDUPI DISTRICT.",9480699479,COONDAPUR,UDIPI,KARNATAKA
KVGB0008201,Karnataka Vikas Grameena Bank,KVGB0008201,576483506,BRAHMAVARA,", BRAHMAVAR BRANCH,UDUPI TQ,UDUPI DISTRICT.",9480699455,BRAHMAVARA,UDIPI,KARNATAKA
KVGB0008202,Karnataka Vikas Grameena Bank,KVGB0008202,576483507,UDUPI,", KINNIMULKI (UDUPI) BRANCH, UDUPI – 576 101 TQ&DIST: UDUPI",9480699008,UDUPI,UDIPI,KARNATAKA
KVGB0008203,Karnataka Vikas Grameena Bank,KVGB0008203,576483003,KOKKARNE,", KOKKARNE BRANCH, MAIN ROAD, KOKKARNE TQ & DT: UDUPI",9480699474,KOKKARNE,UDIPI,KARNATAKA
KVGB0008204,Karnataka Vikas Grameena Bank,KVGB0008204,581483568,PADUBIDRI,"  PADUBIDRI BRANCH ACHARYA COMPLEX ,KARKAL CROSS , TQ. & DIST: UDUPI.",9480699483,NADSAL,UDIPI,KARNATAKA
KVGB0008205,Karnataka Vikas Grameena Bank,KVGB0008205,581483302,INDRALLI," INDRALLI ENGLISH MEDIUM SCHOOL COMPOUND, MGM COLLEGE OVER BRIDGE BUILDING, INDRALLI TQ: UDUPI, DIST: UDUPI",9480699511,UDUPI,UDIPI,KARNATAKA
KVGB0009001,Karnataka Vikas Grameena Bank,KVGB0009001,581483569,AGSUR,"AGSUR BRANCH,MAIN ROAD,PO: AGSUR – 581413,TA: ANKOLA,DIST UTTARA KANNADA.",9480699446,AGSUR,UTTAR KANNAD,KARNATAKA
KVGB0009002,Karnataka Vikas Grameena Bank,KVGB0009002,581483352,ANKOLA,"ANKOLA BRANCH,PRABHU COMPLEX,KSRTC BUS STAND,TA: ANKOLA, 581 314,DIST UTTARA KANNADA",9480699448,ANKOLA,UTTAR KANNAD,KARNATAKA
KVGB0009003,Karnataka Vikas Grameena Bank,KVGB0009003,581483573,HILLUR,HILLUR BRANCH PO: HILLUR- 581344 TA: ANKOLA DIST UTTARA KANNADA.,9480699465,HILLUR,UTTAR KANNAD,KARNATAKA
KVGB0009051,Karnataka Vikas Grameena Bank,KVGB0009051,581483574,BHATKAL," BHATKAL BRANCH,MUSHBA COMPLEX,OPP KSRTC COMPLEX,TA: BHATKAL, 581 320,DIST UTTARA KANNADA",9480699454,BHATKAL,UTTAR KANNAD,KARNATAKA
KVGB0009052,Karnataka Vikas Grameena Bank,KVGB0009052,581483502,KONAR," KONAR BRANCH PO: KONAR: 581320 TA: BHATKAL, DIST UTTARA KANNADA.",9480699476,KONAR,UTTAR KANNAD,KARNATAKA
KVGB0009053,Karnataka Vikas Grameena Bank,KVGB0009053,581483577,MURDESHWAR," MURDESHWAR BRANCH MURDESHWAR- 581350,PANHAYAT BUILDING TA: BHATKAL, DIST UTTARA KANNADA.",9480699482,MURDESHWAR,UTTAR KANNAD,KARNATAKA
KVGB0009101,Karnataka Vikas Grameena Bank,KVGB0009101,581483552,DANDELI," DANDELI BRANCH AR SULAD BUILDING, JN ROAD, KSRTC BUS STAND,TA: HALIYAL 581 314,DIST UTTARA KANNADA,",9480699457,DANDELI,UTTAR KANNAD,KARNATAKA
KVGB0009151,Karnataka Vikas Grameena Bank,KVGB0009151,581483578,BELWATGI," BELAWATAGI BRANCH PO: BELWATGI- 581329,TA: HALIYAL, DIST UTTARA KANNADA.",9480699451,BELWATGI,UTTAR KANNAD,KARNATAKA
KVGB0009152,Karnataka Vikas Grameena Bank,KVGB0009152,581483602,HALIYAL," HALIYAL BRANCH.FERNADES BUILDING,NEAR POST OFFICE,KSRTC BUS STAND,TA: HALYAL, 581 329,DIST UTTARA KANNADA",9480699460,HALIYAL,UTTAR KANNAD,KARNATAKA
KVGB0009201,Karnataka Vikas Grameena Bank,KVGB0009201,581483579,ALLANKI," ALLANKI BRANCH,PO: HERANGADI,TA: HONNAVAR ,DIST UTTARA KANNADA.",9480699447,ALLANKI,UTTAR KANNAD,KARNATAKA
KVGB0009202,Karnataka Vikas Grameena Bank,KVGB0009202,581483580,HONAVAR," HONNAVAR BRANCH MAHALE COMPLEX, NH 17.PO: HARSIKATTA- 581334 TA: HONNAVAR DIST UTTARA KANNADA",9480699466,HONAVAR,UTTAR KANNAD,KARNATAKA
KVGB0009203,Karnataka Vikas Grameena Bank,KVGB0009203,581483575,MELIN-IDGUNJI,IDAGUNJI BRANCH IDAGUNJI- 581423 TA: HONNAVAR DIST UTTARA KANNADA.,9480699469,MELIN-IDGUNJI,UTTAR KANNAD,KARNATAKA
KVGB0009204,Karnataka Vikas Grameena Bank,KVGB0009204,581483576,KOLAGADDE," KOLAGADDE BRANCH,PO: KHARVA ,TA: HONNAVAR, 581 424,DIST UTTARA KANNADA,",9480699475,KHARWA,UTTAR KANNAD,KARNATAKA
KVGB0009252,Karnataka Vikas Grameena Bank,KVGB0009252,,ULVI KSHETRA,"ULUVI BRANCH,TEMPLE BUILDING,PO: ULVI , TA: JOIDA,DIST UTTARA KANNADA.",9480699491,ULVI KSHETRA,UTTAR KANNAD,KARNATAKA
KVGB0009301,Karnataka Vikas Grameena Bank,KVGB0009301,581483570,KARWAR," KARWAR BRANCH,RADHAKRISHNA COMPLEX,TA: KARWAR, 581 301 DIST UTTARA KANNADA",9480699006,KARWAR,UTTAR KANNAD,KARNATAKA
KVGB0009351,Karnataka Vikas Grameena Bank,KVGB0009351,581483652,GOKARN," GOKARNA BRANCH, SREELAXMI, NEAR BUS STAND, TA: KUMATA 581 326, DIST: UTTARA KANNADA",9480699458,GOKARN,UTTAR KANNAD,KARNATAKA
KVGB0009352,Karnataka Vikas Grameena Bank,KVGB0009352,581483572,KAGAL," KAGAL BRANCH,PAI BUILDING, PO: KAGAL TA: KUMTA  581443 DIST: UTTARA KANNADA.",9480699470,KAGAL,UTTAR KANNAD,KARNATAKA
KVGB0009353,Karnataka Vikas Grameena Bank,KVGB0009353,,KUMTA,", KUMTA BRANCH,NELLIKERI, KUMTA-581343 MAHAVEER MANSION, DIST UTTARA KANNADA.",9480699478,KUMTA,UTTAR KANNAD,KARNATAKA
KVGB0009354,Karnataka Vikas Grameena Bank,KVGB0009354,580483538,SANTEGULI," SANTEGULI BRANCH PO: SANTEGULI- 581332 TA: KUMTA, DIST UTTARA KANNADA",9480699485,SANTEGULI,UTTAR KANNAD,KARNATAKA
KVGB0009355,Karnataka Vikas Grameena Bank,KVGB0009355,580483539,KUMTA EC,"THE OFFICER IN-CHARGE , APMC YARD KUMTA.",0,KUMTA,UTTAR KANNAD,KARNATAKA
KVGB0009401,Karnataka Vikas Grameena Bank,KVGB0009401,,HUNGUNDA," HUNGUND BRANCH PO: HUNAGUND- 581349, TA: MUNDAGOD,DIST UTTARA KANNADA.",9480699468,HUNGUNDA,UTTAR KANNAD,KARNATAKA
KVGB0009402,Karnataka Vikas Grameena Bank,KVGB0009402,581483581,MUNDGOD,"MUNDAGOD BRANCH,MAIN ROAD,TA: MUNDUGOD, 581 349, DIST UTTARA KANNADA,",9480699481,MUNDGOD,UTTAR KANNAD,KARNATAKA
KVGB0009451,Karnataka Vikas Grameena Bank,KVGB0009451,581483583,HARSHIKATTA,HARSIKATTA BRANCH PO: HARSIKATTA- 581355 TA: SIDDAPUR DIST UTTARA KANNADA,9480699462,HARSHIKATTA,UTTAR KANNAD,KARNATAKA
KVGB0009452,Karnataka Vikas Grameena Bank,KVGB0009452,,SIDDAPUR," SIDDAPUR BRANCH,MARAIA  COMPLEX,PO: SIDDAPUR 581 355 DIST UTTARA KANNADA",9480699486,SIDDAPUR,UTTAR KANNAD,KARNATAKA
KVGB0009453,Karnataka Vikas Grameena Bank,KVGB0009453,581483584,VANDANE,VANDANE BRANCH PO: GUBBAGOD- 581355 TA: SIDDAPUR DIST UTTARA KANNADA,9480699496,VANDANE,UTTAR KANNAD,KARNATAKA
KVGB0009454,Karnataka Vikas Grameena Bank,KVGB0009454,581483402,VANDANE(LAMBAPUR) EC,"INCHARGE , TEMPLE BUILDING, LAMBAPUR PO: VAJGOD",9480699496,VANDANE,UTTAR KANNAD,KARNATAKA
KVGB0009501,Karnataka Vikas Grameena Bank,KVGB0009501,581483585,KORLAKATTA,KORLAKATTA BRANCH PO: KORALKATTA- 581318 TA: SIRSI DIST UTTARA KANNADA.,9480699477,KORLAKATTA,UTTAR KANNAD,KARNATAKA
KVGB0009502,Karnataka Vikas Grameena Bank,KVGB0009502,581483586,SIRSI," SIRSI BRANCH SHAKTI CHAMBERS DEVIKERE ROAD, SIRSI – 581401,DIST UTTARA KANNADA.",9480699487,SIRSI,UTTAR KANNAD,KARNATAKA
KVGB0009503,Karnataka Vikas Grameena Bank,KVGB0009503,580483540,VANALLI," VANALLI BRANCH PO: VANALLI – 581336, TA: SIRSI,DIST UTTARA KANNADA.",9480699495,VANALLI,UTTAR KANNAD,KARNATAKA
KVGB0009551,Karnataka Vikas Grameena Bank,KVGB0009551,580483541,UMACHAGI," UMACHAGI BRANCH PO: UMACHAGI- 581 347 TA: YALLAPUR DIST UTTARA KANNADA,",9480699492,KUNDARGI,UTTAR KANNAD,KARNATAKA
KVGB0009552,Karnataka Vikas Grameena Bank,KVGB0009552,,VAJRALLI," VAJRALLI BRANCH PO: VAJRALLI – 581337, TA: YELLAPUR, DIST UTTARA KANNADA.",9480699494,VAJRALLI,UTTAR KANNAD,KARNATAKA
KVGB0009553,Karnataka Vikas Grameena Bank,KVGB0009553,,YELLAPUR," YELLAPUR BRANCH YELLAPUR- 581359 HUBLI-KARWAR ROAD, DIST UTTARA KANNADA",9480699499,YELLAPUR,UTTAR KANNAD,KARNATAKA