ID,BANK,IFSC_CODE,MICR_CODE,BRANCH_NAME,ADDRESS,CONTACT,CITY,DISTRICT,STATE
JAKA0ACHBAL,The Jammu and Kashmir Bank,JAKA0ACHBAL,NON MICR,"ACHABAL, SOPORE","ACHABAL, DOABGAH,SOPORE-JAMMU AND KASHMIR",01954-215448,BARAMULLA,BARAMULLA,JAMMU & KASHMIR
JAKA0ACHNAG,The Jammu and Kashmir Bank,JAKA0ACHNAG,NON-MICR,"ACHABAL, ANANTNAG","ACHABAL, ANANTNAG",951932241226,ANANTNAG,ANANTNAG,JAMMU & KASHMIR
JAKA0AHAMAD,The Jammu and Kashmir Bank,JAKA0AHAMAD,380051002,AHAMADABAD,"PARISEEMA COMPLEX, . G. ROAD, AHMEDABAD-380006.",079-26426058,AHMADABAD,AHMEDABAD,GUJARAT
JAKA0AIRCAR,The Jammu and Kashmir Bank,JAKA0AIRCAR,190051003,AIR CARGO,OPP. NEWERA SCHOOL . RAJBAGH.  .SRINAGAR,0194-2455181,SRINAGAR,SRINAGAR,JAMMU & KASHMIR
JAKA0AJJASS,The Jammu and Kashmir Bank,JAKA0AJJASS,NON MICR,AJAS,"AJAS, BARAMULLA,J&K",01933-278288,AJAS,BARAMULLA,JAMMU & KASHMIR
JAKA0AJJOTE,The Jammu and Kashmir Bank,JAKA0AJJOTE,NON MICR,AJOTE,"AJOTE, DISTRICT-POONCH, PIN CODE-185101",9622178426,POONCH,POONCH,JAMMU & KASHMIR
JAKA0AKHNOR,The Jammu and Kashmir Bank,JAKA0AKHNOR,NON MICR,"""AKHNOOR , MAIN BAZAR""","THE JAMMU AND KASHMIR BANK LTD,MAIN BAZAR AKHNOOR;JAMMU.",01924-252237,JAMMU,JAMMU,JAMMU & KASHMIR
JAKA0AKNGAM,The Jammu and Kashmir Bank,JAKA0AKNGAM,NON MICR,AKINGAM,"AKINGAM,.ANANTNAG, J&K",01932-241331,AKINGAM,ANANTNAG,JAMMU & KASHMIR
JAKA0ALABAD,The Jammu and Kashmir Bank,JAKA0ALABAD,211051002,ALLAHABAD,"ALLAHABAD24, SHIVCHARAN LAL ROAD, ALLAHABAD-211003",0532-2400707,ALLAHABAD,ALLAHABAD,UTTAR PRADESH
JAKA0ALIGAR,The Jammu and Kashmir Bank,JAKA0ALIGAR,NON-MICR,ALIGAR,"ALIGARHROOP NARAYAN MARKET, OPP UP ROADWAYS BUS STAND, ALIGARH (UP)-202001",0571-2405632,ALIGARH,ALIGARH,UTTAR PRADESH
JAKA0ALMGRI,The Jammu and Kashmir Bank,JAKA0ALMGRI,190051004,ALAMGARI BAZAR SRINAGAR,"THE JAMMU AND KASHMIR BANK LTD,ALAMGARI BZAR;SRINAGAR;KASHMIR",0194-2424451,SRINAGAR,SRINAGAR,JAMMU & KASHMIR
JAKA0ALNOOR,The Jammu and Kashmir Bank,JAKA0ALNOOR,NON MICR,CHARISHARIEF,"CHARAISHARIEF, BADGAM KASHMIR",01951-243226,BADGAM,BADGAM,JAMMU & KASHMIR
JAKA0ALOOSA,The Jammu and Kashmir Bank,JAKA0ALOOSA,NON MICR,ALOOSA,"ALOOSA, BARAMULLA,J&K",01997-205448,ALOOSA,BARAMULLA,JAMMU & KASHMIR
JAKA0AMBALA,The Jammu and Kashmir Bank,JAKA0AMBALA,NON-MICR,AMBALA,"5683/1, NICHOLSAN ROAD, AMBALA CANTT. (PUNJAB)",0171-2630009,AMBALA,AMBALA,HARYANA
JAKA0AMGROT,The Jammu and Kashmir Bank,JAKA0AMGROT,NON MICR,AMB GROTA,"OPPOSITE POLICE STATION, VPO AMB GROTA, DISTRICT JAMMU-PIN CODE 181122",9469140950,AMBH,JAMMU,JAMMU & KASHMIR
JAKA0AMINLK,The Jammu and Kashmir Bank,JAKA0AMINLK,226051002,AMINABAD,"AMINABAD6, GOONGE NAWAB PARK,  NEW MUMTAZ MARKET, AMINABAD, LUCKNOW-226018",0522-2264320,LUCKNOW,LUCKNOW,UTTAR PRADESH
JAKA0AMPHLA,The Jammu and Kashmir Bank,JAKA0AMPHLA,180051040,AMPHALA,49 MAIN CHOWK AMPHALLA JAMMU,0191-2564071,JAMMU,JAMMU,JAMMU & KASHMIR
JAKA0ANCHAR,The Jammu and Kashmir Bank,JAKA0ANCHAR,190051005,ANCHAR SRINAGAR - 0173,"THE JAMMU AND KASHMIR BANK LTD,ANCHAR ;SRINAGAR",0194-2401632,SRINAGAR,SRINAGAR,JAMMU & KASHMIR
JAKA0ANDERI,The Jammu and Kashmir Bank,JAKA0ANDERI,400051004,ANDHERI (EAST),"MAHAKALI CAVES ROAD, ANDHERI (EAST) MUMBAI - 93",02228214472/02228394589,MUMBAI,GREATER BOMBAY,MAHARASHTRA
JAKA0ANSALL,The Jammu and Kashmir Bank,JAKA0ANSALL,110051016,ANSAL PLAZA,"ANSAL PLAZAB-205, ANSAL PLAZA,KHELGAON, HUDCO PLACE,NEW DELHI-110049",011-26262693,DELHI,NEW DELHI,DELHI
JAKA0AORIAN,The Jammu and Kashmir Bank,JAKA0AORIAN,NON MICR,CHAN ARORIAN,"CHAN ARORIAN, NATI,DISTT. KATHU",01922-255125,CHHAN-ARORIAN,KATHUA,JAMMU & KASHMIR
JAKA0APEXBR,The Jammu and Kashmir Bank,JAKA0APEXBR,190051019,APEX BRANCH,APEX . J&K BANK CHQ   MA ROAD    SRINAGAR,01942472589/01942481930,SRINAGAR,SRINAGAR,JAMMU & KASHMIR
JAKA0APPLET,The Jammu and Kashmir Bank,JAKA0APPLET,NON MICR,FRUIT MANDI SOPORE,"FRUIT MANDI APPLE,TOWN SOPORE-JAMMU AND KASHMIR",01954-223511,BARAMULLA,BARAMULLA,JAMMU & KASHMIR
JAKA0ARAHAN,The Jammu and Kashmir Bank,JAKA0ARAHAN,NON MICR,ARRAH,"ARRAH, KULGAM",01931-213382,AREAH,ANANTNAG,JAMMU & KASHMIR
JAKA0ARIHAL,The Jammu and Kashmir Bank,JAKA0ARIHAL,NON MICR,ARIHAL,"MAIN CHOWK ARIHAL,PULWAMA J&K.",09858986527,PULWAMA,PULWAMA,JAMMU & KASHMIR
JAKA0ARIZAL,The Jammu and Kashmir Bank,JAKA0ARIZAL,NON MICR,ARIZAL,"ARIZAL KHAN SAHIB,BADGAM, J&K",09419428864,KHAN-SAHEB,BADGAM,JAMMU & KASHMIR
JAKA0ARMPOR,The Jammu and Kashmir Bank,JAKA0ARMPOR,NON MICR,ARAMPORA,"ARAMPORA, DISTRICT-KUPWARA, PIN CODE-193221",9419005974,DRAGMULLA,KUPWARA,JAMMU & KASHMIR
JAKA0ARNASS,The Jammu and Kashmir Bank,JAKA0ARNASS,NON MICR,ARNAS,"ARNAS,REASI,UDHAMPUR ,J&K",01991-220028,ARNAS,UDHAMPUR,JAMMU & KASHMIR
JAKA0ASHAJI,The Jammu and Kashmir Bank,JAKA0ASHAJI,NON- MICR,"ASHAJIPORA,ANANTNAG, KASHMIR","ASHAJIPORA,ANANTNAG,KASHMIR J&K-JAMMU AND KASHMIR",01932-222572,ANANTNAG,ANANTNAG,JAMMU & KASHMIR
JAKA0ASHMUJ,The Jammu and Kashmir Bank,JAKA0ASHMUJ,NON MICR,ASHMUJI,"ASHMUJI, DISTRICT KULGAM, J&K PIN 192231",08803061378,KULGAM,KULGAM,JAMMU & KASHMIR
JAKA0ASSARR,The Jammu and Kashmir Bank,JAKA0ASSARR,NON MICR,ASSAR,ASSAR DODA J&K,09419155255,ASSAR,DODA,JAMMU & KASHMIR
JAKA0AURANG,The Jammu and Kashmir Bank,JAKA0AURANG,431051003,AURANGABAD,"KUSHAL NAGAR, JALNA ROAD, AURANGABAD, MUMBAI-431005.",0240-2340760,AURANGABAD,AURANGABAD,MAHARASHTRA
JAKA0AWANTI,The Jammu and Kashmir Bank,JAKA0AWANTI,NON MICR,AWANTIPORA,"AWANTIPORA PULWAMA, KASHMIR",01933-247239,AWANTIPURA,PULWAMA,JAMMU & KASHMIR
JAKA0AWOORA,The Jammu and Kashmir Bank,JAKA0AWOORA,NON MICR,AWOORA,"AWOORA, KUPWARA",01955-213151,AOWOORA,KUPWARA,JAMMU & KASHMIR
JAKA0AZDPUR,The Jammu and Kashmir Bank,JAKA0AZDPUR,110051002,AZADPUR,"AZADPUR SUBZI MANDI,DELHI--110033",011-27408877,DELHI,NEW DELHI,DELHI
JAKA0AZGUNJ,The Jammu and Kashmir Bank,JAKA0AZGUNJ,NON MICR,AZADGUNJ,AZAD GUNJ BARAMULLA KASHMIR,01952-237596,AZADGUNJ,BARAMULLA,JAMMU & KASHMIR
JAKA0BACHAN,The Jammu and Kashmir Bank,JAKA0BACHAN,NON MICR,SKUR BUCHAN,"SKURBACHAN,LEH,LADAKH,J&K",,SKUR BUCHAN,LEH,JAMMU & KASHMIR
JAKA0BADAMI,The Jammu and Kashmir Bank,JAKA0BADAMI,190051008,BB CANTT.,B. B. CANTT. SONWAR.SRINAGAR,0194-2465212,SRINAGAR,SRINAGAR,JAMMU & KASHMIR
JAKA0BADOHI,The Jammu and Kashmir Bank,JAKA0BADOHI,NON-MICR,BADOHI,"BHADOHIMAIN ROAD, MARIYAD PATTI, BHADOHI (UP) 221401",5414-225973,SANT RAVIDAS NAGAR,BHADOI,UTTAR PRADESH
JAKA0BAGAAT,The Jammu and Kashmir Bank,JAKA0BAGAAT,190051011,BARZULLA BAGAAT,"THE JAMMU AND KASHMIR BANK LTD,BAGHAT BERZULLA;SRINAGAR-190016",0194-2432777,SRINAGAR,SRINAGAR,JAMMU & KASHMIR
JAKA0BAGGAA,The Jammu and Kashmir Bank,JAKA0BAGGAA,NON MICR,BAGGA,"BAGGA,REASI JAMMU,J&K",09469175164,MAHORE,UDHAMPUR,JAMMU & KASHMIR
JAKA0BAGWAT,The Jammu and Kashmir Bank,JAKA0BAGWAT,NON MICR,E/C BAGWATI NAGAR,"SHRI AMAR NATH YATRI NIWAS, BHAGWATI NAGAR, JAMMU",9419283817,JAMMU,JAMMU,JAMMU & KASHMIR
JAKA0BAHROT,The Jammu and Kashmir Bank,JAKA0BAHROT,NON MICR,BAHROTE,"BAHROTE,THANAMANDI,RAJOURI.JAMMU, J&K",09419151337,THANA MANDI,RAJOURI,JAMMU & KASHMIR
JAKA0BAKSHI,The Jammu and Kashmir Bank,JAKA0BAKSHI,180051004,BAKSHI NAGAR,BAKSHI NAGAR  JAMMU180001,0191-2583180,JAMMU,JAMMU,JAMMU & KASHMIR
JAKA0BALESA,The Jammu and Kashmir Bank,JAKA0BALESA,NON MICR,GANDOH," GANDOH BHALESA,DODA,J&K",01997-225105,GANDOH BHALESA,DODA,JAMMU & KASHMIR
JAKA0BAMBLA,The Jammu and Kashmir Bank,JAKA0BAMBLA,NON MICR,BHAMBLA,BHAMBLA DISTRICT-REASI PIN CODE-185154,9419105691,REASI,REASI,JAMMU & KASHMIR
JAKA0BANDRA,The Jammu and Kashmir Bank,JAKA0BANDRA,400051010,BANDRA (WEST),"182 ASHA BUILIDING, WATERFIELD ROAD, NEAR THAI CONNECTION, BANDRA (WEST) - MUMBAI - 50",02226408630/02226408634,MUMBAI,GREATER BOMBAY,MAHARASHTRA
JAKA0BANNIE,The Jammu and Kashmir Bank,JAKA0BANNIE,NON MICR,BANNI,"BANNI, KATHUA, J&K",01921-268162,BANNI,KATHUA,JAMMU & KASHMIR
JAKA0BANTAL,The Jammu and Kashmir Bank,JAKA0BANTAL,180051037,BANTALAB,BARNAI ROAD BANTALAB JAMMU 181123,0191-2596085,JAMMU,JAMMU,JAMMU & KASHMIR
JAKA0BARODA,The Jammu and Kashmir Bank,JAKA0BARODA,390051002,BARODA,"ARIHAND SUPER MARKET, LAL BAUG, BARODA.",265-2636142,VADODARA,VADODARA,GUJARAT
JAKA0BASANT,The Jammu and Kashmir Bank,JAKA0BASANT,NON MICR,DUDU,"DUDU BASANT GARH,UDHAMPUR,J&K",09419142806,DADU BASANT GARH,UDHAMPUR,JAMMU & KASHMIR
JAKA0BASOLI,The Jammu and Kashmir Bank,JAKA0BASOLI,NON MICR,BASOHLI,"BASOHLI, KATHUA, J&K",01921-251227,BASHOHLI,KATHUA,JAMMU & KASHMIR
JAKA0BASTEE,The Jammu and Kashmir Bank,JAKA0BASTEE,180051017,NAI BASTI,NAI BASTI JAMMU180003,0191-2459995,JAMMU,JAMMU,JAMMU & KASHMIR
JAKA0BATALA,The Jammu and Kashmir Bank,JAKA0BATALA,NON-MICR,BATALA,"CIRCULAR ROAD, BATALA (PUNJAB)",01871-244322,GURDASPUR,GURDASPUR,PUNJAB
JAKA0BATMOL,The Jammu and Kashmir Bank,JAKA0BATMOL,190051013,"""BAZAAR BATMALLO,SRINAGAR""","THE JAMMU AND KASHMIR BANK LTD, MAINBAZAAR BATAMALOO;SRINAGAR",9419715488,SRINAGAR,SRINAGAR,JAMMU & KASHMIR
JAKA0BATOTE,The Jammu and Kashmir Bank,JAKA0BATOTE,NON MICR,BATOTE,"BATOTE RAMBAN, JAMMU",01998-244259,BATOTE,RAMBAN,JAMMU & KASHMIR
JAKA0BAZZAR,The Jammu and Kashmir Bank,JAKA0BAZZAR,700051003,MALIK BAZAR,"KOLKATA M.B.6, ACRE ROAD, MALIK BAZAR, KOLKATA--700017",033-22874729,KOLKATA,KOLKATA,WEST BENGAL
JAKA0BBHARA,The Jammu and Kashmir Bank,JAKA0BBHARA,NON MICR,"BIJBEHARA, ANANTNAG            ","BIJBEHARA ANANTNAG, KASHMIR",01932-234240,ANANTNAG,ANANTNAG,JAMMU & KASHMIR
JAKA0BBNGAM,The Jammu and Kashmir Bank,JAKA0BBNGAM,NON-MICR,BULBUL NOWGAM,"BULBUL NOWGAM ANANTNAG,SOLID: 0379-JAMMU AND KASHMIR",01932-227636,ANANTNAG,ANANTNAG,JAMMU & KASHMIR
JAKA0BEERWA,The Jammu and Kashmir Bank,JAKA0BEERWA,NON-MICR,"BEERWA, BUDGAM","BEERWA BUDGAM,-JAMMU AND KASHMIR",01951275360,BUDGAM,BUDGAM,JAMMU & KASHMIR
JAKA0BEMINA,The Jammu and Kashmir Bank,JAKA0BEMINA,190051014,"BEMINA, SRINAGR","THE JAMMU AND KASHMIR BANK LTD;BEMINA, SRINAGAR.",2491133/2491125,SRINAGAR,SRINAGAR,JAMMU & KASHMIR
JAKA0BHADAR,The Jammu and Kashmir Bank,JAKA0BHADAR,NON MICR,BHADERWAH MAIN,"BHADERWAH MAIN, DODA, J&K",01997-244247,BHADERWAH,DODA,JAMMU & KASHMIR
JAKA0BHADOO,The Jammu and Kashmir Bank,JAKA0BHADOO,NON-MICR,"BHADOO, KATHUA JAMMU","BHADOO, KATHUA JAMMU",951921266029,KATHUA,KATHUA,JAMMU & KASHMIR
JAKA0BHAGWA,The Jammu and Kashmir Bank,JAKA0BHAGWA,NON MICR,BHAGWA,"BHAGWA, DODA, J&K",9469260930,BHAGWA,DODA,JAMMU & KASHMIR
JAKA0BHALLA,The Jammu and Kashmir Bank,JAKA0BHALLA,NON MICR,BHALLA,"BHALLA, DODA, JAMMU, J&K",01997-239311,BHALA,DODA,JAMMU & KASHMIR
JAKA0BHALRA,The Jammu and Kashmir Bank,JAKA0BHALRA,NON MICR,BHALRA,"BHALRA,BHADERWAH,DODA,J&K",094191-55255,BHADERWAH,DODA,JAMMU & KASHMIR
JAKA0BHATIN,The Jammu and Kashmir Bank,JAKA0BHATIN,NON-MICR,BHATINDA,"SSD SABHA COMPLEX, THE MALL, BHATINDA (PUNJAB)",0164-2238986,BATHINDA,BHATINDA,PUNJAB
JAKA0BHAWNI,The Jammu and Kashmir Bank,JAKA0BHAWNI,500051003,PATHERGHATI,"PATHARGATI,HYDERABAD- 500002",40-24615539,HYDERABAD,HYDERABAD URBAN,ANDHRA PRADESH
JAKA0BHOGAL,The Jammu and Kashmir Bank,JAKA0BHOGAL,110051023,BHOGAL NEW DELHI,"THE JAMMU AND KASHMIR BANK LTD,BHOGAL;NEWE DELHI;INDIA",011-43659600,JAMMU,JAMMU,JAMMU & KASHMIR
JAKA0BHOPAL,The Jammu and Kashmir Bank,JAKA0BHOPAL,462051002,BHOPAL,"BIG 1, MLA QTR., T. T. NAGAR, JAWAHAR CHOWK, BHOPAL.",755-2779467,BHOPAL,BHOPAL,MADHYA PRADESH
JAKA0BILWAR,The Jammu and Kashmir Bank,JAKA0BILWAR,NON- MICR,MAIN BAZAR BILLAWAR,"MAIN BAZAR BILLAWAR,KATHUA-JAMMU AND KASHMIR",951921-222027,KATHUA,KATHUA,JAMMU & KASHMIR
JAKA0BIRPUR,The Jammu and Kashmir Bank,JAKA0BIRPUR,NON MICR,"BIRPUR ,NARSINGH DEV JI MANDIR","NARSINGH DEV MANDIR,,BIRPUR,SAMBA,JAMMU-JAMMU AND KASHMIR",01923-249168,SAMBA,SAMBA,JAMMU & KASHMIR
JAKA0BISHNA,The Jammu and Kashmir Bank,JAKA0BISHNA,180051029,"BISHNA MAIN BAZAR, JAMMU",BISHNA MAIN BAZZAR,01923236048,JAMMU,JAMMU,JAMMU & KASHMIR
JAKA0BJHOSP,The Jammu and Kashmir Bank,JAKA0BJHOSP,190051006,"""BONE & JOINT HOSPITAL,BARZULLA""","THE JAMMU AND KASHMIR BANK LTD,BINE & JOINT HOSPITAL,BARZULLA;SRINAGAR,KMR",0194-2434761,SRINAGAR,SRINAGAR,JAMMU & KASHMIR
JAKA0BKPORA,The Jammu and Kashmir Bank,JAKA0BKPORA,NON MICR,BAGATI KANIPORA," BAGATI-KANIPORA, BUDGAM, J&K",09797956274,BAGATI KANIPORA,BADGAM,JAMMU & KASHMIR
JAKA0BLOOMY,The Jammu and Kashmir Bank,JAKA0BLOOMY,NON MICR,SALLAR,"SALLAR ANANTNAG,J&K",01936-211793,SALAR,ANANTNAG,JAMMU & KASHMIR
JAKA0BNGLOR,The Jammu and Kashmir Bank,JAKA0BNGLOR,560051002,"MAIN, BANGALORE","F-6-7, INFANTRY ROAD, GEM PLAZA, BANGALORE-560001",80-25583747,BANGALORE URBAN,BANGALORE URBAN,KARNATAKA
JAKA0BOMBAY,The Jammu and Kashmir Bank,JAKA0BOMBAY,400051004,FORT MUMBAI,"THE JAMMU AND KASHMIR BANK LTD, 79A, MEHTA HOUSE, MUMBAI SAMACHAR MARG, FORT, MUMBAI - 400023",022-22610056,MUMBAI,GREATER BOMBAY,MAHARASHTRA
JAKA0BONYAR,The Jammu and Kashmir Bank,JAKA0BONYAR,NON MICR,BONIYAR,"BONIYAR,BARAMULLA,J&K",01956-252333,BONIYAR,BARAMULLA,JAMMU & KASHMIR
JAKA0BOOGAM,The Jammu and Kashmir Bank,JAKA0BOOGAM,NON MICR,BUGAM KULGAM,"BUGAM,KULGAM,ANANTNAG J&K.",01931-215392,KULGAM,ANANTNAG,JAMMU & KASHMIR
JAKA0BORDER,The Jammu and Kashmir Bank,JAKA0BORDER,185-051-101,POONCH MAIN,"MAIN MARKET, POONCH",01965-240248,POONCH,POONCH,JAMMU & KASHMIR
JAKA0BOTSHA,The Jammu and Kashmir Bank,JAKA0BOTSHA,190051016,BOTSHA MOHALA,BOTSHA MOHALLA LALBAZAR,0194-2424906,SRINAGAR,SRINAGAR,JAMMU & KASHMIR
JAKA0BRIDGE,The Jammu and Kashmir Bank,JAKA0BRIDGE,182-051-105,PUL DODA,"KHELLANI, DODA, J&K",01996-238333,KHILANI,DODA,JAMMU & KASHMIR
JAKA0BRNOTI,The Jammu and Kashmir Bank,JAKA0BRNOTI,NON-MICR,BARNOTI,"BARNOTI  , KATUA,-JAMMU AND KASHMIR",01922-231528,BARNOTI,KATHUA,JAMMU & KASHMIR
JAKA0BSTRAL,The Jammu and Kashmir Bank,JAKA0BSTRAL,NON MICR,BUS STAND,"BUS STAND TRAL, TRAL PULWAMA",01933-247239,TRAL,PULWAMA,JAMMU & KASHMIR
JAKA0BUBBLE,The Jammu and Kashmir Bank,JAKA0BUBBLE,NON-MICR,"NEW MARKET ANANTNAG, KASHMIR","NEW MARKET ANANTNAG,KASHMIR-JAMMU AND KASHMIR",01932-222439,ANANTNAG,ANANTNAG,JAMMU & KASHMIR
JAKA0BUDHAL,The Jammu and Kashmir Bank,JAKA0BUDHAL,NON MICR,KOTRANKA,"BUDHAL KOTRANKA, RAJOURI",9906347888,BUDHAL,RAJOURI,JAMMU & KASHMIR
JAKA0BULBUL,The Jammu and Kashmir Bank,JAKA0BULBUL,190051062,RAJOURI KADAL,RAJOURI KADAL. SRINAGAR,0194-2422321,SRINAGAR,SRINAGAR,JAMMU & KASHMIR
JAKA0BUSANG,The Jammu and Kashmir Bank,JAKA0BUSANG,NON-MICR,GENERAL BUS ADDA ANANTNAG,GENERAL BUS ADDA ANANTNAG,951932223609,ANANTNAG,ANANTNAG,JAMMU & KASHMIR
JAKA0CALCAT,The Jammu and Kashmir Bank,JAKA0CALCAT,700051000,KOLKATTA MAIN,"KOLKATA MAIN6D, R.N. MUKHERJEE ROAD, STEPHEN HOUSE, KOLKATA-700001",033-22485457,KOLKATA,KOLKATA,WEST BENGAL
JAKA0CAMPUS,The Jammu and Kashmir Bank,JAKA0CAMPUS,180051002,CANAL ROAD,CANAAL ROAD JAMMU180012,0191-2565590,JAMMU,JAMMU,JAMMU & KASHMIR
JAKA0CANAAL,The Jammu and Kashmir Bank,JAKA0CANAAL,180051018,NEW UNIV. CAMPUS,NEW UNIVERSITY CAMPUS JAMMU180004,0191-2458663,JAMMU,JAMMU,JAMMU & KASHMIR
JAKA0CANADA,The Jammu and Kashmir Bank,JAKA0CANADA,NON MICR,CHANDANWARI,"CHANDANWARI URI, BARAMULLA",9419044347,CHANDANWARI,BARAMULLA,JAMMU & KASHMIR
JAKA0CANDLE,The Jammu and Kashmir Bank,JAKA0CANDLE,190051050,NAWAKADAL SRINAGAR,"THE JAMMU AND KASHMIR BANK LTD,NAWAKADAL;SRINAGAR;KASHMIR.",0194-2420069,SRINAGAR,SRINAGAR,JAMMU & KASHMIR
JAKA0CAREER,The Jammu and Kashmir Bank,JAKA0CAREER,NON- MICR,MATTAN,"MATTAN ANANTNAG,KASHMIR-JAMMU AND KASHMIR",951932-237223,ANANTNAG,ANANTNAG,JAMMU & KASHMIR
JAKA0CEMENT,The Jammu and Kashmir Bank,JAKA0CEMENT,NON MICR,KHREW,"KHREW, PULWAMA, J&K",01933-245270,KHREW,PULWAMA,JAMMU & KASHMIR
JAKA0CENTRE,The Jammu and Kashmir Bank,JAKA0CENTRE,191051001,RCC SRINAGAR,THE JAMMU AND KASHMIR BANK LTD;RCCSRINAGAR;KASHMIR,0194-2478064,SRINAGAR,SRINAGAR,JAMMU & KASHMIR
JAKA0CHADUR,The Jammu and Kashmir Bank,JAKA0CHADUR,NON-MICR,"CHADURA, BUDGAM","CHADURA, BUDGAM,-JAMMU AND KASHMIR",01951-230226,BUDGAM,BUDGAM,JAMMU & KASHMIR
JAKA0CHAKMA,The Jammu and Kashmir Bank,JAKA0CHAKMA,NON MICR,CHAK MALAL,"CHAKMALAL, KHOUR, JAMMU",01924-234118,KHOUR,JAMMU,JAMMU & KASHMIR
JAKA0CHANDI,The Jammu and Kashmir Bank,JAKA0CHANDI,185051109,CHANDIMARH,"CHANDIMARH, TEHSIL SURANKOTE, DISTRICT POONCH , J&K PIN 185121",09858138430,CHANDIMARH,POONCH,JAMMU & KASHMIR
JAKA0CHANGA,The Jammu and Kashmir Bank,JAKA0CHANGA,NON MICR,CHANGA BHALESSA,"DESSA,DODA,J&K",09596843197,GANDOH BHALESA,DODA,JAMMU & KASHMIR
JAKA0CHANPO,The Jammu and Kashmir Bank,JAKA0CHANPO,190051018,"""CHANPORA R, KASHMIR""","THE JAMMU AND KASHMIR BANK LTD,CHANAPORA(CHARARISHARIF ROAD)SGR.",2441481/2436893,SRINAGAR,SRINAGAR,JAMMU & KASHMIR
JAKA0CHASAN,The Jammu and Kashmir Bank,JAKA0CHASAN,NON MICR,CHASANA,"CHASANA, REASI, JAMMU& KASHMIR",09697244824,REASI,REASI,JAMMU & KASHMIR
JAKA0CHATRO,The Jammu and Kashmir Bank,JAKA0CHATRO,NON MICR,CHATROO,"CHATROO KISHTWAR DODA,J&K",09906297800,CHATROO,DODA,JAMMU & KASHMIR
JAKA0CHAWRI,The Jammu and Kashmir Bank,JAKA0CHAWRI,110051004,CHAWRI BAZAR,"CHAWRI BAZAR 3462, GALI BAJRANG BALI, CHAWRI BAZAR, DELHI",011-23272400,DELHI,NEW DELHI,DELHI
JAKA0CHBTRA,The Jammu and Kashmir Bank,JAKA0CHBTRA,180051006,CHOWK CHABUTRA,CHOWK CHABUTRA JAMMU 180001,0191-1543457,JAMMU,JAMMU,JAMMU & KASHMIR
JAKA0CHDUNA,The Jammu and Kashmir Bank,JAKA0CHDUNA,NON MICR,CHANDUNA GANDERBAL,"CHANDUNA GANDERBAL,-JAMMU AND KASHMIR",0194-2134636,SRINAGAR,SRINAGAR,JAMMU & KASHMIR
JAKA0CHEENI,The Jammu and Kashmir Bank,JAKA0CHEENI,446051159,"CHEENI CHOWK, ANANTNAG","CHEENI CHOWK,ANANTNAG-JAMMU AND KASHMIR",01932-222552,ANANTNAG,ANANTNAG,JAMMU & KASHMIR
JAKA0CHERRY,The Jammu and Kashmir Bank,JAKA0CHERRY,180051007,FRUIT COMPLEX NARWAL,FRUIT COMPLEX  NARWAL JAMMU180006,01912476282/01912490041,JAMMU,JAMMU,JAMMU & KASHMIR
JAKA0CHINAR,The Jammu and Kashmir Bank,JAKA0CHINAR,190051065,RESIDENCY ROAD SRINAGAR,"THE JAMMU AND KASHMIR BANK LTD.,RESIDENCY ROAD. SRINAGAR",0194-2455428,SRINAGAR,SRINAGAR,JAMMU & KASHMIR
JAKA0CHKTAN,The Jammu and Kashmir Bank,JAKA0CHKTAN,NON MICR,CHIKTAN," CHIKTAN,KARGIL,LADAKH,J&K",01985-279204,KARGIL,KARGIL,JAMMU & KASHMIR
JAKA0CHNANI,The Jammu and Kashmir Bank,JAKA0CHNANI,NON-MICR,CHENANI,"CHAENANI, UDHAMPUR JAMMU",01992-285508,UDHAMPUR,UDHAMPUR,JAMMU & KASHMIR
JAKA0CHNDAR,The Jammu and Kashmir Bank,JAKA0CHNDAR,NON-MICR,CHANDARKOT,"CHANDARKOT RAMBAN, JAMMU",01998-288015,CHANDERKOT,RAMBAN,JAMMU & KASHMIR
JAKA0CHOKBL,The Jammu and Kashmir Bank,JAKA0CHOKBL,NON MICR,CHOWKIBAL,"CHOWKIBAL, DISTRICT-KUPWARA, PIN CODE-193224",9906849975,CHOWKIBAL,KUPWARA,JAMMU & KASHMIR
JAKA0CHOORA,The Jammu and Kashmir Bank,JAKA0CHOORA,NON MICR,CHOORA,"CHOORA, PATTAN, DISTRICT-BARAMULLA, PIN CODE-193103",9906664854,HAIGAM,BARAMULLA,JAMMU & KASHMIR
JAKA0CHOOSE,The Jammu and Kashmir Bank,JAKA0CHOOSE,180051003,BARI BRAHAMANA JAMMU,THE JAMMU AND KASHMIR BANK LTD.BARI BRAHAMANA;JAMMU.,01923-220245,JAMMU,JAMMU,JAMMU & KASHMIR
JAKA0CHQCSC,The Jammu and Kashmir Bank,JAKA0CHQCSC,NON MICR,CSCCHQ," CSC SRINAGAR ,J&K",,SRINAGAR,SRINAGAR,JAMMU & KASHMIR
JAKA0CHQIBR,The Jammu and Kashmir Bank,JAKA0CHQIBR,NON MICR,IBRCHQ,"IBR,CORPORATE HQRS SRINAGAR ,J&K",0194-2481941,SRINAGAR,SRINAGAR,JAMMU & KASHMIR
JAKA0CIDWAL,The Jammu and Kashmir Bank,JAKA0CIDWAL,NON-MICR,"CHADWAL , KATHUA","NATIONAL HIGHWAY,CHADWAL, DISTRICT KATH-JAMMU AND KASHMIR",01922-255033,KATHUA,KATHUA,JAMMU & KASHMIR
JAKA0CIRCLE,The Jammu and Kashmir Bank,JAKA0CIRCLE,110051001,REGIONAL COLLECTION CENTRE,"REGIONAL COLLECTION CENTRE, EMPORIUM BUILDING, BABA KHARAG SINGH MARG, CANNAUGHT PLACE, NEW DELHI - 110001",01123364472/01123348794,DELHI,NEW DELHI,DELHI
JAKA0CIRCUS,The Jammu and Kashmir Bank,JAKA0CIRCUS,110051007,CANNAUGHT PLACE,"CONNAUGHT PLACEG-40, CONNAUGHT PLACE, NEW DELHI--110001",011-23352102,DELHI,NEW DELHI,DELHI
JAKA0CKATRA,The Jammu and Kashmir Bank,JAKA0CKATRA,NON-MICR,C/C ARLI KATRA,"C/C ARLI KATRA,UDHAMPUR J&K.",09419163311,KATRA,UDHAMPUR,JAMMU & KASHMIR
JAKA0CNDOSA,The Jammu and Kashmir Bank,JAKA0CNDOSA,NON MICR,CHANDOSA,"CHANDOSA,BARAMULLA,J&K",09906672384,CHANDUSA,BARAMULLA,JAMMU & KASHMIR
JAKA0COLLEG,The Jammu and Kashmir Bank,JAKA0COLLEG,190051033,"""ISLAMIA COLLEGE , SRINAGAR""","THE JAMMU AND KASHMIR BANK LTD,ISLAMIA COLLEGE HAWAL;SRINAGAR;KMR.",0194-2410091,SRINAGAR,SRINAGAR,JAMMU & KASHMIR
JAKA0COLONY,The Jammu and Kashmir Bank,JAKA0COLONY,NON- MICR,NEW COLONY SOPORE,"NEW COLONY,SOPORE-JAMMU AND KASHMIR",01954-222344,SOPORE,BARAMULLA,JAMMU & KASHMIR
JAKA0COMTOR,The Jammu and Kashmir Bank,JAKA0COMTOR,641051002,COIMBATORE,"NO.229, T.V. SWAMI ROAD A.S.CENTRE, R.S. PURAM, COIMBATORE- 641002 (T.N)",422-2542967,COIMBATORE,COIMBOTORE,TAMIL NADU
JAKA0CRMAGM,The Jammu and Kashmir Bank,JAKA0CRMAGM,NON MICR,MAGAM,"COURT ROAD MAGAM,J&K",,MAGAM,BADGAM,JAMMU & KASHMIR
JAKA0DADSAR,The Jammu and Kashmir Bank,JAKA0DADSAR,NON MICR,DADSAR,"DADSAR TRAL PULWAMA ,J&K",09419948827,DADSARA,PULWAMA,JAMMU & KASHMIR
JAKA0DALGAT,The Jammu and Kashmir Bank,JAKA0DALGAT,190051020,DALGATE,"THE JAMMU AND KASHMIR BANK LTD.,DALGATE .BOULEVARD .SRINAGAR",0194-2452997,SRINAGAR,SRINAGAR,JAMMU & KASHMIR
JAKA0DALINA,The Jammu and Kashmir Bank,JAKA0DALINA,NON MICR,DALINA,DALINA BARAMULLA KASHMIR,01952-263408,DALINA,BARAMULLA,JAMMU & KASHMIR
JAKA0DALORI,The Jammu and Kashmir Bank,JAKA0DALORI,NON MICR,DALHORI,"DALHORI, RAJOURI, J&K",9596654816,DALHOSI,RAJOURI,JAMMU & KASHMIR
JAKA0DAMHAL,The Jammu and Kashmir Bank,JAKA0DAMHAL,NON MICR,DAMHAL,"DAMHAL, HANJIPORA, ANANTNAG, KASHMIR, J&K",9906628184,DAMHAL-HANJIPORA,ANANTNAG,JAMMU & KASHMIR
JAKA0DARASS,The Jammu and Kashmir Bank,JAKA0DARASS,NON MICR,DRASS,"DRASS,KARGIL J&K.",01985-274040,DRASS,KARGIL,JAMMU & KASHMIR
JAKA0DARHAL,The Jammu and Kashmir Bank,JAKA0DARHAL,NON- MICR,DARHAL RAJOURI,"MAIN BAZAR DARHAL,RAJOURI-JAMMU AND KASHMIR",01962-240240,DARHAL(MALKAN),RAJOURI,JAMMU & KASHMIR
JAKA0DAYAAL,The Jammu and Kashmir Bank,JAKA0DAYAAL,NON MICR,DAYALACHAK,"NATIONAL HIGHWAY, DAYALACHAL, DISTRICT KATHUA",9419623181,DAYALA CHAK,KATHUA,JAMMU & KASHMIR
JAKA0DEALER,The Jammu and Kashmir Bank,JAKA0DEALER,400051001,TREASURY OPERATIONS,"5TH FLOOR MERCHANT CHAMBERS, 41, NEW MARINE LINES, MUMBAI - 400020",22015222/22015221,MUMBAI,GREATER BOMBAY,MAHARASHTRA
JAKA0DECENT,The Jammu and Kashmir Bank,JAKA0DECENT,NON MICR,WANPORA,"WANPORA,PULWAMA,J&K",01933-237352,WANPORA,PULWAMA,JAMMU & KASHMIR
JAKA0DECODE,The Jammu and Kashmir Bank,JAKA0DECODE,NON MICR,DODA," DODA,J&K",01996-233442,DODA,DODA,JAMMU & KASHMIR
JAKA0DEDOON,The Jammu and Kashmir Bank,JAKA0DEDOON,248051002,DEHRADUN,"DEHRADUN,56, RAJPUR ROAD, MUNICIPAL NO. 166/296, DEHRADUN (UTTRANCHAL)",0135-2741027,DEHRA DUN,DEHRADUN,UTTARAKHAND
JAKA0DEESSA,The Jammu and Kashmir Bank,JAKA0DEESSA,NON MICR,DESSA,"DESSA,DODA,J&K",01996-234614,DESA,DODA,JAMMU & KASHMIR
JAKA0DESERT,The Jammu and Kashmir Bank,JAKA0DESERT,NON MICR,CHATURGUL,"CHATURGUL, ANANTNAG, J&K",01932-210266,CHHATARGUL,ANANTNAG,JAMMU & KASHMIR
JAKA0DESIRE,The Jammu and Kashmir Bank,JAKA0DESIRE,NON MICR,SAGAM,"SAGAM, ANANTNAG, J&K",01932-244136,SAGAM,ANANTNAG,JAMMU & KASHMIR
JAKA0DEVSAR,The Jammu and Kashmir Bank,JAKA0DEVSAR,NON MICR,DEVSAR,"DEVSAR,KULGAM, ANANTNAG,J&K",01931-212715,DEVSAR,ANANTNAG,JAMMU & KASHMIR
JAKA0DHANGI,The Jammu and Kashmir Bank,JAKA0DHANGI,NON MICR,DANGIWACHA,"DANGIWACHA,BARAMULLA,,J&K",01954-235251,DANGIWACHA,BARAMULLA,JAMMU & KASHMIR
JAKA0DHARMA,The Jammu and Kashmir Bank,JAKA0DHARMA,NON MICR,DHARMARI,"DHARMARI,REASI,UDHAMPUR ,J&K",09419214916,DHARMARI,UDHAMPUR,JAMMU & KASHMIR
JAKA0DHASTI,The Jammu and Kashmir Bank,JAKA0DHASTI,NON MICR,DULHASTI,"DULHASTI, KISHTWAR, J&K",01995-260136,KISHTWAR,DODA,JAMMU & KASHMIR
JAKA0DIALGM,The Jammu and Kashmir Bank,JAKA0DIALGM,NON MICR,DIALGAM,"DIALGAM,ANANTNAG,J&K",01932-222552,DIALGAM,ANANTNAG,JAMMU & KASHMIR
JAKA0DISKIT,The Jammu and Kashmir Bank,JAKA0DISKIT,NON-MICR,DISKIT NOBRA,"DISKIT NOBRA, LEH",01980-220044,NOBRA,LEH,JAMMU & KASHMIR
JAKA0DLFGUR,The Jammu and Kashmir Bank,JAKA0DLFGUR,110051020,"DLF, GURGAON","DLF, GURGAON6&7, SHOPPING MALL, ARJUN NAGAR, DLF PHASE I, GURGAON--122002",0124-2563950,GURGAON,GURGAON,HARYANA
JAKA0DOCTOR,The Jammu and Kashmir Bank,JAKA0DOCTOR,190051024,"GOVT. MEDICAL COLLEGE , SRINAGAR",GOVT. MEDICAL COLLEGE SRINAGAR KASHMIR,0194-2481704,SRINAGAR,SRINAGAR,JAMMU & KASHMIR
JAKA0DOOROO,The Jammu and Kashmir Bank,JAKA0DOOROO,NON MICR,DOORU SHAHABAD,"DOORUSHAHABAD,ANANTNAG,J&K",01932-230235,DOORUSHAHABAD,ANANTNAG,JAMMU & KASHMIR
JAKA0DRABLA,The Jammu and Kashmir Bank,JAKA0DRABLA,NON MICR,DRABSHALLA,"DRABSHALLA, DODA,J&K",09596620512,KISHTWAR,DODA,JAMMU & KASHMIR
JAKA0DRGMUL,The Jammu and Kashmir Bank,JAKA0DRGMUL,NON MICR,DRAGMULLAH,"DRUGMULLA NEAR RTO OFF., KUPWARA, J&K",9622844778,DRAGMULLA,KUPWARA,JAMMU & KASHMIR
JAKA0DSHALA,The Jammu and Kashmir Bank,JAKA0DSHALA,NON-MICR,DHARAMSHALLA,"KOTWALI BAZAR, DHARAMSHALLA (HP)",01892-228075,KANGRA,KANGRA,HIMACHAL PRADESH
JAKA0DUBGAM,The Jammu and Kashmir Bank,JAKA0DUBGAM,NON MICR,DRUBGAM,"DRUBGAM, PULWAMA,J&K",01933-276103,RAJPURA,PULWAMA,JAMMU & KASHMIR
JAKA0DUDRHM,The Jammu and Kashmir Bank,JAKA0DUDRHM,NON MICR,DUDERHAMA GANDERBAL,"TAWHEED CHOWCK,DUDERHAMA GANDERBAL-JAMMU AND KASHMIR",09906627627,GANDERBAL,GANDERBAL,JAMMU & KASHMIR
JAKA0DURBUK,The Jammu and Kashmir Bank,JAKA0DURBUK,NON MICR,DURBUK,"DURBUK,LEH LADAKH, J&K",01982-252130,DURBUK,LADAKH,JAMMU & KASHMIR
JAKA0DWARKA,The Jammu and Kashmir Bank,JAKA0DWARKA,110051028,DWARKA,"DWARKA,SECTOR 12, PLOT NO.2, POCKET 7, ASHISH PLAZA, DWARKA, NEW DELHI--110075",011-45591054,DELHI,NEW DELHI,DELHI
JAKA0DWMARG,The Jammu and Kashmir Bank,JAKA0DWMARG,NON MICR,DANEW KANDIMARG,"DANEW KANDIMARG, ANANTNAG, J&K",9906662406,DAMHAL-HANJIPORA,ANANTNAG,JAMMU & KASHMIR
JAKA0EAKNOR,The Jammu and Kashmir Bank,JAKA0EAKNOR,NON MICR,"T. P. AKHNOOR, JAMMU",T P AKHNOOR,019242452796,JAMMU,JAMMU,JAMMU & KASHMIR
JAKA0EARNIA,The Jammu and Kashmir Bank,JAKA0EARNIA,NON MICR,"ARNIA, JAMMU","ARNIA,  ",01923272712,JAMMU,JAMMU,JAMMU & KASHMIR
JAKA0EAURSP,The Jammu and Kashmir Bank,JAKA0EAURSP,NON MICR,E/C AGRI UNIVERSITY JAMMU,"SKUAST CHATHA JAMMU,-JAMMU AND KASHMIR",0191-2106274,JAMMU,JAMMU,JAMMU & KASHMIR
JAKA0EBARJN,The Jammu and Kashmir Bank,JAKA0EBARJN,NON MICR,E/CBARJANI MEEN CHARKAN,"E/C BARJANI MEEN CHARKAN,J&K",01933-278288,BARI BRAHAMANA,JAMMU,JAMMU & KASHMIR
JAKA0EBAROO,The Jammu and Kashmir Bank,JAKA0EBAROO,NON MICR,E/C T.P.BAROO,"T.P.BAROO KARGIL,J&K",01985-233628,KARGIL,KARGIL,JAMMU & KASHMIR
JAKA0EBATRA,The Jammu and Kashmir Bank,JAKA0EBATRA,NON MICR,"""ASCOMS BATRA HOSPITAL,JAMMU""","THE JAMMU AND KASHMIR BANK LTD,ASCOMS BATRA HOSPITAL,JAMMU.",0191-2662603/2662536,JAMMU,JAMMU,JAMMU & KASHMIR
JAKA0ECDPAN,The Jammu and Kashmir Bank,JAKA0ECDPAN,NON MICR,DISTRICT POLICE LINES ANANTNAG,"DISTRICT POLICE LINES, KHANABAL ANANTNAG",01932-227804,ANANTNAG,ANANTNAG,JAMMU & KASHMIR
JAKA0ECHEST,The Jammu and Kashmir Bank,JAKA0ECHEST,NON MICR,"CHEST DISEASE HOSPITAL, DALGATE SGR",CD HOSPITAL,01942476422,SRINAGAR,SRINAGAR,JAMMU & KASHMIR
JAKA0ECNBAL,The Jammu and Kashmir Bank,JAKA0ECNBAL,NON MICR,NAGBAL,"NAGBAL, GANDERBAL, KASHMIR",0194-2262605,GANDERBAL,GANDERBAL,JAMMU & KASHMIR
JAKA0ECROOM,The Jammu and Kashmir Bank,JAKA0ECROOM,NON MICR,E/C POLICE CONTROL ROOM,"EXTENSION COUNTER POLICE CONTROL ROOM, BATAMALOO SRINAGAR       ",0194-2481628,SRINAGAR,SRINAGAR,JAMMU & KASHMIR
JAKA0ECSOPR,The Jammu and Kashmir Bank,JAKA0ECSOPR,NON MICR,CHINKIPORA,"CHINKIPORA,SOPORE,J&K",09419024199,SOPORE,BARAMULLA,JAMMU & KASHMIR
JAKA0ECZEWN,The Jammu and Kashmir Bank,JAKA0ECZEWN,NON MICR,PANTHA CHOWK SRINAGAR',"EXTENSION COUNTER ZEWAN, KASHMIR       ",09419913105,SRINAGAR,SRINAGAR,JAMMU & KASHMIR
JAKA0EDANGA,The Jammu and Kashmir Bank,JAKA0EDANGA,NON MICR,KAMBAL DANGA,"SUNARI ROAD, KAMBAL DANGA UDHAMPUR",01992-248622,JIB THATHI,UDHAMPUR,JAMMU & KASHMIR
JAKA0EDOCOM,The Jammu and Kashmir Bank,JAKA0EDOCOM,NON MICR,D.C.OFFICE KUPWARA," D.C OFFICE COMPLEX KUPWARA, J&K",9419407826,KUPWARA,KUPWARA,JAMMU & KASHMIR
JAKA0EDREAM,The Jammu and Kashmir Bank,JAKA0EDREAM,NON MICR,MANWAL,"MANWAL,UDHAMPUR,JAMMU,J&K",09419189845,UDHAMPUR,UDHAMPUR,JAMMU & KASHMIR
JAKA0EGANDI,The Jammu and Kashmir Bank,JAKA0EGANDI,180051044,SHASTRI NAGAR,T P SHASTRI NAGAR 371-372 SHASTRI NAGAR JAMMU,0191-2435691,JAMMU,JAMMU,JAMMU & KASHMIR
JAKA0EGCENG,The Jammu and Kashmir Bank,JAKA0EGCENG,NON MICR,"""GOVT. COLLEGE OF ENG, JAMMU""","OLD UNIVERSITY CAMPUS,CANAL ROAD JAMMU",0191-2565590,JAMMU,JAMMU,JAMMU & KASHMIR
JAKA0EGMARG,The Jammu and Kashmir Bank,JAKA0EGMARG,NON-MICR,GULMARG,"GUKMARG, KASHMIR,GULMARG, TANGMARG,-JAMMU AND KASHMIR",0-9906578547,GULMARG,BARAMULLA,JAMMU & KASHMIR
JAKA0EGOUSH,The Jammu and Kashmir Bank,JAKA0EGOUSH,NON MICR,GOSHBUGH,"GOSHBUGH PATTAN, BARAMULLA",01954-241435,GOSHU BUGH,BARAMULLA,JAMMU & KASHMIR
JAKA0EGROTA,The Jammu and Kashmir Bank,JAKA0EGROTA,NON-MICR,GUJROO NAGROTA BILWAR,GUJROO NAGROTA BILWAR,951921224268,KATHUA,KATHUA,JAMMU & KASHMIR
JAKA0EJVBEM,The Jammu and Kashmir Bank,JAKA0EJVBEM,190051034,JVC SRINAGAR,"THE JAMMU AND KASHMIR BANK LTD,JHELUM VALLEY COLLEGE BEMINA;SRINAGAR",0194-2491841,SRINAGAR,SRINAGAR,JAMMU & KASHMIR
JAKA0EKARUL,The Jammu and Kashmir Bank,JAKA0EKARUL,NON MICR,KARU,"KARU LEH, LADAKH REGION",9419176420,LEH,LEH,JAMMU & KASHMIR
JAKA0EKATRA,The Jammu and Kashmir Bank,JAKA0EKATRA,182051201,ADH KWARI,"ADH KWARI DISTRICT REASI, J&K 182301",7298004713,KATRA,UDHAMPUR,JAMMU & KASHMIR
JAKA0EKCJAM,The Jammu and Kashmir Bank,JAKA0EKCJAM,NON MICR,KC PUBLIC SCHOOL,"THE JAMMU AND KASHMIR BANK LTD, K.C. PUBLIC SCHOOL,AKHNOOR;JAMMU.",0191-2503731,SRINAGAR,SRINAGAR,JAMMU & KASHMIR
JAKA0EKHREW,The Jammu and Kashmir Bank,JAKA0EKHREW,NON MICR,E/C JK CEMENT KHREW,"E/C KHREW PULWAMA, J&K",01933-245270,KHREW,PULWAMA,JAMMU & KASHMIR
JAKA0EKUTAM,The Jammu and Kashmir Bank,JAKA0EKUTAM,NON MICR,KUTA MORE,"KURA MORE, HIRANAGAR, KATHUA",01922-249145,HIRANAGAR,KATHUA,JAMMU & KASHMIR
JAKA0ELAGAM,The Jammu and Kashmir Bank,JAKA0ELAGAM,NON MICR,E/C T P LAGAMA,"E/CT P LAGAMA,URI,BARAMULLA,J&K",01956-244213,URI,BARAMULLA,JAMMU & KASHMIR
JAKA0ELINES,The Jammu and Kashmir Bank,JAKA0ELINES,180051018,DISTRICT POLICE LINE,DISTRICT POLICE LINES GANGHI NAGAR JAMMU,0191-2452796,JAMMU,JAMMU,JAMMU & KASHMIR
JAKA0ELUXUR,The Jammu and Kashmir Bank,JAKA0ELUXUR,180051042,J K BOSE,BOSE REHARI(RAJPURA ROAD) JAMMU,0191-2573764,JAMMU,JAMMU,JAMMU & KASHMIR
JAKA0EMCJAM,The Jammu and Kashmir Bank,JAKA0EMCJAM,180051041,S.M.G.S JAMMU,"THE JAMMU AND KASHMIR BANK LTD,S.M.G.S JAMMU;",0191-2566502,JAMMU,JAMMU,JAMMU & KASHMIR
JAKA0EMPIRE,The Jammu and Kashmir Bank,JAKA0EMPIRE,NON MICR,T P ANANTNAG,TESHIL PREMISES ANANTNAG,01952222548,ANANTNAG,ANANTNAG,JAMMU & KASHMIR
JAKA0EMUNDA,The Jammu and Kashmir Bank,JAKA0EMUNDA,NON MICR,LOWER MUNDA,TOLL POST LOWER MUNDA,9419568665,QAZIGUND,ANANTNAG,JAMMU & KASHMIR
JAKA0ENAMBL,The Jammu and Kashmir Bank,JAKA0ENAMBL,190051048,"NAMBAL BAL PAMPORE, PULWAMA",NAMBLABAL PAMPORE,951933223931,PULWAMA,PULWAMA,JAMMU & KASHMIR
JAKA0ENPORA,The Jammu and Kashmir Bank,JAKA0ENPORA,NON MICR,E/C NOORPORA," E/C NOORPORA TRAL, PULWAMA J&K.",01933-250243,TRAL,PULWAMA,JAMMU & KASHMIR
JAKA0ENSMCE,The Jammu and Kashmir Bank,JAKA0ENSMCE,NON MICR,"""NSM COLLEGE OF EDU , JAMMU""","""NSM COLLEGE OF EDUCATION,JAMMU",0191-2503740,JAMMU,JAMMU,JAMMU & KASHMIR
JAKA0EOSJAM,The Jammu and Kashmir Bank,JAKA0EOSJAM,180051045,OLD SECTT. JAMMU,"MUBARAK MANDI ROAD,PANJTIRTHI, JAMMU-JAMMU AND KASHMIR",0191-2579036,JAMMU,JAMMU,JAMMU & KASHMIR
JAKA0EPONCH,The Jammu and Kashmir Bank,JAKA0EPONCH,NON MICR,P/C POONCH,"POLICE CONTROL ROOM, POONCH",01965-220620,POONCH,POONCH,JAMMU & KASHMIR
JAKA0ERAILH,The Jammu and Kashmir Bank,JAKA0ERAILH,180051051,RAIL HEAD COMPLEX,RAIL HEAD COMPEX PANAMA CHOWK JAMMU,0191-2470778,JAMMU,JAMMU,JAMMU & KASHMIR
JAKA0ERAMBN,The Jammu and Kashmir Bank,JAKA0ERAMBN,NON MICR,PAY COUNTER MAITRA,"PAY COUNTER MAITRA,RAMBAN DODA,,J&K",09419334417,RAMBAN,DODA,JAMMU & KASHMIR
JAKA0ESADER,The Jammu and Kashmir Bank,JAKA0ESADER,190051067,SADAR COURT,SADAR COURTLAL CHOWK,0194-2483607,SRINAGAR,SRINAGAR,JAMMU & KASHMIR
JAKA0ESAMBA,The Jammu and Kashmir Bank,JAKA0ESAMBA,NON MICR,MAIN BAZAR SAMBA,"MAIN BAZAR SAMBA, DIST. SAMBA, J&K",01923-217925,SAMBA,JAMMU,JAMMU & KASHMIR
JAKA0ESANIK,The Jammu and Kashmir Bank,JAKA0ESANIK,NON MICR,E/C SAINIK SCHOOL,"MANASBAL, SAFAPORA, BARAMULLA",0194-2145051,SAFAPORA,BARAMULLA,JAMMU & KASHMIR
JAKA0ESEMNA,The Jammu and Kashmir Bank,JAKA0ESEMNA,NON MICR,E/C KISHTWAR,"DHP COLONY,CHINAB NAGAR, KISHTWAR ",9419154380,KISHTWAR,DODA,JAMMU & KASHMIR
JAKA0ESHKTI,The Jammu and Kashmir Bank,JAKA0ESHKTI,NON MICR,CAMA HOUSING COLONY,CAMA HOUSING COLONY UDHAMPUR,951992274085,UDHAMPUR,UDHAMPUR,JAMMU & KASHMIR
JAKA0ESINGH,The Jammu and Kashmir Bank,JAKA0ESINGH,NON MICR,E/C SSM ENGG. COLLEGE,"E/C SSM ENGG.COLLEGE BARAMULLA ,J&K",09906635105,SINGHPORA,BARAMULLA,JAMMU & KASHMIR
JAKA0ESTATE,The Jammu and Kashmir Bank,JAKA0ESTATE,180051038,IC BARI BRAHAMNA,"INDUSTERIAL COMPLEX BARI BRAHAMINA,SAMBA;JAMMU-181133",01923-220362,JAMMU,JAMMU,JAMMU & KASHMIR
JAKA0ETHEED,The Jammu and Kashmir Bank,JAKA0ETHEED,190051051,NEW THEED HARWAN,NEW THEED HARWAN,0194-2463313,SRINAGAR,SRINAGAR,JAMMU & KASHMIR
JAKA0ETOOTO,The Jammu and Kashmir Bank,JAKA0ETOOTO,190051078,"TOTOO GROUND, SRINAGAR",TATOO GROUND,01942481930,SRINAGAR,SRINAGAR,JAMMU & KASHMIR
JAKA0ETPPUL,The Jammu and Kashmir Bank,JAKA0ETPPUL,NON MICR,TP PULWAMA,"T P PULWAMA,,PULWAMA,,J&K",01933-241340,PULWAMA,PULWAMA,JAMMU & KASHMIR
JAKA0EWAKUR,The Jammu and Kashmir Bank,JAKA0EWAKUR,NON MICR,WAKURA,"WAKURA, GANDERBAL, J&K",0194-2107882,WAKURA,SRINAGAR,JAMMU & KASHMIR
JAKA0EXAMBR,The Jammu and Kashmir Bank,JAKA0EXAMBR,190051015,BOARD OF SCHOOL EDUCATION,J&K STATE BOARD OF SCHOOL EDUCATION (BOSE) BEMINA,0-9906414330,SRINAGAR,SRINAGAR,JAMMU & KASHMIR
JAKA0EXDODA,The Jammu and Kashmir Bank,JAKA0EXDODA,NON MICR,PAY COUNTER TP DODA,"PAY COUNTER,TEHSIL OFFICE, TP DODA, J&K",9906140410,DODA,DODA,JAMMU & KASHMIR
JAKA0EXPORT,The Jammu and Kashmir Bank,JAKA0EXPORT,190051041,"""LAL BAZAR , SRINAGAR""","THE JAMMU AND KASHMIR BANK LTD,LAL BAZAR;SRINAGAR.",2424058/2425390,SRINAGAR,SRINAGAR,JAMMU & KASHMIR
JAKA0EZIRIP,The Jammu and Kashmir Bank,JAKA0EZIRIP,NON MICR,ZIRIPORA,"ZIRPORA,BIJBEHARA,ANANTNAG,J&K",01932-234806,BIJBEHARA,ANANTNAG,JAMMU & KASHMIR
JAKA0FATTEH,The Jammu and Kashmir Bank,JAKA0FATTEH,190051022,FATEH KADAL,FATEH KADAL .SRINAGAR,0194-2479327,SRINAGAR,SRINAGAR,JAMMU & KASHMIR
JAKA0FEROZE,The Jammu and Kashmir Bank,JAKA0FEROZE,152051002,FEROZEPUR CITY,"MALLWALI ROAD, NEAR H.M. SCHOOL, FEROZEPUR CITY (PUNJAB)",01632-220741,FEROZPUR,FEROZEPUR,PUNJAB
JAKA0FLORAL,The Jammu and Kashmir Bank,JAKA0FLORAL,NON-MICR,TRAL,"TRAL, MAIN,-JAMMU AND KASHMIR",01933-250997,TRAL,PULWAMA,JAMMU & KASHMIR
JAKA0FOREST,The Jammu and Kashmir Bank,JAKA0FOREST,NON- MICR,KUPWARA MAIN,"KUPWARA MAIN, KUPWARA,BYPASS ROAD, KUPWARA M-JAMMU AND KASHMIR",951955-252218,KUPWARA,KUPWARA,JAMMU & KASHMIR
JAKA0FRABAD,The Jammu and Kashmir Bank,JAKA0FRABAD,110051021,FARIDABAD,"FARIDABADSCO-107, SHOPPING MARKET, SECTOR 16, FARIDABAD (HARYANA) 121002",0129-4105871,FARIDABAD,FARIDABAD,HARYANA
JAKA0FRUITS,The Jammu and Kashmir Bank,JAKA0FRUITS,190051023,FRUIT COMPLEX,FRUIT COMPLEX,0194-2490304,SRINAGAR,SRINAGAR,JAMMU & KASHMIR
JAKA0GAGWAL,The Jammu and Kashmir Bank,JAKA0GAGWAL,NON-MICR,GAGWAL,"NATIONAL HIGHWAY,GHAGWAL SAMBA-JAMMU AND KASHMIR",01923-243211,GAGWAL,SAMBA,JAMMU & KASHMIR
JAKA0GALUTA,The Jammu and Kashmir Bank,JAKA0GALUTA,NON MICR,GALHUTA,"GALHUTA,POONCH J&K",01965-225233,GALHUTA,POONCH,JAMMU & KASHMIR
JAKA0GANDER,The Jammu and Kashmir Bank,JAKA0GANDER,NON MICR,GANDERBAL,"BEHEEMA GANDERBAL, KASHMIR",0194-2416881,GANDERBAL,GANDERBAL,JAMMU & KASHMIR
JAKA0GANDHI,The Jammu and Kashmir Bank,JAKA0GANDHI,180051008,GANDHI NAGAR,GANDHI NAGAR JAMMU 180004,0191-2432401,JAMMU,JAMMU,JAMMU & KASHMIR
JAKA0GANPAT,The Jammu and Kashmir Bank,JAKA0GANPAT,190051025,GANPATYAR,GANPATYAR .SRINAGAR,0194-2482618,GANPATYAR,SRINAGAR,JAMMU & KASHMIR
JAKA0GARDEN,The Jammu and Kashmir Bank,JAKA0GARDEN,190051010,BALGARDEN,BALGARDEN .SRINAGAR,0194-2480719,SRINAGAR,SRINAGAR,JAMMU & KASHMIR
JAKA0GHAATH,The Jammu and Kashmir Bank,JAKA0GHAATH,NON MICR,GHAT,"NEAR BUS STAND, GHAT, DISTRICT-DODA, PIN CODE-182202",9796262760,DODA,DODA,JAMMU & KASHMIR
JAKA0GHAZIA,The Jammu and Kashmir Bank,JAKA0GHAZIA,110051011,NOIDA,"NOIDAP-2, JOP PLAZA, SECTOR 18, NOIDA-201301",0120-2516776,GAUTAM BUDDHA NAGAR,GAUTAM BODDA NAGAR,UTTAR PRADESH
JAKA0GKJAMU,The Jammu and Kashmir Bank,JAKA0GKJAMU,180051047,GREATER KALASH JAMMU,"GREATER KAILASH,KUNJWANI FOUNTAIN CHOWK JAMMU-180010",0191-2480314,JAMMU,JAMMU,JAMMU & KASHMIR
JAKA0GKLASH,The Jammu and Kashmir Bank,JAKA0GKLASH,110051023,GREATER KAILASH,"GREATER KAILASHC-10, GREATER KAILASH I, NEW DELHI--110048",011-29243035,DELHI,NEW DELHI,DELHI
JAKA0GNGJAM,The Jammu and Kashmir Bank,JAKA0GNGJAM,NON MICR,GUJJAR NAGAR JAMMU,"THE JAMMU AND KASHMIR BANK LTD,GUJJAR NAGR;JAMMU.",0191-2564641,JAMMU,JAMMU,JAMMU & KASHMIR
JAKA0GNGYAL,The Jammu and Kashmir Bank,JAKA0GNGYAL,180051009,GANGYAL,GANGYAL JAMMU180010,0191-2480119,GANGYAL,JAMMU,JAMMU & KASHMIR
JAKA0GNOIDA,The Jammu and Kashmir Bank,JAKA0GNOIDA,110051022,GREATER NOIDA,"GREATER NOIDANOIDA-DADRI ROAD, SURAJPUR, GREATER NOIDA-201306",0120-2569074,GAUTAM BUDDHA NAGAR,GAUTAM BODDA NAGAR,UTTAR PRADESH
JAKA0GOBIND,The Jammu and Kashmir Bank,JAKA0GOBIND,NON-MICR,GOBINDGARH,"LOHA MANDI, G.T.ROAD, MANDI GOBIND GARH (PUNJAB)",01765-242224,FATEHGARH SAHIB,FATEHGARH SAHEB,PUNJAB
JAKA0GOLDEN,The Jammu and Kashmir Bank,JAKA0GOLDEN,NON MICR,MAIN CHOWK,PULWAMA MAIN,951933-241208,PULWAMA,PULWAMA,JAMMU & KASHMIR
JAKA0GOOLAB,The Jammu and Kashmir Bank,JAKA0GOOLAB,NON MICR,GOOL,"GOOL,UDHAMPUR J&K",09419820896,GOOL,UDHAMPUR,JAMMU & KASHMIR
JAKA0GOUNDH,The Jammu and Kashmir Bank,JAKA0GOUNDH,NON- MICR,GUND,"GUND, KANGAN,GANDERBAL-JAMMU AND KASHMIR",0194-2418221,GUND,GANDERBAL,JAMMU & KASHMIR
JAKA0GOVIND,The Jammu and Kashmir Bank,JAKA0GOVIND,NON MICR,GOVINDSAR,"GOVINDSAR, HATLIMORE SICOP GATE, KATHUA",01922-233165,KATHUA,KATHUA,JAMMU & KASHMIR
JAKA0GOWHAR,The Jammu and Kashmir Bank,JAKA0GOWHAR,NON MICR,GOWHARPORA,"GOWHARPORA,CHADURA BADGAM, J&K",09906953311,CHADURA,BADGAM,JAMMU & KASHMIR
JAKA0GRAMEN,The Jammu and Kashmir Bank,JAKA0GRAMEN,180642014,GRAMEEN BANK NARWAL,"NARWAL, NEAR FRUIT COMPLEX,NEW UNIVERSITY,JAMMU",0191-2490066,JAMMU,JAMMU,JAMMU & KASHMIR
JAKA0GSBUNI,The Jammu and Kashmir Bank,JAKA0GSBUNI,NON MICR,B.G.S.UNIVERSITY,"BABA GHULAM SHAH UNIVERSITY CAMPUS, RAJOURI",01962-241010,RAJOURI,RAJOURI,JAMMU & KASHMIR
JAKA0GUJCCJ,The Jammu and Kashmir Bank,JAKA0GUJCCJ,NON MICR,GUJJAR CHARITABLE TRUST JAMMU,THE JAMMU AND KASHMIR BANK LTDGUJJAR CHARITABLE TRUST;JAMMU,0191-2460641,JAMMU,JAMMU,JAMMU & KASHMIR
JAKA0GUJJAR,The Jammu and Kashmir Bank,JAKA0GUJJAR,NON-MICR,"GUJJAR MARKET, RAJOURI","GUJJAR MARKET, RAJOURI,DISTRICT RAJOURI-JAMMU AND KASHMIR",01962-263578,RAJOURI,RAJOURI,JAMMU & KASHMIR
JAKA0GUMMAT,The Jammu and Kashmir Bank,JAKA0GUMMAT,180051028,UPEER GUMAT,UPPER GUMMAT JAMMU180001,0191-2579643,JAMMU,JAMMU,JAMMU & KASHMIR
JAKA0GUNDHI,The Jammu and Kashmir Bank,JAKA0GUNDHI,NON MICR,DRABA GUNDHI,"DRABA GUNDHI, DIST. POONCH, J&K",01965-230418,GUNDI,POONCH,JAMMU & KASHMIR
JAKA0GURGON,The Jammu and Kashmir Bank,JAKA0GURGON,110051013,"GURGAON, MAIN","GURGAON47, OLD JUDICIAL COURT COMPLEX, VIDHYA TOWER II, GURGAON (HARYANA)",0124-4118501,GURGAON,GURGAON,HARYANA
JAKA0GURSHA,The Jammu and Kashmir Bank,JAKA0GURSHA,NON MICR,GURSAHI,"GURSAHI, POONCH ,J&K",01965-225319,GURSAHI,POONCH,JAMMU & KASHMIR
JAKA0GURUJI,The Jammu and Kashmir Bank,JAKA0GURUJI,143051002,S.M. AMRITSAR,"SHASTRI MARKET, AMRITSAR (PUNJAB)",0183-2556925,AMRITSAR,AMRITSAR,PUNJAB
JAKA0GZABAD,The Jammu and Kashmir Bank,JAKA0GZABAD,110051029,GAZIABAD,"GHAZIABAD,204, IST FLOOR, NEHRU NAGAR, AMBEDKAR ROAD, DISTT GHAZIABAD, GHAZIABAD (UP)-201001",0120-2796213,GHAZIABAD,GHAZIABAD,UTTAR PRADESH
JAKA0HAIDER,The Jammu and Kashmir Bank,JAKA0HAIDER,500051002,J N ROAD,"J N ROAD,HYDERABAD-500002",04024743829/04024615539,HYDERABAD,HYDERABAD URBAN,ANDHRA PRADESH
JAKA0HAJJIN,The Jammu and Kashmir Bank,JAKA0HAJJIN,NON MICR,HAJIN,"HAJIN, BARAMULLA, J&K",01957-265340,HAJIN,BARAMULLA,JAMMU & KASHMIR
JAKA0HARRAI,The Jammu and Kashmir Bank,JAKA0HARRAI,NON MICR,HARAI,"HARRAI, DISTRICT-KUPWARA, PIN CODE-193224",9906652700,KRALPORA,KUPWARA,JAMMU & KASHMIR
JAKA0HBEIGH,The Jammu and Kashmir Bank,JAKA0HBEIGH,NON MICR,HYDERBEIGH,"HYDER BEIGH PATTAN BARAMULLA,J&K",01954-231296,PATTAN,BARAMULLA,JAMMU & KASHMIR
JAKA0HCCJAM,The Jammu and Kashmir Bank,JAKA0HCCJAM,180051032,HIGH COURT COMPLEX,J&K HIGH COURT JANIPUR  JAMMU,0191-2530490,JAMMU,JAMMU,JAMMU & KASHMIR
JAKA0HCCSGR,The Jammu and Kashmir Bank,JAKA0HCCSGR,190051029,HIGH COURT SRINAGAR,THE JAMMU AND KASHMIR BANK LTD HIGH COURT COMPLEX SRINAGAR.,4282839/2499338,SRINAGAR,SRINAGAR,JAMMU & KASHMIR
JAKA0HEMMIS,The Jammu and Kashmir Bank,JAKA0HEMMIS,NON MICR,THIKSAY,"THIKSAY LEH, LADAKH REGION",01982-267080,THIKSEY,LEH,JAMMU & KASHMIR
JAKA0HERMAN,The Jammu and Kashmir Bank,JAKA0HERMAN,NON MICR,HERMAIN SHOPIAN,"HERMAIN SHOPIAN, J&K",01933-217003,SHOPIAN,PULWAMA,JAMMU & KASHMIR
JAKA0HESPER,The Jammu and Kashmir Bank,JAKA0HESPER,NON MICR,HIMYA (KAIRY),"HIMYA(KAIRY)LEH,LADAKH ,J&K",01982-252023,LEH,LADAKH,JAMMU & KASHMIR
JAKA0HIDYAL,The Jammu and Kashmir Bank,JAKA0HIDYAL,NON MICR,HIDYAL,"NEAR HIDYAL CHOWK, DISTRICT-KISHTWAR, PIN CODE-182204",9419914183,KISHTWAR,DODA,JAMMU & KASHMIR
JAKA0HISSAR,The Jammu and Kashmir Bank,JAKA0HISSAR,NON-MICR,HISSAR,"SCO73-75, URBAN ESTATE NO:1, RED SQUARE MARKET,HISSAR (HARYANA)",01662-231215,HISAR,HISSAR,HARYANA
JAKA0HITECH,The Jammu and Kashmir Bank,JAKA0HITECH,NON- MICR,AGRO HITECH,"CHANKHAN SOPORE,-JAMMU AND KASHMIR",951954-223026,SOPORE,SOPORE,JAMMU & KASHMIR
JAKA0HKADAL,The Jammu and Kashmir Bank,JAKA0HKADAL,190051027,HABBAKADAL,HABBAKADAL .SRINAGAR,0194-2483905,SRINAGAR,SRINAGAR,JAMMU & KASHMIR
JAKA0HNAGAR,The Jammu and Kashmir Bank,JAKA0HNAGAR,NON- MICR,"HIRANAGAR, MAIN BAZAR","MAIN BAZAAR, HIRANAGAR,-JAMMU AND KASHMIR",951922-274238,KATHUA,KATHUA,JAMMU & KASHMIR
JAKA0HNDWAR,The Jammu and Kashmir Bank,JAKA0HNDWAR,NON MICR,HANDWARA MAIN,HANDWARA MAIN,01955-262245,HANDWARA,KUPWARA,KARNATAKA
JAKA0HONOUR,The Jammu and Kashmir Bank,JAKA0HONOUR,190051068,SAFA KADAL,SAFA KADAL SRINAGAR,0194-2480240,SRINAGAR,SRINAGAR,JAMMU & KASHMIR
JAKA0HRCHAK,The Jammu and Kashmir Bank,JAKA0HRCHAK,NON MICR,HARIA CHAK,"HARIA CHAK KATHUA,,JAMMU,J&K",01922-210250,HARIA CHAK,KATHUA,JAMMU & KASHMIR
JAKA0HRDABR,The Jammu and Kashmir Bank,JAKA0HRDABR,NON MICR,HARDU ABOORA,"HARDI ABOORA, TANGMARG, BARAMULLA, J&K",9419018792,TANGMARG,BARAMULLA,JAMMU & KASHMIR
JAKA0HRHAND,The Jammu and Kashmir Bank,JAKA0HRHAND,NON MICR,HANDWARA,"HOSPITAL ROAD HANDWARA,KUPWARA,J&K",01955-262549,HANDWARA,KUPWARA,JAMMU & KASHMIR
JAKA0HRSHOP,The Jammu and Kashmir Bank,JAKA0HRSHOP,NON MICR,"HOSPITAL ROAD SHOPIAN, KASHMIR",HOSPITAL ROAD SHOPIAN,951933260274,SHOPIAN,PULWAMA,JAMMU & KASHMIR
JAKA0HUDPUR,The Jammu and Kashmir Bank,JAKA0HUDPUR,190051031,HYDERPORA,HYDER PORA,0194-2442190,SRINAGAR,SRINAGAR,JAMMU & KASHMIR
JAKA0HUMHAM,The Jammu and Kashmir Bank,JAKA0HUMHAM,190051030,"HUMHAMA, BUDGAM",THE JAMMU AND KASHMIR BANK LTD;HUMHAMA BUDGAM;KMR.,2303560/2303566,SRINAGAR,SRINAGAR,JAMMU & KASHMIR
JAKA0HYHAMA,The Jammu and Kashmir Bank,JAKA0HYHAMA,NON MICR,QASBA HYHAMA,QASBA HYHAMA KUPWARA - JAMMU AND KASHMIR,01955-253035,KUPWARA,KUPWARA,JAMMU & KASHMIR
JAKA0IALUDH,The Jammu and Kashmir Bank,JAKA0IALUDH,141051002,"INDUATRIAL AREA, LUDHIANA","330-A, INDUSTRIAL AREA, NEAR CHEEMA CHOWK,LUDHIANA (PUNJAB)",0161-2750213,LUDHIANA,LUDHIANA,PUNJAB
JAKA0ICHGAM,The Jammu and Kashmir Bank,JAKA0ICHGAM,NON MICR,ICHGAM,ICHGAM,01951-255161,BUDGAM,BADGAN,JAMMU & KASHMIR
JAKA0IFSMBA,The Jammu and Kashmir Bank,JAKA0IFSMBA,NON MICR,INDUSTRAIL FINANCE SAMBA,"SIDCO COMPLEX SAMBA ,JAMMU,J&K",01923-241130,SAMBA,JAMMU,JAMMU & KASHMIR
JAKA0IMMAMS,The Jammu and Kashmir Bank,JAKA0IMMAMS,NON MICR,IMMAM SAHIB,"IMMAM SAHIB, PULWAMA, J&K",01933-268023,IMMAM SAHIB,PULWAMA,JAMMU & KASHMIR
JAKA0INBANG,The Jammu and Kashmir Bank,JAKA0INBANG,NON MICR,INDRA NAGAR BANGLORE,8TH EDIFICE CMH ROAD INDRA NAGAR BANGLORE 560034,08025213856,BANGLORE,BANGLORE,JAMMU & KASHMIR
JAKA0INDORE,The Jammu and Kashmir Bank,JAKA0INDORE,452051002,INDORE,"BABADEEP COMPLEX, MAHARANI ROAD, INDORE.",0731-2538885,INDORE,INDORE,MADHYA PRADESH
JAKA0INTDIV,The Jammu and Kashmir Bank,JAKA0INTDIV,190051032,INTERNATIONAL BANKING DIVISION,JK BANK ZONAL OFFICE . M A ROAD SRINAGAR,0194-2450637,SRINAGAR,SRINAGAR,JAMMU & KASHMIR
JAKA0JAAKHH,The Jammu and Kashmir Bank,JAKA0JAAKHH,NON MICR,JAKH,"NATIONAL HIGHWAY, JAKH, DISTRICT-SAMBA, PIN CODE-184120",01923-242939,JAKH,JAMMU,JAMMU & KASHMIR
JAKA0JADEED,The Jammu and Kashmir Bank,JAKA0JADEED,NON MICR,JADEED ROAD,"JADEED ROAD, DISTRICT-BARAMULLA, PIN CODE-193101",9697948031,BARAMULLA,BARAMULLA,JAMMU & KASHMIR
JAKA0JAGANO,The Jammu and Kashmir Bank,JAKA0JAGANO,NON MICR,JAGANU,"JAGANU UDHAMPUR, JAMMU",01992-244559,JAGANOO,UDAMPUR,JAMMU & KASHMIR
JAKA0JAGTEE,The Jammu and Kashmir Bank,JAKA0JAGTEE,NON MICR,JAGTI TOWNSHIP,"LANE NO. 23, JAGTI TOWNSHIP (NAGROTA), DISTRICT-JAMMU, PIN CODE-181221",9419117442,NAGROTA,JAMMU,JAMMU & KASHMIR
JAKA0JAIPUR,The Jammu and Kashmir Bank,JAKA0JAIPUR,302051001,JAIPUR,"JAIPURPANCHBATTI CHOWK, M.I. ROAD, JAIPUR-302001",0141-2372522,JAIPUR,JAIPUR,RAJASTHAN
JAKA0JAKYAS,The Jammu and Kashmir Bank,JAKA0JAKYAS,NON MICR,JAYKAS,"JHAKYAS THATRI,DODA J&K.",09906067058,THATRI,DODA,JAMMU & KASHMIR
JAKA0JAWHAR,The Jammu and Kashmir Bank,JAKA0JAWHAR,NON-MICR,"JAWHAR NAGAR, RAJOURI","JAWHAR NAGAR, RAJOURI",951962263541,RAJOURI,RAJOURI,JAMMU & KASHMIR
JAKA0JEHLUM,The Jammu and Kashmir Bank,JAKA0JEHLUM,NON MICR,URI MAIN,"URI MAIN CHOWK, BARAMULLA KASHMIR",01956-244204,URI,URI,JAMMU & KASHMIR
JAKA0JNAGAR,The Jammu and Kashmir Bank,JAKA0JNAGAR,190051036,"""JAWAHAR NAGAR, SRINAGAR""","THE JAMMU AND KASHMIR BANK LTD,JAWAHAR NAGAR SRINAGAR;KASHMIR",0194-2313614,SRINAGAR,SRINAGAR,JAMMU & KASHMIR
JAKA0JNGRAL,The Jammu and Kashmir Bank,JAKA0JNGRAL,NON MICR,MOGHLA JENGRAL,"MOGHLA JENGRAL,RAJOURI,J&K",09419170604,JENGRAL,RAJOURI,JAMMU & KASHMIR
JAKA0JORIAN,The Jammu and Kashmir Bank,JAKA0JORIAN,NON MICR,JOURIAN,"NEAR COMMUNITY HEALTH CENTRE, INDRI PATTAN ROAD, JOURIAN, DISTRICT JAMMU PIN CODE 181202",9906901012,JAURIAN,JAMMU,JAMMU & KASHMIR
JAKA0JULUND,The Jammu and Kashmir Bank,JAKA0JULUND,144051001,JALLANDAR,"G.T.ROAD, ADDA BASTI, JALLANDHAR (PUNJAB)",0181-2405306,JALANDHAR,JALANDHAR,PUNJAB
JAKA0JYOTIE,The Jammu and Kashmir Bank,JAKA0JYOTIE,NON MICR,MAIN BAZAR JYOTIPURAM,"MAIN BAZAR JYOTIPURAM, REASI JAMMU",01991-255020,REASI,REASI,JAMMU & KASHMIR
JAKA0KACHDR,The Jammu and Kashmir Bank,JAKA0KACHDR,NON MICR,KACHDOORA,"KACHDOORA,SHOPIAN, PULWAMA, J&K",01933-260803,SHOPIAN,PULWAMA,JAMMU & KASHMIR
JAKA0KADDAR,The Jammu and Kashmir Bank,JAKA0KADDAR,NON MICR,KADDER," KADDER KULGAM,ANANTNAG, J&K.",09906966585,KADDAR,ANANTNAG,JAMMU & KASHMIR
JAKA0KAHARA,The Jammu and Kashmir Bank,JAKA0KAHARA,NON MICR,KAHARA,"KAHARA THATRI,DODA, J&K",09419176842,THATRI,DODA,JAMMU & KASHMIR
JAKA0KAKPUR,The Jammu and Kashmir Bank,JAKA0KAKPUR,NON MICR,KAKAPORA,"KAKAPORA,PULWAMA,J&K",01933-265244,KAKAPORA,PULWAMA,JAMMU & KASHMIR
JAKA0KALBAA,The Jammu and Kashmir Bank,JAKA0KALBAA,400051003,KALBADEVI,"THE JAMMU AND KASHMIR BANK LTD, SHOPPING ARCADE, BHANGWADI, KALBADEVI, MUMBAI - 2",022-22034155,MUMBAI,GREATER BOMBAY,MAHARASHTRA
JAKA0KALKAT,The Jammu and Kashmir Bank,JAKA0KALKAT,NON MICR,KALAKOTE,"KALAKOTE, RAJOURI",01964-275027,SHANKERPURI(KALAKOT),RAJOURI,JAMMU & KASHMIR
JAKA0KANGAN,The Jammu and Kashmir Bank,JAKA0KANGAN,NON MICR,"KANGAN, GANDERBAL","KANGAN, GANDERBAL,-JAMMU AND KASHMIR",0194-2418221,GANDERBAL,GANDERBAL,JAMMU & KASHMIR
JAKA0KANPUR,The Jammu and Kashmir Bank,JAKA0KANPUR,208051002,KANPUR,"KANPUR40/115, PARADE, KANPUR",0512-2319043,KANPUR CITY,KANPUR NAGAR,UTTAR PRADESH
JAKA0KAPRIN,The Jammu and Kashmir Bank,JAKA0KAPRIN,NON MICR,KAPRIN,"KAPRIN, DISTRICT SHOPIAN, J&K PIN 192231",09906202040,KAPRAN,PULWAMA,JAMMU & KASHMIR
JAKA0KARGIL,The Jammu and Kashmir Bank,JAKA0KARGIL,NON MICR,KARGIL (MAIN),"KARGIL LADAKH, J&K",01985-233628,KARGIL,KARGIL,JAMMU & KASHMIR
JAKA0KARNAL,The Jammu and Kashmir Bank,JAKA0KARNAL,NON-MICR,KARNAL,"G.T.ROAD,KARNAL (HARYANA)",0184-2262243,KARNAL,KARNAL,HARYANA
JAKA0KARNBG,The Jammu and Kashmir Bank,JAKA0KARNBG,NON-MICR,"KARAN BAGH, JAMMU","KARAN BAGH, JAMMU",95191226399,JAMMU,JAMMU,JAMMU & KASHMIR
JAKA0KAROLE,The Jammu and Kashmir Bank,JAKA0KAROLE,110051006,KAROL BAGH,"KAROL BAGH6/32-33, WEA, KAROL BAGH, NEW DELHI-110060",011-41451531,DELHI,NEW DELHI,DELHI
JAKA0KARRAN,The Jammu and Kashmir Bank,JAKA0KARRAN,190051037,KARAN NAGAR,GOLE MARKET KARAN NAGAR SRINAGAR,0194-2481635,SRINAGAR,SRINAGAR,JAMMU & KASHMIR
JAKA0KASTIG,The Jammu and Kashmir Bank,JAKA0KASTIG,NON-MICR,"KASTIGARH, DODA","KASTIGARH, DODA",9419264561,DODA,DODA,JAMMU & KASHMIR
JAKA0KATHUA,The Jammu and Kashmir Bank,JAKA0KATHUA,NON MICR,KATHUA MAIN,"MUKHERJI CHOWK,MAIN BAZAR KATHUA-JAMMU AND KASHMIR",0192-2234769,KATHUA,KATHUA,JAMMU & KASHMIR
JAKA0KATTRA,The Jammu and Kashmir Bank,JAKA0KATTRA,NON MICR,"KATRA MAIN, JAMMU",KATRA MAIN,01991232067,JAMMU,JAMMU,JAMMU & KASHMIR
JAKA0KAYRAN,The Jammu and Kashmir Bank,JAKA0KAYRAN,NON MICR,KERAN,"KERAN,KUPWARA,J&K",,KERAN,KUPWARA,JAMMU & KASHMIR
JAKA0KBADDA,The Jammu and Kashmir Bank,JAKA0KBADDA,NON MICR,"K.B. ADDA, BARAMULLA","K.B. ADDA, BARAMULLA, KASHMIR",01952-237779,BARAMULLA,BARAMULLA,JAMMU & KASHMIR
JAKA0KCHJAM,The Jammu and Kashmir Bank,JAKA0KCHJAM,180051034,KACHI CHAWNI,KACHI CHAWNI JAMMU 180001,0191-2561625,JAMMU,JAMMU,JAMMU & KASHMIR
JAKA0KEEPER,The Jammu and Kashmir Bank,JAKA0KEEPER,180051020,RESIDENCY ROAD,RESIDENCY ROAD JAMMU 180001,0191-2574302,JAMMU,JAMMU,JAMMU & KASHMIR
JAKA0KELLER,The Jammu and Kashmir Bank,JAKA0KELLER,NON MICR,KELLER,"KELLER SHOPIAN,PULWAMA, J&K",01933--217600,KELLAR,PULWAMA,JAMMU & KASHMIR
JAKA0KHAAGH,The Jammu and Kashmir Bank,JAKA0KHAAGH,NON-MICR,KHAGH,"KHAGH, BUDGAM,-JAMMU AND KASHMIR",01951-215357,KHAG,BUDGAM,JAMMU & KASHMIR
JAKA0KHALSI,The Jammu and Kashmir Bank,JAKA0KHALSI,NON-MICR,KHALTSI,"KHALTSI, LEH",01982-224025,LEH,LEH,JAMMU & KASHMIR
JAKA0KHANDA,The Jammu and Kashmir Bank,JAKA0KHANDA,NON- MICR,"KHANDA,BUDGAM","KHANDA,BUDGAM,KASHMIR-JAMMU AND KASHMIR",01951-237438,NOWGAM,BADGAM,JAMMU & KASHMIR
JAKA0KHANNA,The Jammu and Kashmir Bank,JAKA0KHANNA,NON-MICR,KHANNA,"OLD SABZI MANDI, G.T.ROAD, KHANNA (PUNJAB)",01628-225272,LUDHIANA,LUDHIANA,PUNJAB
JAKA0KHAYAM,The Jammu and Kashmir Bank,JAKA0KHAYAM,190051039,"""KHAYAM SRINAGAR, KASHMIR""","THE JAMMU AND KASHMIR BANK LTD,KHAM CHOWK SRINAGAR.",9419061732,SRINAGAR,SRINAGAR,JAMMU & KASHMIR
JAKA0KHERBL,The Jammu and Kashmir Bank,JAKA0KHERBL,NON MICR,KHEERIBAL,"KHEERIBAL, ANANTNAG, J&K",0193-2237892,MATTAN,ANANTNAG,JAMMU & KASHMIR
JAKA0KHERRI,The Jammu and Kashmir Bank,JAKA0KHERRI,NON MICR,KHERRI,"KHERRI RAMSOO,DODA, J&K",01923-249204,RAMSOO,DODA,JAMMU & KASHMIR
JAKA0KHMENI,The Jammu and Kashmir Bank,JAKA0KHMENI,NON MICR,KHOMEINI CHOWK BEMINA,"KHOMEINI CHOWK BEMINA,-JAMMU AND KASHMIR",9419066649,SRINAGAR,SRINAGAR,JAMMU & KASHMIR
JAKA0KHOJBG,The Jammu and Kashmir Bank,JAKA0KHOJBG,NON MICR,"KHAWAJA BAGH MAIN, ","KHWAJA BAGH BARAMULLA,",01952-236672,BARAMULLA,BARAMULLA,JAMMU & KASHMIR
JAKA0KHOONI,The Jammu and Kashmir Bank,JAKA0KHOONI,NON-MICR,"KHOON, UDHAMPUR","KHOON, UDHAMPUR",951990224130,UDHAMPUR,UDHAMPUR,JAMMU & KASHMIR
JAKA0KHUDWN,The Jammu and Kashmir Bank,JAKA0KHUDWN,NON MICR,KHUDWANI,"KHUDWANI,ANANTNAG,J&K",01931-238455,ANANTNAG,ANANTNAG,JAMMU & KASHMIR
JAKA0KISHEN,The Jammu and Kashmir Bank,JAKA0KISHEN,NON MICR,KISHENPUR,"KISHENPUR, KATHUA, J&K",01921-222044,KISHENPUR,KATHUA,JAMMU & KASHMIR
JAKA0KLAROS,The Jammu and Kashmir Bank,JAKA0KLAROS,193-051-204,KALAROOCH,"KALAROOCH,,KUPWARA",01955-253142,KALAROOCH,KUPWARA,JAMMU & KASHMIR
JAKA0KLGUND,The Jammu and Kashmir Bank,JAKA0KLGUND,NON MICR,KRALGUND,"KRALGUND, QAZIABAD, LANGATE, HANDWARA, DISTRICT-KUPWARA, PIN CODE-193302",9419424193,KRAL GUND,KUPWARA,JAMMU & KASHMIR
JAKA0KONMOH,The Jammu and Kashmir Bank,JAKA0KONMOH,NON MICR,KHUNMOH,KHUNMOH,951193-3222683,SRINAGAR,SRINAGAR,JAMMU & KASHMIR
JAKA0KOOKER,The Jammu and Kashmir Bank,JAKA0KOOKER,NON MICR,KOKERNAG,"KOKERNAG,ANANTNAG,  J&K",01932-244046,KOKERNAG,ANANTNAG,JAMMU & KASHMIR
JAKA0KOOTTA,The Jammu and Kashmir Bank,JAKA0KOOTTA,NON-MICR,"KOOTAH, DISTT. KATHUA","KOOTAH, DISTT KATHUA,-JAMMU AND KASHMIR",01922-234769,KATHUA,KATHUA,JAMMU & KASHMIR
JAKA0KREERI,The Jammu and Kashmir Bank,JAKA0KREERI,NON MICR,KREERI,"KRERI, BARAMULLA, J&K",01952-257351,KRERI,BARAMULLA,JAMMU & KASHMIR
JAKA0KSAHIB,The Jammu and Kashmir Bank,JAKA0KSAHIB,NON-MICR,KHANSAHEB,"KHANSAHIB BUDGAM,-JAMMU AND KASHMIR",01951-277226,KHAN-SAHEB,BUDGAM,JAMMU & KASHMIR
JAKA0KSHORE,The Jammu and Kashmir Bank,JAKA0KSHORE,NON MICR,"KRIMSHORE,BUDGAM","KRIMSHORE,BUDGAM , KASHMIR",01951-265347,BUDGAM,BUDGAM,JAMMU & KASHMIR
JAKA0KSTWAR,The Jammu and Kashmir Bank,JAKA0KSTWAR,NON MICR,KISHTWAR,"KISHTWAR MAIN, J&K",01995-259310,KISHTWAR,DODA,JAMMU & KASHMIR
JAKA0KUCHIE,The Jammu and Kashmir Bank,JAKA0KUCHIE,682051002,KOCHI,"ERNAKULUM, M.G. ROAD, KOCHI- 682035",0484-2381073,ERNAKULAM,ERNAKULAM,KERALA
JAKA0KULEED,The Jammu and Kashmir Bank,JAKA0KULEED,NON MICR,KULEED,"NEAR D.C. OFFICE, WASSAR(KULEED), DISTRICT-KISHTWAR, PIN CODE-182204",9858576415,KISHTWAR,DODA,JAMMU & KASHMIR
JAKA0KULGAM,The Jammu and Kashmir Bank,JAKA0KULGAM,NON- MICR,KULGAM MAIN,"NEAR DEGREE COLLEGE,KULGAM ANG-JAMMU AND KASHMIR",951931-260218,KULGAM,KULGAM,JAMMU & KASHMIR
JAKA0KULIAN,The Jammu and Kashmir Bank,JAKA0KULIAN,NON MICR,KULLIAN,"KULLIAN, NEAR MIRAN SAHIB, R.S. PURA ROAD, DISTRICT-JAMMU, PIN CODE-181102",9622216333,MIRAN SAHIB,JAMMU,JAMMU & KASHMIR
JAKA0KULLAN,The Jammu and Kashmir Bank,JAKA0KULLAN,NON MICR,KULANGAM,"KULANGAM, DISTRICT-KUPWARA, PIN CODE-193221",9596231117,CHUGAL,KUPWARA,JAMMU & KASHMIR
JAKA0KULLOO,The Jammu and Kashmir Bank,JAKA0KULLOO,NON-MICR,KULLU,"AKHARA BAZAR, KULLU (HP)",01902-228075,KULU,KULLU,HIMACHAL PRADESH
JAKA0KUNZER,The Jammu and Kashmir Bank,JAKA0KUNZER,NON MICR,KUNZER,"KUNZER, GULMARG ROAD, TEHSIL TANGMARG,BARAMULLA",01954-255355,KUNZAR,BARAMULLA,JAMMU & KASHMIR
JAKA0LADHOO,The Jammu and Kashmir Bank,JAKA0LADHOO,NON MICR,LADHU,"LADHU,PULWAMA,J&K",01933-246030,LADHU,PULWAMA,JAMMU & KASHMIR
JAKA0LAJORA,The Jammu and Kashmir Bank,JAKA0LAJORA,NON MICR,LAJORA,"LAJORA, PULWAMA",01933-212313,LAJURA,PULWAMA,JAMMU & KASHMIR
JAKA0LAJPAT,The Jammu and Kashmir Bank,JAKA0LAJPAT,110051012,LAJPAT NAGAR,"LAJPAT NAGARA-17, RING ROAD, LAJPAT NAGAR IV, NEW DELHI-110024",011-32932239,DELHI,NEW DELHI,DELHI
JAKA0LALANG,The Jammu and Kashmir Bank,JAKA0LALANG,191010023,LAL CHOWK ANANTNAG,"LAL CHOWK ANANTNAG,-JAMMU AND KASHMIR",01932-223433,ANANTNAG,ANANTNAG,JAMMU & KASHMIR
JAKA0LALDED,The Jammu and Kashmir Bank,JAKA0LALDED,190051040,"""LAL DED HOSPITAL, SRINAGAR""","THE JAMMU AND KASHMIR BANK LTD,LAL DED HOSPITAL;SRINAGAR;KMR",0194-2313740,SRINAGAR,SRINAGAR,JAMMU & KASHMIR
JAKA0LALPOR,The Jammu and Kashmir Bank,JAKA0LALPOR,NON MICR,LALPORA," LALPORA LOLAB, KUPWARA,J&K",09906596661,LALPORA,KUPWARA,JAMMU & KASHMIR
JAKA0LANDER,The Jammu and Kashmir Bank,JAKA0LANDER,NON MICR,LANDHER PANCHARI,"LANDHER PANCHERI, UDHAMPUR, J&K",01991-285503,LANDHAR,UDHAMPUR,JAMMU & KASHMIR
JAKA0LANGAT,The Jammu and Kashmir Bank,JAKA0LANGAT,NON MICR,LANGATE,"LANGATE, KUPWARA, J&K",01955-216225,LANGATE,KUPWARA,JAMMU & KASHMIR
JAKA0LARKIP,The Jammu and Kashmir Bank,JAKA0LARKIP,NON MICR,LARKIPORA,"LARKIPORA,ANANTNAG, J&K",01932-245078,LARKIPORA,ANANTNAG,JAMMU & KASHMIR
JAKA0LARNOO,The Jammu and Kashmir Bank,JAKA0LARNOO,NON MICR,LARNOO,"LARNOO CAMP VAILOO ANANTNAG, J&K",09906969903,LARNOO,ANANTNAG,JAMMU & KASHMIR
JAKA0LASANA,The Jammu and Kashmir Bank,JAKA0LASANA,NON MICR,LASSANA,"LASSANA,POONCH ,J&K",01965-220248,LASSANA,POONCH,JAMMU & KASHMIR
JAKA0LASIPR,The Jammu and Kashmir Bank,JAKA0LASIPR,NON MICR,"INDUSTRIAL GROWRH,CENTRE,LASSPORA","INDUSTRIAL GROWRH,CENTRE,LASSPORA,PULWAMA J&K",01933-290397,PULWAMA,PULWAMA,JAMMU & KASHMIR
JAKA0LASJAN,The Jammu and Kashmir Bank,JAKA0LASJAN,190051042,LASJAN,LASJAN,0194-2467165,SRINAGAR,SRINAGAR,JAMMU & KASHMIR
JAKA0LATTEE,The Jammu and Kashmir Bank,JAKA0LATTEE,NON MICR,LATTI,"LATTI UDHAMPUR,J&K",01992-283221,LATHI,UDHAMPUR,JAMMU & KASHMIR
JAKA0LBAZAR,The Jammu and Kashmir Bank,JAKA0LBAZAR,180051011,LAKHDATA BAZAR,LAKHDATA BAZAR JAMMU 180001,0191-2579661,JAMMU,JAMMU,JAMMU & KASHMIR
JAKA0LETPUR,The Jammu and Kashmir Bank,JAKA0LETPUR,NON MICR,LETHPORA,"LETHPORA, PULWAMA",01933-246294,LETPORE,PULWAMA,JAMMU & KASHMIR
JAKA0LINKRO,The Jammu and Kashmir Bank,JAKA0LINKRO,180051010,LINK ROAD,LINK ROAD JAMMU 180001,0191-2578480,JAMMU,JAMMU,JAMMU & KASHMIR
JAKA0LITTER,The Jammu and Kashmir Bank,JAKA0LITTER,NON MICR,LITTER,"LITTER,PULWAMA,J&K",01933-264404,LITTER,PULWAMA,JAMMU & KASHMIR
JAKA0LUDHIA,The Jammu and Kashmir Bank,JAKA0LUDHIA,141051002,CHUARA BAZAR,"CHAURA BAZAR, LUDHAINA (PUNJAB)",011-23272400,LUDHIANA,LUDHIANA,PUNJAB
JAKA0LUKNOW,The Jammu and Kashmir Bank,JAKA0LUKNOW,226051002,LUKHNOW,"LUCKNOWAMEEN COMPLEX, VICTORIA STREET NAKHAS, AKBARI GATE, LUCKNOW",0522-2264320,LUCKNOW,LUCKNOW,UTTAR PRADESH
JAKA0LUXURY,The Jammu and Kashmir Bank,JAKA0LUXURY,180051023,SHALAMAR ROAD,SHALIMAR ROAD JAMMU 180001,0191-2579701,JAMMU,JAMMU,JAMMU & KASHMIR
JAKA0MACHAN,The Jammu and Kashmir Bank,JAKA0MACHAN,NON MICR,MACHHEDI BILLAWAR,"MACHHEDI TEHSIL BILLAWAR, DISTT. KATHUA, J&K",09697231529,MACHHEDI,KATHUA,JAMMU & KASHMIR
JAKA0MADRAS,The Jammu and Kashmir Bank,JAKA0MADRAS,600051002,MAIN CHENNAI,"MOUNT ROAD, ANNA SALAI, NEAR T.N. ELECTRICITY BOARD, CHENNAI- 600002 (T.N)",44-28515260,CHENNAI,CHENNAI,TAMIL NADU
JAKA0MAGGAM,The Jammu and Kashmir Bank,JAKA0MAGGAM,NON MICR,MAGAM,"MAGAM BADGAM, KASHMIR",01951-272226,BADGAM,BADGAM,JAMMU & KASHMIR
JAKA0MAHANP,The Jammu and Kashmir Bank,JAKA0MAHANP,NON- MICR,MAHANPUR,"MAHANPUR,TEHSIL BASOLI KATHUA-JAMMU AND KASHMIR",951921-254026,KATHUA,KATHUA,JAMMU & KASHMIR
JAKA0MAHDEV,The Jammu and Kashmir Bank,JAKA0MAHDEV,NON MICR,SUDH MAHADEV,"SUDH MAHADEV, UDHAMPUR,J&K",01992-289673,SHUDMAHDEV,UDHAMPUR,JAMMU & KASHMIR
JAKA0MAHIMM,The Jammu and Kashmir Bank,JAKA0MAHIMM,400051011,MAHIM,"SYED HOUSE, 124-A/B, S. V. SAVARKAR  MARG, MAHIM (W), MUMBAI-400 016.",022-24469979,MUMBAI,GREATER BOMBAY,MAHARASHTRA
JAKA0MAHORE,The Jammu and Kashmir Bank,JAKA0MAHORE,182051255,MAHORE,"MAHORE, DISTRICT REASI, J&K, PIN 182315",01999-222286,MAHORE,UDHAMPUR,JAMMU & KASHMIR
JAKA0MAHRAJ,The Jammu and Kashmir Bank,JAKA0MAHRAJ,NON-MICR,MAHARAJ GUNJ,MAHARAJ GUNJ. SRINAGAR,0194-2471546,SRINAGAR,SRINAGAR,JAMMU & KASHMIR
JAKA0MAIDAN,The Jammu and Kashmir Bank,JAKA0MAIDAN,NON MICR,"KHARA MAIDANA SAMBA, ","KHARA MAIDANA SAMBA,,JAMMU-JAMMU AND KASHMIR",01923-249204,JAMMU,JAMMU,JAMMU & KASHMIR
JAKA0MAJLIS,The Jammu and Kashmir Bank,JAKA0MAJLIS,NON MICR,MAIN TOWN,MAIN TOWN,951951-255228,BUDGAM,BADGAN,JAMMU & KASHMIR
JAKA0MANAJA,The Jammu and Kashmir Bank,JAKA0MANAJA,NON MICR,MANJAKOTE,"MANJAKOTE, DISTRICT-RAJOURI, PIN CODE-185131",9419660730,MUNJAKOT,RAJOURI,JAMMU & KASHMIR
JAKA0MANALI,The Jammu and Kashmir Bank,JAKA0MANALI,NON-MICR,MANALI,"GOVINDA SHOPPING COMPLEX, OLD MISSION ROAD, MANALI (HP)",01902-253779,MANALI,KULLU,HIMACHAL PRADESH
JAKA0MANDIE,The Jammu and Kashmir Bank,JAKA0MANDIE,NON MICR,MANDI,"MANDI POONCH,J&K",01965-257222,MANDI,POONCH,JAMMU & KASHMIR
JAKA0MANGAL,The Jammu and Kashmir Bank,JAKA0MANGAL,575051002,MANGLORE,"POOJA ARCADE, K.S. RAO ROAD, MANGALORE- 575001",824-2440261,MANGALORE,DAKSHINA KANNADA,KARNATAKA
JAKA0MANGAM,The Jammu and Kashmir Bank,JAKA0MANGAM,NON MICR,MANIGAM,"MANIGAM, DIST. GANDERBAL, J&K PIN 191201",09906694756,MANIGAM,SRINAGAR,JAMMU & KASHMIR
JAKA0MANSSA,The Jammu and Kashmir Bank,JAKA0MANSSA,NON-MICR,MANSA,"GAUSHALLA ROAD, MANSA (PUNJAB)",01652-225868,MANSA,MANSA,PUNJAB
JAKA0MARBLE,The Jammu and Kashmir Bank,JAKA0MARBLE,NON MICR,KRALPORA,"KRALPORA KUPWARA, KASHMIR",01955-246301,KRALPORA,KUPWARA,JAMMU & KASHMIR
JAKA0MARDAN,The Jammu and Kashmir Bank,JAKA0MARDAN,190051007,BAGHI ALI MARDAN KHAN SRINAGAR,"THE JAMMU AND KASHMIR BANK LTD;MAIN CHOWK,BAGHI ALI MARDAN KHAN,SRINAGAR.",2424751/2411040,SRINAGAR,SRINAGAR,JAMMU & KASHMIR
JAKA0MARHEN,The Jammu and Kashmir Bank,JAKA0MARHEN,NON MICR,"MARHEEN,HIRANAGER KATHUA","MARHEEN,HIRANAGER KATHUA",01922-258027,KATHUA,KATHUA,JAMMU & KASHMIR
JAKA0MARHJM,The Jammu and Kashmir Bank,JAKA0MARHJM,NON MICR,MARH," MARH, DIST. JAMMU PIN CODE 180002",9796480068,MARH,JAMMU,JAMMU & KASHMIR
JAKA0MARHMA,The Jammu and Kashmir Bank,JAKA0MARHMA,NON MICR,MARHAMA,"MARHAMA BIJBEHARA, ANANTNAG",01932-233274,MARHAMA,ANANTNAG,JAMMU & KASHMIR
JAKA0MARKET,The Jammu and Kashmir Bank,JAKA0MARKET,NON-MICR,MAIN BAZAR SOPORE,"MAIN BAZAR SOPORE,,BARAMULLA-JAMMU AND KASHMIR",01954-222344,SOPORE,BARAMULLA,JAMMU & KASHMIR
JAKA0MARMAT,The Jammu and Kashmir Bank,JAKA0MARMAT,NON MICR,GOHA MARMAT,"NEAR BUS STAND, GOHA MARMAT, DISTRICT-DODA, PIN CODE-182201",9906028151,KHILANI,DODA,JAMMU & KASHMIR
JAKA0MAROAD,The Jammu and Kashmir Bank,JAKA0MAROAD,400051006,MOHAMMAD ALI ROAD,"THE JAMMU AND KASHMIR BANK LTD, NOOR MOHAMMED CO-OP SOCIETY LTD. GROUND FLOOR, M.A.ROAD, MUMBAI - 55",022-23446861,MUMBAI,GREATER BOMBAY,MAHARASHTRA
JAKA0MASTER,The Jammu and Kashmir Bank,JAKA0MASTER,190051019,APEX BRANCH,APEX BRANCH J&K BANK CHQ MA ROAD SRINAGAR,1942472589,SRINAGAR,SRINAGAR,JAMMU & KASHMIR
JAKA0MEDJAM,The Jammu and Kashmir Bank,JAKA0MEDJAM,180051014,MEDICAL COLLEGE,MEDICAL COLLEGE JAMMU 180001,0191-2580380,JAMMU,JAMMU,JAMMU & KASHMIR
JAKA0MEERUT,The Jammu and Kashmir Bank,JAKA0MEERUT,NON-MICR,MEERUT,"MEERUT43, BEGUM BRIDGE ROAD, MEERUT-250001",0121-2653657,MEERUT,MEERUT,UTTAR PRADESH
JAKA0MEHIND,The Jammu and Kashmir Bank,JAKA0MEHIND,NON MICR,MEHIND,"NEAR MASJID SHARIF, MEHIND, DISTRICT-ANANTNAG, PIN CODE-192401",9622649222,SHRIGOPHWARA,ANANTNAG,JAMMU & KASHMIR
JAKA0MEHTAB,The Jammu and Kashmir Bank,JAKA0MEHTAB,190051009,BAGH-E-MEHTAB,BAGH-E-MEHTAB,0194-2132974,SRINAGAR,SRINAGAR,JAMMU & KASHMIR
JAKA0MENDER,The Jammu and Kashmir Bank,JAKA0MENDER,NON MICR,MENDHER,"MAIN MARKET MENDHAR, POONCH",01965-226141,MENDHAR,POONCH,JAMMU & KASHMIR
JAKA0MGRANT,The Jammu and Kashmir Bank,JAKA0MGRANT,NON MICR,MIGRANT COUNTER,"MIGRANT COUNTER, UDHAMPUR",01992-200026,UDHAMPUR,UDHAMPUR,JAMMU & KASHMIR
JAKA0MHMDPR,The Jammu and Kashmir Bank,JAKA0MHMDPR,NON MICR,MOHAMMAD PORA,"MOHAMMAD PORA, KULGAM, J&K",01931-212813,KULGAM,KULGAM,JAMMU & KASHMIR
JAKA0MIRAAN,The Jammu and Kashmir Bank,JAKA0MIRAAN,180051013,"MIRAN SAHIB, JAMMU","MIRAN SAHIB ,  ",01923263245,JAMMU,JAMMU,JAMMU & KASHMIR
JAKA0MIRARD,The Jammu and Kashmir Bank,JAKA0MIRARD,400051005,MIRA ROAD,"THE JAMMU AND KASHMIR BANK LTD, JANGID COMPLEX, BEHIND SILVER BHAYANDER ROAD, MIRA ROAD, THANE, MUMBAI - 400107",022-28103130,MUMBAI,GREATER BOMBAY,MAHARASHTRA
JAKA0MIRBZR,The Jammu and Kashmir Bank,JAKA0MIRBZR,NON MICR,MIR BAZAR QAZIGUND,"MIR BAZAR, QAZIGUND, ANANTNAG- J&K",01932-231400,QAZIGUND,ANANTNAG,JAMMU & KASHMIR
JAKA0MISHRI,The Jammu and Kashmir Bank,JAKA0MISHRI,NON MICR,JAMMU,"MISHRIWALA JAMMU,,J&K",,JAMMU,JAMMU,JAMMU & KASHMIR
JAKA0MJALTA,The Jammu and Kashmir Bank,JAKA0MJALTA,NON MICR,MAJALTA,"MAJALTA, UDHAMPUR",01990-221261,MAJALTA,UDHAMPUR,JAMMU & KASHMIR
JAKA0MMYDAN,The Jammu and Kashmir Bank,JAKA0MMYDAN,NON MICR,MUGAL MAIDAN,"MUGHAL MAIDAN, DISTRICT-KISHTWAR, PIN CODE-182205",9697586520,CHATROO,DODA,JAMMU & KASHMIR
JAKA0MNZGAM,The Jammu and Kashmir Bank,JAKA0MNZGAM,NON MICR,MANZGAM," MANZGAM, KULGAM,ANANTNAG, J&K.",01931-212915,MANZGAM,ANANTNAG,JAMMU & KASHMIR
JAKA0MOGAPB,The Jammu and Kashmir Bank,JAKA0MOGAPB,NON-MICR,MOGA,"COURT ROAD, MOGA (PUNJAB)",01636-229155,MOGA,MOGA,PUNJAB
JAKA0MOGHUL,The Jammu and Kashmir Bank,JAKA0MOGHUL,282051002,AGRA,"AGRAHING KI MANDI, MUNICIPAL NO. 8/213, AGRA (UP)",0562-2460281,AGRA,AGRA,UTTAR PRADESH
JAKA0MOHALI,The Jammu and Kashmir Bank,JAKA0MOHALI,160051002,MOHALI,"J&K BANK BUILDING, SECTOR - 54, PHASE - 2, MOHALI (PUNJAB)",0172-2228938,SAS NAGAR(MOHALI),RUPNAGAR,PUNJAB
JAKA0MOVING,The Jammu and Kashmir Bank,JAKA0MOVING,190051044,MOVING SECTRETARIAT,MOVING SECRETARIAT.   SRINAGAR,0194-2459195,SRINAGAR,SRINAGAR,JAMMU & KASHMIR
JAKA0MUNAND,The Jammu and Kashmir Bank,JAKA0MUNAND,NON MICR,MUNAND GUFFAN,"NEAR SUMO STAND, MUNAND GUFFAN , YARIPORA,DISTRICT-KULGAM, PIN CODE-192232",9622601050,YARIPORA,ANANTNAG,JAMMU & KASHMIR
JAKA0MURABD,The Jammu and Kashmir Bank,JAKA0MURABD,NON-MICR,MORADABAD,"MORADABADCHADHA SHOPPING COMPLEX, GMD ROAD, MORADABAD-244001",0591-2314665,MORADABAD,MORADABAD,UTTAR PRADESH
JAKA0MURRAN,The Jammu and Kashmir Bank,JAKA0MURRAN,NON MICR,MURRAN ADDA,MURRAN ADDA,951933-240424,PULWAMA,PULWAMA,JAMMU & KASHMIR
JAKA0MVIHAR,The Jammu and Kashmir Bank,JAKA0MVIHAR,110051024,MAYUR VIHAR,"MAYUR VIHARA-6, ACHARYA NIKETAN, MAYUR VIHAR, PHASE I, FIRST FLOOR, DELHI-110092",011-22751631,DELHI,NEW DELHI,DELHI
JAKA0MYSORE,The Jammu and Kashmir Bank,JAKA0MYSORE,570051002,MYSORE,"1137, NARAYANA SHASTRI ROAD, DEVARAJ MOHALLA,MYSORE-1",821-2428468,MYSORE,MYSORE,KARNATAKA
JAKA0NAALLA,The Jammu and Kashmir Bank,JAKA0NAALLA,190051047,NALLAHMAR,"BOHRI KADAL, NALLAH MAR RD. SRINAGAR. KASHMIR",0194-2455732,SRINAGAR,SRINAGAR,JAMMU & KASHMIR
JAKA0NAASIK,The Jammu and Kashmir Bank,JAKA0NAASIK,400051002,NASHIK,"VIRAJ COMPLEX, SHOP NO. 13 & 14, GROUND FLOOR, CANDA CORNER, SHARANPUR ROAD, NASIK-422002.",253-2316295,NASHIK,NASHIK,MAHARASHTRA
JAKA0NABERA,The Jammu and Kashmir Bank,JAKA0NABERA,190051035,JAHANGIR CHOWK NABIRA COMPLEX,"THE JAMMU AND KASHMIR BANK LTD,JAHANGIR CHOWK SRINAGAR;KASHMIR.",0194-2458359,SRINAGAR,SRINAGAR,JAMMU & KASHMIR
JAKA0NAGGAM,The Jammu and Kashmir Bank,JAKA0NAGGAM,NON-MICR,NAGGAM,"NAGGAM,CHADURA,BADGAM ,J&K",09622449632,NAGAM,BADGAM,JAMMU & KASHMIR
JAKA0NAGPUR,The Jammu and Kashmir Bank,JAKA0NAGPUR,440051000,NAGPUR,"22/30 WARD NO. 38, NEW RESIDENCY ROAD, SADAR, NAGAPUR.",712-2520148,NAGPUR,NAGPUR,MAHARASHTRA
JAKA0NAGROT,The Jammu and Kashmir Bank,JAKA0NAGROT,NON MICR,"""NAGROTA,JAMMU""","THE JAMMU AND KASHMIR BANK LTD,NAGROOTA JAMMU,J&K",0191-2673823,SRINAGAR,SRINAGAR,JAMMU & KASHMIR
JAKA0NAGSEN,The Jammu and Kashmir Bank,JAKA0NAGSEN,NON-MICR,NAGSENI,"NAGSENI, KISHTWAR, J&K",09419147217,KISHTWAR,DODA,JAMMU & KASHMIR
JAKA0NALANG,The Jammu and Kashmir Bank,JAKA0NALANG,NON MICR,NANIL,"NANIL ,ANANTNAG, J&K",01932-240173,NANILANG,ANANTNAG,JAMMU & KASHMIR
JAKA0NANDAN,The Jammu and Kashmir Bank,JAKA0NANDAN,NON-MICR,NANDANI HILLS SAMBA,"D.C. OFFICE COMPLEX, NANDANI HILLS DIST. SAMBA PIN:184121",09419139387,SAMBA,SAMBA,JAMMU & KASHMIR
JAKA0NANNAK,The Jammu and Kashmir Bank,JAKA0NANNAK,180051016,NANAK NAGAR,NANAK NAGAR JAMMU180004,0191-2430880,JAMMU,JAMMU,JAMMU & KASHMIR
JAKA0NARAIN,The Jammu and Kashmir Bank,JAKA0NARAIN,110051009,NARAINA,"NARAINAC-42, COMMUNITY CENTRE, NARAINA, NEW DELHI-110028",101-25792629,DELHI,NEW DELHI,DELHI
JAKA0NARBAL,The Jammu and Kashmir Bank,JAKA0NARBAL,NON MICR,NARBAL,NARBAL BADGAM,01951260232,BADGAM,BADGAM,JAMMU & KASHMIR
JAKA0NASEEM,The Jammu and Kashmir Bank,JAKA0NASEEM,191051028,"""UNIVERSITY CAMPUS, HAZRATBAL""","THE JAMMU AND KASHMIR BANK LTD,UNIVERSITY CAMPUS HAZRATBAL;SRINAGAR-190015",0194-2423221,SRINAGAR,SRINAGAR,JAMMU & KASHMIR
JAKA0NASRUL,The Jammu and Kashmir Bank,JAKA0NASRUL,NON MICR,NASRULLAH PORA,NASRULLAH PORA,951951-256348,BUDGAM,BADGAN,JAMMU & KASHMIR
JAKA0NATIPR,The Jammu and Kashmir Bank,JAKA0NATIPR,190051049,NATIPORA,BUDSHAH NAGAR NATIPORA,09419085337,SRINAGAR,SRINAGAR,JAMMU & KASHMIR
JAKA0NDKHAI,The Jammu and Kashmir Bank,JAKA0NDKHAI,NON MICR,NAIDKHAI,"NAIDKHAI,BARAMULLA,J&K",01954-216940,NAIDKHAI,BARAMULLA,JAMMU & KASHMIR
JAKA0NEEWAH,The Jammu and Kashmir Bank,JAKA0NEEWAH,NON MICR,NEWA,"NEWA,PULWAMA,J&K",01933-241725,NEWA,PULWAMA,JAMMU & KASHMIR
JAKA0NEHROO,The Jammu and Kashmir Bank,JAKA0NEHROO,180051015,NEHROO MARKET,NEHROO MARKET JAMMU180001,0191-2435273,JAMMU,JAMMU,JAMMU & KASHMIR
JAKA0NEWPLT,The Jammu and Kashmir Bank,JAKA0NEWPLT,180051049,NEW PLOT JAMMU,"NEW PLOT,DREAM LAND SCHOOL JAMMU-180005",0191-2563172,JAMMU,JAMMU,JAMMU & KASHMIR
JAKA0NGSHAN,The Jammu and Kashmir Bank,JAKA0NGSHAN,NON MICR,NOWGAM SHANGUS,"MAIN MARKET, NOWGAM SHANGUS, DISTRICT-ANANTNAG, PIN CODE-192201",9906916969,SHANGAS(NOWGAM),ANANTNAG,JAMMU & KASHMIR
JAKA0NIDYAR,The Jammu and Kashmir Bank,JAKA0NIDYAR,190051046,NAIDYAR,NAIDYAR RAINAWARI,0194-2484060,SRINAGAR,SRINAGAR,JAMMU & KASHMIR
JAKA0NIHAMA,The Jammu and Kashmir Bank,JAKA0NIHAMA,NON MICR,NIHAMA KULGAM,"NIHAMA KULGAM,ANANTNAG,J&K",01931-212707,KULGAM,ANANTNAG,JAMMU & KASHMIR
JAKA0NIMMOO,The Jammu and Kashmir Bank,JAKA0NIMMOO,NON MICR,NIMMOO,"NIMMOO, LEH, LADAKH, J&K",0198-2225225,LEH,LADAKH,JAMMU & KASHMIR
JAKA0NISHAT,The Jammu and Kashmir Bank,JAKA0NISHAT,190051017,BREIN NISHAT,BREIN NISHAT,0194-2461742,SRINAGAR,SRINAGAR,JAMMU & KASHMIR
JAKA0NOHATA,The Jammu and Kashmir Bank,JAKA0NOHATA,190051054,NOWHATTA,NOWHATTA. SRINAGAR,0194-2455314,SRINAGAR,SRINAGAR,JAMMU & KASHMIR
JAKA0NOORBG,The Jammu and Kashmir Bank,JAKA0NOORBG,190051052,NOORBAGH,NOOR BAGH,09419072658,SRINAGAR,SRINAGAR,JAMMU & KASHMIR
JAKA0NOSHER,The Jammu and Kashmir Bank,JAKA0NOSHER,NON MICR,NOWSHERA,"NOWSHERA, RAJOURI, J&K",01964-230244,NOWSHERA,RAJOURI,JAMMU & KASHMIR
JAKA0NOWBAD,The Jammu and Kashmir Bank,JAKA0NOWBAD,NON MICR,NOWABAD(SUNJAWAN),"B. N. COLLEGE OF EDUCATION, NOWABAD (SUNJAWAN) DIST. JAMMU-180011",9419642410,JAMMU,JAMMU,JAMMU & KASHMIR
JAKA0NOWGAM,The Jammu and Kashmir Bank,JAKA0NOWGAM,190051053,NOWGAM,NOWGAM,0194-2436179,SRINAGAR,SRINAGAR,JAMMU & KASHMIR
JAKA0NUNNAR,The Jammu and Kashmir Bank,JAKA0NUNNAR,NON MICR,NUNNAR,"NUNNAR GANDERBAL, KASHMIR",0194-2416858,GANDERBAL,GANDERBAL,JAMMU & KASHMIR
JAKA0NYOOMA,The Jammu and Kashmir Bank,JAKA0NYOOMA,NON MICR,NYOMA,"NYOMA LEH,LADAKH J&K",01981-222032,NYOMA,LADAKH,JAMMU & KASHMIR
JAKA0OCTROI,The Jammu and Kashmir Bank,JAKA0OCTROI,NON MICR,LAKHANPUR,"LAKHANPUR ,KATHUA,,J&K",01922-285027,LAKHENPUR,KATHUA,JAMMU & KASHMIR
JAKA0OKHLAA,The Jammu and Kashmir Bank,JAKA0OKHLAA,110051017,OKHLA,"OKHLALOCAL SHOPPING COMPLEX, FIRST FLOOR, PHASE II, OKHLA, NEW DELHI-110020",011-41616578,DELHI,NEW DELHI,DELHI
JAKA0OLDBUS,The Jammu and Kashmir Bank,JAKA0OLDBUS,NON MICR,PARLIWAND,PARLIWAND,951922-237189,KATHUA,KATHUA,JAMMU & KASHMIR
JAKA0OLDCHK,The Jammu and Kashmir Bank,JAKA0OLDCHK,NON- MICR,OLD CHOWK KUPWARA,"OLD CHOWK KUPWARA,-JAMMU AND KASHMIR",0-9419006611,KUPWARA,KUPWARA,JAMMU & KASHMIR
JAKA0OMPORA,The Jammu and Kashmir Bank,JAKA0OMPORA,001020001,OMPORA,OMPORA,951951-255863,BUDGAM,BADGAN,JAMMU & KASHMIR
JAKA0OTCBNG,The Jammu and Kashmir Bank,JAKA0OTCBNG,560051003,"OTC, BANGLAORE","SPA PLAZA, O.T.C. ROAD, BANGALORE-560002",80-22231253,BANGALORE,BANGALORE URBAN,KARNATAKA
JAKA0PADDAM,The Jammu and Kashmir Bank,JAKA0PADDAM,NON MICR,PADUM,"PADUM,ZANGSKAR,KARGIL,LADAKH J&K",01983-245014,PADAM-ZANSKAR,KARGIL,JAMMU & KASHMIR
JAKA0PADDAR,The Jammu and Kashmir Bank,JAKA0PADDAR,NON MICR,PADDAR,"PADDAR KISHTWAR DODA,J&K",09419260499,PADDAR,DODA,JAMMU & KASHMIR
JAKA0PAGWAR,The Jammu and Kashmir Bank,JAKA0PAGWAR,NON-MICR,PHAGWARA,"KALRA COMPLEX, OPP. HANUMAN GARI, G.T.ROAD, PHAGWARA (PUNJAB)",01824-264648,PHAGWARA,KAPURTHALA,PUNJAB
JAKA0PAKHER,The Jammu and Kashmir Bank,JAKA0PAKHER,NON MICR,"PAKHERPORA, BUDGAM","PAKHERPORA, BUDGAM,-JAMMU AND KASHMIR",01951-247066,BUDGAM,BUDGAM,JAMMU & KASHMIR
JAKA0PALACE,The Jammu and Kashmir Bank,JAKA0PALACE,110051008,RAJINDRA PLACE,"RAJINDRA PLACE26/34, PAL MOHAN MANSION, RAJINDRA PLACE, NEW DELHI-110008",011-25766214,DELHI,NEW DELHI,DELHI
JAKA0PALHAL,The Jammu and Kashmir Bank,JAKA0PALHAL,NON MICR,PALHALAN,"KITIPORA, PALHALLAN, PATTAN, DISTRICT-BARAMULLA, PIN CODE-193121",9419059670,PALHALAN,BARAMULLA,JAMMU & KASHMIR
JAKA0PANAJI,The Jammu and Kashmir Bank,JAKA0PANAJI,403051002,PANAJI,"OPP HOTEL NOVA GOA,DR. A. B. ROAD, ATMARAM COMMERCIAL COMPLEX, PANAJI GOA-403001.",832-2491083,PANAJI,NORTH GOA,GOA
JAKA0PANCHK,The Jammu and Kashmir Bank,JAKA0PANCHK,NON-MICR,PANCHKULA,"S.C.O. 240, SECTOR -20, PANCHKULA (HARYANA)",0172-2538121,PANCHKULA,PANCHKULA,HARYANA
JAKA0PANPAT,The Jammu and Kashmir Bank,JAKA0PANPAT,NON-MICR,PANIPAT,"G.T.ROAD, PANIPAT (HARYANA)",0180-2664997,PANIPAT,PANIPAT,HARYANA
JAKA0PANTHA,The Jammu and Kashmir Bank,JAKA0PANTHA,190051056,PANTHA CHOWK,PANTHA CHOWK,951933-222164,SRINAGAR,SRINAGAR,JAMMU & KASHMIR
JAKA0PAROLE,The Jammu and Kashmir Bank,JAKA0PAROLE,NON-MICR,PAROLE KATHUA,PAROLE KATHUA,951922281032,KATHUA,KATHUA,JAMMU & KASHMIR
JAKA0PARRYS,The Jammu and Kashmir Bank,JAKA0PARRYS,600051003,PARRYS CHENNAI,"VOLTAS, INTERNATIONAL CENTRE, NO. 52, ARMENIAN STREET, CHENNAI (T.N)",44-25357430,CHENNAI,CHENNAI,TAMIL NADU
JAKA0PATHAN,The Jammu and Kashmir Bank,JAKA0PATHAN,NON-MICR,PATHANKOTE,"GURDASPUR ROAD, WARE HOUSE, PATHANKOTE (PUNJAB)",0186-2220917,PATHANKOT,GURDASPUR,PUNJAB
JAKA0PATHER,The Jammu and Kashmir Bank,JAKA0PATHER,190051012,BATMALLOO,BATMALOO .SRINAGAR,0194-2471143,SRINAGAR,SRINAGAR,JAMMU & KASHMIR
JAKA0PATLIM,The Jammu and Kashmir Bank,JAKA0PATLIM,NON MICR,PATLIMORH,PATLI MORH TARORE SAMBA,01923-210149,SAMBA,SAMBA,JAMMU & KASHMIR
JAKA0PATTAN,The Jammu and Kashmir Bank,JAKA0PATTAN,NON-MICR,PATTAN,"MAIN BAZAR PATTAN,BARAMULLA-JAMMU AND KASHMIR",01954-231221,PATTAN,BARAMULLA,JAMMU & KASHMIR
JAKA0PATTEL,The Jammu and Kashmir Bank,JAKA0PATTEL,180051019,PATEL NAGAR JMU,PATTEL NAGER AKHNOOR ROAD JAMMU. 180001,0191-2505607,JAMMU,JAMMU,JAMMU & KASHMIR
JAKA0PAZAAL,The Jammu and Kashmir Bank,JAKA0PAZAAL,NON MICR,PAZALPORA,"PAZALPORA, DISTRICT-BANDIPORA, PIN CODE-193502",7298684129,BANDIPUR,BARAMULLA,JAMMU & KASHMIR
JAKA0PCKATU,The Jammu and Kashmir Bank,JAKA0PCKATU,NON MICR,P/C KATHUA,PAY COUNTER KATHUA,01922-234160,KATHUA,KATHUA,JAMMU & KASHMIR
JAKA0PCKSTW,The Jammu and Kashmir Bank,JAKA0PCKSTW,NON MICR,PAY COUNTER KISHTWAR,"PAY COUNTER,D C OFFICE,KISHTWAR DODA,,J&K",09419686227,KISHTWAR,DODA,JAMMU & KASHMIR
JAKA0PEHLOO,The Jammu and Kashmir Bank,JAKA0PEHLOO,NON MICR,PEHLOO,"PEHLOO KULGAM ANANTNAG, J&K.",09906638240,KULGAM,ANANTNAG,JAMMU & KASHMIR
JAKA0PHLGAM,The Jammu and Kashmir Bank,JAKA0PHLGAM,NON-MICR,PAHALGAM,"MAIN MARKET, PAHALGAM,ANANTNAG-JAMMU AND KASHMIR",01936-243248,PAHALGAM,ANANTNAG,JAMMU & KASHMIR
JAKA0PHNTER,The Jammu and Kashmir Bank,JAKA0PHNTER,NON-MICR,"PHINTER, KATHUA","PHINTER, KATHUA",951921266662,KATHUA,KATHUA,JAMMU & KASHMIR
JAKA0PINGLE,The Jammu and Kashmir Bank,JAKA0PINGLE,NON MICR,PINGLIN,"NEAR PLYWOOD FACTORY, PINGLENA, DISTRICT-PULWAMA, PIN CODE-192307",9697384219,PULWAMA,PULWAMA,JAMMU & KASHMIR
JAKA0PINJOR,The Jammu and Kashmir Bank,JAKA0PINJOR,NON MICR,"PINJORA SHOPIAN, KASHMIR",PINJORA SHOPIAN,951933260784,SHOPIAN,PULWAMA,JAMMU & KASHMIR
JAKA0PIRPUR,The Jammu and Kashmir Bank,JAKA0PIRPUR,NON MICR,PEERPUR CHOWK,"PEERPORA CHOWK, DISTRICT GANDERBAL, PIN CODE- 191131",9697006847,GANDER BAL,SRINAGAR,JAMMU & KASHMIR
JAKA0PKATRA,The Jammu and Kashmir Bank,JAKA0PKATRA,NON MICR,PAY COUNTER  NIHARIKA,"NIHARIKA, KATRA, DISTRICT REASI",9697241403,UDHAMPUR,KATRA,JAMMU & KASHMIR
JAKA0PLOURA,The Jammu and Kashmir Bank,JAKA0PLOURA,180051048,PALOURA JAMMU,"PLOURA,JAMMU-180021",0191-2591171,JAMMU,JAMMU,JAMMU & KASHMIR
JAKA0PNTHAL,The Jammu and Kashmir Bank,JAKA0PNTHAL,NON MICR,PANTHAL,PANTHAL UDHAMPUR JAMMU,01991-285503,PANTHAL,UDAMPUR,JAMMU & KASHMIR
JAKA0POLICE,The Jammu and Kashmir Bank,JAKA0POLICE,180051030,CHANNI HIMMAT,CHANNI HIMMAT JAMMU,0191-2460038,JAMMU,JAMMU,JAMMU & KASHMIR
JAKA0POLOVW,The Jammu and Kashmir Bank,JAKA0POLOVW,190051059,POLOVIEW,"OPPSOSITE POLOVIEW, THE BUND SRINAGAR, KASHMIR",01942476935/01942474092,SRINAGAR,SRINAGAR,JAMMU & KASHMIR
JAKA0PONGAL,The Jammu and Kashmir Bank,JAKA0PONGAL,NON MICR,POGAL PARISTAN,"NEEL POGAL PARISTAN,RAMBAN DODA,J ",09906202040,POGAL PARISTAN,DODA,JAMMU & KASHMIR
JAKA0POONAH,The Jammu and Kashmir Bank,JAKA0POONAH,411051001,PUNE,"1ST FLOOR, RADIANT RAHEJA MILLINIUM COMPLEX, 284, M. G. ROAD, PUNE-411001",020-40068643,PUNE,PUNE,MAHARASHTRA
JAKA0POUNIE,The Jammu and Kashmir Bank,JAKA0POUNIE,NON MICR,POUNIE,"MAIN MARKET, POUNIE,DISTRICT REASI",01991-256779,REASI,UDHAMPUR,JAMMU & KASHMIR
JAKA0PRIEST,The Jammu and Kashmir Bank,JAKA0PRIEST,NON MICR,LEH MAIN,"LEH MAIN MARKET, LADAKH REGION",01982-252087,LEH,LEH,JAMMU & KASHMIR
JAKA0PRITAM,The Jammu and Kashmir Bank,JAKA0PRITAM,110051026,PRITAMPURA,"PITAMPURAB-161, LOK VIHAR, PITAMPURA, DELHI-110034",011-27352353,DELHI,NEW DELHI,DELHI
JAKA0PRMNGR,The Jammu and Kashmir Bank,JAKA0PRMNGR,NON MICR,PREM NAGAR,"PREM NAGAR, DODA,,J&K",09622126943,THATRI,DODA,JAMMU & KASHMIR
JAKA0PROMPT,The Jammu and Kashmir Bank,JAKA0PROMPT,190051045,NEW SECTT ROAD,SHAHEED GUNJ SRINAGAR KASHMIR,0194-2485762,SRINAGAR,SRINAGAR,JAMMU & KASHMIR
JAKA0QADEEM,The Jammu and Kashmir Bank,JAKA0QADEEM,NON MICR,JAMIA QADEEM SOPORE,JAMIA QADEEM SOPORE BARAMULLA,951954-222217,BARAMULLA,BARAMULLA,JAMMU & KASHMIR
JAKA0QAMMAR,The Jammu and Kashmir Bank,JAKA0QAMMAR,190051057,"""PARIMPORA QAMMARWARI,SGR""","THE JAMMU AND KASHMIR BANK LTD;PARIMPORA,QAMMMARWARI;SRINAGAR.",0194-2491599,SRINAGAR,SRINAGAR,JAMMU & KASHMIR
JAKA0QAZIGD,The Jammu and Kashmir Bank,JAKA0QAZIGD,NON MICR,QAZIGUND,"QAZIGUND,ANANTNAG,J&K",09932-235238,QAZIGUND,ANANTNAG,JAMMU & KASHMIR
JAKA0QLMCHK,The Jammu and Kashmir Bank,JAKA0QLMCHK,NON MICR,QALAMCHAKLA,"QALAMCHAKLA,QALAMABAD,HANDWARA KUPWARA J&K.",09697011395,KALAMCHAKLA,KUPWARA,JAMMU & KASHMIR
JAKA0RADISH,The Jammu and Kashmir Bank,JAKA0RADISH,NON-MICR,"MAIN BAZAR , RAJOURI","MAIN BAZAR , RAJOURI",951962262237,RAJOURI,RAJOURI,JAMMU & KASHMIR
JAKA0RADIUS,The Jammu and Kashmir Bank,JAKA0RADIUS,400051001,"RCC, MUMBAI","RCC, 2ND FLOOR, SAMBAVA CHAMBER, 20, SIR P. M. ROAD, FORT , MUMBAI-400001.",022-22610090,MUMBAI,GREATER BOMBAY,MAHARASHTRA
JAKA0RAIKAB,The Jammu and Kashmir Bank,JAKA0RAIKAB,NON MICR,RAKIBAN,"RAKIBAN, RAJOURI",9419171016,DARHAL(MALKAN),RAJOURI,JAMMU & KASHMIR
JAKA0RAIPUR,The Jammu and Kashmir Bank,JAKA0RAIPUR,492051002,RAIPUR,"SHOP NO. 10/15, 1ST FLOOR, LALGANGA SHOPPING MALL, G. E. ROAD, RAIPUR.",771-4001457,RAIPUR,RAIPUR,CHHATTISGARH
JAKA0RAJBAG,The Jammu and Kashmir Bank,JAKA0RAJBAG,NON MICR,RAJBAGH,"RAJBAGH, DISTRICT KATHUA",9419618857,BARNOTI,KATHUA,JAMMU & KASHMIR
JAKA0RAJPJM,The Jammu and Kashmir Bank,JAKA0RAJPJM,NON MICR,RAJPURA,RAJPORA SAMBA 181145,01922-213381,RAJPURA,SAMBA,JAMMU & KASHMIR
JAKA0RAJPUR,The Jammu and Kashmir Bank,JAKA0RAJPUR,NON MICR,RAJPORA,RAJPORA PULWAMA,01933-278271,RAJPURA,PULWAMA,JAMMU & KASHMIR
JAKA0RAMBAN,The Jammu and Kashmir Bank,JAKA0RAMBAN,NON-MICR,RAMBAN MAIN BRANCH,RAMBAN MAIN BRANCH,951998266631,JAMMU,RAMBAN,JAMMU & KASHMIR
JAKA0RAMGAR,The Jammu and Kashmir Bank,JAKA0RAMGAR,180051057,RAMGARH,"RAMGARH SAMBA,-JAMMU AND KASHMIR",01923-234965,RAMGARH,SAMBA,JAMMU & KASHMIR
JAKA0RAMKOT,The Jammu and Kashmir Bank,JAKA0RAMKOT,NON MICR,RAMKOT,"MAIN MARKET RAMKOT, KATHUA",01921-296064,RAMKOT,KATHUA,JAMMU & KASHMIR
JAKA0RAMNAG,The Jammu and Kashmir Bank,JAKA0RAMNAG,NON MICR,RAMNAGAR,"GAAS MANDI, RAMNAGAR, UDHAMPUR",01990-227828,RAMNAGAR,UDHAMPUR,JAMMU & KASHMIR
JAKA0RANCHI,The Jammu and Kashmir Bank,JAKA0RANCHI,834051002,RANCHI,"RANCHI,DR. FATEULLAH ROAD, LOWER BAZAR, DISTRICT RANCHI, RANCHI (JHARKHAND) 834001",0651-6452115,RANCHI,RANCHI,JHARKHAND
JAKA0RANGRE,The Jammu and Kashmir Bank,JAKA0RANGRE,190051063,RANGRETH,RANGRETH,01951-2300279,BUDGAM,BADGAN,JAMMU & KASHMIR
JAKA0RANIPR,The Jammu and Kashmir Bank,JAKA0RANIPR,NON MICR,RANIPORA,"RANIPORA, ANANTNAG,J&K",09906963957,MATTAN,ANANTNAG,JAMMU & KASHMIR
JAKA0RANRSI,The Jammu and Kashmir Bank,JAKA0RANRSI,NON MICR,RANSOO,"RANSOO (SHIV KHORI) DISTRICT-REASI, PIN CODE-185203",9797327311,RANSOO,UDHAMPUR,JAMMU & KASHMIR
JAKA0RATNIE,The Jammu and Kashmir Bank,JAKA0RATNIE,NON MICR,RATNIPORA,"RATNIPORA PULWAMA,J&K",01933-265083,RATNIPORA,PULWAMA,JAMMU & KASHMIR
JAKA0RAWWAL,The Jammu and Kashmir Bank,JAKA0RAWWAL,190051064,RAWALPORA SRINAGAR,"THE JAMMU AND KASHMIR BANK LTD,RAWALPORA,SRINAGAR;KMR.",0194-2434297,SRINAGAR,SRINAGAR,JAMMU & KASHMIR
JAKA0RCCANG,The Jammu and Kashmir Bank,JAKA0RCCANG,NON MICR,RCC ANANTNAG,"RCC ANANTNAG,ANANTNAG, J&K",01932-222156,ANANTNAG,ANANTNAG,JAMMU & KASHMIR
JAKA0RCCSOP,The Jammu and Kashmir Bank,JAKA0RCCSOP,NON MICR,RCC SOPORE,"TEHSIL PREMISES SOPORE,,J&K",01954-220008,SOPORE,BARAMULLA,JAMMU & KASHMIR
JAKA0REASSI,The Jammu and Kashmir Bank,JAKA0REASSI,NON MICR,REASI,"REASI MAIN, REASI JAMMU",01991-244136,REASI,REASI,JAMMU & KASHMIR
JAKA0RECSGR,The Jammu and Kashmir Bank,JAKA0RECSGR,190051060,"REGIONAL ENGG COLLEGE,HAZRATBAL, SRINGAR",THE JAMMU AND KASHMIR BANK LTD;REC (NIT) HAZARATBAL SRINAGAR.,2425770,SRINAGAR,SRINAGAR,JAMMU & KASHMIR
JAKA0REGION,The Jammu and Kashmir Bank,JAKA0REGION,180051002,RCC JAMMU,CANAL ROAD JAMMU -180001,0191-2542327,JAMMU,JAMMU,JAMMU & KASHMIR
JAKA0REHARI,The Jammu and Kashmir Bank,JAKA0REHARI,180051021,REHARI,REHARI JAMMU 180005,0191-2565147,JAMMU,JAMMU,JAMMU & KASHMIR
JAKA0REVENU,The Jammu and Kashmir Bank,JAKA0REVENU,180051019,"PATEL NAGAR KATHUA, JAMMU",PATEL NAGAR KATHUA,01912505607,JAMMU,JAMMU,JAMMU & KASHMIR
JAKA0RHMBAL,The Jammu and Kashmir Bank,JAKA0RHMBAL,NON MICR,REHMBAL,REHMBAL CHOPRA SHOP UDHAMPUR,951992242019,UDHAMPUR,UDHAMPUR,JAMMU & KASHMIR
JAKA0ROHAMA,The Jammu and Kashmir Bank,JAKA0ROHAMA,NON MICR,ROHAMA,"ROHAMA BARAMULLA,J&K",01954-243515,REHAMA,BARAMULLA,JAMMU & KASHMIR
JAKA0ROHINI,The Jammu and Kashmir Bank,JAKA0ROHINI,110051019,ROHINI,"ROHINIC-5/6, SANJAY MARKET, SECTOR 2, ROHINI, NEW DELHI-110085",011-27511169,DELHI,NEW DELHI,DELHI
JAKA0ROHMOO,The Jammu and Kashmir Bank,JAKA0ROHMOO,NON MICR,ROHMOO,"MAIN CHOWK ROHMOO PULWAMA,,J&K",01933-215636,ROHMU,PULWAMA,JAMMU & KASHMIR
JAKA0ROHTAK,The Jammu and Kashmir Bank,JAKA0ROHTAK,NON-MICR,ROHTAK,"BHIWANI STAND CHOWK, ROHTAK (HARYANA)",01262-269212,ROHTAK,ROHTAK,HARYANA
JAKA0RSPORA,The Jammu and Kashmir Bank,JAKA0RSPORA,180051022,RANBIR SINGH PURA (0025) JAMMU,"THE JAMMU AND KASHMIR BANK LTD,RANBIRSIGH PORA;JAMMU",01923-250236,JAMMU,JAMMU,JAMMU & KASHMIR
JAKA0RTOSGR,The Jammu and Kashmir Bank,JAKA0RTOSGR,190051061,OLD SECRETARIAT,OLD SECRETARIAT,0194-2450249,SRINAGAR,SRINAGAR,JAMMU & KASHMIR
JAKA0SAADIQ,The Jammu and Kashmir Bank,JAKA0SAADIQ,NON MICR,"SAADIQABAD, ANANTNAG",KP ROAD OPPOSITE HEAD POST OFFICE ANANTNAG,01932-223625,ANANTNAG,ANANTNAG,JAMMU & KASHMIR
JAKA0SAALIA,The Jammu and Kashmir Bank,JAKA0SAALIA,NON MICR,SALIA,"NEAR MASJID SHARIF, SAALIA, DISTRICT-ANANTNAG, PIN CODE-192129",9906633522,SALIA,ANANTNAG,JAMMU & KASHMIR
JAKA0SACRED,The Jammu and Kashmir Bank,JAKA0SACRED,190051081,ZAINAKADAL,ZAINAKADAL. SRINAGAR,0194-2484414,SRINAGAR,SRINAGAR,JAMMU & KASHMIR
JAKA0SADDAR,The Jammu and Kashmir Bank,JAKA0SADDAR,110051005,SADAR BAZAR,"SADAR BAZAR2121/2122, BAHADURGARH ROAD, SADAR BAZAR, DELHI--110006",011-23683603,DELHI,NEW DELHI,DELHI
JAKA0SAFAPO,The Jammu and Kashmir Bank,JAKA0SAFAPO,NON MICR,"MAIN CHOWK, SAFAPORA.","MAIN CHOWK, SAFAPORA,GANDERBAL-JAMMU AND KASHMIR",01954-215222,GANDERBAL,GANDERBAL,JAMMU & KASHMIR
JAKA0SAFRON,The Jammu and Kashmir Bank,JAKA0SAFRON,190051055,PAMPORE,PAMPORE,951933-222202,PULWAMA,PULWAMA,JAMMU & KASHMIR
JAKA0SAKHIE,The Jammu and Kashmir Bank,JAKA0SAKHIE,NON MICR,AISHMUQAM,AISHMUQAM ANANTNAG KASHMIR,01932-242272,AISHMUQAM,ANANTNAG,JAMMU & KASHMIR
JAKA0SALHER,The Jammu and Kashmir Bank,JAKA0SALHER,NON-MICR,"SALHER, R.S PORA JAMMU","SALHER, R.S PORA JAMMU",951923250236,JAMMU,JAMMU,JAMMU & KASHMIR
JAKA0SALMAR,The Jammu and Kashmir Bank,JAKA0SALMAR,190051069,SHALIMAR,SHALIMAR,0194-2463542,SRINAGAR,SRINAGAR,JAMMU & KASHMIR
JAKA0SAMBHA,The Jammu and Kashmir Bank,JAKA0SAMBHA,180051039,MAIN BAZAR SAMBHA,THE JAMMU AND KASHMIR BANK LTD.MAIN BAZAR SAMBA;JAMMU.,01923-243211,JAMMU,JAMMU,JAMMU & KASHMIR
JAKA0SAMOOR,The Jammu and Kashmir Bank,JAKA0SAMOOR,NON MICR,SAMOOR,"SUMOOR NOBRA,LEH, LADHAK J&K",01980-223575,DISKIT-NOBRA,LADAKH,JAMMU & KASHMIR
JAKA0SANGAL,The Jammu and Kashmir Bank,JAKA0SANGAL,NON MICR,SANGALDAN,"SANGALDAN,UDHAMPUR,J&K",01998-270009,SANGALDAN,UDHAMPUR,JAMMU & KASHMIR
JAKA0SANGAM,The Jammu and Kashmir Bank,JAKA0SANGAM,NON MICR,SANGAM,"MAIN CHOWK, NATIONAL HIGHWAY, SANGAM, DISTRICT-ANANTNAG, PIN CODE-192124",9419026397,SAGAM,ANANTNAG,JAMMU & KASHMIR
JAKA0SANGUS,The Jammu and Kashmir Bank,JAKA0SANGUS,NON MICR,SHANGUS,"SHANGUS, NOWGAM, ANANTNAG, J&K",01932-241204,SHANGAS(NOWGAM),ANANTNAG,JAMMU & KASHMIR
JAKA0SANKOO,The Jammu and Kashmir Bank,JAKA0SANKOO,NON MICR,SANKOO,"SANKOO,KARGIL,LADAKH J&K",01985-258014,KARGIL,KARGIL,JAMMU & KASHMIR
JAKA0SARITA,The Jammu and Kashmir Bank,JAKA0SARITA,110051018,SARITA VIHAR,"SARITA VIHAR8, LOCAL SHOPPING COMPLEX, H.BLOCK MARKET, SARITA VIHAR, NEW DELHI-110041",011-26971966,DELHI,NEW DELHI,DELHI
JAKA0SATHOO,The Jammu and Kashmir Bank,JAKA0SATHOO,190051079,UPPER SETHU,UPPER SATHU. SRINAGAR,0194-2478019,SRINAGAR,SRINAGAR,JAMMU & KASHMIR
JAKA0SATLIT,The Jammu and Kashmir Bank,JAKA0SATLIT,380051003,SATELLITE AHAMEDABAD,"1ST FLOOR, SAMAN COMPLEX, PREMCHAND NAGAR RD, SATELLITE AHMEDABAD.",079-26742574,AHMEDABAD,AHMEDABAD,GUJARAT
JAKA0SBOARD,The Jammu and Kashmir Bank,JAKA0SBOARD,190051042,LAL MANDI,LAL MANDI. NEAR OLD POLICE STATION .SRINAGAR,0194-2310237,SRINAGAR,SRINAGAR,JAMMU & KASHMIR
JAKA0SECTOR,The Jammu and Kashmir Bank,JAKA0SECTOR,160051001,CHANDIGARH,"SECTOR -17, CHANDIGARH (U.T.)",0172-2708641,CHANDIGARH,CHANDIGARH,CHANDIGARH
JAKA0SEELOO,The Jammu and Kashmir Bank,JAKA0SEELOO,NON MICR,SEELO,"SEELO,SOPORE BARAMULLA,  J&K",01954-290029,SEELO,BARAMULLA,JAMMU & KASHMIR
JAKA0SEERIE,The Jammu and Kashmir Bank,JAKA0SEERIE,NON MICR,SERI,SERI NOWSHERA RAJOURI JAMMU,01960-238002,NOWSHERA,RAJOURI,JAMMU & KASHMIR
JAKA0SEXTEN,The Jammu and Kashmir Bank,JAKA0SEXTEN,110051014,SOUTH EXTENSION,"SOUTH EXTENSIONE-9, SOUTH EXTENSION, PART II, NEW DELHI",011-26258850,DELHI,NEW DELHI,DELHI
JAKA0SHADIM,The Jammu and Kashmir Bank,JAKA0SHADIM,NON MICR,SHADIMARG,"SHADIMARG, PULWAMA,J&K",01933-278288,SHADIMARG,PULWAMA,JAMMU & KASHMIR
JAKA0SHADRA,The Jammu and Kashmir Bank,JAKA0SHADRA,110051010,NAVIN SHADRA,"NAVEEN SHAHDARA1/1051, BABARPUR ROAD, ROHTAS NAGAR, SHAHDARA, NEW DELHI-110032",011-22321305,DELHI,NEW DELHI,DELHI
JAKA0SHAKTI,The Jammu and Kashmir Bank,JAKA0SHAKTI,NON MICR,SHAKTI NAGAR,"SHAKTI NAGAR UDHAMPUR, JAMMU",01992-277644,UDHAMPUR,UDHAMPUR,JAMMU & KASHMIR
JAKA0SHARAN,The Jammu and Kashmir Bank,JAKA0SHARAN,NON-MICR,SAHARANPUR,"SAHARANPURUNIT IST, PARSVNATH PLAZA, COURT ROAD, SAHARANPUR (UP) 247001",0132-2711517,SAHARANPUR,SAHARANPUR,UTTAR PRADESH
JAKA0SHARIF,The Jammu and Kashmir Bank,JAKA0SHARIF,800051002,PATNA,"PATNAKHEGWAL PATNA ROAD, HAROON NAGAR, PHULWARI SHARIF, PATNA",0612-2555450,PATNA,PATNA,BIHAR
JAKA0SHEERI,The Jammu and Kashmir Bank,JAKA0SHEERI,NON MICR,SHEERI," SHEERI, BARAMULLA, J&K",09906602729,SHIREEN,BARAMULLA,JAMMU & KASHMIR
JAKA0SHERRA,The Jammu and Kashmir Bank,JAKA0SHERRA,NON MICR,SHERABAD,"SHERABAD, PATTAN, BARAMULLA, J&K",9797127652,SHERABAD,BARAMULLA,JAMMU & KASHMIR
JAKA0SHIMLA,The Jammu and Kashmir Bank,JAKA0SHIMLA,NON-MICR,SHIMLA,"15, THE MALL, SHIMLA (HP)",0177-2658085,SIMLA,SHIMLA,HIMACHAL PRADESH
JAKA0SHIRAZ,The Jammu and Kashmir Bank,JAKA0SHIRAZ,190051038,KHANYAR,KHANYAR .SRINAGAR,0194-2458969,SRINAGAR,SRINAGAR,JAMMU & KASHMIR
JAKA0SHIVJI,The Jammu and Kashmir Bank,JAKA0SHIVJI,NON MICR,SHIVNAGAR,"SHIVNAGAR, NATIONAL HIGHWAY, UDHAMPUR",9419160153,UDHAMPUR,UDHAMPUR,JAMMU & KASHMIR
JAKA0SHOPAN,The Jammu and Kashmir Bank,JAKA0SHOPAN,NON MICR,"SHOPIAN, KASHMIR","SHOPIAN,  ",951933260274,SHOPIAN,PULWAMA,JAMMU & KASHMIR
JAKA0SHRINE,The Jammu and Kashmir Bank,JAKA0SHRINE,NON MICR,TULLA MULLA,"TULLAMULLA, GANDERBAL",0194-2416523,SRINAGAR,SRINAGAR,JAMMU & KASHMIR
JAKA0SHSTRI,The Jammu and Kashmir Bank,JAKA0SHSTRI,NON MICR,E/CSHASTRI NAGAR,"E/C SHASTRI NAGAR JAMMU,,J&K",0191-2435691,JAMMU,JAMMU,JAMMU & KASHMIR
JAKA0SIDHRA,The Jammu and Kashmir Bank,JAKA0SIDHRA,180051036,SIDHRA BYE PASS JAMMU,ASCOM(BATRA HOSPITAL) SIDHRA JAMMU-180017,0191-2662603,JAMMU,JAMMU,JAMMU & KASHMIR
JAKA0SILVER,The Jammu and Kashmir Bank,JAKA0SILVER,110051003,CHANDNI CHOWK,"CHANDNI CHOWKFATEHPURI, CHANDNI CHOWK, DELHI--110006",011-23923936,DELHI,NEW DELHI,DELHI
JAKA0SIMPLE,The Jammu and Kashmir Bank,JAKA0SIMPLE,NON- MICR,HIRANAGAR MORH KATHUA,"HIRANAGAR MORH,N H DISTT. KATHUA-JAMMU AND KASHMIR",01922-274602,HIRA NAGAR MORE,KATHUA,JAMMU & KASHMIR
JAKA0SINGPO,The Jammu and Kashmir Bank,JAKA0SINGPO,NON MICR,SINGHPORA PATTAN BARAMULLA,"SINGHPORA PATTAN BARAMULLA, J&K",01954-231463,SINGHPORA,BARAMULLA,JAMMU & KASHMIR
JAKA0SKALZA,The Jammu and Kashmir Bank,JAKA0SKALZA,194051002,SKALZANGLING,"SKALZANGLING LEH, LADAKH REGION",01982-253118,LEH,LEH,JAMMU & KASHMIR
JAKA0SKANIL,The Jammu and Kashmir Bank,JAKA0SKANIL,NON MICR,SEER HAMDAN,"SEER HAMDAN,ANANTNAG, J&K",01932-237362,SEER KANLIGUND,ANANTNAG,JAMMU & KASHMIR
JAKA0SKBRIG,The Jammu and Kashmir Bank,JAKA0SKBRIG,NON MICR,SHERI-I-KASHMIR BRIDGE,"SHERI-KASHMIR-BRIDGE, DISTRICT POONCH, PIN CODE 185101",9797005799,POONCH,POONCH,JAMMU & KASHMIR
JAKA0SKIMSS,The Jammu and Kashmir Bank,JAKA0SKIMSS,190051070,SKIMSS SOURA,"SKIMSS SOURA SRINAGAR, KASHMIR 190011",0194-2404248,SRINAGAR,SRINAGAR,JAMMU & KASHMIR
JAKA0SKUAST,The Jammu and Kashmir Bank,JAKA0SKUAST,190051071,SKUAST,SHAR-E- KASHMIR UNIVERSITY OF AGRICUTURAL SCIENCES AND TECHNOLOGY,0194-2464366,SRINAGAR,SRINAGAR,JAMMU & KASHMIR
JAKA0SMBAGH,The Jammu and Kashmir Bank,JAKA0SMBAGH,110051027,SHALIMAR BAGH,"SHALIMAR BAGH,UNIT NO.101-102, BLOCK B, POCKET U/V, IST FLOOR, DDA MARKET, SHALIMAR BAGH, NEW DELHI--110088",011-27488364,DELHI,NEW DELHI,DELHI
JAKA0SMOOTH,The Jammu and Kashmir Bank,JAKA0SMOOTH,NON MICR,MAGAM(HANDWARA),"MAGAM HANDWARA,KUPWARA, J&K",01955-262549,MAGAM(HANDWARA),KUPWARA,JAMMU & KASHMIR
JAKA0SMVDUN,The Jammu and Kashmir Bank,JAKA0SMVDUN,NON MICR,MATA VAISHNO DEVI UNIVERSITY,"SHRI MATA VAISHNO DEVI,UNIVERSITY,KAKRYAL KAT-JAMMU AND KASHMIR",01991-282228,UDHAMPUR,UDHAMPUR,JAMMU & KASHMIR
JAKA0SOGAAM,The Jammu and Kashmir Bank,JAKA0SOGAAM,NON MICR,SOGAM,"SOGAM,KUPWARA, J&K",09797005162,SOGAM,KUPWARA,JAMMU & KASHMIR
JAKA0SOHAAL,The Jammu and Kashmir Bank,JAKA0SOHAAL,NON- MICR,"SOHAL, JAMMU","SOHAL - JAMMU,-JAMMU AND KASHMIR",01924-241057,SOHAL,JAMMU,JAMMU & KASHMIR
JAKA0SOIBUG,The Jammu and Kashmir Bank,JAKA0SOIBUG,NON MICR,SOIBUGH,"SOIBUGH, DISTRICT, BUDGAM, J&K PIN 191111",09906669251,SOIBUG,BADGAM,JAMMU & KASHMIR
JAKA0SOLINA,The Jammu and Kashmir Bank,JAKA0SOLINA,190051072,SOLINA SRINAGAR,SILK FACTORY ROAD SOLINA SRINGAR 190009,0194-2439951,SRINAGAR,SRINAGAR,JAMMU & KASHMIR
JAKA0SONWAR,The Jammu and Kashmir Bank,JAKA0SONWAR,190051073,SONWAR,SONWAR,09906964962,SRINAGAR,SRINAGAR,JAMMU & KASHMIR
JAKA0SOORAT,The Jammu and Kashmir Bank,JAKA0SOORAT,395051002,SURAT,"SUPERTAX TOWERS, OPP. KINARA CINEMA, RING RD, SURAT-02.",261-2347788,SURAT,SURAT,GUJARAT
JAKA0SOOURA,The Jammu and Kashmir Bank,JAKA0SOOURA,190051074,SOURA SRINAGAR,THE JAMMU AND KASHMIR BANK LTD;SOURA; SRINAGAR.,0194-2402138/2401518,SRINAGAR,SRINAGAR,JAMMU & KASHMIR
JAKA0SOPORE,The Jammu and Kashmir Bank,JAKA0SOPORE,NON MICR,SOPORE TOWN,"SOPORE, DISTRICT-BARAMULLA, PIN CODE-193201",9906609881,SOPORE,BARAMULLA,JAMMU & KASHMIR
JAKA0SPRING,The Jammu and Kashmir Bank,JAKA0SPRING,NON- MICR,TANGMARG,"TANGMARG,BARAMULLA-JAMMU AND KASHMIR",951954-254476,BARAMULLA,BARAMULLA,JAMMU & KASHMIR
JAKA0SQUARE,The Jammu and Kashmir Bank,JAKA0SQUARE,190051002,AMIRA KADAL,AMIRA KADAL SRINAGAR,0194-2473254,SRINAGAR,SRINAGAR,JAMMU & KASHMIR
JAKA0SRIGUP,The Jammu and Kashmir Bank,JAKA0SRIGUP,NON MICR,SRIGUPWARA,"SRIGUPWARA, ANANTNAG, J&K",01932-210839,SHRIGOPHWARA,ANANTNAG,JAMMU & KASHMIR
JAKA0SSISGR,The Jammu and Kashmir Bank,JAKA0SSISGR,190051075,SSI LAL CHOWK,LAL CHOWK (SSI BRANCH). SRINAGAR,0194-2482340,SRINAGAR,SRINAGAR,JAMMU & KASHMIR
JAKA0STREET,The Jammu and Kashmir Bank,JAKA0STREET,190051026,HARI SINGH HIGH STREET,H.S.H. STREET .SRINAGAR,0194-2474760,SRINAGAR,SRINAGAR,JAMMU & KASHMIR
JAKA0SUMBAL,The Jammu and Kashmir Bank,JAKA0SUMBAL,NON-MICR,SUMBAL SONAWRI,"SUMBAL SONAWARI,BARAMULLA-JAMMU AND KASHMIR",01954-230224,SUMBAL,BARAMULLA,JAMMU & KASHMIR
JAKA0SUNDER,The Jammu and Kashmir Bank,JAKA0SUNDER,NON-MICR,SUNDER BANI,"SUNDER BANI, RAJOURI JAMMU",01960-234435,SUNDER BANI,RAJOURI,JAMMU & KASHMIR
JAKA0SURARA,The Jammu and Kashmir Bank,JAKA0SURARA,NON MICR,SURARA,"VPO SURARA, DIST. SAMBA PIN CODE 184141 ",9906268998,SAMBA,SAMBA,JAMMU & KASHMIR
JAKA0SURRAN,The Jammu and Kashmir Bank,JAKA0SURRAN,NON MICR,SURANKOTE,"SURANKOTE, POONCH, J&K",01965-230040,SURANKOTE,POONCH,JAMMU & KASHMIR
JAKA0SWITCH,The Jammu and Kashmir Bank,JAKA0SWITCH,NON MICR,ATM SWITCH,CORPORATE HEADQUARTERS SRINAGAR,1942482463,SRINAGAR,SRINAGAR,JAMMU & KASHMIR
JAKA0TAHAAB,The Jammu and Kashmir Bank,JAKA0TAHAAB,NON MICR,TAHAB,"MAIN MARKET, TAHAB, DISTRICT PULWAMA, PIN CODE-192301",9797772851,THAB,PULWAMA,JAMMU & KASHMIR
JAKA0TANGAN,The Jammu and Kashmir Bank,JAKA0TANGAN,NON MICR,KHAITANGAN,"KHAITANGAN, DISTRICT-BARAMULLA, PIN CODE-193101",9906460177,SINGHPORA KALAN,BARAMULLA,JAMMU & KASHMIR
JAKA0TANKEE,The Jammu and Kashmir Bank,JAKA0TANKEE,190051077,TANKIPORA SRINAGAR,THE JAMMU AND KASHMIR BANK LTD;TANKIPORA; SRINAGAR.,2472294,SRINAGAR,SRINAGAR,JAMMU & KASHMIR
JAKA0TARGET,The Jammu and Kashmir Bank,JAKA0TARGET,180051005,CHAND NAGAR,CHAND NAGAR JAMMU180001,0191-2579583,JAMMU,JAMMU,JAMMU & KASHMIR
JAKA0TARZUA,The Jammu and Kashmir Bank,JAKA0TARZUA,NON MICR,"TARZUA,SOPORE BARAMULLA","TARZUA SOPORE,-JAMMU AND KASHMIR",0194-220876,BARAMULLA,BARAMULLA,JAMMU & KASHMIR
JAKA0TCHNAI,The Jammu and Kashmir Bank,JAKA0TCHNAI,600051004,T NAGAR,"RAINBOW ARCADE, NO.60, PONDY BAZAR, T.NAGAR, CHENNAI- 600017 (T.N)",44-24313851,CHENNAI,CHENNAI,TAMIL NADU
JAKA0TEHSIL,The Jammu and Kashmir Bank,JAKA0TEHSIL,NON MICR,T.P. BARAMULLA,"TEHSIL PREMISES, BARAMULLA, KASHMIR",01952-234207,BARAMULLA,BARAMULLA,JAMMU & KASHMIR
JAKA0TEMPLE,The Jammu and Kashmir Bank,JAKA0TEMPLE,143051003,M. M. AMRITSAR,"MAJITH MANDI, AMRITSAR (PUNJAB)",0183-2555008,MAJITHA,AMRITSAR,PUNJAB
JAKA0TENGAL,The Jammu and Kashmir Bank,JAKA0TENGAL,NON MICR,SARTINGAL,"SARTINGAL,DODA, J&K",01997-244320,SARTENGAL,DODA,JAMMU & KASHMIR
JAKA0TETHAR,The Jammu and Kashmir Bank,JAKA0TETHAR,NON MICR,TETHAR,"IDGAH ROAD, NATIONAL HIGHWAY, DISTRICT-RAMBAN, PIN CODE-182146",9419175655,BANIHAL,DODA,JAMMU & KASHMIR
JAKA0THANAM,The Jammu and Kashmir Bank,JAKA0THANAM,NON- MICR,THANA MANDI,"MAIN BAZAR THANA MANDI,RAJOURI-JAMMU AND KASHMIR",01962-251038,RAJOURI,RAJOURI,JAMMU & KASHMIR
JAKA0THATRI,The Jammu and Kashmir Bank,JAKA0THATRI,NON MICR,THATRI,"THATRI,DODA,J&K",01997-228419,THATRI,DODA,JAMMU & KASHMIR
JAKA0TIKRIE,The Jammu and Kashmir Bank,JAKA0TIKRIE,NON MICR,TIKRIE,"TIKRI, UDHAMPUR,J&K",01992-247226,TIKRI,UDHAMPUR,JAMMU & KASHMIR
JAKA0TNGDAR,The Jammu and Kashmir Bank,JAKA0TNGDAR,NON MICR,TANGDAR,"TANGDHAR,KUPWARA,J&K",01958-245230,TANGDAR,KUPWARA,JAMMU & KASHMIR
JAKA0TNHALL,The Jammu and Kashmir Bank,JAKA0TNHALL,180051025,TOWN HALL,TOWN HALL JAMMU 180001,0191-2546609,JAMMU,JAMMU,JAMMU & KASHMIR
JAKA0TOLMAR,The Jammu and Kashmir Bank,JAKA0TOLMAR,180051033,JANIPUR MAIN,JANIPUR(MAIN) JAMMU,0191-2532327,JAMMU,JAMMU,JAMMU & KASHMIR
JAKA0TOOTAN,The Jammu and Kashmir Bank,JAKA0TOOTAN,NON MICR,TOTAN DI KHUI,"TOOTAN DI KHUI, JAMMU, J&K",01951-2130088,TOOTAN DI KHUI,JAMMU,JAMMU & KASHMIR
JAKA0TOPSHR,The Jammu and Kashmir Bank,JAKA0TOPSHR,NON MICR,TOP SHERKHANIAN,"TOP SHERKHANIAN,JAMMU,J&K.",0191-2580578,JAMMU,JAMMU,JAMMU & KASHMIR
JAKA0TPBAND,The Jammu and Kashmir Bank,JAKA0TPBAND,NON-MICR,T.P BANDIPORA,T.P BANDIPORA,951957226319,BANDIPORA,BANDIPORA,JAMMU & KASHMIR
JAKA0TPKGAM,The Jammu and Kashmir Bank,JAKA0TPKGAM,NON- MICR,T.P.KULGAM,"CENTRAL MARKET KULGAM,ANANTNAG-JAMMU AND KASHMIR",951931-260125,ANANTNAG,ANANTNAG,JAMMU & KASHMIR
JAKA0TPURAM,The Jammu and Kashmir Bank,JAKA0TPURAM,695051002,THIRUVANANTHAPURAM,"T.C. NO. 28/2222 (4) M.G. ROAD,PAZHAVANGODI, P O FORT, THIRUVANATHAPURAM-695023",471-2468337,THIRUVANANTHAPURAM,TRIVANDRUM,KERALA
JAKA0TRCSGR,The Jammu and Kashmir Bank,JAKA0TRCSGR,190051076,TRC,TOURIST RECEPTION CENTRE,0194-2452254,SRINAGAR,SRINAGAR,JAMMU & KASHMIR
JAKA0TRHGAM,The Jammu and Kashmir Bank,JAKA0TRHGAM,NON MICR,TREHGAM,TREHGAM KUPWARA,01955-244644,TREHGAM,KUPWARA,JAMMU & KASHMIR
JAKA0TRIKOT,The Jammu and Kashmir Bank,JAKA0TRIKOT,180051026,TRIKUTANAGAR,TRIKUTA NAGAR JAMMU 180012,0191-2472718,JAMMU,JAMMU,JAMMU & KASHMIR
JAKA0TRSPON,The Jammu and Kashmir Bank,JAKA0TRSPON,NON MICR,TRESPONE,"TRESPONE,KARGIL,LADAKH,J&K",09469221477,KARGIL,KARGIL,JAMMU & KASHMIR
JAKA0TRUSTE,The Jammu and Kashmir Bank,JAKA0TRUSTE,NON- MICR,T.P SOPORE,"TEHSIL ROAD SOPORE,-JAMMU AND KASHMIR",01954-222254,SOPORE,BARAMULLA,JAMMU & KASHMIR
JAKA0TSUROO,The Jammu and Kashmir Bank,JAKA0TSUROO,NON MICR,TSURU,"TSURU KARGIL,J&K",,TSURU,KARGIL,JAMMU & KASHMIR
JAKA0TTALAB,The Jammu and Kashmir Bank,JAKA0TTALAB,180051050,TIRATH NAGAR,"TIRATH NAGAR, T.P. JAMMU",0191-2554984,JAMMU,JAMMU,JAMMU & KASHMIR
JAKA0TTALOO,The Jammu and Kashmir Bank,JAKA0TTALOO,180051024,TALAB TILLO,TALAB TILLO JAMMU 180002,0191-2555294,JAMMU,JAMMU,JAMMU & KASHMIR
JAKA0TUJJAR,The Jammu and Kashmir Bank,JAKA0TUJJAR,NON MICR,TUJJAR SHARIEF,"TUJJAR SHARIEF, SOPORE, DISTRICT BARAMULLA PIN CODE 193201",9419003586,TUJAR SHARIF,BARAMULLA,JAMMU & KASHMIR
JAKA0TUNNEL,The Jammu and Kashmir Bank,JAKA0TUNNEL,NON-MICR,BANIHAL,"BANIHAL RAMBAN, JAMMU",01998-255044,BANIHAL,RAMBAN,JAMMU & KASHMIR
JAKA0TURKWN,The Jammu and Kashmir Bank,JAKA0TURKWN,NON MICR,TURKWANGAN,"TURKWANGAN,SHOPIAN PULWAMA,J&K",09419047730,SHOPIAN,PULWAMA,JAMMU & KASHMIR
JAKA0UCIVIL,The Jammu and Kashmir Bank,JAKA0UCIVIL,NON MICR,URI CIVIL,"URI CIVIL, GINGLE, MOHURA -BARAMULLA  ",01954-223595,URI,BARAMULLA,JAMMU & KASHMIR
JAKA0UDMPUR,The Jammu and Kashmir Bank,JAKA0UDMPUR,NON MICR,"UDHAMPUR, JAMMU",UDHAMPUR MAIN BRANCH,951992270237,JAMMU,JAMMU,JAMMU & KASHMIR
JAKA0UKHRAL,The Jammu and Kashmir Bank,JAKA0UKHRAL,NON MICR,PANCHAL-UKHRAL,"PANCHAL-UKHRAL,RAMBAN,DODA,J&K ",09622372007,PANCHAL-UKHRAL,DODA,JAMMU & KASHMIR
JAKA0VARNAS,The Jammu and Kashmir Bank,JAKA0VARNAS,221051002,VARANASI,"VARANASID-31/327-49, MADANPURA, VARANASI-221001 (UP)",0542-2451552,VARANASI,VARANASI,UTTAR PRADESH
JAKA0VARSUA,The Jammu and Kashmir Bank,JAKA0VARSUA,400051009,VERSOVA,"THE JAMMU AND KASHMIR BANK LTD, SARNARTH VAIBHAV BUILDING, SHOP NO. 241, OSHIWARA, ANDHERI (WEST) MUMBAI -",022-66931093,MUMBAI,GREATER BOMBAY,MAHARASHTRA
JAKA0VASANT,The Jammu and Kashmir Bank,JAKA0VASANT,110051015,VASANT VIHAR,"VASANT VIHAR63-D, BASANT LOK COMMUNITY CENTRE, MEXX BUILDING, VASANT VIHAR, NEW DELHI-110057",01126154058/01126155231,DELHI,NEW DELHI,DELHI
JAKA0VASHEE,The Jammu and Kashmir Bank,JAKA0VASHEE,110051015,VASHI,"THE JAMMU AND KASHMIR BANK LTD, A 1/1 GROMA BUILDING, PLOT NO. 140, SECTOR 19, VASHI NAVI MUMBAI - THANE 400 705",011-26154058,DELHI,NEW DELHI,DELHI
JAKA0VASHNO,The Jammu and Kashmir Bank,JAKA0VASHNO,NON MICR,VAISHNO DEVI,"MATA VAISHNO DEVI BHAWAN, KATRA, DISTT. REASI, J&K",01991-282228,KATRA,UDHAMPUR,JAMMU & KASHMIR
JAKA0VERNAG,The Jammu and Kashmir Bank,JAKA0VERNAG,NON MICR,VERINAG,"VERINAG, ANANTNAG, KASHMIR, J&K",01932-213020,VERINAG,ANANTNAG,JAMMU & KASHMIR
JAKA0VESSOO,The Jammu and Kashmir Bank,JAKA0VESSOO,NON MICR,VESSU,"JAMMU-SRINAGAR NATIONAL HIGHWAY, VESSU, DISTRICT-ANANTNAG, PIN CODE-192102",9419573553,VESU,ANANTNAG,JAMMU & KASHMIR
JAKA0VIJJAY,The Jammu and Kashmir Bank,JAKA0VIJJAY,180051035,VIJAYPUR JAMMU,VIJAYPUR JAMMU,951923231029,SAMBA,SAMBA,JAMMU & KASHMIR
JAKA0VIKAAS,The Jammu and Kashmir Bank,JAKA0VIKAAS,400051004,VIKAS MARG,"VIKAS MARG36, DEFENCE ENCLAVE, VIKAS MARG, NEW DELHI-110092",022-27655787,MUMBAI,GREATER BOMBAY,MAHARASHTRA
JAKA0VILGAM,The Jammu and Kashmir Bank,JAKA0VILGAM,NON MICR,"VILGAM, KUPWARA","VILGAM, KUPWARA, J&K",9797224001,WILGAM,KUPWARA,JAMMU & KASHMIR
JAKA0WAGORA,The Jammu and Kashmir Bank,JAKA0WAGORA,NON MICR,WAGOORA,"WAGOORA, BARAMULLA,  J&K",01952-257187,WAGOORA,BARAMULLA,JAMMU & KASHMIR
JAKA0WANPOH,The Jammu and Kashmir Bank,JAKA0WANPOH,NON MICR,WANPOH,"WANPOH, ANANTNAG, J&K",01932-222965,WANPOH,ANANTNAG,JAMMU & KASHMIR
JAKA0WATLAR,The Jammu and Kashmir Bank,JAKA0WATLAR,NON MICR,LAAR GANDERBAL,"LAAR GANDERBAL,KASHMIR               ",0194-2135427,SRINAGAR,SRINAGAR,JAMMU & KASHMIR
JAKA0WAWOOR,The Jammu and Kashmir Bank,JAKA0WAWOOR,NON MICR,WAWOORA,"WAWOORA, KUPWARA,  J&K",09419044095,SOGAM,KUPWARA,JAMMU & KASHMIR
JAKA0WOORLI,The Jammu and Kashmir Bank,JAKA0WOORLI,110051025,WORLI,"BLOCK D NORTH SIDE, 1ST FLOOR, SHIV SAGAR ESTATE, ANNIE BESANT ROAD, WORLI MUMBAI - 18",011-22467499,DELHI,NEW DELHI,DELHI
JAKA0WTRGAM,The Jammu and Kashmir Bank,JAKA0WTRGAM,NON MICR,WATERGAM,"WATERGAM ROHAMA BARAM,BARAMULLA,,J&K",07298004597,WATHERGAM,BARAMULLA,JAMMU & KASHMIR
JAKA0WULLAR,The Jammu and Kashmir Bank,JAKA0WULLAR,NON-MICR,BANDIPORA MAIN,BANDIPORA MAIN,951957225536,BANDIPORA,BANDIPORA,JAMMU & KASHMIR
JAKA0YARPUR,The Jammu and Kashmir Bank,JAKA0YARPUR,NON MICR,YARIPORA,"YARIPORA,KULGAM ANANTNAG J&K",09906566429,YARIPORA,ANANTNAG,JAMMU & KASHMIR
JAKA0ZABLIP,The Jammu and Kashmir Bank,JAKA0ZABLIP,NON MICR,ZABLIPORA,"ZABLIPORA, BIJBEHARA, ANANTNAG- J&K",01932-234280,BIJBEHARA,ANANTNAG,JAMMU & KASHMIR
JAKA0ZAKURA,The Jammu and Kashmir Bank,JAKA0ZAKURA,190051082,ZAKURA,ZAKURA,0194-2427461,SRINAGAR,SRINAGAR,JAMMU & KASHMIR
JAKA0ZALDAG,The Jammu and Kashmir Bank,JAKA0ZALDAG,190051083,ZALDAGAR,ZALDAGAR. SRINAGAR,0194-2458442,SRINAGAR,SRINAGAR,JAMMU & KASHMIR
JAKA0ZAMPAA,The Jammu and Kashmir Bank,JAKA0ZAMPAA,NON MICR,ZAMPAA,"ZAMPAA LEH, LADAKH REGION",01982-265526,LEH,LEH,JAMMU & KASHMIR
JAKA0ZANKOT,The Jammu and Kashmir Bank,JAKA0ZANKOT,190051080,"""ZAINAKOT, SRINAGAR""",THE JAMMU AND KASHMIR BANK LTD;ZAINAKOT SRINAGAR.,2496239/2497203,SRINAGAR,SRINAGAR,JAMMU & KASHMIR
JAKA0ZANPUR,The Jammu and Kashmir Bank,JAKA0ZANPUR,NON MICR,ZAINAPORA," ZAINAPORA,PULWAMA, J&K",01933-264338,ZAINAPORA,PULWAMA,JAMMU & KASHMIR
JAKA0ZOONIE,The Jammu and Kashmir Bank,JAKA0ZOONIE,190051084,"""ZOONIMAR, SRINAGAR""","THE JAMMU AND KASHMIR BANK LTD,ZOONIMAR;SRINAGAR;KASHMIR.",0194-2424556,SRINAGAR,SRINAGAR,JAMMU & KASHMIR
JAKA0BHELLA,The Jammu and Kashmir Bank,JAKA0BHELLA,NON MICR,BHALA,"BHELLA, TEHSIL THATRI, DISTRICT DODA , J&K PIN 182202",9419155350,BHALA,DODA,JAMMU & KASHMIR
JAKA0CHARPR,The Jammu and Kashmir Bank,JAKA0CHARPR,NON MICR,CHARRIPORA,"CHARRIPORA, DISTRICT BUDGAM PIN 191112",9906501917,PAKHERPORA,BADGAM,JAMMU & KASHMIR
JAKA0ESURAN,The Jammu and Kashmir Bank,JAKA0ESURAN,NON MICR,SURANKOTE,"SURRANKOTE, POONCH",0194-2455584,SURANKOTE,POONCH,JAMMU & KASHMIR
JAKA0KANEER,The Jammu and Kashmir Bank,JAKA0KANEER,NON MICR,KANIR,"KANIR, DISTRICT BUDGAM PIN 191113",9697060844,CHADURA,BADGAM,JAMMU & KASHMIR
JAKA0KARLAL,The Jammu and Kashmir Bank,JAKA0KARLAL,NON MICR,KARGIL,LAL CHOWK KARGIL PIN 194104,9419899712,KARGIL,KARGIL,JAMMU & KASHMIR
JAKA0LANUDH,The Jammu and Kashmir Bank,JAKA0LANUDH,NON MICR,LANDER,"LANDER, TEHSIL & DISTRICT UDHAMPUR PIN CODE 182125",9419157025,LANDHAR,UDHAMPUR,JAMMU & KASHMIR
JAKA0MACHIL,The Jammu and Kashmir Bank,JAKA0MACHIL,193051213,MACHIL,,0194-2455584,MACHIL,KUPWARA,JAMMU & KASHMIR
JAKA0MULBIK,The Jammu and Kashmir Bank,JAKA0MULBIK,NON MICR,JAMMU,"VILLAGE MULBEK, BLOCK SHARGOLE DISTT. KARGIL PIN CODE 194110",9419887250,JAMMU,JAMMU,JAMMU & KASHMIR
JAKA0RANGER,The Jammu and Kashmir Bank,JAKA0RANGER,NON MICR,RANGER,"RANGER, CHADURA DISTRICT BUDGAM PIN 191113",9086511175,BADGAM,BADGAM,JAMMU & KASHMIR
JAKA0SHOOLI,The Jammu and Kashmir Bank,JAKA0SHOOLI,NON MICR,SHOOLIPORA,"SHOOLIPORA, DISTRICT BUDGAM PIN 191111",9419007245,BADGAM,BADGAM,JAMMU & KASHMIR
JAKA0UDHWAL,The Jammu and Kashmir Bank,JAKA0UDHWAL,NON MICR,SRINAGAR,UDHEYWALA DISTRICT JAMMU PIN CODE 180003,0191-2555766,SRINAGAR,SRINAGAR,JAMMU & KASHMIR
JAKA0UDRANA,The Jammu and Kashmir Bank,JAKA0UDRANA,NON MICR,UDRANA,"UDRANA, TEHSIL BADERWAH DISTRICT DODA, J&K PIN 182223",9419831993,UDRANA,DODA,JAMMU & KASHMIR
JAKA0WATHAL,The Jammu and Kashmir Bank,JAKA0WATHAL,NON MICR,WATERHAL,WATERHAL DISTRICT BUDGAM PIN 191111,9419009459,WATRA-HAIL,BADGAM,JAMMU & KASHMIR
JAKA0HRDCHQ,The Jammu and Kashmir Bank,JAKA0HRDCHQ,NON MICR,CHQ,"CORPORATE HEADQUARTERS, J&K BANK M. A. ROAD SRINAGAR PIN 190001",0194-2481948,SRINAGAR,SRINAGAR,JAMMU & KASHMIR
JAKA0RAITHN,The Jammu and Kashmir Bank,JAKA0RAITHN,NON MICR,RAITHAN,"RAITHAN, DISTRICT BUDGAM, J&K",9797022687,RAITHAN,BADGAM,JAMMU & KASHMIR
JAKA0TULAIL,The Jammu and Kashmir Bank,JAKA0TULAIL,NON MICR,BADUGAM TULAIL,"BADUGAM TULAIL, DISTRICT BANDIPORA, J&K",9469785996,BANDIPORA,BANDIPORA,JAMMU & KASHMIR
JAKA0WALWAR,The Jammu and Kashmir Bank,JAKA0WALWAR,NON MICR,WALIWAR,"WALIWAR, DISTRICT GANDERBAL, J&K",9906805000,LAR,SRINAGAR,JAMMU & KASHMIR
JAKA0DADAOM,The Jammu and Kashmir Bank,JAKA0DADAOM,NON-MICR,DADA OMPORA,"DADA OMPORA, DISTRICT BUDGAM, J&K PIN CODE 191113","9858937486, 9796700000",OMPORA,BADGAM,JAMMU & KASHMIR
JAKA0ECIUST,The Jammu and Kashmir Bank,JAKA0ECIUST,NON-MICR,ISLAMIC UNIVERSITY OF SCIENCE & TECHNOLOGY,ISLAMIC UNIVERSITY OF SCIENCE & TEHNOLOGY AWANTIPORA DISTRICT PULWAMA,9419022251,AWANTIPURA,PULWAMA,JAMMU & KASHMIR
JAKA0FCPALO,The Jammu and Kashmir Bank,JAKA0FCPALO,NON-MICR,FRIENDS COLONY PALOURA,"153 WARD NO.41 FRIENDS COLONY(PATTA PALOURA) DISTRICT JAMMU, J&K PIN CODE 180002",0191-255914,JAMMU,JAMMU,JAMMU & KASHMIR
JAKA0KHAWAS,The Jammu and Kashmir Bank,JAKA0KHAWAS,NON-MICR,KHAWAS,"KHAWAS DISTRICT RAJOURI, J&K PIN CODE 185201",9906170440,BUDHAL,RAJOURI,JAMMU & KASHMIR
JAKA0MARWAH,The Jammu and Kashmir Bank,JAKA0MARWAH,182051406,MARWAH,"MARWAH DISTRICT KISHTWAR, J&K ",NA,MARWAH,DODA,JAMMU & KASHMIR
JAKA0SURAAS,The Jammu and Kashmir Bank,JAKA0SURAAS,NON-MICR,SURASYAR,"SURASYAR, DISTRCIT BUDGAM, J&K PIN CODE 191113","9858948028, 9797896777",CHADURA,BADGAM,JAMMU & KASHMIR
JAKA0GURSEC,The Jammu and Kashmir Bank,JAKA0GURSEC,NON-MICR,GURGOAN SECTOR 44,"PLOT NO 132-134 SECTOR 44, GURGOAN HARYANA, PIN CODE 122002","0124-4715800, 971618695",GURGAON,GURGAON,JAMMU & KASHMIR
JAKA0MALBAG,The Jammu and Kashmir Bank,JAKA0MALBAG,NON-MICR,MALLABAGH,"MALLABAGH, HAZRATBAL, DISTRICT SRINAGAR, J&K, PIN CODE 190006",9596425585,BACCHAPORA,SRINAGAR,JAMMU & KASHMIR
JAKA0DACHAN,The Jammu and Kashmir Bank,JAKA0DACHAN,182051407,DACHAN,"DACHAN, DISTRICT KISHTWAR, J&K",NA,DACCHAN,KISHTWAR,JAMMU & KASHMIR
JAKA0KEYGAM,The Jammu and Kashmir Bank,JAKA0KEYGAM,NON-MICR,KEYGAM,"KEYGAM, DISTRICT SHOPIAN, J&K PIN CODE 192302",9906919611.00,KELLAR,PULWAMA,JAMMU & KASHMIR
JAKA0PANZAN,The Jammu and Kashmir Bank,JAKA0PANZAN,NON-MICR,PANZAN,"PANZAN, DISTRICT BUDGAM, J&K PIN CODE 191113",9858984376-9419000000,CHADURA,BADGAM,JAMMU & KASHMIR
JAKA0PANZAT,The Jammu and Kashmir Bank,JAKA0PANZAT,NON-MICR,PANZATH,"PANZATH WANPORA, DISTRICT ANANTNAG, J&K PIN CODE 192221",9419412739.00,QAZIGUND,ANANTNAG,JAMMU & KASHMIR
JAKA0DANSAL,The Jammu and Kashmir Bank,JAKA0DANSAL,NON-MICR,DANSAL,"MAIN ROAD DANSAL, DISTRICT JAMMU, J&K  PIN CODE 181224","0191-2669177,9419797058",DHANSAL,JAMMU,JAMMU & KASHMIR
JAKA0LORAAN,The Jammu and Kashmir Bank,JAKA0LORAAN,NON-MICR,LORAN,"LORAN, TEHSIL MANDI, DISTRICT POONCH, J&K PIN CODE 185102",9697111011.00,MANDI,POONCH,JAMMU & KASHMIR
JAKA0MIRGUD,The Jammu and Kashmir Bank,JAKA0MIRGUD,NON-MICR,MIRGUND,"MIRGUND, TEHSIL PATTAN, DISTRICT BARAMULLA, J&K PIN CODE 193121",9858301707;9419000000,MIRGUND,BARAMULLA,JAMMU & KASHMIR
JAKA0BAGDAD,The Jammu and Kashmir Bank,JAKA0BAGDAD,NON-MICR,WALTENGO,"WALTENGO, DISTRICT KULGAM J&K PIN CODE 192221",9858783832.00,DEVSAR,ANANTNAG,JAMMU & KASHMIR
JAKA0BATLIK,The Jammu and Kashmir Bank,JAKA0BATLIK,NON-MICR,BATALIK,"BATALIK, DISTRICT KARGIL, J&K PIN CODE 194103",01985-281138;9419819720,KARGIL,KARGIL,JAMMU & KASHMIR
JAKA0CHANDK,The Jammu and Kashmir Bank,JAKA0CHANDK,NON-MICR,CHANDAK,"CHANDAK, DISTRCIT POONCH, J&K PIN CODE 185101",9419175212.00,CHANDAK,POONCH,JAMMU & KASHMIR
JAKA0CHATGB,The Jammu and Kashmir Bank,JAKA0CHATGB,NON-MICR,CHATTERGUL,"CHATTERGUL, TEHSIL KANGAN, DISTRICT GANDERBAL, J&K PIN CODE 191201",9596377275.00,KANGAN,SRINAGAR,JAMMU & KASHMIR
JAKA0FMKLGM,The Jammu and Kashmir Bank,JAKA0FMKLGM,NON-MICR,FRUIT MARKET KULGAM,"FRUIT MARKET KULGAM, DISTRICT KULGAM, J&K PIN CODE 192231",9622828912.00,KULGAM,ANANTNAG,JAMMU & KASHMIR
JAKA0HASBAT,The Jammu and Kashmir Bank,JAKA0HASBAT,NON-MICR,GUND HASSI BHAT,"GUND HASSI BHAT, DISTRICT SRINAGAR, J&K PIN CODE 190017",9419009593.00,LAWAIPORA,SRINAGAR,JAMMU & KASHMIR
JAKA0KHUMRI,The Jammu and Kashmir Bank,JAKA0KHUMRI,NON-MICR,KHUMRIYAL,"KHUMRIYAL, DISTRICT KUPWARA, J&K PIN CODE 193022",9906635345.00,KHUMARYAL,KUPWARA,JAMMU & KASHMIR
JAKA0KOLPUL,The Jammu and Kashmir Bank,JAKA0KOLPUL,NON-MICR,KOIL,"KOIL, DISTRICT PULWAMA, J&K PIN CODE 192301",9018908170.00,LAJURA,PULWAMA,JAMMU & KASHMIR
JAKA0LULPUR,The Jammu and Kashmir Bank,JAKA0LULPUR,NON-MICR,LOLIPUR,"LOLIPUR, TEHSIL CHADURA, DISTRICT BUDGAM, J&K PIN CODE 191113",9797147234;9419052299,CHADURA,BADGAM,JAMMU & KASHMIR
JAKA0MUJGUN,The Jammu and Kashmir Bank,JAKA0MUJGUN,NON-MICR,MUJIGUND,"CHEK MUJIGUND, DISTRICT SRINAGAR, J&K PIN CODE 190017",9419778506.00,ZAINAKOTE,SRINAGAR,JAMMU & KASHMIR
JAKA0NEHAAL,The Jammu and Kashmir Bank,JAKA0NEHAAL,NON-MICR,NEHALPORA,"NEHALPORA PATTAN, DISTRICT BARAMULLA, J&K PIN CODE 193121",9622440007.00,NEHALPORA,BARAMULLA,JAMMU & KASHMIR
JAKA0RATSHP,The Jammu and Kashmir Bank,JAKA0RATSHP,NON-MICR,RATNIPORA SHOPIAN,"RATNIPORA, DISTRICT SHOPIAN, J&K PIN CODE 192303",9697957675.00,RATNIPORA,PULWAMA,JAMMU & KASHMIR
JAKA0USHKAR,The Jammu and Kashmir Bank,JAKA0USHKAR,NON-MICR,USHKURA,"USHKURA, DISTRICT BARAMULLA, J&K PIN CODE 193103",9906600605.00,BARAMULLA,BARAMULLA,JAMMU & KASHMIR
JAKA0WANGAT,The Jammu and Kashmir Bank,JAKA0WANGAT,NON-MICR,WANGAT,"WANGAT, TEHSIL KANGAN, DISTRICT GANDERBAL, J&K PIN CODE 191201",99066009593;8803009593,KANGAN,SRINAGAR,JAMMU & KASHMIR
JAKA0YOUNUS,The Jammu and Kashmir Bank,JAKA0YOUNUS,NON-MICR,YOUNUS WAHIPORA,"YOUNUS WAHIPORA, TEHSIL HANDWARA, DISTRICT KUPWARA, J&K PIN CODE 193302",9596396682.00,YUNIS-WHIPORA,KUPWARA,JAMMU & KASHMIR
JAKA0FRAZER,The Jammu and Kashmir Bank,JAKA0FRAZER,NON-MICR,FRAZER TOWN,"GROUND FLOOR, GOLD SIGNATURE-95 MOSQUE ROAD, FRAZER TOWN BANGALORE, KARNATAKA PIN CODE 560005",7795367396.00,BANGALORE,BANGALORE URBAN,KARNATAKA
JAKA0JANNAK,The Jammu and Kashmir Bank,JAKA0JANNAK,NON-MICR,JANAKPURI,"B-1/512, JANALPURI, NEW DELHI PIN CODE 110058",9868621285.00,DELHI,DELHI,DELHI
JAKA0ZAAKIR,The Jammu and Kashmir Bank,JAKA0ZAAKIR,NON-MICR,ZAKIR NAGAR,"A-29 BATLA HOUSE, OPP. MCD SCHOOL ZAKIR NAGAR, NEW DELHI, PIN CODE 110025",9871096315.00,DELHI,DELHI,DELHI