ID,BANK,IFSC_CODE,MICR_CODE,BRANCH_NAME,ADDRESS,CONTACT,CITY,DISTRICT,STATE
AUCB0000001,Almora Urban Co-Operative Bank ltd,AUCB0000001,,HEAD OFFICE,LALA BAZAR ALMORA,05962-231947,ALMORA,ALMORA,UTTARANCHAL
AUCB0000002,Almora Urban Co-Operative Bank ltd,AUCB0000002,263 849 102,CHOWK BAZAR ALMORA,CHOWK BAZAR ALMORA,05962- 230702,ALMORA,ALMORA,UTTARANCHAL
AUCB0000003,Almora Urban Co-Operative Bank ltd,AUCB0000003,263 849 602,SADAR BAZAR RANIKHET,SADAR BAZAR RANIKHET,05966-220805,RANIKHET,ALMORA,UTTARANCHAL
AUCB0000004,Almora Urban Co-Operative Bank ltd,AUCB0000004,263 849 702,CHOWK BAZAR BAGESHWAR,CHOWK BAZAR BAGESHWAR,05963-220176,BAGESHWAR,BAGESHWAR,UTTARANCHAL
AUCB0000005,Almora Urban Co-Operative Bank ltd,AUCB0000005,263 849 651,DUNAGIRI ROAD DWARAHAT,DUNAGIRI ROAD DWARAHAT,05966-244119,DWARAHAT,ALMORA,UTTARANCHAL
AUCB0000006,Almora Urban Co-Operative Bank ltd,AUCB0000006,262 849 802,GANDHI CHOWK PITHORAGARH,GANDHI CHOWK PITHORAGARH,05964-224958,PITHORAGARH,PITHORAGARH,UTTARANCHAL
AUCB0000007,Almora Urban Co-Operative Bank ltd,AUCB0000007,263 849 002,MEERA MARG HALDWANI,MEERA MARG HALDWANI,05946-251219,HALDWANI,NAINITAL,UTTARANCHAL
AUCB0000008,Almora Urban Co-Operative Bank ltd,AUCB0000008,263 849 302,BADA BAZAR NAINITAL,BADA BAZAR NAINITAL,05942-236985,NAINITAL,NAINITAL,UTTARANCHAL
AUCB0000009,Almora Urban Co-Operative Bank ltd,AUCB0000009,263 849 202,VEER HAQIQAT RAI MARG RUDRAPUR,VEER HAQIQAT RAI MARG RUDRAPUR,05944-244735,RUDRAPUR,UDHAM SINGH NAGAR,UTTARANCHAL
AUCB0000010,Almora Urban Co-Operative Bank ltd,AUCB0000010,263 849 003,NAVEEN ADARSH MANDI HALDWANI,NAVEEN ADARSH MANDI HALDWANI,05946-246043,HALDWANI,NAINITAL,UTTARANCHAL
AUCB0000011,Almora Urban Co-Operative Bank ltd,AUCB0000011,244 849 402,JWALA LINE RAMNAGAR,JWALA LINE RAMNAGAR,05947-252826,RAMNAGAR,NAINITAL,UTTARANCHAL
AUCB0000012,Almora Urban Co-Operative Bank ltd,AUCB0000012,262 849 351,MAIN MARKET TANAKPUR,MAIN MARKET TANAKPUR,05943-265911,TANAKPUR,CHAMPAWAT,UTTARANCHAL
AUCB0000013,Almora Urban Co-Operative Bank ltd,AUCB0000013,262 849 502,KHATIMA ROAD SITARGANJ,KHATIMA ROAD SITARGANJ,05948-244848,SITARGANJ,UDHAM SINGH NAGAR,UTTARANCHAL
AUCB0000014,Almora Urban Co-Operative Bank ltd,AUCB0000014,263 849 004,KALADHUNGI ROAD (EVENING),KALADHUNGI ROAD (EVENING),05946-255144,HALDWANI,NAINITAL,UTTARANCHAL
AUCB0000015,Almora Urban Co-Operative Bank ltd,AUCB0000015,262 849 302,SITARGANJ ROAD KHATIMA,SITARGANJ ROAD KHATIMA,05943-252710,KHATIMA,UDHAM SINGH NAGAR,UTTARANCHAL
AUCB0000016,Almora Urban Co-Operative Bank ltd,AUCB0000016,244 849 202,POST OFFICE ROAD KASHIPUR,POST OFFICE ROAD KASHIPUR,05947-273252,KASHIPUR,UDHAM SINGH NAGAR,UTTARANCHAL
AUCB0000017,Almora Urban Co-Operative Bank ltd,AUCB0000017,263 849 502,MAIN MARKET KICHHA,MAIN MARKET KICHHA,05944-263310,KICHHA,UDHAM SINGH NAGAR,UTTARANCHAL
AUCB0000018,Almora Urban Co-Operative Bank ltd,AUCB0000018,263 849 052,MALLITAL BHIMTAL,MALLITAL BHIMTAL,05942-248381,BHIMTAL,NAINITAL,UTTARANCHAL
AUCB0000019,Almora Urban Co-Operative Bank ltd,AUCB0000019,,HARIDWAR ROAD RISHIKESH,HARIDWAR ROAD RISHIKESH,0135-2435353,RISHIKESH,DEHRA DUN,UTTARANCHAL
AUCB0000020,Almora Urban Co-Operative Bank ltd,AUCB0000020,,HARIDWAR ROAD SHYAMPUR,HARIDWAR ROAD SHYAMPUR,0135-2452488,SHYAMPUR,DEHRA DUN,UTTARANCHAL
AUCB0000021,Almora Urban Co-Operative Bank ltd,AUCB0000021,,HARIDWAR ROAD RAIWALA,HARIDWAR ROAD RAIWALA,0135-2484844,RAIWALA,DEHRA DUN,UTTARANCHAL
AUCB0000022,Almora Urban Co-Operative Bank ltd,AUCB0000022,262 849 602,STATION ROAD CHAMPAWAT,STATION ROAD CHAMPAWAT,05965-231056,CHAMPAWAT,CHAMPAWAT,UTTARANCHAL
AUCB0000023,Almora Urban Co-Operative Bank ltd,AUCB0000023,262 849 651,KHADI BAZAR LOHAGHAT,KHADI BAZAR LOHAGHAT,05965-235477,LOHAGHAT,CHAMPAWAT,UTTARANCHAL
AUCB0000024,Almora Urban Co-Operative Bank ltd,AUCB0000024,263 849 053,HALDWANI ROAD KALADHUNGI,HALDWANI ROAD KALADHUNGI,05942-242440,KALADHUNGI,NAINITAL,UTTARANCHAL
AUCB0000025,Almora Urban Co-Operative Bank ltd,AUCB0000025,263 849 051,NAINITAL ROAD LALKUAN,NAINITAL ROAD LALKUAN,05945-268833,LALKUAN,NAINITAL,UTTARANCHAL
AUCB0000026,Almora Urban Co-Operative Bank ltd,AUCB0000026,,DEVI ROAD KOTDWAR,DEVI ROAD KOTDWAR,01382-229975,KOTDWARA,GARHWAL,UTTARANCHAL
AUCB0000027,Almora Urban Co-Operative Bank ltd,AUCB0000027,263 849 005,NAINITAL ROAD HALDWANI,NAINITAL ROAD HALDWANI,05946-284999,HALDWANI,NAINITAL,UTTARANCHAL
AUCB0000028,Almora Urban Co-Operative Bank ltd,AUCB0000028,263 849 006,RAMPUR ROAD HALDWANI,RAMPUR ROAD HALDWANI,05946-234308,HALDWANI,NAINITAL,UTTARANCHAL
AUCB0000029,Almora Urban Co-Operative Bank ltd,AUCB0000029,262 849 202,BHAGAT SINGH CHOWK BAJPUR,BHAGAT SINGH CHOWK BAJPUR,05949-281355,BAZPUR,UDHAM SINGH NAGAR,UTTARANCHAL
AUCB0000030,Almora Urban Co-Operative Bank ltd,AUCB0000030,,JHANDA BAZAR DEHRA DUN,JHANDA BAZAR DEHRA DUN,0135-2620890,DEHRADUN,DEHRA DUN,UTTARANCHAL
AUCB0000031,Almora Urban Co-Operative Bank ltd,AUCB0000031,249 849 002,BHOLAGIRI ROAD HARIDWAR,BHOLAGIRI ROAD HARIDWAR,01334-220299,HARDWAR,HARIDWAR,UTTARANCHAL
AUCB0000032,Almora Urban Co-Operative Bank ltd,AUCB0000032,,G.I.C. ROAD GANGOLIGHAT,G.I.C. ROAD GANGOLIGHAT,05964-242054,GANGOLIGHAT,PITHORAGARH,UTTARANCHAL
AUCB0000033,Almora Urban Co-Operative Bank ltd,AUCB0000033,,VIDHAN SABHA ROAD DEHRA DUN,VIDHAN SABHA ROAD DEHRA DUN,0135-2666756,DEHRADUN,DEHRA DUN,UTTARANCHAL
AUCB0000034,Almora Urban Co-Operative Bank ltd,AUCB0000034,,CHAKRATA ROAD VIKAS NAGAR,CHAKRATA ROAD VIKAS NAGAR,01360-252920,VIKAS NAGAR,DEHRA DUN,UTTARANCHAL
AUCB0000035,Almora Urban Co-Operative Bank ltd,AUCB0000035,247 849 102,OLD RAILWAY ROAD ROORKEE,OLD RAILWAY ROAD ROORKEE,01332-263646,ROORKEE,HARIDWAR,UTTARANCHAL
AUCB0000036,Almora Urban Co-Operative Bank ltd,AUCB0000036,244 849 203,NEAR SARSWATI SISHU MANDIR S.PATTI,NEAR SARSWATI SISHU MANDIR S.PATTI,05947-225133,SULTANPUR,UDHAM SINGH NAGAR,UTTARANCHAL
AUCB0000037,Almora Urban Co-Operative Bank ltd,AUCB0000037,244 849 302,MILAN BANQUET HALL JASPUR,MILAN BANQUET HALL JASPUR,05947-220073,JASPUR,UDHAM SINGH NAGAR,UTTARANCHAL
AUCB0000038,Almora Urban Co-Operative Bank ltd,AUCB0000038,262 849 851,CHOWK BAZAR BERINAG,CHOWK BAZAR BERINAG,05964-244675,BERINAG,PITHORAGARH,UTTARANCHAL
AUCB0000039,Almora Urban Co-Operative Bank ltd,AUCB0000039,263 849 751,NEAR G.I.C. GARUR,NEAR G.I.C. GARUR,05963-250156,GARUR,BAGESHWAR,UTTARANCHAL
AUCB0000040,Almora Urban Co-Operative Bank ltd,AUCB0000040,,KONARK COMPLEX ALMORA,KANARK COMPLEX MALL ROAD ALMORA,"9412044674,05962 232323",ALMORA,ALMORA,UTTARAKHAND
AUCB0000041,Almora Urban Co-Operative Bank ltd,AUCB0000041,,ABDULLA BUILDING BAREILLY ROAD HALDWANI,ABDULLA BUILDING BAREILLY ROAD HALDWANI DISTT NAINITAL,9917958084; 5946200000,HALDWANI,NAINITAL,UTTARAKHAND
AUCB0000042,Almora Urban Co-Operative Bank ltd,AUCB0000042,,LEELA TOWER KUSUM KHERA HALDWANI,LEELA TOWER KUSUM KHERA HALDWANI DISTT NAINITAL,7500045101; 5946200000,HALDWANI,NAINITAL,UTTARAKHAND
AUCB0000043,Almora Urban Co-Operative Bank ltd,AUCB0000043,249 849 003,"298-LODHI MANDI, GURUDWARA ROAD JWALAPUR HARIDWAR","298-LODHI MANDI, GURUDWARA ROAD JWALAPUR HARIDWAR",MR. NANDAN SINGH ADHIKARI-9412977768,HARDWAR,HARIDWAR,UTTARANCHAL
AUCB0000044,Almora Urban Co-Operative Bank ltd,AUCB0000044,246 849 702,UPPER BAZAR PAURI,UPPER BAZAR PAURI,MR. PANKAJ JOSHI-9837319325,PAURI,GARHWAL,UTTARANCHAL
AUCB0000045,Almora Urban Co-Operative Bank ltd,AUCB0000045,246 849 902,HOTEL COZY KALA ROAD SRI NAGAR,HOTEL COZY KALA ROAD SRI NAGAR,MR. VIJAY KUMAR HARBOLA-9410309218,SRINAGAR,GARHWAL,UTTARANCHAL
AUCB0000046,Almora Urban Co-Operative Bank ltd,AUCB0000046,248 849 005,15-DISPENSARY ROAD DEHRADUN,15-DISPENSARY ROAD DEHRADUN,MR. VINOD KUMAR LOHANI-9412930428,DEHRADUN,DEHRA DUN,UTTARANCHAL
AUCB0000047,Almora Urban Co-Operative Bank ltd,AUCB0000047,248 849 004,MILL ROAD DOIWALA,MILL ROAD DOIWALA,MR. VINOD KUMAR-9411790845,DOIWALA,DEHRA DUN,UTTARANCHAL
AUCB0000048,Almora Urban Co-Operative Bank ltd,AUCB0000048,263 849 402,"149, GULARBHOJ ROAD GADARPUR",149 GULARBHOJ ROAD GADARPUR,MR. ASUTOSH SAH-8650013555,GADARPUR,UDHAM SINGH NAGAR,UTTARANCHAL
AUCB0000049,Almora Urban Co-Operative Bank ltd,AUCB0000049,248 849 203,321/7 MAIN MARKET DEHRADUN ROAD HERBERTPUR,321/7 MAIN MARKET DEHRADUN ROAD HERBERTPUR,MR. KAMAL GURURANI-9412036555,HERBUTPUR,DEHRADUN,UTTARANCHAL
AUCB0000050,Almora Urban Co-Operative Bank ltd,AUCB0000050,249 849 105,KAILASH GATE LAXMAN JHULA ROAD MUNI KI RETI,KAILASH GATE LAXMAN JHULA ROAD MUNI KI RETI,MR. MUKUL DURGAPAL-9411701622,MUNI-KI-RETI,TEHRI GARHWAL,UTTARANCHAL
AUCB0000051,Almora Urban Co-Operative Bank ltd,AUCB0000051,247 849 103,256/22 CIVIL LINE ROORKEE,256/22 CIVIL LINE ROORKEE,MR. KAMAL KUMAR LOHANI-9412963668,ROORKEE,HARIDWAR,UTTARANCHAL