ID,BANK,IFSC_CODE,MICR_CODE,BRANCH_NAME,ADDRESS,CONTACT,CITY,DISTRICT,STATE
WBSC0BDCB02,The West Bengal State Cooperative Bank Ltd,WBSC0BDCB02,NOT ALLOTED,BISHNUPUR,P.O: BISHNUPUR          PIN-722122,MR. DILIP MUKHERJEE,SONAMUKHI,BANKURA,WEST BENGAL
WBSC0BDCB03,The West Bengal State Cooperative Bank Ltd,WBSC0BDCB03,NOT ALLOTED,SONAMUKHI,P.O: SONAMUKHI        PIN-722207,MR. ASHOKE BANERJEE,JOYPUR,BANKURA,WEST BENGAL
WBSC0BDCB04,The West Bengal State Cooperative Bank Ltd,WBSC0BDCB04,NOT ALLOTED,JOYPUR,P.O: JOYPUR               PIN-722138,MR.JOYDEB GOSWAMI,KOTUPUR,BANKURA,WEST BENGAL
WBSC0BDCB05,The West Bengal State Cooperative Bank Ltd,WBSC0BDCB05,NOT ALLOTED,KOTULPUR,P.O: KOTULPUR            PIN-722147,MR. TAPAN KUMAR DEY,SIMLAPAL,BANKURA,WEST BENGAL
WBSC0BDCB06,The West Bengal State Cooperative Bank Ltd,WBSC0BDCB06,NOT ALLOTED,SIMLAPAL,P.O: SIMLAPAL            PIN-722151,MR. BISWAJIT KUNDU,INDAS,BANKURA,WEST BENGAL
WBSC0BDCB07,The West Bengal State Cooperative Bank Ltd,WBSC0BDCB07,NOT ALLOTED,INDAS,P.O: INDAS                PIN-722205,MR BANDHU GOPAL SINHA,SARENGA,BANKURA,WEST BENGAL
WBSC0BDCB08,The West Bengal State Cooperative Bank Ltd,WBSC0BDCB08,NOT ALLOTED,SARENGA,P.O: SARENGA            PIN-722150,MR SOUMEN CHABRI,BARJORA,BANKURA,WEST BENGAL
WBSC0BDCB09,The West Bengal State Cooperative Bank Ltd,WBSC0BDCB09,NOT ALLOTED,BARJORA,P.O: BARJORA             PIN-722202,MR SUBINOY GANGULI,CHHATNA,BANKURA,WEST BENGAL
WBSC0BDCB10,The West Bengal State Cooperative Bank Ltd,WBSC0BDCB10,NOT ALLOTED,CHHATNA,P.O: CHHATNA            PIN-722132,MR INDRANIL KARMAKAR,KHATRA,BANKURA,WEST BENGAL
WBSC0BDCB11,The West Bengal State Cooperative Bank Ltd,WBSC0BDCB11,722809102,KHATRA,P.O: KHATRA               PIN- 722140,MR SANDIP DUTTA,PATRASAYER,BANKURA,WEST BENGAL
WBSC0BDCB12,The West Bengal State Cooperative Bank Ltd,WBSC0BDCB12,NOT ALLOTED,PATRASAYER,P.O: PATRASAYER         PIN- 722206,MR SUJIT KUMAR MONDAL,TALDANGRA,BANKURA,WEST BENGAL
WBSC0BDCB13,The West Bengal State Cooperative Bank Ltd,WBSC0BDCB13,NOT ALLOTED,TALDANGRA,PO: TALDANGRA           PIN- 722152,MR CHANDRANATH MUKHERJEE,ONDA,BANKURA,WEST BENGAL
WBSC0BDCB14,The West Bengal State Cooperative Bank Ltd,WBSC0BDCB14,NOT ALLOTED,ONDA,PO: ONDA                 PIN- 722144,MR MANORANJAN BANERJEE,RAIPUR,BANKURA,WEST BENGAL
WBSC0BDCB15,The West Bengal State Cooperative Bank Ltd,WBSC0BDCB15,NOT ALLOTED,RAIPUR,PO: GARH RAIPUR         PIN- 722134,MR RAJU MAULICK,BANKURA,BANKURA,WEST BENGAL
WBSC0BDCB16,The West Bengal State Cooperative Bank Ltd,WBSC0BDCB16,NOT ALLOTED,BANKURA EVENING,MACHANTALA BANKURA      PIN-722101                 P.B.NO-12,MR KUMAR KANTI BOSE,RANIBANDH,BANKURA,WEST BENGAL
WBSC0BDCB17,The West Bengal State Cooperative Bank Ltd,WBSC0BDCB17,NOT ALLOTED,RANIBANDH,PO: RANIBANDH            PIN- 722148,MR ASIMANANDA SUBUDDHI,KAMALPUR,BANKURA,WEST BENGAL
WBSC0BDCB18,The West Bengal State Cooperative Bank Ltd,WBSC0BDCB18,NOT ALLOTED,KAMALPUR,PO: KAMALPUR             PIN- 722137,MR SNIGDHENDU MUKHOPADHYAY,DURLAVPUR,BANKURA,WEST BENGAL
WBSC0BDCB19,The West Bengal State Cooperative Bank Ltd,WBSC0BDCB19,NOT ALLOTED,DURLAVPUR,PO: DURLAVPUR             PIN-722133,MR ANINDYA SUNDAR MANDAL,BANKURA,BANKURA,WEST BENGAL
WBSC0BDCB20,The West Bengal State Cooperative Bank Ltd,WBSC0BDCB20,NOT ALLOTED,HEAD OFFICE,MACHANTALA BANKURA      PIN-722101                 P.B.NO-12,MR SADHAN CHANDRA BARIK,,,
WBSC0HDCB02,The West Bengal State Cooperative Bank Ltd,WBSC0HDCB02,700093257,SERAMPORE,"69B G.T. ROAD,,SERAMPORE, PIN - 712201",9433385573,SERAMPORE,HOOGHLY (HUGLI),WEST BENGAL
WBSC0HDCB03,The West Bengal State Cooperative Bank Ltd,WBSC0HDCB03,700801503,MOGRA,"MOGRA STATION ROAD MOGRA,MOGRA, PIN - 712101",9051230296,MOGRA,HOOGHLY (HUGLI),WEST BENGAL
WBSC0HDCB04,The West Bengal State Cooperative Bank Ltd,WBSC0HDCB04,700093264,RISHRA,"PANCHASAR APPARTMENT MORE PUKUR ROAD,,RISHRA, PIN - 712248",9735318215,RISHRA,HOOGHLY (HUGLI),WEST BENGAL
WBSC0HDCB05,The West Bengal State Cooperative Bank Ltd,WBSC0HDCB05,712801503,NALIKUL,"NALIKUL BATALA, P.O. NALIKUL,NALIKUL, PIN - 712407",9474493928,NALIKUL,HOOGHLY (HUGLI),WEST BENGAL
WBSC0HDCB06,The West Bengal State Cooperative Bank Ltd,WBSC0HDCB06,712801102,ARAMBAGH,"P.C. SEN ROAD, OPP. CHAYABANI CINEMA, ARAMBAGH, HOOGHLY - 712601",9775206362,ARAMBAGH,HOOGHLY (HUGLI),WEST BENGAL
WBSC0HDCB07,The West Bengal State Cooperative Bank Ltd,WBSC0HDCB07,700801505,PANDUA,"G.T.ROAD, PANDUA, KALNA MORE, PANDUA, HOOGHLY - 712149",9433731624,PANDUA,HOOGHLY (HUGLI),WEST BENGAL
WBSC0HDCB08,The West Bengal State Cooperative Bank Ltd,WBSC0HDCB08,712801202,TARAKESWAR,"TARAKESWAR THANA ROAD, TARAKESWAR, HOOGHLY - 712149",9775754302,TARAKESWAR,HOOGHLY (HUGLI),WEST BENGAL
WBSC0HDCB09,The West Bengal State Cooperative Bank Ltd,WBSC0HDCB09,712801502,KHANAKUL,"RAMNAGAR, NEAR KHANAKUL-I BLOCK OFFICE, KHANAKUL, HOOGHLY-712406",9735204090,KHANAKUL,HOOGHLY (HUGLI),WEST BENGAL
WBSC0HDCB10,The West Bengal State Cooperative Bank Ltd,WBSC0HDCB10,712801507,JANGIPARA,"JANGIPARA, HOOGHLY, OPP. JANGIPARA POLICE STATION, PIN - 712404",9434013966,JANGIPARA,HOOGHLY (HUGLI),WEST BENGAL
WBSC0HDCB11,The West Bengal State Cooperative Bank Ltd,WBSC0HDCB11,712801506,"HOOGHLY DISTRICT CENTRAL COOPERATIVE BANK LTD.,DHANIAKHALI","MADAN MOHAN TALA, DHANIAKHALI, HOOGHLY - 712302","03213-255275,9433269814",DHANIAKHALI,HOOGHLY (HUGLI),WEST BENGAL
WBSC0HDCB12,The West Bengal State Cooperative Bank Ltd,WBSC0HDCB12,700801504,"HOOGHLY DISTRICT CENTRAL COOPERATIVE BANK LTD.,KHAMARGACHI","SIJA RATHTALA, NEAR KHAMARGACHI RAILWAY STATION, KHAMARGACHI, HOOGHLY - 712515","03213-279520, 9239506414",KHAMARGACHI,HOOGHLY (HUGLI),WEST BENGAL
WBSC0HDCB13,The West Bengal State Cooperative Bank Ltd,WBSC0HDCB13,712801505,"HOOGHLY DISTRICT CENTRAL COOPERATIVE BANK LTD.,PURSURAH","PURSURAH THANA ROAD, PURSURAH, HOOGHLY - 712401","03212-242249, 9836856530",PURSURAH (PARSHURA),HOOGHLY (HUGLI),WEST BENGAL
WBSC0HDCB14,The West Bengal State Cooperative Bank Ltd,WBSC0HDCB14,712801501,"HOOGHLY DISTRICT CENTRAL COOPERATIVE BANK LTD.,KAMARPUKUR","TARAKESWAR BANKURA ROAD, KAMARPUKUR, OPP. ZILLA PARISHAD BUNGALOW, HOOGHLY - 712612","03211-244269, 9933793210",KAMARPUKUR,HOOGHLY (HUGLI),WEST BENGAL
WBSC0HDCB15,The West Bengal State Cooperative Bank Ltd,WBSC0HDCB15,712801504,"HOOGHLY DISTRICT CENTRAL COOPERATIVE BANK LTD.,HARIPAL","URIA BAZAR, HARIPAL STATION ROAD, NEAR ALLAHABAD BANK, HARIPAL, HOOGHLY - 712409","03212-242249,9734645819",HARIPAL,HOOGHLY (HUGLI),WEST BENGAL
WBSC0HDCB16,The West Bengal State Cooperative Bank Ltd,WBSC0HDCB16,700093265,"HOOGHLY DISTRICT CENTRAL COOPERATIVE BANK LTD.,SINGUR","SINGUR BAZAR, S.N. MALLICK ROAD, NEAR ALLAHABAD BANK, SINGUR, HOOGHLY - 712409","033-26300215, 9433148103",SINGUR,HOOGHLY (HUGLI),WEST BENGAL
WBSC0HDCB17,The West Bengal State Cooperative Bank Ltd,WBSC0HDCB17,700093266,"HOOGHLY DISTRICT CENTRAL COOPERATIVE BANK LTD.,CHANDITALA","NEAR MAHALAXMI CINEMA, CHANDITALA, HOOGHLY - 712148","03212-260770, 9432320716",DANKUNI,HOOGHLY (HUGLI),WEST BENGAL
WBSC0HDCB18,The West Bengal State Cooperative Bank Ltd,WBSC0HDCB18,700801501,"HOOGHLY DISTRICT CENTRAL COOPERATIVE BANK LTD.,BOINCHEE","NEAR G.T. ROAD, ROYJEE MARKET, BOINCHEE-BHASTARA ROAD, BOINCHEE, HOOGHLY - 712134","03213-271324, 9433260135",BOINCHEE,HOOGHLY (HUGLI),WEST BENGAL
WBSC0HDCB19,The West Bengal State Cooperative Bank Ltd,WBSC0HDCB19,700801502,"HOOGHLY DISTRICT CENTRAL COOPERATIVE BANK LTD.,HARIT","AKBAR MARKET, HARIT HATTALA, HARIT, HOOGHLY - 712305","03213-248245, 9874052161",HARIT,HOOGHLY (HUGLI),WEST BENGAL
WBSC0JCCB02,The West Bengal State Cooperative Bank Ltd,WBSC0JCCB02,NOT APPLICABLE,DHUPGURI,"COLLEGE ROAD, PO - DHUPGURI, DIST -  JALPAIGURI, WEST BENGAL-735210",03563-250035,DHUPGURI,JALPAIGURI,WEST BENGAL
WBSC0JCCB03,The West Bengal State Cooperative Bank Ltd,WBSC0JCCB03,NOT APPLICABLE,MAYNAGURI,"MAYNAGURI SUPER MARKET, PO - MAYNAGURI, DIST - JALPAIGURI, WEST BENGAL - 735224",03561-233072,MAINAGURI,JALPAIGURI,WEST BENGAL
WBSC0JCCB04,The West Bengal State Cooperative Bank Ltd,WBSC0JCCB04,NOT APPLICABLE,BELAKOBA,"PRASANNANAGAR, PO - PRASANNANAGAR, DIST - JALPAIGURI, WEST BENGAL - 735133",03561-240271,BELAKOBA,JALPAIGURI,WEST BENGAL
WBSC0JCCB05,The West Bengal State Cooperative Bank Ltd,WBSC0JCCB05,NOT APPLICABLE,RAJGANJ,"RAJGANJ BAZAR, PO - RAJGANJ, DIST - JALPAIGURI, WEST BENGAL-735134",03561-254225,RAJGANJ,JALPAIGURI,WEST BENGAL
WBSC0JCCB06,The West Bengal State Cooperative Bank Ltd,WBSC0JCCB06,NOT APPLICABLE,MAL,"CALTEX MORE, PO-MAL, DIST - JALPAIGURI, WEST BENGAL-735221",03562-255090,MAL,JALPAIGURI,WEST BENGAL
WBSC0JCCB07,The West Bengal State Cooperative Bank Ltd,WBSC0JCCB07,NOT APPLICABLE,HALDIBARI,"MITRA COMPLEX (1ST FL), NEAR BUS STAND, PO-HALDIBARI, DIST - COOCHBEHAR, WEST BENGAL-735122",03561-263283,HALDIBARI,KOCH BIHAR,WEST BENGAL
WBSC0JCCB08,The West Bengal State Cooperative Bank Ltd,WBSC0JCCB08,734802002,SILIGURI,"""AVOY KUNJA"", 1ST FL, HAKIMPARA (BEHIND GOURI SHANKAR MARKET), PO-SILIGURI, DIST- DARJEELING, WEST BENGAL-734001",0353-2530527,SILIGURI,DARJILING,WEST BENGAL
WBSC0JCCB09,The West Bengal State Cooperative Bank Ltd,WBSC0JCCB09,NOT APPLICABLE,JALPAIGURI EVENING BR.,"TEMPLE STREET (GR.FL), PO & DIST - JALPAIGURI, WEST BENGAL-735101",03561-225239,JALPAIGURI,JALPAIGURI,WEST BENGAL
WBSC0JCCB10,The West Bengal State Cooperative Bank Ltd,WBSC0JCCB10,NOT APPLICABLE,BIDHANNAGAR,"PANCHAYAT ROAD, PO -BIDHANNAGAR, DIST - DARJEELING, WEST BENGAL-734426",0353-2003098,BIDHANNAGAR,DARJILING,WEST BENGAL
WBSC0JCCB11,The West Bengal State Cooperative Bank Ltd,WBSC0JCCB11,NOT ALLOTTED,"THE JALPAIGURI CENTRAL CO-OPERATIVE BANK LTD.  ,BANARHAT","UBI ROAD, PO-BANARHAT, DIST-JALPAIGURI,WEST BENGAL-735202",03563-252150,BANARHAT,JALPAIGURI,WEST BENGAL
WBSC0JCCB12,The West Bengal State Cooperative Bank Ltd,WBSC0JCCB12,NOT ALLOTTED,"THE JALPAIGURI CENTRAL CO-OPERATIVE BANK LTD.  ,GHOGOMALI","NAGALAND BUILDING (GR. FL), PO - GHOGOMALI, DIST - JALPAIGURI, WEST BENGAL-734406",0353-2593200,SILIGURI,JALPAIGURI,WEST BENGAL
WBSC0JCCB13,The West Bengal State Cooperative Bank Ltd,WBSC0JCCB13,NOT ALLOTTED,"THE JALPAIGURI CENTRAL CO-OPERATIVE BANK LTD.  ,RANIRHAT","RANIRHAT, PO - RANIRHAT, DIST - COOCHBEHAR, WEST BENGAL - 735224",03584-250395,RANIRHAT,KOCH BIHAR,WEST BENGAL
WBSC0JCCB14,The West Bengal State Cooperative Bank Ltd,WBSC0JCCB14,NOT ALLOTTED,"THE JALPAIGURI CENTRAL CO-OPERATIVE BANK LTD.  ,PURATAN MASJID","PURATAN MASJID, PO & DIST- JALPAIGURI, WEST BENGAL-735101",03561-276828,JALPAIGURI,JALPAIGURI,WEST BENGAL
WBSC0JCCB15,The West Bengal State Cooperative Bank Ltd,WBSC0JCCB15,NOT ALLOTTED,"THE JALPAIGURI CENTRAL CO-OPERATIVE BANK LTD.  ,BARDHAMAN RD","1 VIDYASAGAR ROAD, FAST ACCESS BUILDING (GR. FL), PO-SILIGURI, DIST-JALPAIGURI, WEST BENGAL - 735005",0353-2500160,SILIGURI,DARJILING,WEST BENGAL
WBSC0JCCB16,The West Bengal State Cooperative Bank Ltd,WBSC0JCCB16,NOT ALLOTTED,"THE JALPAIGURI CENTRAL CO-OPERATIVE BANK LTD.  ,PANDAPARA ","PANDAPARA ROAD (OPP. SRI DAYAL CINEMA HALL), PO & DIST-JALPAIGURI, WEST BENGAL-735101 ",03561-224273,JALPAIGURI,JALPAIGURI,WEST BENGAL
WBSC0MALD01,The West Bengal State Cooperative Bank Ltd,WBSC0MALD01,732802102,HEAD OFFICE; MALDA DISTRICT CENTRAL COOPERATIVE BANK LTD.,N.S.ROAD MALDA PIN-732101,SHRI TAPHADAN ROY TELE FAX. 03512-223380,ENGLISH BAZAR,MALDAH,WEST BENGAL
WBSC0NDCB01,The West Bengal State Cooperative Bank Ltd,WBSC0NDCB01,NOT ALLOTTED,"NADIA DISTRICT CENTRAL CO OPERATIVE BANK LTD ,KRISHNAGAR MAIN BRANCH","M.M.GHOSH STREET,KRISHNAGAR,PIN:741101",03472-252789,KRISHNAGAR,NADIA,WEST BENGAL
WBSC0NDCB02,The West Bengal State Cooperative Bank Ltd,WBSC0NDCB02,741807202,"NADIA DISTRICT CENTRAL CO OPERATIVE BANK LTD ,RANAGHAT","KALIMOYGHATK LANE, RANAGHAT.PIN.741201",03473-210070,RANAGHAT,NADIA,WEST BENGAL
WBSC0NDCB03,The West Bengal State Cooperative Bank Ltd,WBSC0NDCB03,NOT ALLOTTED,"NADIA DISTRICT CENTRAL CO OPERATIVE BANK LTD ,KARIMPUR","KRISHNAGAR KARIMPUR ROAD,P.O. KARIMPUR,PIN ; 741152",03471-255119,KARIMPUR,NADIA,WEST BENGAL
WBSC0NDCB04,The West Bengal State Cooperative Bank Ltd,WBSC0NDCB04,NOT ALLOTTED,"NADIA DISTRICT CENTRAL CO OPERATIVE BANK LTD ,HARINGHATA","HARINGHATA BAZAR,,DIST: NADIA, PIN;741249",03473-233373,HARINGHATA,NADIA,WEST BENGAL
WBSC0NDCB05,The West Bengal State Cooperative Bank Ltd,WBSC0NDCB05,NOT ALLOTTED,"NADIA DISTRICT CENTRAL CO OPERATIVE BANK LTD ,BETHUADAHARY","BETHUADAHARY BAZAR,P.O. BETHUADAHARY,PIN:741126",03474-255235,BETHUADAHARY,NADIA,WEST BENGAL
WBSC0NDCB06,The West Bengal State Cooperative Bank Ltd,WBSC0NDCB06,NOT ALLOTTED,"NADIA DISTRICT CENTRAL CO OPERATIVE BANK LTD ,CHAKDA","CHAKDA (NEAR BUS STAND)P.O. CHAKDA, PIN:741222",03473-245056,CHAKDA,NADIA,WEST BENGAL
WBSC0NDCB07,The West Bengal State Cooperative Bank Ltd,WBSC0NDCB07,NOT ALLOTTED,"NADIA DISTRICT CENTRAL CO OPERATIVE BANK LTD ,BADKULLA","NANDAN KARKET BADKULLA BAZAR,P.O: BADKULLA,PIN:741121",03473-270223,BADKULLA,NADIA,WEST BENGAL
WBSC0NDCB08,The West Bengal State Cooperative Bank Ltd,WBSC0NDCB08,NOT ALLOTTED,"NADIA DISTRICT CENTRAL CO OPERATIVE BANK LTD ,DEBAGRAM","N.H.34.ROAD, DEBAGRAM,P.O. DEBAGRAM,PIN;741137",03474-266216,DEBAGRAM,NADIA,WEST BENGAL
WBSC0NDCB09,The West Bengal State Cooperative Bank Ltd,WBSC0NDCB09,NOT ALLOTTED,"NADIA DISTRICT CENTRAL CO OPERATIVE BANK LTD ,CHAPRA","KRISHNAGAR KARIMPUR ROAD,P.O. CHAPRA,PIN ; 741123",03474-270242,CHAPRA,NADIA,WEST BENGAL
WBSC0NDCB10,The West Bengal State Cooperative Bank Ltd,WBSC0NDCB10,NOT ALLOTTED,"NADIA DISTRICT CENTRAL CO OPERATIVE BANK LTD ,HANSKHALI","HANSKHALI BAZAR,P.O. HANSKHALI,PIN:741505",03473-272233,HANSKHALI,NADIA,WEST BENGAL
WBSC0NDCB11,The West Bengal State Cooperative Bank Ltd,WBSC0NDCB11,NOT ALLOTTED,"NADIA DISTRICT CENTRAL CO OPERATIVE BANK LTD ,TEHATTA","TEHATTA BAZAR MORE,P.O. TEHATTA ,PIN:741146",03471-250248,TEHATTA,NADIA,WEST BENGAL
WBSC0NDCB12,The West Bengal State Cooperative Bank Ltd,WBSC0NDCB12,NOT ALLOTTED,"NADIA DISTRICT CENTRAL CO OPERATIVE BANK LTD ,NABADWIP","BOWBAZAR MORE,P.O.NABADWIP,PIN;741302",03472-240346,NABADWIP,NADIA,WEST BENGAL
WBSC0NDCB13,The West Bengal State Cooperative Bank Ltd,WBSC0NDCB13,NOT ALLOTTED,"NADIA DISTRICT CENTRAL CO OPERATIVE BANK LTD ,SANTIPUR","K.C.DAS ROAD,P.O.SANTIPUR,PIN:741402",03472-278041,SANTIPUR,NADIA,WEST BENGAL
WBSC0NDCB14,The West Bengal State Cooperative Bank Ltd,WBSC0NDCB14,NOT ALLOTTED,"NADIA DISTRICT CENTRAL CO OPERATIVE BANK LTD ,PALASIPARA","PALASIPARA BAZAR,P.O.PALASIPARA,PIN:741155",03471-252238,PALASIPARA,NADIA,WEST BENGAL
WBSC0NDCB15,The West Bengal State Cooperative Bank Ltd,WBSC0NDCB15,NOT ALLOTTED,"NADIA DISTRICT CENTRAL CO OPERATIVE BANK LTD ,DHUBULIA","N.H.34.ROAD, DHUBULIA BATTALA,P.O. DHUBULIA,PIN;741139",03472-261247,DHUBULIA,NADIA,WEST BENGAL
WBSC0NDCB16,The West Bengal State Cooperative Bank Ltd,WBSC0NDCB16,700093263,"NADIA DISTRICT CENTRAL CO OPERATIVE BANK LTD ,KALYANI","B/7/40-41(CA) P.O.KALYANI, PIN;741235",033-25826101,KALYANI,NADIA,WEST BENGAL
WBSC0NDCB17,The West Bengal State Cooperative Bank Ltd,WBSC0NDCB17,NOT ALLOTTED,"NADIA DISTRICT CENTRAL CO OPERATIVE BANK LTD ,MAJDIAH","RAIL BAZAR,P.O.MAJDIA,PIN:741705",03472-276055,MAJDIAH,NADIA,WEST BENGAL
WBSC0RCCB02,The West Bengal State Cooperative Bank Ltd,WBSC0RCCB02,733813012,MOHANBATI BR.,"N.S.ROAD, RAIGANJ",MR. SISIR BHATTACHARJEE,RAIGANJ,U/DINAJPUR,WEST BENGAL
WBSC0RCCB03,The West Bengal State Cooperative Bank Ltd,WBSC0RCCB03,NOT APPLICABLE,UKILPARA BR.,"TOWN CLUB LANE, UKILPARA, RAIGANJ",MR. DIPAYAN CHATTERJEE,RAIGANJ,U/DINAJPUR,WEST BENGAL
WBSC0RCCB04,The West Bengal State Cooperative Bank Ltd,WBSC0RCCB04,NOT APPLICABLE,BUNIADPUR BR.,"BUNIADPUR BUS STAND, D/DINAJPUR",MR. SANDIP KARMAKAR,BUNIADPUR,D/ DINAJPUR,WEST BENGAL
WBSC0RCCB05,The West Bengal State Cooperative Bank Ltd,WBSC0RCCB05,NOT APPLICABLE,HARIRAMPUR BR.,"HARIRAMPUR, D/DINAJPUR",MR.PROSENJIT GHOSH,HARIRAMPUR,D/ DINAJPUR,WEST BENGAL
WBSC0RCCB06,The West Bengal State Cooperative Bank Ltd,WBSC0RCCB06,NOT APPLICABLE,KUSHMANDI BR.,"KUSHMANDI BUS STAND, D/DINAJPUR",MR. BHAJAN BAGCHI,KUSHMANDI,D/ DINAJPUR,WEST BENGAL
WBSC0RCCB07,The West Bengal State Cooperative Bank Ltd,WBSC0RCCB07,NOT APPLICABLE,KALIYAGANJ BR.,"OPP. OF KALIYAGANJ STATION, KALIYAGANJ",MR. SAGAR BANERJEE,KALIYAGANJ,U/ DINAJPUR,WEST BENGAL
WBSC0RCCB08,The West Bengal State Cooperative Bank Ltd,WBSC0RCCB08,NOT APPLICABLE,HEMTABAD BR.,"HEMTABAD BUS STAND, HEMTABAD",MR. BASUDEB NANDI,HEMTABAD,U/ DINAJPUR,WEST BENGAL
WBSC0RCCB09,The West Bengal State Cooperative Bank Ltd,WBSC0RCCB09,NOT APPLICABLE,KUNOR BR.,"KUNOR BUS STAND, KUNOR, U/DINAJPUR",MR. PARTHA SARATHI NIOGI,KUNOR,U/ DINAJPUR,WEST BENGAL
WBSC0RCCB10,The West Bengal State Cooperative Bank Ltd,WBSC0RCCB10,NOT APPLICABLE,ITAHAR BR.,"THANA ROAD, ITAHAR, U/DINAJPUR",MR. DIIBENDU BIKASH MAJUMDER,ITAHAR,U/ DINAJPUR,WEST BENGAL
WBSC0RCCB11,The West Bengal State Cooperative Bank Ltd,WBSC0RCCB11,NOT APPLICABLE,TUNGIDIGHI BR.,"N.H.34, BESIDE BUS STAND, TUNGIDIGHI,",MR. KRIPA BALA,TUNGIDIGHI,U/ DINAJPUR,WEST BENGAL
WBSC0RCCB12,The West Bengal State Cooperative Bank Ltd,WBSC0RCCB12,NOT APPLICABLE,DALKHOLA BR.,"N.H.34, NEAR RAILWAY GHOOMTY,DALKHOLA",MR. DWARAK NATH GANGULY,DALKHOLA,U/ DINAJPUR,WEST BENGAL
WBSC0RCCB13,The West Bengal State Cooperative Bank Ltd,WBSC0RCCB13,NOT APPLICABLE,KANKI BR.,"BESIDE KANKI JAIN BIDYAMANDIR, KANKI",MR. ANATH BANDHU SAHA,KANKI,U/ DINAJPUR,WEST BENGAL
WBSC0RCCB14,The West Bengal State Cooperative Bank Ltd,WBSC0RCCB14,NOT APPLICABLE,PANJIPARA BR.,"BESIDE BAS STAND, KANKI",MR. DEBASISH SARKAR,PANJIPARA,U/ DINAJPUR,WEST BENGAL
WBSC0RCCB15,The West Bengal State Cooperative Bank Ltd,WBSC0RCCB15,NOT APPLICABLE,ISLAMPUR BR.,"GROUND FLOOR ZEELA PARISAD BANGLO, ISLAMPUR",MR. BIMAL KANTI MAJUMDER,ISLAMPUR,U/ DINAJPUR,WEST BENGAL
WBSC0RCCB16,The West Bengal State Cooperative Bank Ltd,WBSC0RCCB16,NOT APPLICABLE,CHOPRA BR.,"BESIDE CHOPRA RURAL LIBRARY, CHOPRA",MR. BHARAT CHANDRA SARKAR,CHOPRA,U/ DINAJPUR,WEST BENGAL
WBSC0TCCB02,The West Bengal State Cooperative Bank Ltd,WBSC0TCCB02,APPLIED FOR,"TAMLUK GHATAL CENTRAL COOPERATIVE BANK LTD.,GHATAL",VILL+P.O- GHATAL;     PASCHIM MEDINIPUR;           PIN - 721212,03225-255058    9732705994,GHATAL,MEDINIPUR,WEST BENGAL
WBSC0TCCB03,The West Bengal State Cooperative Bank Ltd,WBSC0TCCB03,APPLIED FOR,"TAMLUK GHATAL CENTRAL COOPERATIVE BANK LTD.,PANSKURA",BAHARGRAM;       PANSKURA R.S;    PIN-721152,03228-252238  9433210515,PANSKURA,PURBA MEDINIPUR,WEST BENGAL
WBSC0TCCB04,The West Bengal State Cooperative Bank Ltd,WBSC0TCCB04,APPLIED FOR,"TAMLUK GHATAL CENTRAL COOPERATIVE BANK LTD.,HALDIA",DURGACHAK (NEAR SUPERMARKET);   PURBA MEDINIPUR;   PIN-721602,03224-274858   9434509094,DURGA CHOWK,PURBA MEDINIPUR,WEST BENGAL
WBSC0TCCB05,The West Bengal State Cooperative Bank Ltd,WBSC0TCCB05,APPLIED FOR,"TAMLUK GHATAL CENTRAL COOPERATIVE BANK LTD.,CHANDRAKONA",CHANDRAKONA TOWN; PIN-721201,03225-266233   9434832424,CHANDRAKONA,MEDINIPUR,WEST BENGAL
WBSC0TCCB06,The West Bengal State Cooperative Bank Ltd,WBSC0TCCB06,APPLIED FOR,"TAMLUK GHATAL CENTRAL COOPERATIVE BANK LTD.,MOYNA",ANANDAPUR;     MOYNA;                PIN-721629,03228-260226  9433521003,MOYNA,PURBA MEDINIPUR,WEST BENGAL
WBSC0TCCB07,The West Bengal State Cooperative Bank Ltd,WBSC0TCCB07,APPLIED FOR,"TAMLUK GHATAL CENTRAL COOPERATIVE BANK LTD.,REAPARA",REAPARA;           PURBA MEDINIPUR; PIN-721650,03224-271503   9434320341,REYAPARA,PURBA MEDINIPUR,WEST BENGAL
WBSC0TCCB08,The West Bengal State Cooperative Bank Ltd,WBSC0TCCB08,APPLIED FOR,"TAMLUK GHATAL CENTRAL COOPERATIVE BANK LTD.,GOURA",CHECHUA GOBINDANAGAR;  PASCHIM MEDINIPUR;        PIN-721146,03225-258231   9434175489,GOURA,MEDINIPUR,WEST BENGAL
WBSC0TCCB09,The West Bengal State Cooperative Bank Ltd,WBSC0TCCB09,APPLIED FOR,"TAMLUK GHATAL CENTRAL COOPERATIVE BANK LTD.,MAHISHADAL",GARH KAMALPUR;     MAHISHADAL;         PIN-721628,03224-240223   9609090128,MAHISHADAL,PURBA MEDINIPUR,WEST BENGAL
WBSC0TCCB10,The West Bengal State Cooperative Bank Ltd,WBSC0TCCB10,APPLIED FOR,"TAMLUK GHATAL CENTRAL COOPERATIVE BANK LTD.,KOLAGHAT",KOLAGHAT;      PURBA MEDINIPUR;   PIN-721134,03228-256328   9836452031,KOLAGHAT,PURBA MEDINIPUR,WEST BENGAL
WBSC0TCCB11,The West Bengal State Cooperative Bank Ltd,WBSC0TCCB11,APPLIED FOR,"TAMLUK GHATAL CENTRAL COOPERATIVE BANK LTD.,MATHCHANDIPUR",CHANDIPUR ; MATHCHANDIPUR; PIN - 721659,03228-272247   9474817578,MATCHANDIPUR,PURBA MEDINIPUR,WEST BENGAL
WBSC0TCCB12,The West Bengal State Cooperative Bank Ltd,WBSC0TCCB12,APPLIED FOR,"TAMLUK GHATAL CENTRAL COOPERATIVE BANK LTD.,CHAITANYAPUR",CHAITANYAPUR;       PURBA MEDINIPUR;    PIN-721645,03224-286230   9433254041,CHAITANYAPUR,PURBA MEDINIPUR,WEST BENGAL
WBSC0TCCB13,The West Bengal State Cooperative Bank Ltd,WBSC0TCCB13,APPLIED FOR,"TAMLUK GHATAL CENTRAL COOPERATIVE BANK LTD.,DASPUR",DASPUR;       PASCHIM MEDINIPUR;         PIN - 721211,03225-254231  9733833601,DASSPUR,MEDINIPUR,WEST BENGAL
WBSC0TCCB14,The West Bengal State Cooperative Bank Ltd,WBSC0TCCB14,APPLIED FOR,"TAMLUK GHATAL CENTRAL COOPERATIVE BANK LTD.,NANDAKUMAR",NANDAKUMAR;      PURBA MEDINIPUR;   PIN-721632,03228-275353  9434170189,NANDAKUMAR,PURBA MEDINIPUR,WEST BENGAL
WBSC0TCCB15,The West Bengal State Cooperative Bank Ltd,WBSC0TCCB15,APPLIED FOR,"TAMLUK GHATAL CENTRAL COOPERATIVE BANK LTD.,KHIRPAI",KHIRPAI;      PASCHIM MEDINIPUR;        PIN- 721232,03225-260224   9933028991,KHIRPAI,MEDINIPUR,WEST BENGAL
WBSC0TCCB16,The West Bengal State Cooperative Bank Ltd,WBSC0TCCB16,APPLIED FOR,"TAMLUK GHATAL CENTRAL COOPERATIVE BANK LTD.,NANDIGRAM",NANDIGRAM;     PURBA MEDINIPUR;   PIN-721631,03224-232664  9002717644,NANDIGRAM,PURBA MEDINIPUR,WEST BENGAL
WBSC0TCCB17,The West Bengal State Cooperative Bank Ltd,WBSC0TCCB17,APPLIED FOR,"TAMLUK GHATAL CENTRAL COOPERATIVE BANK LTD.,NONAKURI",NONAKURI;     NONAKURI BAZAR;   PIN-721172,03228-218687   8972556332,NONAKURI BAZAR,PURBA MEDINIPUR,WEST BENGAL
WBSC0000001,The West Bengal State Cooperative Bank Ltd,WBSC0000001,700093012,KOLKATA MAIN BRANCH,"24-A, WATERLOO STREET,GROUND FLOOR, KOLKATA – 700 071",TELE FAX. 2243-7816,KOLKATA MAIN,KOLKATA,WEST BENGAL
WBSC0000002,The West Bengal State Cooperative Bank Ltd,WBSC0000002,700093002,BHOWANIPUR BRANCH,"28-A, S. P. MUKHERJEE ROAD KOLKATA – 700 025",2455-1199,BHOWANIPUR,KOLKATA,WEST BENGAL
WBSC0000003,The West Bengal State Cooperative Bank Ltd,WBSC0000003,700093003,SHYAMBAZAR BRANCH,"15/2-B, BALARAM GHOSH ST., KOLKATA – 700 004",2555-6588,SHYAMBAZAR,KOLKATA,WEST BENGAL
WBSC0000004,The West Bengal State Cooperative Bank Ltd,WBSC0000004,700093007,BEHALA BRANCH,"15, S.N. ROY RD., KOLKATA – 700 038",2478-1373,BEHALA,KOLKATA,WEST BENGAL
WBSC0000005,The West Bengal State Cooperative Bank Ltd,WBSC0000005,700093006,BELIAGHATA BRANCH,"P-52, CIT SCHEME, VIP MARKET, KOLKATA – 700 010",2320-5108,BELIAGHATA,KOLKATA,WEST BENGAL
WBSC0000006,The West Bengal State Cooperative Bank Ltd,WBSC0000006,700093010,HATIBAGAN BRANCH,"89, ARABINDA SARANI, KOLKATA – 700 005",2-555-3428,HATIBAGAN,KOLKATA,WEST BENGAL
WBSC0000007,The West Bengal State Cooperative Bank Ltd,WBSC0000007,700093005,ENTALLY BRANCH,"27/1/C, CIT SCHEME, LV, KOLKATA – 700 014",2265-7442,ENTALLY,KOLKATA,WEST BENGAL
WBSC0000008,The West Bengal State Cooperative Bank Ltd,WBSC0000008,700093004,GARIAHAT BRANCH,"2/2-A, NANDY STREET, KOLKATA – 700 029",2464-3203,GARIAHAT,KOLKATA,WEST BENGAL
WBSC0000009,The West Bengal State Cooperative Bank Ltd,WBSC0000009,700093009,GOLPARK BRANCH,"28/3-A, GARIAHAT RD., KOLKATA – 700 029",2440-5654,GOLPARK,KOLKATA,WEST BENGAL
WBSC0000010,The West Bengal State Cooperative Bank Ltd,WBSC0000010,700093008,NEW ALIPORE,"23/A, NEW ALIPORE, BLOCK-21-C, KOLKATA – 700 053",2478-6156,NEW ALIPORE,KOLKATA,WEST BENGAL
WBSC0000011,The West Bengal State Cooperative Bank Ltd,WBSC0000011,700093011,CHETLA,"AUDITORIUM BLOCK, CIT MARKET, KOLKATA – 700 037",2479-7747,CHETLA,KOLKATA,WEST BENGAL
WBSC0000012,The West Bengal State Cooperative Bank Ltd,WBSC0000012,NA,SILIGURI [DAY] BRANCH,"1ST FLOOR, HILL CART RD. SARKAR MANSION, SILIGURI, DIST. DARJEELING",[0353] 2432-257,SILIGURI,DARJEELING,WEST BENGAL
WBSC0000013,The West Bengal State Cooperative Bank Ltd,WBSC0000013,NA,SILIGURI [EVENING] BRANCH,"1ST FLOOR, HILL CART RD. SARKAR MANSION, SILIGURI, DIST. DARJEELING",[0353] 2432-237,SILIGURI,DARJEELING,WEST BENGAL
WBSC0000014,The West Bengal State Cooperative Bank Ltd,WBSC0000014,700093014,SALT LAKE CITY BRANCH,"EC BLOCK, SALT LAKE CITY, KOLKATA – 700 054",2337-0438,SALT LAKE CITY,KOLKATA,WEST BENGAL
WBSC0000015,The West Bengal State Cooperative Bank Ltd,WBSC0000015,700093016,POURABHAWAN BRANCH,"415-A, 1ST FLOOR, FD BLOCK, SEC-III, POURA BHAWAN, SALT LAKE CITY, KOLKATA  – 700 064",2321-3724,POURABHAWAN,KOLKATA,WEST BENGAL
WBSC0000016,The West Bengal State Cooperative Bank Ltd,WBSC0000016,NA,DIAMOND HARBOUR BRANCH,"NEAR DIAMOND HARBOUR MUNICIPALITY, 24 PGS.[SOUTH]",[03174] 255-684,DIAMOND HARBOUR,24 PARGANAS SOUTH,WEST BENGAL
WBSC0000017,The West Bengal State Cooperative Bank Ltd,WBSC0000017,NA,CANNING BRANCH,"NEAR CANNING POST OFFICE, 24 PGS.[SOUTH]",[03218] 255-239,CANNING,24 PARGANAS SOUTH,WEST BENGAL
WBSC0000018,The West Bengal State Cooperative Bank Ltd,WBSC0000018,NA,KAKDWIP BRANCH,"KAKDWIP BAZAR, NEAR KAKDWIP POLICE STATION, 24 PGS.[SOUTH]",[03210] 255-043,KAKDWIP,24 PARGANAS SOUTH,WEST BENGAL
WBSC0000019,The West Bengal State Cooperative Bank Ltd,WBSC0000019,NA,KASHINAGAR BRANCH,"NEAR KASHINAGAR BAZAR, PO. KASHINAGR, 24 PGS.[SOUTH]",[03174] 274-221,KASHINAGAR,24 PARGANAS SOUTH,WEST BENGAL
WBSC0000020,The West Bengal State Cooperative Bank Ltd,WBSC0000020,700093019,AMTALA BRANCH,"AMTALA BUS STAND, PO. AMTALA, 24PGS.[SOUTH]",2470-9342,AMTALA,24 PARGANAS SOUTH,WEST BENGAL
WBSC0000021,The West Bengal State Cooperative Bank Ltd,WBSC0000021,NA,SAGAR BRANCH,"RUDRANAGAR, SAGAR, 24 PGS.[SOUTH]",[03210] 242-533,SAGAR,24 PARGANAS SOUTH,WEST BENGAL
WBSC0000022,The West Bengal State Cooperative Bank Ltd,WBSC0000022,NA,PATHA PRATIMA BRANCH,"PATHAR PRATIMA BAZAR, 24 PGS.[SOUTH]",[03210] 267324 /340,PATHA PRATIMA,24 PARGANAS SOUTH,WEST BENGAL
WBSC0000023,The West Bengal State Cooperative Bank Ltd,WBSC0000023,NA,BHANGORE BRANCH,"BHANGORE, NEAR GHATAKPUKUR BUS STOP, 24 PGS.[SOUTH]",[03218] 270-535,BHANGORE,24 PARGANAS SOUTH,WEST BENGAL
WBSC0000024,The West Bengal State Cooperative Bank Ltd,WBSC0000024,700093013,BARUIPUR BRANCH,"NEAR BARUIPUR RLY. STATION, 24 PGS.[SOUTH]",2433-8646,BARUIPUR,24 PARGANAS SOUTH,WEST BENGAL
WBSC0000025,The West Bengal State Cooperative Bank Ltd,WBSC0000025,NA,BIJOYGGUNJ BRANCH,"BIJOY GANJ BAZAR, MANDIR BAZAR, 24 PGS. [SOUTH]",[03174] 277158,BIJOYGGUNJ,24 PARGANAS SOUTH,WEST BENGAL
WBSC0000026,The West Bengal State Cooperative Bank Ltd,WBSC0000026,700093018,BARASAT BRANCH,"1ST FLOOR, R.B.C. RD. NEAR BARASAT COURT, NORTH 24 PGS.",2562-8202,BARASAT,24 PARGANAS NORTH,WEST BENGAL
WBSC0000027,The West Bengal State Cooperative Bank Ltd,WBSC0000027,NA,BONGAON BRANCH,"[NEAR BONGAON COURT], SCHOOL RD., BONGAON, NORTH 24 PGS.",[03215] 255-069,BONGAON,24 PARGANAS NORTH,WEST BENGAL
WBSC0000028,The West Bengal State Cooperative Bank Ltd,WBSC0000028,700093015,BARRACKPORE BRANCH,"ASHADWIP MUNICIPAL COMPLEX, BARRACKPORE, CHIRIAMORE, NORTH 24 PGS.",2593-1651,BARRACKPORE,24 PARGANAS NORTH,WEST BENGAL
WBSC0000029,The West Bengal State Cooperative Bank Ltd,WBSC0000029,NA,BADURIA BRANCH,"[NEAR BADURIA BUS STOP], BADURIA, NORTH 24 PGS.",[03217] 238-538,BADURIA,24 PARGANAS NORTH,WEST BENGAL
WBSC0000030,The West Bengal State Cooperative Bank Ltd,WBSC0000030,700093022,KANCHRAPARA BRANCH,"LICHUBAGAN, KANCHRAPARA, NORTH 24 PGS.",2585-2674,KANCHRAPARA,24 PARGANAS NORTH,WEST BENGAL
WBSC0000031,The West Bengal State Cooperative Bank Ltd,WBSC0000031,700093020,HABRA BRANCH,"NEAR HABRA RLY STATION, NORTH 24 PGS. ",[03216] 237-024,HABRA,24 PARGANAS NORTH,WEST BENGAL
WBSC0000032,The West Bengal State Cooperative Bank Ltd,WBSC0000032,NA,AMDANGA BRANCH,"ARKHALI, AMDANGA PANCHYAT B.D.O.- OFFICE. NORT 24 PGS.",[03216] 260-118,AMDANGA,24 PARGANAS NORTH,WEST BENGAL
WBSC0000033,The West Bengal State Cooperative Bank Ltd,WBSC0000033,NA,CHANDPARA BRANCH,"CHANDPARA BUS STAND, CHANDPARA BAZAR, NORTH 24 PGS.",[03215] 250-044,CHANDPARA,24 PARGANAS NORTH,WEST BENGAL
WBSC0000034,The West Bengal State Cooperative Bank Ltd,WBSC0000034,700093017,PANSILA BRANCH,"PANIHATI MUNICIPALITY, MARKET COMPLEX, R. N. AVENUE,   P.O.- KHARDAH, NORTH 24 PGS.",2568-9191,PANSILA,24 PARGANAS NORTH,WEST BENGAL
WBSC0000035,The West Bengal State Cooperative Bank Ltd,WBSC0000035,NA,HELENCHA BRANCH,"P.O.- HELENCHA, P.S.- BAGDAH, 24 PARGANAS NORTH ",[03215] 264-771,HELENCHA,24 PARGANAS NORTH,WEST BENGAL
WBSC0000036,The West Bengal State Cooperative Bank Ltd,WBSC0000036,NA,BASIRHAT BRANCH,"NEAR BSRIHAT COURT, NORTH 24 PARGNAS. ",[03217] 265-233,BASIRHAT,24 PARGANAS NORTH,WEST BENGAL
WBSC0000037,The West Bengal State Cooperative Bank Ltd,WBSC0000037,700093021,DUM-DUM BRANCH,"60, PURBA SINTHI ROAD, DUM DUM, [KADAMTALA MARKET], KOL-30",2513-5758,DUM-DUM,24 PARGANAS NORTH,WEST BENGAL
WBSC0000038,The West Bengal State Cooperative Bank Ltd,WBSC0000038,NA,COOCH BEHAR BRANCH,"BISWA SINGHA RD., NEAR B. D. HOTEL, P.O.& DIST. – COOCH BEHAR ",[03582] 222-717,COOCH BEHAR,COOCHBEHAR BRANCH,WEST BENGAL
WBSC0000039,The West Bengal State Cooperative Bank Ltd,WBSC0000039,NA,MATHABHANGA BRANCH,"PO – MATHABHANGA, NEAR BUST STOP, COOCH BEHAR ",[03583] 255-258,MATHABHANGA,COOCHBEHAR BRANCH,WEST BENGAL
WBSC0000040,The West Bengal State Cooperative Bank Ltd,WBSC0000040,NA,ALIPURDUAR BRANCH,"PO- ALIPURDUAR, NEAR CHOWPATHI, DIST. - JALPAIGURI ",[03564] 255-242,ALIPURDUAR,COOCHBEHAR BRANCH,WEST BENGAL
WBSC0000041,The West Bengal State Cooperative Bank Ltd,WBSC0000041,NA,DINHATA BRANCH,"PO - DINHATA, NEAR B.D.O.-OFFICE, COOCH BEHAR  ",[03281] 255-073,DINHATA,COOCHBEHAR BRANCH,WEST BENGAL
WBSC0000042,The West Bengal State Cooperative Bank Ltd,WBSC0000042,NA,FALAKATA BRANCH,"PO- FALAKATA, NR. BUS STOP & SITALA MANDIR, DIST. - JALPAIGURI",[03563] 260-273,FALAKATA,COOCHBEHAR BRANCH,WEST BENGAL
WBSC0000043,The West Bengal State Cooperative Bank Ltd,WBSC0000043,NA,TOOFANGUNJ BRANCH,"PO- TOOFANGUNJ, NEAR FIRE SERVICE STATION, DIST. COOCH BEHAR ",[03582] 244-300,TOOFANGUNJ,COOCHBEHAR BRANCH,WEST BENGAL
WBSC0MALD02,The West Bengal State Cooperative Bank Ltd,WBSC0MALD02,732802104,"MALDA DIST. CENTRAL CO-OP BANK LTD,JHALJHALIA","STATION ROAD, JHALJHALIA. PIN-732102",MR SHYAMAL CH KUMAR,ENGLISH BAZAR,MALDAH,WEST BENGAL
WBSC0MALD03,The West Bengal State Cooperative Bank Ltd,WBSC0MALD03,732802105,"MALDA DIST. CENTRAL CO-OP BANK LTD,RATHBARI","RATHBARI, PIN-732101",MR. LAKSHMAN CH KARMAKAR,RATHBARI,MALDAH,WEST BENGAL
WBSC0MALD04,The West Bengal State Cooperative Bank Ltd,WBSC0MALD04,732802106,"MALDA DIST. CENTRAL CO-OP BANK LTD,MANGALBARI","NH-34, MANGALBARI, PIN;732142",MR. AVIJIT BANERJEE,MANGALBARI,MALDAH,WEST BENGAL
WBSC0MALD05,The West Bengal State Cooperative Bank Ltd,WBSC0MALD05,732802107,"MALDA DIST. CENTRAL CO-OP BANK LTD,GOUR ROAD","GOUR ROAD, MOKDUMPUR. PIN:732103",MR. BROJENDRA NATH DAS,ENGLISH BAZAR,MALDAH,WEST BENGAL
WBSC0MALD06,The West Bengal State Cooperative Bank Ltd,WBSC0MALD06,732802501,"MALDA DIST. CENTRAL CO-OP BANK LTD,GAZOLE",GAZOLE. PIN 732124,MR. ALOKE SARKAR,GAZOLE,MALDAH,WEST BENGAL
WBSC0MALD07,The West Bengal State Cooperative Bank Ltd,WBSC0MALD07,732802502,"MALDA DIST. CENTRAL CO-OP BANK LTD,KALIACHAK","NH-34, KALIACHAK, PIN:732201",MR. PRANANTA KR CHATTERJEE,KALIACHAK,MALDAH,WEST BENGAL
WBSC0MALD08,The West Bengal State Cooperative Bank Ltd,WBSC0MALD08,732802503,"MALDA DIST. CENTRAL CO-OP BANK LTD,MOTHABARI",PO: MOTHABARI               PIN- 732207,ARDHENDU CHAKRABORTY,MOTHABARI,MALDAH,WEST BENGAL
WBSC0MALD09,The West Bengal State Cooperative Bank Ltd,WBSC0MALD09,732802504,"MALDA DIST. CENTRAL CO-OP BANK LTD,SAMSI",PO: SAMSI                        PIN- 732139,MR. GANESH PRASAD RAM,SAMSI,MALDAH,WEST BENGAL
WBSC0MALD10,The West Bengal State Cooperative Bank Ltd,WBSC0MALD10,732802505,"MALDA DIST. CENTRAL CO-OP BANK LTD,HARISHCHANDRAPUR",PO: H.C.PUR                    PIN- 732125,MR. AMIYA KARMAKAR,HARISHCHANDRAPUR,MALDAH,WEST BENGAL
WBSC0MALD11,The West Bengal State Cooperative Bank Ltd,WBSC0MALD11,732802506,"MALDA DIST. CENTRAL CO-OP BANK LTD,CHANCHAL",PO: CHANCHAL                    PIN- 732123,MR .MANABENDRA DAS,CHANCHAL,MALDAH,WEST BENGAL
WBSC0MALD12,The West Bengal State Cooperative Bank Ltd,WBSC0MALD12,732802507,"MALDA DIST. CENTRAL CO-OP BANK LTD,MANIKCHAK",PO: MATHURAPUR                    PIN- 732203,MR. GOPAL CH GUPTA,MATHURAPUR,MALDAH,WEST BENGAL
WBSC0MALD13,The West Bengal State Cooperative Bank Ltd,WBSC0MALD13,732802508,"MALDA DIST. CENTRAL CO-OP BANK LTD,PAKUA",PO: PAKUAHAT                     PIN- 732138,MR. TAPAS BANERJEE,PAKUAHAT,MALDAH,WEST BENGAL
WBSC0MALD14,The West Bengal State Cooperative Bank Ltd,WBSC0MALD14,732802509,"MALDA DIST. CENTRAL CO-OP BANK LTD,PUKHURIA",PO: PUKURIA                    PIN- 732213,MR. UTPAL KR DAS,PUKHURIA,MALDAH,WEST BENGAL
WBSC0MALD15,The West Bengal State Cooperative Bank Ltd,WBSC0MALD15,NOT AVAILABLE,"MALDA DIST. CENTRAL CO-OP BANK LTD,HEAD OFFICE",S.P. ROAD                 PIN;732101,MR. SUBHAMOY CHATTERJEE,ENGLISH BAZAR,MALDAH,WEST BENGAL
WBSC0VCCB02,The West Bengal State Cooperative Bank Ltd,WBSC0VCCB02,NOT ALLOTED,"VIDYASAGAR CCB LTD.,JHARGRAM","AT+P.O - JHARGRAM, DIST.-PASCHIM MEDINIPUR,PIN-721507",03222-275744,KHARAGPUR,MEDINIPUR(W),WEST BENGAL
WBSC0VCCB03,The West Bengal State Cooperative Bank Ltd,WBSC0VCCB03,721800102,"VIDYASAGAR CCB LTD.,KHARAGPUR","AT+P.O - KHARAGPUR, DIST.-PASCHIM MEDINIPUR,PIN-721301",03221-255023,JHARGRAM,MEDINIPUR(W),WEST BENGAL
WBSC0VCCB04,The West Bengal State Cooperative Bank Ltd,WBSC0VCCB04,NOT ALLOTED,"VIDYASAGAR CCB LTD., ,BALICHAK","AT+P.O - BALICHAK, DIST.-PASCHIM MEDINIPUR,PIN-721124",03222-244241,BALICHAK,MEDINIPUR(W),WEST BENGAL
WBSC0VCCB05,The West Bengal State Cooperative Bank Ltd,WBSC0VCCB05,721800051,"VIDYASAGAR CCB LTD.,EGRA","AT+P.O - EGRA, DIST.-PURBA MEDINIPUR,PIN-721429",03220-244232,EGRA,MEDINIPUR(E),WEST BENGAL
WBSC0VCCB06,The West Bengal State Cooperative Bank Ltd,WBSC0VCCB06,NOT ALLOTED,"VIDYASAGAR CCB LTD.,GARHBETA","AT+P.O - GARHBETA, DIST.-PASCHIM MEDINIPUR,PIN-721127",03227-265057,GARHBETA,MEDINIPUR(W),WEST BENGAL
WBSC0VCCB07,The West Bengal State Cooperative Bank Ltd,WBSC0VCCB07,NOT ALLOTED,"VIDYASAGAR CCB LTD.,KESHIARY","AT+P.O - KESHIARY, DIST.-PASCHIM MEDINIPUR,PIN-721133",03229-252227,KESHIARY,MEDINIPUR(W),WEST BENGAL
WBSC0VCCB08,The West Bengal State Cooperative Bank Ltd,WBSC0VCCB08,NOT ALLOTED,"VIDYASAGAR CCB LTD.,KESHPUR","AT+P.O - KESHPUR, DIST.-PASCHIM MEDINIPUR,PIN-721150",03227-250236,KESHPUR,MEDINIPUR(W),WEST BENGAL
WBSC0VCCB09,The West Bengal State Cooperative Bank Ltd,WBSC0VCCB09,NOT ALLOTED,"VIDYASAGAR CCB LTD., SABANG","AT+P.O - SABANG, DIST.-PASCHIM MEDINIPUR,PIN-721144",03222-249223,SABANG,MEDINIPUR(W),WEST BENGAL
WBSC0VCCB10,The West Bengal State Cooperative Bank Ltd,WBSC0VCCB10,NOT ALLOTED,"VIDYASAGAR CCB LTD.,GOPIBALLAVPUR","AT+P.O - GOPIBALLAVPUR, DIST.-PASCHIM MEDINIPUR,PIN-721506",03221-266236,GOPIBALLAVPUR,MEDINIPUR(W),WEST BENGAL
WBSC0VCCB11,The West Bengal State Cooperative Bank Ltd,WBSC0VCCB11,NOT ALLOTED,"VIDYASAGAR CCB LTD.,PRATAPDIGHI","AT+P.O - PRATAPDIGHI, DIST.-PURBA MEDINIPUR,PIN-721440",03220-246222,PRATAPDIGHI,MEDINIPUR(E),WEST BENGAL
WBSC0VCCB12,The West Bengal State Cooperative Bank Ltd,WBSC0VCCB12,NOT ALLOTED,"VIDYASAGAR CCB LTD.,GIDHNI","AT+P.O - GIDHNI, DIST.-PASCHIM MEDINIPUR,PIN-721505",03221-268239,GIDHNI,MEDINIPUR(W),WEST BENGAL
WBSC0VCCB13,The West Bengal State Cooperative Bank Ltd,WBSC0VCCB13,NOT ALLOTED,"VIDYASAGAR CCB LTD., DANTAN","AT+P.O - DANTAN, DIST.-PASCHIM MEDINIPUR,PIN-721426",03229-253235,DANTAN,MEDINIPUR(W),WEST BENGAL
WBSC0VCCB14,The West Bengal State Cooperative Bank Ltd,WBSC0VCCB14,NOT ALLOTED,"VIDYASAGAR CCB LTD., BELIABERAH","AT+P.O - BELIABERAH, DIST.-PASCHIM MEDINIPUR,PIN-721517",03221-261258,BELIABERA,MEDINIPUR(W),WEST BENGAL
WBSC0VCCB15,The West Bengal State Cooperative Bank Ltd,WBSC0VCCB15,NOT ALLOTED,"VIDYASAGAR CCB LTD., MOHANPUR","AT+P.O - MOHANPUR, DIST.-PASCHIM MEDINIPUR,PIN-721436",3220232227,MOHANPUR,MEDINIPUR(W),WEST BENGAL
WBSC0VCCB16,The West Bengal State Cooperative Bank Ltd,WBSC0VCCB16,NOT ALLOTED,"VIDYASAGAR CCB LTD., GOALTORE","AT+P.O - GOALTORE, DIST.-PASCHIM MEDINIPUR,PIN-721228",03227-288222,GOALTORE,MEDINIPUR(W),WEST BENGAL
WBSC0VCCB17,The West Bengal State Cooperative Bank Ltd,WBSC0VCCB17,NOT ALLOTED,"VIDYASAGAR CCB LTD.,HOOMGARH","AT+P.O - HOOMGARH, DIST.-PASCHIM MEDINIPUR,PIN-721157",03227-284224,HOOMGARH,MEDINIPUR(W),WEST BENGAL
WBSC0VCCB18,The West Bengal State Cooperative Bank Ltd,WBSC0VCCB18,NOT ALLOTED,"VIDYASAGAR CCB LTD.,MONGLAMARO","AT+P.O - MANGLAMARO, DIST.-PURBA MEDINIPUR,PIN-721434",03220-249223,MEDINIPUR(E),MEDINIPUR(E),WEST BENGAL
WBSC0VCCB19,The West Bengal State Cooperative Bank Ltd,WBSC0VCCB19,NOT ALLOTED,"VIDYASAGAR CCB LTD.,C.K. ROAD","AT+P.O - SATBANKURA, DIST.-PASCHIM MEDINIPUR,PIN-721253",03227-282234,C.K.ROAD,MEDINIPUR(W),WEST BENGAL
WBSC0VCCB20,The West Bengal State Cooperative Bank Ltd,WBSC0VCCB20,NOT ALLOTED,"VIDYASAGAR CCB LTD.,BELDA","AT+P.O - BELDA, DIST.-PASCHIM MEDINIPUR,PIN-721424",03229-255248,BELDA,MEDINIPUR(W),WEST BENGAL
WBSC0VCCB21,The West Bengal State Cooperative Bank Ltd,WBSC0VCCB21,721800402,"VIDYASAGAR CCB LTD.,CONTAI","AT+P.O -CONTAI, DIST.-PURBA MEDINIPUR,PIN-721401",03220-255211,CONTAI,MEDINIPUR(E),WEST BENGAL
WBSC0VCCB22,The West Bengal State Cooperative Bank Ltd,WBSC0VCCB22,NOT ALLOTED,"VIDYASAGAR CCB LTD.,BELPAHARI","AT+P.O - BELPAHARI, DIST.-PASCHIM MEDINIPUR,PIN-721501",03221-253205,BELPAHARI,MEDINIPUR(W),WEST BENGAL
WBSC0VCCB23,The West Bengal State Cooperative Bank Ltd,WBSC0VCCB23,NOT ALLOTED,"VIDYASAGAR CCB LTD.,BALIGERIA","AT+P.O - BALIGERIA, DIST.-PASCHIM MEDINIPUR,PIN-721125",03223-267367,BALIGERIA,MEDINIPUR(W),WEST BENGAL
WBSC0VCCB24,The West Bengal State Cooperative Bank Ltd,WBSC0VCCB24,NOT ALLOTED,"VIDYASAGAR CCB LTD.,LALGARH","AT+P.O - LALGARH, DIST.-PASCHIM MEDINIPUR,PIN-721516",03221-263287,LALGARH,MEDINIPUR(W),WEST BENGAL
WBSC0VCCB25,The West Bengal State Cooperative Bank Ltd,WBSC0VCCB25,NOT ALLOTED,"VIDYASAGAR CCB LTD.,ROHINI","AT+P.O - ROHINI, DIST.-PASCHIM MEDINIPUR,PIN-721148",03223-268312,ROHINI,MEDINIPUR(W),WEST BENGAL
WBSC0VCCB26,The West Bengal State Cooperative Bank Ltd,WBSC0VCCB26,NOT ALLOTED,"VIDYASAGAR CCB LTD.,PINGLA","AT+P.O - PINGLA, DIST.-PASCHIM MEDINIPUR,PIN-721140",03222-258541,PINGLA,MEDINIPUR(W),WEST BENGAL
WBSC0VCCB27,The West Bengal State Cooperative Bank Ltd,WBSC0VCCB27,NOT ALLOTED,"VIDYASAGAR CCB LTD.,NARAYANGARH","AT+P.O - NARAYANGARH, DIST.-PASCHIM MEDINIPUR,PIN-721437",03229-258227,NARAYANGARH,MEDINIPUR(W),WEST BENGAL
WBSC0VCCB28,The West Bengal State Cooperative Bank Ltd,WBSC0VCCB28,NOT ALLOTED,"VIDYASAGAR CCB LTD.,PIRAKATA","AT+P.O - PIRAKATA, DIST.-PASCHIM MEDINIPUR,PIN-721516",03222-284546,PIRAKATA,MEDINIPUR(W),WEST BENGAL
WBSC0VCCB29,The West Bengal State Cooperative Bank Ltd,WBSC0VCCB29,NOT ALLOTED,"VIDYASAGAR CCB LTD.,PANIPARUL","AT+P.O - PANIPARUL, DIST.-PURBA MEDINIPUR,PIN-721448",03220-261223,PANIPARUL,MEDINIPUR(E),WEST BENGAL
WBSC0VCCB30,The West Bengal State Cooperative Bank Ltd,WBSC0VCCB30,NOT ALLOTED,"VIDYASAGAR CCB LTD.,SALBONI","AT+P.O - SALBONI, DIST.-PASCHIM MEDINIPUR,PIN-721147",03227-285255,SALBOMI,MEDINIPUR(W),WEST BENGAL
WBSC0VCCB31,The West Bengal State Cooperative Bank Ltd,WBSC0VCCB31,NOT ALLOTED,"VIDYASAGAR CCB LTD.,SILDA","AT+P.O - SILDA, DIST.-PASCHIM MEDINIPUR,PIN-721515",03221-252245,SILDA,MEDINIPUR(W),WEST BENGAL
WBSC0VCCB32,The West Bengal State Cooperative Bank Ltd,WBSC0VCCB32,NOT ALLOTED,"VIDYASAGAR CCB LTD.,GOLGRAM","AT+P.O - GOLGRAM, DIST.-PASCHIM MEDINIPUR,PIN-721136",03222-240488,GOLGRAM,MEDINIPUR(W),WEST BENGAL
WBSC0VCCB33,The West Bengal State Cooperative Bank Ltd,WBSC0VCCB33,NOT ALLOTED,"VIDYASAGAR CCB LTD.,MALANCHA ROAD","AT-KHARIDA,P.O - KHARAGPUR, DIST.-PASCHIM MEDINIPUR,PIN-721301",03222-253140,MALANCHA ROAD,MEDINIPUR(W),WEST BENGAL
WBSC0VCCB34,The West Bengal State Cooperative Bank Ltd,WBSC0VCCB34,NOT ALLOTED,"VIDYASAGAR CCB LTD.,MID EVENING","AT+P.O - MIDNAPUR, DIST.-PASCHIM MEDINIPUR,PIN-721101",03222-274884,MIDNAPUR,MEDINIPUR(W),WEST BENGAL
WBSC0VCCB35,The West Bengal State Cooperative Bank Ltd,WBSC0VCCB35,NOT ALLOTED,"VIDYASAGAR CCB LTD.,KHAKURDA","AT+P.O - KHAKURDA, DIST.-PASCHIM MEDINIPUR,PIN-721445",03229-259545,KHAKURDA,MEDINIPUR(W),WEST BENGAL
WBSC0VCCB36,The West Bengal State Cooperative Bank Ltd,WBSC0VCCB36,NOT ALLOTED,"VIDYASAGAR CCB LTD.,SAUTIA","AT+P.O - SAUTIA, DIST.-PURBA MEDINIPUR,PIN-",NOT AVAILABLE,GOMUNDA,MEDINIPUR(W),WEST BENGAL
WBSC0VCCB37,The West Bengal State Cooperative Bank Ltd,WBSC0VCCB37,NOT ALLOTED,"VIDYASAGAR CCB LTD.,CHAKRASUL","AT+P.O - CHAKRASUL, DIST.-PURBA MEDINIPUR,PIN-",NOT AVAILABLE,ITABERIA,MEDINIPUR(E),WEST BENGAL
WBSC0VCCB38,The West Bengal State Cooperative Bank Ltd,WBSC0VCCB38,NOT ALLOTED,"VIDYASAGAR CCB LTD.,JHARGRAM EVENING","AT+P.O - JHARGRAM, DIST.-PASCHIM MEDINIPUR,PIN-721507",03221-259741,JHARGRAM,MEDINIPUR(W),WEST BENGAL
WBSC0VCCB39,The West Bengal State Cooperative Bank Ltd,WBSC0VCCB39,721800302,"VIDYASAGAR CCB LTD., HEAD OFFICE","CHHOTOBAZAR, MIDNAPUR",03222-275417,MEDINIPUR,MEDINIPUR(W),WEST BENGAL
WBSC0DJCB01,The West Bengal State Cooperative Bank Ltd,WBSC0DJCB01,NOT ALLOTED,"DJCB,KALIMPONG","RISHI ROAD, P.O. KALIMPONG, DT. DARJEELING, PIN- 734301",(03552)-258979,KALIMPONG,DARJEELING (DARJILING),WEST BENGAL
WBSC0DJCB02,The West Bengal State Cooperative Bank Ltd,WBSC0DJCB02,NOT ALLOTED,"DJCB,PEDONG","PEDONG BAZAR, P.O. PEDONG, DT. DARJEELING, PIN-734311",(03552)-281334,PEDONG,DARJEELING (DARJILING),WEST BENGAL
WBSC0DJCB03,The West Bengal State Cooperative Bank Ltd,WBSC0DJCB03,NOT ALLOTED,"DJCB,GORUBATHAN","SOMBARAY BAZAR, P.O. FAGU, GORUBATHAN, DT. DARJEELING, PIN-735231",(03552)-222003,GORUBATHAN,DARJEELING (DARJILING),WEST BENGAL
WBSC0DJCB04,The West Bengal State Cooperative Bank Ltd,WBSC0DJCB04,NOT ALLOTED,"DJCB,DARJEELING","9, S.M. DAS ROAD, OPP. RED CROSS, P.O. & DIST. DARJEELING, PIN-734101",(0354)-2252487,DARJILING,DARJEELING (DARJILING),WEST BENGAL
WBSC0DJCB05,The West Bengal State Cooperative Bank Ltd,WBSC0DJCB05,NOT ALLOTED,"DJCB,KURSEONG","BELOW SUB-DIV. HOSPITAL, P.O. KURSEONG, DT. DARJEELING, PIN -734203",(0354)-2344486,KURSEONG,DARJEELING (DARJILING),WEST BENGAL
WBSC0DJCB06,The West Bengal State Cooperative Bank Ltd,WBSC0DJCB06,NOT ALLOTED,"DJCB,SUKHIAPOKHARI","SUKHIAPOKHARI BAZAR, P.O. SUKHIAPOKHARI, DT. DARJEELING, PIN- 734221",(0354)-2264391,SUKHIAPOKHARI,DARJEELING (DARJILING),WEST BENGAL
WBSC0DJCB07,The West Bengal State Cooperative Bank Ltd,WBSC0DJCB07,NOT ALLOTED,"DJCB,BIJANBARI","RASHIK PATH, P.O. BIJANBARI, DT. DARJEELING, PIN-734201",(0354)-2260258,BIJANBARI,DARJEELING (DARJILING),WEST BENGAL
WBSC0DJCB08,The West Bengal State Cooperative Bank Ltd,WBSC0DJCB08,NOT ALLOTED,"DJCB,RIMBICK","P.O. RIMBICK BAZAR, DIST. DARJEELING, PIN - 734201",7797911877,LODHAMA,DARJEELING (DARJILING),WEST BENGAL
WBSC0HCCB01,The West Bengal State Cooperative Bank Ltd,WBSC0HCCB01,NOT ALLOTED,"HCCB,HEAD OFFICE",P.O.- ULUBERIA; NEAR ULUBERIA COURT; DIST.- HOWRAH;              PIN-711315,TEL: (033) 26610268    FAX- (033) 26610290,ULUBERIA,HAORA,WEST BENGAL
WBSC0HCCB02,The West Bengal State Cooperative Bank Ltd,WBSC0HCCB02,NOT ALLOTED,AMTA          BRANCH,VILL.+ P.O. - AMTA                    DIST.- HOWRAH;      PIN-711401,TEL FAX: (03214) 260227,AMTA,HAORA,WEST BENGAL
WBSC0HCCB03,The West Bengal State Cooperative Bank Ltd,WBSC0HCCB03,NOT ALLOTED,SHYAMPUR BRANCH,VILL.+ P.O. - SHYAMPUR                    DIST.- HOWRAH;      PIN-711314,TEL FAX: (03214) 264234,SHAMPUR,HAORA,WEST BENGAL
WBSC0HCCB04,The West Bengal State Cooperative Bank Ltd,WBSC0HCCB04,NOT ALLOTED,UDAYNARAYANPUR BRANCH,VILL.+ P.O. - UDAYNARAYANPUR                    DIST.- HOWRAH;      PIN-711266,TEL FAX: (03214) 257226,UDAYNARAYANPUR,HAORA,WEST BENGAL
WBSC0HCCB05,The West Bengal State Cooperative Bank Ltd,WBSC0HCCB05,NOT ALLOTED,JHIKIRA       BRANCH,VILL.+ P.O. - JHIKIRA               DIST.- HOWRAH;   PIN-711401,TEL FAX: (03214) 234181,JHIKIRA,HAORA,WEST BENGAL
WBSC0HCCB06,The West Bengal State Cooperative Bank Ltd,WBSC0HCCB06,NOT ALLOTED,ULUBERIA   BRANCH,VILL.+ P.O. - ULUBERIA                    DIST.- HOWRAH;    PIN-711315,TEL FAX: (033) 26613706,ULUBERIA,HAORA,WEST BENGAL
WBSC0HCCB07,The West Bengal State Cooperative Bank Ltd,WBSC0HCCB07,NOT ALLOTED,BARGACHIA BRANCH,VILL.+ P.O. - BARGACHIA                    DIST.- HOWRAH;   PIN-711404,TEL FAX: (03214) 255268,BARGACHIA,HAORA,WEST BENGAL
WBSC0HCCB08,The West Bengal State Cooperative Bank Ltd,WBSC0HCCB08,NOT ALLOTED,HOWRAH   BRANCH,5/6 MAHATMA GANDHI ROAD                 DIST.- HOWRAH;   PIN-711101,TEL FAX: (033) 26410040,HOWRAH,HAORA,WEST BENGAL
WBSC0HCCB09,The West Bengal State Cooperative Bank Ltd,WBSC0HCCB09,NOT ALLOTED,BAGNAN    BRANCH,VILL.+ P.O. - BAGNAN                    DIST.- HOWRAH;   PIN-711303,TEL FAX: (03214) 267032,BAGNAN,HAORA,WEST BENGAL
WBSC0HCCB10,The West Bengal State Cooperative Bank Ltd,WBSC0HCCB10,NOT ALLOTED,BELPUKUR BRANCH,VILL.+ P.O. - AJODHYA                    DIST.- HOWRAH;   PIN-711312,TEL FAX: (03214) 261233,AJODHYA,HAORA,WEST BENGAL
WBSC0HCCB11,The West Bengal State Cooperative Bank Ltd,WBSC0HCCB11,NOT ALLOTED,RANIHATI   BRANCH,VILL.  - RANIHATI;   P.O.- JOYNAGAR                    DIST.- HOWRAH;   PIN-711302,TEL FAX: (033) 26616355,RANIHATI,HAORA,WEST BENGAL
WBSC0HCCB12,The West Bengal State Cooperative Bank Ltd,WBSC0HCCB12,NOT ALLOTED,BELARI      BRANCH,VILL.  - ICHAPUR;   P.O.- BELARI       NEAR 58 GATE                    DIST.- HOWRAH;   PIN-711315,TEL FAX: (03214) 271096,ICHAPUR,HAORA,WEST BENGAL
WBSC0HCCB13,The West Bengal State Cooperative Bank Ltd,WBSC0HCCB13,NOT ALLOTED,BEGRI         BRANCH,VILL.+ P.O. - BEGRI           NEAR BATTALA         DIST.- HOWRAH;   PIN-711411,TEL FAX: (033) 26705455,BEGRI,HAORA,WEST BENGAL
WBSC0MCCB01,The West Bengal State Cooperative Bank Ltd,WBSC0MCCB01,742806002,"MDCB,MAIN BR.","48, 49, B.B. SEN ROAD,P.O. BERHAMPORE.",MD. GOLAM MORTUZA,BERHAMPORE,MURSHIBAD,WEST BENGAL
WBSC0MCCB02,The West Bengal State Cooperative Bank Ltd,WBSC0MCCB02,742806004,KHAGRA BRANCH,"48, 49, B.B. SEN ROAD,P.O. BERHAMPORE.",,BERHAMPORE,MURSHIBAD,WEST BENGAL
WBSC0MCCB03,The West Bengal State Cooperative Bank Ltd,WBSC0MCCB03,742806003,PANCHANANTALA BR.,"PANCHANANTALA,P.O. BERHAMPORE.",LALAN MONDAL,BERHAMPORE,MURSHIBAD,WEST BENGAL
WBSC0MCCB04,The West Bengal State Cooperative Bank Ltd,WBSC0MCCB04,NOT ALLOTTED,DOMKAL BRANCH,"DOMKAL,P.O. DOMKAL",M. HOQUE,DOMKAL,MURSHIBAD,WEST BENGAL
WBSC0MCCB05,The West Bengal State Cooperative Bank Ltd,WBSC0MCCB05,NOT ALLOTTED,FARAKKA BRANCH,"FARAKKA,P.O. FARAKKA",SHYAMAPADA DAS,FARAKKA,MURSHIBAD,WEST BENGAL
WBSC0MCCB06,The West Bengal State Cooperative Bank Ltd,WBSC0MCCB06,NOT ALLOTTED,JANGIPUR BRANCH,"JANGIPUR,P.O. RAGHUNATHGANJ",SANJAY SARKAR,JANGIPUR,MURSHIBAD,WEST BENGAL
WBSC0MCCB07,The West Bengal State Cooperative Bank Ltd,WBSC0MCCB07,NOT ALLOTTED,SAGARDIGHI BRANCH,"SAGARDIGHI,P.O. SAGARDIGHI",SUDIPTA PAL,SAGARDIGHI,MURSHIBAD,WEST BENGAL
WBSC0MCCB08,The West Bengal State Cooperative Bank Ltd,WBSC0MCCB08,NOT ALLOTTED,NABAGRAM BRANCH,"NABAGRAM,P.O. NABAGRAM",JIAUR RAHAMAN,NABAGRAM,MURSHIBAD,WEST BENGAL
WBSC0MCCB09,The West Bengal State Cooperative Bank Ltd,WBSC0MCCB09,NOT ALLOTTED,KANDI BRANCH,"KANDI,P.O. KANDI",SHYAM CHAND ROY,KANDI,MURSHIBAD,WEST BENGAL
WBSC0MCCB10,The West Bengal State Cooperative Bank Ltd,WBSC0MCCB10,NOT ALLOTTED,GRAMSALIKA BR.,"GRAMSALIKA,P.O. GRAMSALIKA",PRADIP ROY CHOWDHURY,GRAMSALIKA,MURSHIBAD,WEST BENGAL
WBSC0MCCB11,The West Bengal State Cooperative Bank Ltd,WBSC0MCCB11,NOT ALLOTTED,NAGAR BRANCH,"NAGAR,P.O. NAGAR",BHAGWAT HALDER,NAGAR,MURSHIBAD,WEST BENGAL
WBSC0MCCB12,The West Bengal State Cooperative Bank Ltd,WBSC0MCCB12,NOT ALLOTTED,BELDANGA BRANCH,"BELDANGA,P.O. BELDANGA",MUSTAFA KAMAL,BELDANGA,MURSHIBAD,WEST BENGAL
WBSC0MCCB13,The West Bengal State Cooperative Bank Ltd,WBSC0MCCB13,NOT ALLOTTED,LALGOLA BRANCH,"LALGOLA,P.O. LALGOLA",ASHOK KR. DAS,LALGOLA,MURSHIBAD,WEST BENGAL
WBSC0MCCB14,The West Bengal State Cooperative Bank Ltd,WBSC0MCCB14,NOT ALLOTTED,LALBAGH BRANCH,"JIAGANJ,P.O. JIAGANJ",ANIMESH BISWAS,JIAGANJ,MURSHIBAD,WEST BENGAL
WBSC0MCCB15,The West Bengal State Cooperative Bank Ltd,WBSC0MCCB15,NOT ALLOTTED,"MDCB,HEAD OFFICE","BERHAMPORE,P.O. BERHAMPORE.",SOMDEB CHAKRABORTY,BERHAMPORE,MURSHIBAD,WEST BENGAL
WBSC0MGCB01,The West Bengal State Cooperative Bank Ltd,WBSC0MGCB01,NOT ALLOTED,"MGCB,MAIN ","VILL + P.O - MUGBERIA, P.S. - BHUPATINAGAR, DIST-PURBA MEDINIPUR-721425",03220-270224,BHUPATINAGAR,PURBA MEDINIPUR,WEST BENGAL
WBSC0MGCB02,The West Bengal State Cooperative Bank Ltd,WBSC0MGCB02,NOT ALLOTED,"MGCB,CONTAI ","SARASWATITALA ,P.O - CONTAI, P.S. - CONTAI, DIST-PURBA MEDINIPUR-721401",03220-255053,CONTAI,PURBA MEDINIPUR,WEST BENGAL
WBSC0MGCB03,The West Bengal State Cooperative Bank Ltd,WBSC0MGCB03,NOT ALLOTED,"MGCB,KALAGACHHIA  ","VILL- KALAGACHHIA ,P.O - KAMARDA BAZAR, P.S. - KHEJURI, DIST-PURBA MEDINIPUR-721432",03220-280077,KALAGACHIA,PURBA MEDINIPUR,WEST BENGAL
WBSC0MGCB04,The West Bengal State Cooperative Bank Ltd,WBSC0MGCB04,NOT ALLOTED,"MGCB,BHAGWANPUR","VILL -BENUDIA P.O - BHAGWANPUR, P.S. - BHAGWANPUR, DIST-PURBA MEDINIPUR-721601",03220-272222,BENUDIA,PURBA MEDINIPUR,WEST BENGAL
WBSC0MGCB05,The West Bengal State Cooperative Bank Ltd,WBSC0MGCB05,NOT ALLOTED,"MGCB,BAJKUL","VILL-BAJKUL, P.O - KISMAT BAJKUL, P.S. - BHUPATINAGAR, DIST-PURBA MEDINIPUR-721655",03220-274257,BAJKUL,PURBA MEDINIPUR,WEST BENGAL
WBSC0MGCB06,The West Bengal State Cooperative Bank Ltd,WBSC0MGCB06,NOT ALLOTED,"MGCB,ITABERIA ","VILL &  P.O - ITABERIA, P.S. - BHUPATINAGAR, DIST-PURBA MEDINIPUR-721456",03220-277021,ITABERIA,PURBA MEDINIPUR,WEST BENGAL
WBSC0MGCB07,The West Bengal State Cooperative Bank Ltd,WBSC0MGCB07,NOT ALLOTED,"MGCB,JANKA ","VILL + P.O - JANKA, P.S. - KHEJURI, DIST-PURBA MEDINIPUR-721431",03220-282275,KHEJURI,PURBA MEDINIPUR,WEST BENGAL
WBSC0MGCB08,The West Bengal State Cooperative Bank Ltd,WBSC0MGCB08,NOT ALLOTED,"MGCB,MADHAKHALI EVE","VILL + P.O - MADHAKHALI, P.S. - BHUPATINAGAR, DIST-PURBA MEDINIPUR-721425",03220-270535,BHUPATINAGAR,PURBA MEDINIPUR,WEST BENGAL
WBSC0MGCB09,The West Bengal State Cooperative Bank Ltd,WBSC0MGCB09,NOT ALLOTED,"MGCB,HARIA","VILL + P.O - HARIA, P.S. - KHEJURI, DIST-PURBA MEDINIPUR-721430",03220-276388,HERIA,PURBA MEDINIPUR,WEST BENGAL
WBSC0MGCB10,The West Bengal State Cooperative Bank Ltd,WBSC0MGCB10,NOT ALLOTED,"MGCB,CONTAI MOR EVE","SARASWATITALA ,P.O - CONTAI, P.S. - CONTAI, DIST-PURBA MEDINIPUR-721401",03220-259603,CONTAI,PURBA MEDINIPUR,WEST BENGAL
WBSC0PCCB01,The West Bengal State Cooperative Bank Ltd,WBSC0PCCB01,NOT ALLOTTED,"PCCB,HEAD OFFICE","RANCHI ROAD, P.O.& DIST-PURULIA.PIN-723101","TELEFAX-03252-222204,MOBILE-9932376430",PURULIA,PURULIA,WEST BENGAL
WBSC0PCCB02,The West Bengal State Cooperative Bank Ltd,WBSC0PCCB02,NOT ALLOTTED,PURULIYA  DAY,"RANCHI ROAD, P.O.& DIST-PURULIA,PIN-723101","TELEFAX-03252 222204,M-8145608127",PURULIA,PURULIA,WEST BENGAL
WBSC0PCCB03,The West Bengal State Cooperative Bank Ltd,WBSC0PCCB03,NOT ALLOTTED,PURULIA EVENING,"RANCHI ROAD, P.O.& DIST-PURULIA,PIN-723101","TELE FAX-03252 222204,M-9749671148",PURULIA,PURULIA,WEST BENGAL
WBSC0PCCB04,The West Bengal State Cooperative Bank Ltd,WBSC0PCCB04,NOT ALLOTTED,JHALDA BRANCH,"PURULIA  MAIN ROAD,AT & P.O.-JHALDA, DIST-PURULIA,PIN-723202,","TELE FAX-03252 222204 M-9932344153,",JHALDA,PURULIA,WEST BENGAL
WBSC0PCCB05,The West Bengal State Cooperative Bank Ltd,WBSC0PCCB05,NOT ALLOTTED,BALARAMPUR,"BARABAZAR ROAD,AT-BALARAMPUR,P.O.-RANGADIH, DIST-PURULIA.PIN-723143",TELEFAX-03252 222204 M-9434018437,BALARAMPUR,PURULIA,WEST BENGAL
WBSC0PCCB06,The West Bengal State Cooperative Bank Ltd,WBSC0PCCB06,NOT ALLOTTED,KASHIPUR,"HAT TOLA MORE, NEAR KASHIPUR,G.P. OFFICE, P.O.-P.K.RAJ,DIST-PURULIA.723132.","TELEFAX-03252 222204,M-7602364651",KASHIPUR,PURULIA,WEST BENGAL
WBSC0PCCB07,The West Bengal State Cooperative Bank Ltd,WBSC0PCCB07,NOT ALLOTTED,MANBAZAR,"HOSPITAL ROAD,AT & P.O.- MANBAZAR,DIST-PURULIA., PIN-723131","TELEFAX-03252 222204,M-99328002446",MANBAZAR,PURULIA,WEST BENGAL
WBSC0PCCB08,The West Bengal State Cooperative Bank Ltd,WBSC0PCCB08,NOT ALLOTTED,RAGHUNATHPUR,"BARAKAR ROAD, NEAR L.I.CI. BLDG.,AT&P.O.- RAGHUNATHPUR,","TELEFAX-03252 222204,",RAGHUNATHPUR,PURULIA,WEST BENGAL
WBSC0DDCB01,The West Bengal State Cooperative Bank Ltd,WBSC0DDCB01,NOT ALLOTTED,THE DAKSHIN DINAJPUR DISTRICT CENTRAL COOPERATIVE BANK LTD.HEAD OFFICE,"KACHARI ROAD, BALURGHAT, DAKSHIN DINAJPUR.",SRI BRAMANAND BISHWAS9434963394,BALURGHAT,DAKSHIN DINAJPUR,WEST BENGAL
WBSC0DDCB02,The West Bengal State Cooperative Bank Ltd,WBSC0DDCB02,NOT ALLOTTED,THE DAKSHIN DINAJPUR DISTRICT CENTRAL COOPERATIVE BANK LTD.HEAD OFFICE,"KACHARI ROAD, BALURGHAT, DAKSHIN DINAJPUR.",SRI BRAMANAND BISHWAS9434963394,BALURGHAT,DAKSHIN DINAJPUR,WEST BENGAL
WBSC0DDCB03,The West Bengal State Cooperative Bank Ltd,WBSC0DDCB03,NOT ALLOTTED,THE DAKSHIN DINAJPUR DISTRICT CENTRAL COOPERATIVE BANK LTD.HEAD OFFICE,"KACHARI ROAD, BALURGHAT, DAKSHIN DINAJPUR.",SRI SAMARESH CHAKI9474737952,BALURGHAT,DAKSHIN DINAJPUR,WEST BENGAL
WBSC0DDCB04,The West Bengal State Cooperative Bank Ltd,WBSC0DDCB04,NOT ALLOTTED,THE DAKSHIN DINAJPUR DISTRICT CENTRAL COOPERATIVE BANK LTD.HEAD OFFICE,"HOSPITAL MORE, TAPAN, DAKSHIN DINAJPUR",SRI SAMARESH CHAKI9734936868,TAPAN,DAKSHIN DINAJPUR,WEST BENGAL
WBSC0DDCB05,The West Bengal State Cooperative Bank Ltd,WBSC0DDCB05,NOT ALLOTTED,THE DAKSHIN DINAJPUR DISTRICT CENTRAL COOPERATIVE BANK LTD.HEAD OFFICE,"GANGARAMPUR, DAKSHIN DINAJPUR",SRI KUMUL CHANDRA BARMAN9733172492,GANGARAMPUR,DAKSHIN DINAJPUR,WEST BENGAL
WBSC0DDCB06,The West Bengal State Cooperative Bank Ltd,WBSC0DDCB06,NOT ALLOTTED,THE DAKSHIN DINAJPUR DISTRICT CENTRAL COOPERATIVE BANK LTD.HEAD OFFICE,"PATIRAM BAZAR, PATIRAM, DAKSHIN DINAJPUR",SRI PRATIBINDA HALDER9609994003,PATIRAM,DAKSHIN DINAJPUR,WEST BENGAL
WBSC0DDCB07,The West Bengal State Cooperative Bank Ltd,WBSC0DDCB07,NOT ALLOTTED,THE DAKSHIN DINAJPUR DISTRICT CENTRAL COOPERATIVE BANK LTD.HEAD OFFICE,"GOPALGANJ, KUMARGANJ, DAKSHIN DINAJPUR.",SRI SANTANU SANYAL9474381216,GOPALGANJ,DAKSHIN DINAJPUR,WEST BENGAL
WBSC0DDCB08,The West Bengal State Cooperative Bank Ltd,WBSC0DDCB08,NOT ALLOTTED,THE DAKSHIN DINAJPUR DISTRICT CENTRAL COOPERATIVE BANK LTD.HEAD OFFICE,"HILI, DAKSHIN DINAJPUR",ANAY KUNDU 8016445038,HILI,DAKSHIN DINAJPUR,WEST BENGAL
WBSC0MALD17,The West Bengal State Cooperative Bank Ltd,WBSC0MALD17,NOT ALLOTTED,"MDCB,AMRITY",PO. AMRITY PIN 732208,MR MANABENDRA DAS 03512-285277,ENGLISH BAZAR,MALDAH,WEST BENGAL
WBSC0MGCB11,The West Bengal State Cooperative Bank Ltd,WBSC0MGCB11,NOT ALLOTTED,"MGCB, BHAGWANPUR ","VILL -BENUDIA P.O - BHAGWANPUR, P.S. - BHAGWANPUR, DIST-PURBA MEDINIPUR-721601","SUJOY BASU,03220-272004,9732552262",BENUDIA,PURBA MEDINIPUR,WEST BENGAL
WBSC0MALD18,The West Bengal State Cooperative Bank Ltd,WBSC0MALD18,NOT ALLOTTED,"MALDA DCCB,HABIBPUR",PO. HABIBPUR PIN 732122,"MR GANESH PRASAD RAM,9593200357",HABIBPUR,MALDAH,WEST BENGAL
WBSC0TCCB18,The West Bengal State Cooperative Bank Ltd,WBSC0TCCB18,APPLIED FOR,"TAMLUK GHATAL CENTRAL COOPERATIVE BANK LTD., BRAJALALCHAK",BRAJALALCHAWK; DAKSHINCHAK;BHWANIPUR;PURBA MEDINIPUR;PIN - 721654,SRI GOUR CHANDRA DAS-03224-284675 9732906761,BRAJALAL CHAWK,PURBA MEDINIPUR,WEST BENGAL
WBSC0TCCB19,The West Bengal State Cooperative Bank Ltd,WBSC0TCCB19,APPLIED FOR,"TAMLUK GHATAL CENTRAL COOPERATIVE BANK LTD.,, NIMTAURI",UTTAR NARIKELDA;DAKSHIN NARIKELDA;TAMLUK;PURBA MEDINIPUR;PIN - 721648,SRI SOUMENDRA MAITI-9126329252,TAMLUK,PURBA MEDINIPUR,WEST BENGAL
WBSC0TCCB20,The West Bengal State Cooperative Bank Ltd,WBSC0TCCB20,APPLIED FOR,"TAMLUK GHATAL CENTRAL COOPERATIVE BANK LTD.,, SONAKHALI",SOYLA;SONAKHALI;DASPUR;PASCHIM MEDINIPUR;PIN - 721146,SRI SUKHENDU SANTRA-9474713479,SONAKHALI,MEDINIPUR,WEST BENGAL
WBSC0MCCB16,The West Bengal State Cooperative Bank Ltd,WBSC0MCCB16,NOT ALLOTTED,"THE MURSHIDABAD DISTRICT CENTRAL CO-OPERATIVE BANK LTD,ISLAMPUR","VILL. - ISLAMPUR,P.O. - ISLAMPUR,DIST. MURSHIDABAD.,PIN - 742 304",SOUMIK DAS-7872771111;PRALAY KRISHNA MONDAL-9475630685,ISLAMPUR,MURSHIDABAD,WEST BENGAL
WBSC0MCCB17,The West Bengal State Cooperative Bank Ltd,WBSC0MCCB17,NOT ALLOTTED,"THE MURSHIDABAD DISTRICT CENTRAL CO-OPERATIVE BANK LTD,SALAR","STATION ROAD,VILL. & P.O. - SALAR.DIST. MURSHIDABAD.PIN - 742 401","AJIT KR. BISWAS,7872478614",SALAR,MURSHIDABAD,WEST BENGAL