ID,BANK,IFSC_CODE,MICR_CODE,BRANCH_NAME,ADDRESS,CONTACT,CITY,DISTRICT,STATE
KVBL0001101,Karur Vysya Bank,KVBL0001101,639053006,CENTRAL OFFICE,"THE KARUR VYSYA BANK LTD, CENTRAL OFFICE ,ERODE ROAD,,KARUR-639002",,KARUR,KARUR,TAMIL NADU
KVBL0001102,Karur Vysya Bank,KVBL0001102,600053003,CHENNAI DO,"KVB TOWERS, I FLOOR 568 ANNA SALAI, TEYNAMPET, CHENNAI-600018",,CHENNAI,CHENNAI,TAMIL NADU
KVBL0001103,Karur Vysya Bank,KVBL0001103,600053003,INTERNATIONAL DIVISION,"THE KARUR VYSYA BANK LTD, CHENNAI INTERNATIONAL DIVISION,KVB TOWERS II FLOOR,568 ANNA SALAI TEYNAMPET,CHENNAI-600018",,CHENNAI,CHENNAI,TAMIL NADU
KVBL0001104,Karur Vysya Bank,KVBL0001104,600053004,CHENNAI ALANDUR,"269  M.K.N.ROAD,ALANDUR,CHENNAI-600016",,ALANDUR,KANCHEEPURAM,TAMIL NADU
KVBL0001105,Karur Vysya Bank,KVBL0001105,997053002,ALANGANALLUR,"5-1/87  MAIN ROAD,,ALANGANALLUR-625501",,ALANGANALLUR,MADURAI,TAMIL NADU
KVBL0001107,Karur Vysya Bank,KVBL0001107,842053002,ANAIMALAI,"34  PALANIYANDI PILLAI ST.,,ANAIMALAI-642104",,ANAIMALAI,COIMBOTORE,TAMIL NADU
KVBL0001108,Karur Vysya Bank,KVBL0001108,632053002,ARNI,"22,SRINIVASAN STREET,ARNI-632301",,ARNI,TIRUVANNAMALAI,TAMIL NADU
KVBL0001109,Karur Vysya Bank,KVBL0001109,836053002,ATTUR,"P.B. NO. 6 767  RANIPET MAIN ROAD,,ATTUR-636102",,ATTUR,SALEM,TAMIL NADU
KVBL0001110,Karur Vysya Bank,KVBL0001110,125053002,AUNDIPATTI,"P.B. NO. 1 9-1-68-W 1ST FLOOR,THENI ROAD,AUNDIPATTI-625512",,ANDIPATTI JAKKAMPATTI,THENI,TAMIL NADU
KVBL0001111,Karur Vysya Bank,KVBL0001111,224053002,KATHIRNARASINGAPURAM,"193  3RD WARD  MAIN ROAD,RAJADHANI P.O.,KATHIRNARASINGAPURAM-625512",,ANDIPATTI JAKKAMPATTI,THENI,TAMIL NADU
KVBL0001112,Karur Vysya Bank,KVBL0001112,824053002,BATLAGUNDU,"13-1-207  MAIN ROAD,,BATLAGUNDU-624202",,BATLAGUNDU,DINDIGUL,TAMIL NADU
KVBL0001113,Karur Vysya Bank,KVBL0001113,237053002,BELUKURICHI,"5/101  PALANIAPPAR KOVIL ST.,,BELUKURICHI-637402",,BELUKURICHI,SALEM,TAMIL NADU
KVBL0001114,Karur Vysya Bank,KVBL0001114,438053002,BHAVANI,"P.B. NO. 2 190  I FLOOR SAKTHI PLAZA,MAIN ROAD,BHAVANI-638301",,BHAVANI,ERODE,TAMIL NADU
KVBL0001115,Karur Vysya Bank,KVBL0001115,725053002,BODINAYAKANUR,"P.B. NO. 14 22/73  KAMARAJ BAZAAR,I FLOOR,BODINAYAKANUR-625513",,BODINAYAKANUR,THENI,TAMIL NADU
KVBL0001116,Karur Vysya Bank,KVBL0001116,608053002,CHIDAMBARAM,"36/1,WEST CAR STREET,CHIDAMBARAM-608001",,CHIDAMBARAM,CUDDALORE,TAMIL NADU
KVBL0001117,Karur Vysya Bank,KVBL0001117,724053002,CHINNALAPATTI,"P.B. NO. 13 11-3-36  KAMARAJAR STREET,,CHINNALAPATTI-624301",,CHINNALAPATTI,DINDIGUL,TAMIL NADU
KVBL0001118,Karur Vysya Bank,KVBL0001118,225053002,CHINNAMANUR,"215/275  MAIN ROAD,,CHINNAMANUR-625515",,CHINNAMANUR,THENI,TAMIL NADU
KVBL0001119,Karur Vysya Bank,KVBL0001119,600053006,CHENNAI CHROMEPET,"117  STATION ROAD,CHROMEPET,CHENNAI-600044",,TAMBARAM,KANCHEEPURAM,TAMIL NADU
KVBL0001120,Karur Vysya Bank,KVBL0001120,641053002,COIMBATORE MAIN,"577  OPPANAKARA STREET,,COIMBATORE-641001",,COIMBATORE,COIMBOTORE,TAMIL NADU
KVBL0001121,Karur Vysya Bank,KVBL0001121,641053003,COIMBATORE DR NANJAPPA ROAD,"P.B. NO. 3825 483  DR. NANJAPPA ROAD,,COIMBATORE-641018",,COIMBATORE,COIMBOTORE,TAMIL NADU
KVBL0001122,Karur Vysya Bank,KVBL0001122,641053004,COIMBATORE RSPURAM,"P.B. NO. 1033 249-A  THIRUVENKATASAMY ROAD (EAST),R.S.PURAM,COIMBATORE-641002",,COIMBATORE,COIMBOTORE,TAMIL NADU
KVBL0001123,Karur Vysya Bank,KVBL0001123,643053002,COONOOR,"6  ALLAI SAIT COMPOUND,NEAR LAWLEY HOSPITAL MOUNT ROAD,COONOOR-643102",,COONOOR,NILGIRIS,TAMIL NADU
KVBL0001124,Karur Vysya Bank,KVBL0001124,807053002,CUDDALORE,"P.B.NO.5 30  CAR STREET,,CUDDALORE-607002",,CUDDALORE,CUDDALORE,TAMIL NADU
KVBL0001125,Karur Vysya Bank,KVBL0001125,325053002,CUMBUM,"P.B. NO.9  I FLOOR,47  VELAPPAR KOIL ST.,CUMBUM-625516",,CUMBUM,THENI,TAMIL NADU
KVBL0001126,Karur Vysya Bank,KVBL0001126,138053002,DHARAPURAM,"NO  139,BIG BAZAAR STREET,DHARAPURAM-638656",,DHARAPURAM,ERODE,TAMIL NADU
KVBL0001127,Karur Vysya Bank,KVBL0001127,642053102,DHULLY,"5/70 THIRUMOORTHI MALAI ROAD, DHULLY - 642 112, UDAMALPET TALUK TIRUPUR DISTRICT, DHULLY-642112",,UDUMALPET,COIMBATORE,TAMIL NADU
KVBL0001128,Karur Vysya Bank,KVBL0001128,624053002,DINDIGUL,"P.B.NO.21 NO.7  VARADARAJ COMPLEX,MAIN ROAD,DINDIGUL-624001",,DINDIGUL,DINDIGUL,TAMIL NADU
KVBL0001129,Karur Vysya Bank,KVBL0001129,638053002,ERODE,"24  MUTHURANGAM STREET,,ERODE-638001",,ERODE,ERODE,TAMIL NADU
KVBL0001130,Karur Vysya Bank,KVBL0001130,850053002,GANAPATHIPALAYAM,"4/90 NAAL ROAD,PASUR EXCHANGE,GANAPATHIPALAYAM-638153",,GANAPATHIPALAYAM,ERODE,TAMIL NADU
KVBL0001131,Karur Vysya Bank,KVBL0001131,938053002,GOBICHETTIPALAYAM,"P.B.NO.29 21 CUTCHERY ROAD,,GOBICHETTIPALAYAM-638452",,GOBICHETTIPALAYAM,ERODE,TAMIL NADU
KVBL0001132,Karur Vysya Bank,KVBL0001132,525053002,GUDALUR,"32  MAIN BAZAR,,GUDALUR-625518",,GUDALUR,THENI,TAMIL NADU
KVBL0001133,Karur Vysya Bank,KVBL0001133,737053002,IDAPPADI,"P.B.NO.8 35  BAZAAR STREET,,IDAPPADI-637101",,IDAPPADI,SALEM,TAMIL NADU
KVBL0001134,Karur Vysya Bank,KVBL0001134,739053002,JEEYAPURAM,"4/30-2 WEST ST.,THIRUPARAITHURAI EXCHANGE,JEEYAPURAM-639101",,SIRUGAMANI,TIRUCHIORAPPALLI,TAMIL NADU
KVBL0001135,Karur Vysya Bank,KVBL0001135,705053002,KADUVANUR,"1/68-A SIVANKOIL STREET,KADUVANUR- 605 801,SANKARAPURAMTK-0",,KADUVANUR,VILLUPURAM,TAMIL NADU
KVBL0001136,Karur Vysya Bank,KVBL0001136,137053002,KALAPPANAICKENPATTI,"42  MAIN ROAD,,KALAPPANAICKENPATTI-637404",,KALAPPANAICKENPATTI,NAMAKKAL,TAMIL NADU
KVBL0001137,Karur Vysya Bank,KVBL0001137,935053002,KAMBAINALLUR,"37  BAZAAR STREET,,KAMBAINALLORE-635202",,KAMBAINALLUR,DHARMAPURI,TAMIL NADU
KVBL0001138,Karur Vysya Bank,KVBL0001138,631053002,KANCHEEPURAM,"P.B.NO. 15  18&18-A T.K.NAMBI STREET,,KANCHEEPURAM-631501",,KANCHIPURAM,KANCHEEPURAM,TAMIL NADU
KVBL0001139,Karur Vysya Bank,KVBL0001139,932053002,KANIYAMBADI,"232  BAZAAR STREET,,KANIYAMBADI-632102",,KANIYAMBADI,VELLORE,TAMIL NADU
KVBL0001140,Karur Vysya Bank,KVBL0001140,236053002,KARIPATTI,"1/50  CUDDALORE MAIN ROAD,SALEMDIST,TN,KARIPATTI-636106",,KARIPATTI,SALEM,TAMIL NADU
KVBL0001141,Karur Vysya Bank,KVBL0001141,536053002,KARUPPUR,"5/3-29-B MAIN ROAD,,KARUPPUR-636012",,KARUPPUR,SALEM,TAMIL NADU
KVBL0001142,Karur Vysya Bank,KVBL0001142,639053002,KARUR MAIN,"P.B.NO 91 633-637  JAWAHAR BAZAAR,,KARUR-639001",,KARUR,KARUR,TAMIL NADU
KVBL0001143,Karur Vysya Bank,KVBL0001143,639053005,KARUR CENTRAL,"P.B.NO.92 65  JAWAHAR BAZAAR,,KARUR-639001",,KARUR,KARUR,TAMIL NADU
KVBL0001144,Karur Vysya Bank,KVBL0001144,338053002,KAVINDAPADY,"8 SATHY ROAD,KAVINDAPADI,KAVINDAPADI-638455",,KAVINDAPADY,ERODE,TAMIL NADU
KVBL0001145,Karur Vysya Bank,KVBL0001145,995053002,KOLATHUPALAYAM,"80 BHAGAVATHI AMMAN KOIL STREET,KOLATHUPALAYAM,UNJALUR-638152",,KOLATHUPALAYAM,ERODE,TAMIL NADU
KVBL0001146,Karur Vysya Bank,KVBL0001146,442053002,KOZHUMAM,"8/24 NEHRU STREET,COIMBATORE DIST. TN,KOLUMAM-642204",,KOZHUMAM,COIMBOTORE,TAMIL NADU
KVBL0001147,Karur Vysya Bank,KVBL0001147,838053002,KOMARAPALAYAM,"P.B.NO.202 155-156  SALEM MAIN ROAD,,KOMARAPALAYAM-638183",,KOMARAPALAYAM,NAMAKKAL,TAMIL NADU
KVBL0001148,Karur Vysya Bank,KVBL0001148,425053002,KOMBAI,"P.B. NO. 3 60-A  GANDHIJI STREET,,KOMBAI-625522",,KOMBAI,THENI,TAMIL NADU
KVBL0001149,Karur Vysya Bank,KVBL0001149,928053002,KOVILPATTI,"P.B. NO. 27 868  MAIN ROAD,,KOVILPATTI-628501",,KOVILPATTI,THOOTHKUDI,TAMIL NADU
KVBL0001150,Karur Vysya Bank,KVBL0001150,839053002,KULITHALAI,"P.B. NO. 3 4  ANDAR MAIN ROAD,,KULITHALAI-639104",,KULITHALAI,KARUR,TAMIL NADU
KVBL0001151,Karur Vysya Bank,KVBL0001151,612053002,KUMBAKONAM,"129,T.S.R.BIG STREET,KUMBAKONAM-612001",,KUMBAKONAM,THANJAVUR,TAMIL NADU
KVBL0001152,Karur Vysya Bank,KVBL0001152,639053003,KARUR WEST LNS,"68  ERODE ROAD,L.N.S.POST,KARUR-639002",,KARUR,KARUR,TAMIL NADU
KVBL0001153,Karur Vysya Bank,KVBL0001153,600053010,CHENNAI MAIN,"P.B. NO.1980 46  ARMENIAN STREET,,CHENNAI-600001",,CHENNAI,CHENNAI,TAMIL NADU
KVBL0001154,Karur Vysya Bank,KVBL0001154,600053005,CHENNAI ANNA NAGAR,"NO.6 AC BLOCK NEXT TO RASI SILKS, II AVENUE ANNA NAGAR,CHENNAI-600040",,CHENNAI,CHENNAI,TAMIL NADU
KVBL0001155,Karur Vysya Bank,KVBL0001155,600053007,CHENNAI KODAMBAKKAM,"23  UNITED INDIA COLONY,IST MAIN ROAD KODAMBAKKAM,CHENNAI-600024",,CHENNAI,CHENNAI,TAMIL NADU
KVBL0001156,Karur Vysya Bank,KVBL0001156,600053008,CHENNAI MYLAPORE,"P.B. NO. 607 85  KUTCHERRY ROAD,MYLAPORE,CHENNAI-600004",,CHENNAI,CHENNAI,TAMIL NADU
KVBL0001157,Karur Vysya Bank,KVBL0001157,600053009,CHENNAI ROYAPURAM,"NO. 2  MANNARSWAMY KOVIL STREET,ROYAPURAM,CHENNAI-600013",,CHENNAI,CHENNAI,TAMIL NADU
KVBL0001158,Karur Vysya Bank,KVBL0001158,600053013,CHENNAI TRIPLICANE,"205  TRIPLICANE HIGH ROAD,TRIPLICANE,CHENNAI-600005",,CHENNAI,CHENNAI,TAMIL NADU
KVBL0001159,Karur Vysya Bank,KVBL0001159,625053002,MADURAI MAIN,"P.B. NO. 28 74  AMMAN SANNATHI STREET,,MADURAI-625001",,MADURAI,MADURAI,TAMIL NADU
KVBL0001160,Karur Vysya Bank,KVBL0001160,625053004,MADURAI GNANAOLIVUPURAM,"16  A.A. ROAD  ÔGAYATHRI ILLAM"""""",GNANAOLIVUPURAM,MADURAI-625016",,MADURAI,MADURAI,TAMIL NADU
KVBL0001161,Karur Vysya Bank,KVBL0001161,625053003,MADURAI SOUTH,"P.B. NO. 174 159  SOUTH MASI STREET,,MADURAI-625001",,MADURAI,MADURAI,TAMIL NADU
KVBL0001162,Karur Vysya Bank,KVBL0001162,336053002,MANGALAPURAM,"1/7  ATTUR - RASIPURAM MAIN ROAD,,MANGALAPURAM-636202",,MANGALAPURAM,NAMAKKAL,TAMIL NADU
KVBL0001164,Karur Vysya Bank,KVBL0001164,936053002,METTUR DAM,"P.B.NO. 6  I FLOOR EMKEYES COMPLEX,14-1/77 B  SALEM MAIN ROAD RAMAN NAGAR- POST",,METTUR,SALEM,TAMIL NADU
KVBL0001165,Karur Vysya Bank,KVBL0001165,538053002,MULANUR,"155  KARUR MAIN ROAD,,MULANUR-638106",,MULANUR,ERODE,TAMIL NADU
KVBL0001166,Karur Vysya Bank,KVBL0001166,621053002,MUSIRI,"P.B.NO. 4 6  THURAIYUR ROAD,,MUSIRI-621211",,MUSIRI,TIRUCHIORAPPALLI,TAMIL NADU
KVBL0001167,Karur Vysya Bank,KVBL0001167,611053002,NAGAPATTINAM,"5/1  GROUND FLOOR,NADUVAR KEELA VEETHI,NAGAPATTINAM-611001",,NAGAPATTINAM,NAGAPATTINAM,TAMIL NADU
KVBL0001168,Karur Vysya Bank,KVBL0001168,629053002,NAGERCOIL,"47 COURT ROAD,KALLUVEETTIL SHYRAS CENTER,NAGERCOIL-629001",,NAGERCOIL,KANNIYAKUMARI,TAMIL NADU
KVBL0001169,Karur Vysya Bank,KVBL0001169,537053002,NAMAGIRIPETTAI,"469/1  ATTUR MAIN ROAD,,NAMAGIRPET-637406",,NAMAGIRIPETTAI,NAMAKKAL,TAMIL NADU
KVBL0001170,Karur Vysya Bank,KVBL0001170,637053002,NAMAKKAL MAIN,"P.B. NO. 4 52  RENGAR SANNATHI ST,,NAMAKKAL-637001",,NAMAKKAL,NAMAKKAL,TAMIL NADU
KVBL0001171,Karur Vysya Bank,KVBL0001171,424053002,NEIKARAPATTI,"6 BAZAAR STREET,,NEIKARAPATTY-624615",,NEIKARAPATTI,DINDIGUL,TAMIL NADU
KVBL0001172,Karur Vysya Bank,KVBL0001172,337053002,VELLA PILLAIYAR KOIL,"155 MAIN ROAD,ALAVAIPAAY (PO.) RASIPURAM TK,VELLAPILLAIYARKOIL-637505",,NAMAKKAL,NAMAKKAL,TAMIL NADU
KVBL0001173,Karur Vysya Bank,KVBL0001173,924053002,PALANI,"3 GANDHI ROAD,,PALANI-624601",,PALANI,DINDIGUL,TAMIL NADU
KVBL0001174,Karur Vysya Bank,KVBL0001174,627053001,PALAYAMKOTTAI,"NO 30,TRIVANDRUM ROAD,PALAYAMKOTTAI-627002",,PALAYAMKOTTAI,TIRUNELVELI,TAMIL NADU
KVBL0001175,Karur Vysya Bank,KVBL0001175,837053002,PANDAMANGALAM,"JEDARPALAYAM MAIN ROAD,,PAUNDAMANGALAM-637208",,PANDAMANGALAM,NAMAKKAL,TAMIL NADU
KVBL0001176,Karur Vysya Bank,KVBL0001176,825053002,PERIYAKULAM,"P.B.NO.9 FIRST FLOOR,NO.3  VASANTH VIHAR BUILDING CUMBUM ROAD,PERIYAKULAM-62560",,PERIYAKULAM,THENI,TAMIL NADU
KVBL0001177,Karur Vysya Bank,KVBL0001177,637053003,NAMAKKAL WEST,"6/68  ANNA NAGAR,PARAMATHY ROAD,NAMAKKAL-637002",,NAMAKKAL,NAMAKKAL,TAMIL NADU
KVBL0001179,Karur Vysya Bank,KVBL0001179,638053003,PERUNDURAI,"155,ERODE ROAD,PERUNDURAI-638052",,PERUNDURAI,ERODE,TAMIL NADU
KVBL0001180,Karur Vysya Bank,KVBL0001180,106053002,PERUNDURAIPATTU,"16  PILLAIYAR KOIL ST,,PERUNDURAIPATTU-606753",,PERUNDURAIPATTU,TIRUVANNAMALAI,TAMIL NADU
KVBL0001181,Karur Vysya Bank,KVBL0001181,642053002,POLLACHI,"81-A  VENKATRAMANAN IYER STREET,I FLOOR,POLLACHI-642001",,POLLACHI,COIMBOTORE,TAMIL NADU
KVBL0001182,Karur Vysya Bank,KVBL0001182,706053002,POLUR,"41/2  3&4 CUDDALORE- CHITTOOR ROAD,,POLUR-606803",,POLUR,TIRUVANNAMALAI,TAMIL NADU
KVBL0001183,Karur Vysya Bank,KVBL0001183,704053002,VANDAVASI,"NO.46  SANNATHI STREET,,VANDAVASHI-604408",,VANDAVASI,TIRUVANNAMALAI,TAMIL NADU
KVBL0001184,Karur Vysya Bank,KVBL0001184,996053002,PUDUCHATRAM,"2/24  SRI RAJA MURUGAN COMPLEX,SALEM MAIN ROAD,PUDUCHATRAM-637018",,PUDUCHATRAM,NAMAKKAL,TAMIL NADU
KVBL0001185,Karur Vysya Bank,KVBL0001185,623053002,RAMANATHAPURAM,"P.B.NO.5 SALAI STREET,,RAMANATHAPURAM-623501",,RAMANATHAPURAM,RAMANATHAPURAM,TAMIL NADU
KVBL0001186,Karur Vysya Bank,KVBL0001186,636053005,SALEM MAIN,"P.B.NO.3 45-46 CAR STREET,,SALEM-636001",,SALEM,SALEM,TAMIL NADU
KVBL0001187,Karur Vysya Bank,KVBL0001187,636053002,SALEM SHEVAPET,"P.B.NO.- 296 322/323  MAIN ROAD,SHEVAPET,SALEM-636002",,SALEM,SALEM,TAMIL NADU
KVBL0001188,Karur Vysya Bank,KVBL0001188,238053002,SATHYAMANGALAM,"P.B.NO 1 112  BAZAAR STREET,,SATHYAMANGALAM-638401",,SATHYAMANGALAM,ERODE,TAMIL NADU
KVBL0001189,Karur Vysya Bank,KVBL0001189,835053002,SAMALPATTI,"415  KRISHNAGIRI MAIN ROAD,,SAMALPATTI-635306",,SAMALPATTI,KRISHNAGIRI,TAMIL NADU
KVBL0001190,Karur Vysya Bank,KVBL0001190,600053011,CHENNAI TAMBARAM,"27-A  VENKATESA CHOUDRY STREET,WEST TAMBARAM,CHENNAI-600045",,TAMBARAM,KANCHEEPURAM,TAMIL NADU
KVBL0001191,Karur Vysya Bank,KVBL0001191,613053002,THANJAVUR,"P.B.NO.306 1460/2  SOUTH MAIN STREET,,THANJAVUR-613009",,THANJAVUR,THANJAVUR,TAMIL NADU
KVBL0001192,Karur Vysya Bank,KVBL0001192,721053002,THATHAYYANGARPET,"4 NAMAKKAL ROAD,,THATHIENGARPET-621214",,THATHAYYANGARPET,TIRUCHIORAPPALLI,TAMIL NADU
KVBL0001193,Karur Vysya Bank,KVBL0001193,925053002,THENI,"P.B.NO 5 54 & 55   I FLOOR,N.A.P.COMPLEX MADURAI ROAD,THENI-625531",,THENI,THENI,TAMIL NADU
KVBL0001194,Karur Vysya Bank,KVBL0001194,937053002,TIRUCHENGODU,"P.B.NO 3 77&78 TEPPAKULAM STREET,SANKARI ROAD,TIRUCHENGODE-637211",,TIRUCHENGODU,NAMAKKAL,TAMIL NADU
KVBL0001195,Karur Vysya Bank,KVBL0001195,620053002,TIRUCHIRAPALLI MAIN,"P.B.NO 301 20 - 24 THERADIKADAI STREET,,TIRUCHIRAPALLI-620002",,TIRUCHIRAPPALLI,TIRUCHIORAPPALLI,TAMIL NADU
KVBL0001196,Karur Vysya Bank,KVBL0001196,620053003,TIRUCHIRAPALLI CANTONMENT,"P.B.NO 157 5  BHARATHIAR SALAI,JENNE PLAZA  CONTONMENT,TIRUCHIRAPALLI-620001",,TIRUCHIRAPPALLI,TIRUCHIORAPPALLI,TAMIL NADU
KVBL0001197,Karur Vysya Bank,KVBL0001197,941053101,TIRUPUR MAIN,"P.B.NO.113 315  KUMARAN ROAD,,TIRUPUR-641601",,TIRUPUR,COIMBOTORE,TAMIL NADU
KVBL0001198,Karur Vysya Bank,KVBL0001198,606053002,TIRUVANNAMALAI,"P.B.NO. 3 22 SANNATHI STREET,,TIRUVANNAMALAI-606601",,TIRUVANNAMALAI,TIRUVANNAMALAI,TAMIL NADU
KVBL0001199,Karur Vysya Bank,KVBL0001199,600053016,CHENNAI TIRUVERKADU,"189  SANNATHI STREET,TIRUVERKADU,CHENNAI-600077",,TIRUVERKADU,TIRUVALLUR,TAMIL NADU
KVBL0001201,Karur Vysya Bank,KVBL0001201,206053002,THOTTIYAM,"440  MAIN ROAD,KALLAKURICHI - TK. (CHINNASELAM EXCHANGE),THOTTIYAM-606201",,THOTTIYAM,VILLUPURAM,TAMIL NADU
KVBL0001202,Karur Vysya Bank,KVBL0001202,628053002,TUTICORIN,"NO 159,VICTORIA STREET,TUTICORIN-628001",,TUTICORIN,THOOTHKUDI,TAMIL NADU
KVBL0001203,Karur Vysya Bank,KVBL0001203,942053002,UDAMALPET,"2/3  KALPANA ROAD,COIMBATOREDIST .TN,UDAMALAPET-642126",,UDUMALPET,COIMBOTORE,TAMIL NADU
KVBL0001205,Karur Vysya Bank,KVBL0001205,437053002,VALAYAPATTI,"TRICHY MAIN ROAD,,VALAYAPATTI-637020",,VALAYAPATTI,NAMAKKAL,TAMIL NADU
KVBL0001206,Karur Vysya Bank,KVBL0001206,832053002,VELLORE,"P.B.NO.438 72  MAIN BAZAAR,,VELLORE-638004",,VELLORE,VELLORE,TAMIL NADU
KVBL0001208,Karur Vysya Bank,KVBL0001208,805053002,VILLUPURAM,"P.B.NO.4 283  KAMARAJ STREET,,VILLUPURAM-605602",,VILLUPURAM,VILLUPURAM,TAMIL NADU
KVBL0001209,Karur Vysya Bank,KVBL0001209,832053003,VRINCHIPURAM,"5/41  MAIN ROAD,,VIRINCHIPURAM-632104",,VRINCHIPURAM,VELLORE,TAMIL NADU
KVBL0001210,Karur Vysya Bank,KVBL0001210,806053002,VRIDHACHALAM,"P.B.NO.4 90  BAZAAR STREET,,VRIDHACAHLAM-606001",,VRIDHACHALAM,CUDDALORE,TAMIL NADU
KVBL0001211,Karur Vysya Bank,KVBL0001211,635053002,PERUMALPET,"17/44 BYE PASS ROAD,THENDRAL NAGAR  NEW TOWN PERUMALPET,VANIYAMBADI-635752",,VANIYAMBADI,VELLORE,TAMIL NADU
KVBL0001212,Karur Vysya Bank,KVBL0001212,742053002,ERISANAMPATTY,"1/175 ANAIMALAI MAIN ROAD,DEVANURPUDUR EXCHANGE,ERISANAMPATTI-642207",,ERISANAMPATTY,COIMBOTORE,TAMIL NADU
KVBL0001213,Karur Vysya Bank,KVBL0001213,600053012,CHENNAI TNAGAR,"62  SIR THEAGARAYA ROAD,T.NAGAR,CHENNAI-600017",,CHENNAI,CHENNAI,TAMIL NADU
KVBL0001214,Karur Vysya Bank,KVBL0001214,851053002,PAPPANKULAM,"D.NO.803,,PAPPANKULAM-642204",,PAPPANKULAM,COIMBOTORE,TAMIL NADU
KVBL0001217,Karur Vysya Bank,KVBL0001217,998053002,METTUKADAI,"69  NALL ROAD,,METTUKADAI-638107",,ERODE,ERODE,TAMIL NADU
KVBL0001218,Karur Vysya Bank,KVBL0001218,339053002,VEERARAKKIYAM,"P.B.NO 1 316/10 KARUR-TRICHY MAIN ROAD,,VEERARAKKIYAMRS-639114",,KARUR,KARUR,TAMIL NADU
KVBL0001219,Karur Vysya Bank,KVBL0001219,600053014,CHENNAI WHITES ROAD,"P.B. NO. 5565 37  WHITES ROAD,,CHENNAI-600014",,CHENNAI,CHENNAI,TAMIL NADU
KVBL0001220,Karur Vysya Bank,KVBL0001220,925053003,UPPUKOTTAI,"D NO 144 BAZAAR STREET, UPPUKOTTAI 625534, THENI-625531",,THENI,THENI,TAMIL NADU
KVBL0001221,Karur Vysya Bank,KVBL0001221,600053001,CHENNAI CCO,"KARUR VYSYA BANK, CENTRAL CLEARING OFFICE, 766 ANNA SALAISAKTHI TOWERS 6TH FLOOR, CHENNAI-600002",,CHENNAI,CHENNAI,TAMIL NADU
KVBL0001222,Karur Vysya Bank,KVBL0001222,641053008,COIMBATORE DO,"577 OPPANAKARA STREET, II FLOOR, COIMBATORE-641001",,COIMBATORE,COIMBATORE,TAMIL NADU
KVBL0001223,Karur Vysya Bank,KVBL0001223,625053007,MADURAI DO,"GAYATHRI ILLAM, 16 A.A.ROAD I FLOOR, GNANAOLIVUPURAM",,MADURAI,MADURAI,TAMIL NADU
KVBL0001224,Karur Vysya Bank,KVBL0001224,814053002,KOTHAMANGALAM,"2/222/6  KEERAMANGALAM ROAD,,KOTHAMANGALAM-614624",,KOTHAMANGALAM,PUDUKKOTTAI,TAMIL NADU
KVBL0001225,Karur Vysya Bank,KVBL0001225,914053002,NEERMULAI,"D.NO. 181/273-12  MAIN ROAD,,NEERMULAI-614711",,NEERMULAI,NAGAPATTINAM,TAMIL NADU
KVBL0001226,Karur Vysya Bank,KVBL0001226,324053002,ELUMALAI,"12-6-47A MAIN BAZAAR,,ELUMALAI-625535",,ELUMALAI,MADURAI,TAMIL NADU
KVBL0001227,Karur Vysya Bank,KVBL0001227,931053002,ULLAVUR,"243  CHENGALPET- KANCHEEPURAM MAIN RD.,PALAYASEEVARAM - POST,ULLAVUR-631606",,ULLAVUR,TIRUVALLUR,TAMIL NADU
KVBL0001228,Karur Vysya Bank,KVBL0001228,921053002,KANNANUR,"3/71 MAIN ROAD,,KANNANUR-621206",,KANNANUR,TIRUCHIORAPPALLI,TAMIL NADU
KVBL0001229,Karur Vysya Bank,KVBL0001229,600053015,CHENNAI PURASAWALKAM,"51  GANGADEESWARAR KOIL STREET,PURASAWALKAM,CHENNAI-600084",,CHENNAI,CHENNAI,TAMIL NADU
KVBL0001230,Karur Vysya Bank,KVBL0001230,605053002,PONDICHERRY,"P.B.NO 501 30  JAWAHARLAL NEHRU ST,,PONDICHERRY-605001",,PONDICHERRY,PONDICHERRY,PONDICHERRY
KVBL0001231,Karur Vysya Bank,KVBL0001231,604053002,TINDIVANAM,"16  PERUMAL KOIL SANNATHI STREET,,TINDIVANAM-604001",,TINDIVANAM,VILLUPURAM,TAMIL NADU
KVBL0001232,Karur Vysya Bank,KVBL0001232,809053002,MAYILADUTHURAI,"P.B.NO 11  I FLOOR A.R.NAJEEM COMPLEX,28/5  TOWN EXTENSION,MAYILADUTHURAI-60900",,MAYURAM(MAYILADUTHURAI),NAGAPATTINAM,TAMIL NADU
KVBL0001233,Karur Vysya Bank,KVBL0001233,630053002,KARAIKUDI,"NO. 167  SEKKALAI ROAD,NEAR HEAD POSTOFFICE,KARAIKUDI-630001",,KARAIKUDI,SIVAGANGA,TAMIL NADU
KVBL0001234,Karur Vysya Bank,KVBL0001234,941053102,TIRUPUR OVERSEAS BRANCH,"P.B.NO 6 315  I FLOOR,KUMARAN ROAD,TIRUPUR-641601",,TIRUPUR,COIMBOTORE,TAMIL NADU
KVBL0001235,Karur Vysya Bank,KVBL0001235,941053103,TIRUPUR PNROAD BRANCH,"NO 282, P.N.ROAD,TIRUPUR-641602",,TIRUPUR,COIMBOTORE,TAMIL NADU
KVBL0001236,Karur Vysya Bank,KVBL0001236,400053000,MUMBAI DO,"954 APPA SAHEB MARATHE MARG, PRABHADEVI, MUMBAI-400025",,MUMBAI,GREATER MUMBAI,MAHARASHTRA
KVBL0001237,Karur Vysya Bank,KVBL0001237,926053002,VIRUDHUNAGAR,"DOOR NO.66,P.S.CHIDAMBARAM STREET, VIRUDHUNAGAR - 626 001",,VIRUDHUNAGAR,VIRUDHUNAGAR,TAMIL NADU
KVBL0001238,Karur Vysya Bank,KVBL0001238,826053002,RAJAPALAYAM,"P.B.NO.42 33  RAILWAY FEEDER ROAD,,RAJAPALAYAM-626117",,RAJAPALAIYAM,VIRUDHUNAGAR,TAMIL NADU
KVBL0001239,Karur Vysya Bank,KVBL0001239,600053017,CHENNAI USMAN ROAD,"107  USMAN ROAD,T.NAGAR,CHENNAI-600017",,CHENNAI,CHENNAI,TAMIL NADU
KVBL0001240,Karur Vysya Bank,KVBL0001240,609053001,KARAIKAL,"56  CHURCH STREET,I FLOOR,KARAIKAL-609602",,KARAIKAL,KARAIKAL,PONDICHERRY
KVBL0001241,Karur Vysya Bank,KVBL0001241,641053102,COIMBATORE CCO,"577 I FLOOR, OPPANAKARA STREET, COIMBATORE-641001",,COIMBATORE,COIMBOTORE,TAMIL NADU
KVBL0001244,Karur Vysya Bank,KVBL0001244,600053018,CHENNAI ST THOMAS MOUNT,"ST. THOMAS HOSPITAL DEFENCE COLONY ROAD,ST. THOMAS MOUNT,CHENNAI-600016",,ST.THOMAS MNT.PALLAVARAM,KANCHEEPURAM,TAMIL NADU
KVBL0001245,Karur Vysya Bank,KVBL0001245,641053005,COIMBATORE KCT EC,"KUMARAGURU COLLEGE OF TECHNOLOGY, CHINNAVEDAMPATTI, COIMBATORE - 641006.",,COIMBATORE,COIMBOTORE,TAMIL NADU
KVBL0001246,Karur Vysya Bank,KVBL0001246,636053003,SALEM ALAGAPURAM,"4/41 BHARATHI STREET,SWARNAPURI,SALEM-636004",,SALEM,SALEM,TAMIL NADU
KVBL0001247,Karur Vysya Bank,KVBL0001247,638053006,PERUNDURAI EC,"KONGU ENGG.COLLEGE, THOPPUPALAYAM, PERUNDURAI - 638052.",,PERUNDURAI,ERODE,TAMIL NADU
KVBL0001248,Karur Vysya Bank,KVBL0001248,600053019,CHENNAI VELAPPAN CHAVADI,"SAVEETHA DENTAL COLLEGE & HOSPITAL,112  POONAMALLE HIGH ROAD VELAPPAN CHAVADI,C",,TIRUVERKADU,TIRUVALLUR,TAMIL NADU
KVBL0001249,Karur Vysya Bank,KVBL0001249,627053003,TIRUNELVELI TOWN,"156 157  I FLOOR  ÔPREYAM PLAZAÖ,WEST CAR STREET (GANDHI SQUARE),TIRUNELVELITOW",,TIRUNELVELI,TIRUNELVELI,TAMIL NADU
KVBL0001250,Karur Vysya Bank,KVBL0001250,600053020,CHENNAI TEYNAMPET,"KVB TOWERSÖ GROUNT FLOOR,568  ANNA SALAI,CHENNAI-600018",,CHENNAI,CHENNAI,TAMIL NADU
KVBL0001251,Karur Vysya Bank,KVBL0001251,636053010,SALEM DO,"I FLOOR, 269-A BHARATHI STREET, SWARNAPURI ALAGAPURAM, SALEM-636 004",,SALEM,SALEM,TAMIL NADU
KVBL0001252,Karur Vysya Bank,KVBL0001252,738053002,KANGEYAM,"P.B.NO.20 716 TIRUPUR ROAD,,KANGAYAM-638701",,KANGEYAM,ERODE,TAMIL NADU
KVBL0001253,Karur Vysya Bank,KVBL0001253,641053006,COIMBATORE SAIBABA COLONY,"S.F.NO. 399 & 407 ÔSUNDARAM ARCADEÖ,N.S.R. ROAD  SAIBABA COLONY,COIMBATORE-6410",,COIMBATORE,COIMBOTORE,TAMIL NADU
KVBL0001254,Karur Vysya Bank,KVBL0001254,NONMICR,ATM CELL,"338 UFFIZI COMPLEX - BASEMENT, AVINASHI ROAD, PEELAMEDU, COIMBATORE-641004",,CHENNAI,CHENNAI,TAMIL NADU
KVBL0001255,Karur Vysya Bank,KVBL0001255,600053021,CHENNAI NANGANALLUR,"NO.7  48TH STREET,NANGANALLUR,CHENNAI-600061",,CHENNAI,CHENNAI,TAMIL NADU
KVBL0001257,Karur Vysya Bank,KVBL0001257,600053022,CHENNAI ADYAR,"154  LATTICE BRIDGE ROAD,ADYAR,CHENNAI-600020",,CHENNAI,CHENNAI,TAMIL NADU
KVBL0001258,Karur Vysya Bank,KVBL0001258,625053005,MADURAI TALLAKULAM,"149  A & B  ALAYAM KOIL ROAD,TALLAKULAM,MADURAI-625002",,MADURAI,MADURAI,TAMIL NADU
KVBL0001259,Karur Vysya Bank,KVBL0001259,639053004,KARUR GANDHIGRAMAM,"B-3  MAIN ROAD,,KARUR-639004",,KARUR,KARUR,TAMIL NADU
KVBL0001261,Karur Vysya Bank,KVBL0001261,626053001,SIVAKASI,"34 NEW STREET,SIVAKASI,SIVAKASI-626123",,SIVAKASI,VIRUDHUNAGAR,TAMIL NADU
KVBL0001262,Karur Vysya Bank,KVBL0001262,620053004,TIRUCHIRAPALLI THILLAI NAGAR,"C-18 III CROSS SRIRAM TOWERS,THILLAI NAGAR,TIRUCHIRAPALLI-620018",,TIRUCHIRAPPALLI,TIRUCHIORAPPALLI,TAMIL NADU
KVBL0001263,Karur Vysya Bank,KVBL0001263,600053023,CHENNAI MOHAPPAIR,"G-3, AMM TOWERS, PLOT NO 40 TIRUVALLUVAR RD,NEAR D.A.V SCHOOL, MOHAPPAIR,CHENNA",,CHENNAI,CHENNAI,TAMIL NADU
KVBL0001264,Karur Vysya Bank,KVBL0001264,600053024,CHENNAI VALASARAVAKKAM,"DOOR NO 138, ARCOD ROAD,,EAST KAMAKODI NAGAR EXTN, VALASARAVAKKAM,CHENNAI-60008",,CHENNAI,CHENNAI,TAMIL NADU
KVBL0001265,Karur Vysya Bank,KVBL0001265,600053025,CHENNAI VELACHERY,"SURVEY NO 344/11 & 12,,VELLACHERY TAMBARAM MAIN RD VELACHERY,CHENNAI-0",,CHENNAI,CHENNAI,TAMIL NADU
KVBL0001266,Karur Vysya Bank,KVBL0001266,607053002,NEYVELI,"BLOCK NO 16 AMARAVATHI BAZAAR COMPLEX,NEYVELI,NEYVELI-607801",,NEYVELI,CUDDALORE,TAMIL NADU
KVBL0001267,Karur Vysya Bank,KVBL0001267,608053003,CHIDAMBARAM EC,"26, GOWTHAM COMPLEX, UNIV. MAIN RD, ANNAMALAI NGR, CHIDAMBARAM - 608002",,CHIDAMBARAM,CUDDALORE,TAMIL NADU
KVBL0001268,Karur Vysya Bank,KVBL0001268,636053001,SALEM CCO,"THE KARUR VYSYA BANK LTD, SALEM CCO,I FLOOR,45-46 CAR STREET,SALEM-0",,SALEM,SALEM,TAMIL NADU
KVBL0001269,Karur Vysya Bank,KVBL0001269,620053001,TIRUCHIRAPALLI CCO,"THE KARUR VYSYA BANK LTD, TIRUCHIRAPALLI CCO,C-18 THIRD CROSS SRIRAM TOWERS,THILLAI NAGAR,TIRUCHIRAPALLI-620018",,TIRUCHIRAPPALLI,TIRUCHIORAPPALLI,TAMIL NADU
KVBL0001270,Karur Vysya Bank,KVBL0001270,641053007,COIMBATORE GANAPATHY,"VIGNESH TOWERS,1391- A  SATHY ROAD GANAPATHY,COIMBATORE-641002",,COIMBATORE,COIMBOTORE,TAMIL NADU
KVBL0001271,Karur Vysya Bank,KVBL0001271,941053104,TIRUPUR CCO,"THE KARUR VYSYA BANK LTD, TIRUPUR CCO,315 I FLOOR,KUMARAN ROAD,TIRUPPUR-641601",,TIRUPUR,COIMBOTORE,TAMIL NADU
KVBL0001272,Karur Vysya Bank,KVBL0001272,639053001,KARUR CCO,"THE KARUR VYSYA BANK LTD, KARUR CCO,65 JAWAHAR BAZAAR,KARUR,KARUR-639001",,KARUR,KARUR,TAMIL NADU
KVBL0001273,Karur Vysya Bank,KVBL0001273,927053002,TENKASI,"156/43 A, RAHMANS PLAZA,NORTH MASI STREET, UTCHI MAKA KALIAMMAN KOIL WEST,TENKA",,TENKASI,TIRUNELVELI,TAMIL NADU
KVBL0001274,Karur Vysya Bank,KVBL0001274,625053001,MADURAI CCO,"THE KARUR VYSYA BANK LTD, MADURAI GNANAOLIVUPURAM,""16  A.A. ROAD  “GAYATHRI ILLAM"",GNANAOLIVUPURAM,MADURAI-625016",,MADURAI,MADURAI,TAMIL NADU
KVBL0001276,Karur Vysya Bank,KVBL0001276,620053005,TRICHY   SRIRANGAM,"B-14/27,E.V.S. STREET, RENGA NAGAR, SRIRANGAM, TRICHY - 620006",,TIRUCHIRAPPALLI,TIRUCHIORAPPALLI,TAMIL NADU
KVBL0001277,Karur Vysya Bank,KVBL0001277,335053002,KRISHNAGIRI,"48 – L,  'K' THEATRE ROAD, OFF BANGALORE MAIN ROAD, KRISHNAGIRI - 635001",,KRISHNAGIRI,KRISHNAGIRI,TAMIL NADU
KVBL0001278,Karur Vysya Bank,KVBL0001278,600053026,CHENNAI   ASHOK NAGAR,"22A, 7TH AVENUE, ASHOK NAGAR, CHENNAI - 600083",,CHENNAI,CHENNAI,TAMIL NADU
KVBL0001279,Karur Vysya Bank,KVBL0001279,641053009,SOMANUR,"272/1KARUMATHAMPATTI MAIN ROAD, SOMANUR, COIMBATORE-641668",,SOMANUR,COIMBOTORE,TAMIL NADU
KVBL0001280,Karur Vysya Bank,KVBL0001280,600053027,CHENNAI AMBATTUR,"NO. 47, NORTH PARK STREET,VENKATAPURAM, AMBATTUR, CHENNAI - 600 053.",,AMBATTUR,TIRUVALLUR,TAMIL NADU
KVBL0001281,Karur Vysya Bank,KVBL0001281,600053028,CHENNAI URAPAKKAM,"OLD NO. 159 A, I A PART, NEW S NO 193/16, G S T ROAD, URAPAKKAM - 603202",,TAMBARAM,KANCHEEPURAM,TAMIL NADU
KVBL0001282,Karur Vysya Bank,KVBL0001282,638053004,ERODE SAMPATH NAGAR,"DNO : 45/2, PERUNDURI RD, OPPO RANA KALAYNA MANDAPAM, SAMPATH NAGAR, ERODE - 638011.",,ERODE,ERODE,TAMIL NADU
KVBL0001283,Karur Vysya Bank,KVBL0001283,600053029,CHENNAI EGMORE,"THIRU COMPLEX,44/1, PANTHEON ROAD,EGMORE, CHENNAI - 600008",,CHENNAI,CHENNAI,TAMIL NADU
KVBL0001284,Karur Vysya Bank,KVBL0001284,600053031,CHENNAI SHOLINGANALLUR,NO 52 IT HIGHWAY  SHOLINGANALLUR CHENNAI 600119,,SHOLINGANALLUR,KANCHEEPURAM,TAMIL NADU
KVBL0001285,Karur Vysya Bank,KVBL0001285,600053032,CHENNAI RAJAANNAMALAIPURMA,"17/5 KAMARAJAR SALAI, SRINIVASA AVENUE, RAJA ANNAMALAIPURAM, CHENNAI-600028",,CHENNAI,CHENNAI,TAMIL NADU
KVBL0001286,Karur Vysya Bank,KVBL0001286,600053030,CHENNAI SIGNAPERUMAL KOIL,"23/13/B1 & 23/12/A2, G.S.T. ROAD, SINGAPERUMAL KOIL-603 204",,SINGAPERUMALOIL,KANCHEEPURAM,TAMIL NADU
KVBL0001287,Karur Vysya Bank,KVBL0001287,620053006,TRICHY-K.K NAGAR,"NO 1&2 MANGAMMA SALAI , K.K.NAGAR , TIRUCHIRAPALLI , 620 021",,TIRUCHIRAPPALLI,TIRUCHIORAPPALLI,TAMIL NADU
KVBL0001288,Karur Vysya Bank,KVBL0001288,641053106,PALLADAM,"111/C TIRUCHY MAIN ROAD, OPP POLICE QUARTERS, PALLADAM , 641664",,PALLADAM,COIMBOTORE,TAMIL NADU
KVBL0001289,Karur Vysya Bank,KVBL0001289,600053033,CHENNAI - ARUMBAKKAM,"NO. 528, PH ROAD, ARUMBAKKAM,  CHENNAI-600 106. PHONE : 24759206, 24750067",,CHENNAI,CHENNAI,TAMIL NADU
KVBL0001291,Karur Vysya Bank,KVBL0001291,600053034,SRIPERUMPUDUR,"OLD NO: 77 NEW NO: 317, GANDHI ROAD, SRIPERUMPUDUR-602105",,SRIPERUMBUDUR,KANCHEEPURAM,TAMIL NADU
KVBL0001293,Karur Vysya Bank,KVBL0001293,600053035,KELLAMBAKKAM,"PLOT NO. 12, MALAYAPPA MUDALI STREET, KELLAMBAKKAM , CHENNAI-603103",,KELAMBAKKAM,KANCHEEPURAM,TAMIL NADU
KVBL0001294,Karur Vysya Bank,KVBL0001294,641053011,KOVAIPUDUR,"PLOT NO 10 N BLOCK, CBM COLLEGE MAIN ROAD, KOVAIPUDUR, COIMBATORE-641042",,COIMBATORE,COIMBOTORE,TAMIL NADU
KVBL0001295,Karur Vysya Bank,KVBL0001295,638053017,VELLAKOVIL,"NO 28, TRICHY KOVAI MAIN ROAD, VELLAKOVIL-638111",,VELLAKOVIL,ERODE,TAMIL NADU
KVBL0001296,Karur Vysya Bank,KVBL0001296,638053016,SIVAGIRI,"D.NO. 124 (OLD NO: 96), ANNA STREET MAIN ROAD, ERODE DISTRICT, SIVAGIRI-638109",,SIVAGIRI,ERODE,TAMIL NADU
KVBL0001297,Karur Vysya Bank,KVBL0001297,636053006,ELAMPILLAI,"10-283/1, THIRUMALAI GOUNDER STREET, NEAR SANDHA PETTAI IDAPPADI ROAD, ELAMPILLAI-637 502",,ELAMPILLAI,SALEM,TAMIL NADU
KVBL0001298,Karur Vysya Bank,KVBL0001298,622053002,PUDUKOTTAI,"SHREE BHAVAN , NO.5504/ P5505/ P , MARTHANDAPURAM FIRST STREET , PUDUKOTTAI-622001",,PUDUKOTTAI,THOOTHKUDI,TAMIL NADU
KVBL0001301,Karur Vysya Bank,KVBL0001301,560053002,BANGALORE MAIN,"549,AVENUE ROAD,BANGALORE-560002",,BANGALORE,BANGALORE URBAN,KARNATAKA
KVBL0001302,Karur Vysya Bank,KVBL0001302,560053003,BANGALORE JCROAD,"25,J.C.ROAD,BANGALORE-560002",,BANGALORE,BANGALORE URBAN,KARNATAKA
KVBL0001303,Karur Vysya Bank,KVBL0001303,560053004,BANGALORE MALLESWARAM,"230/2  15TH CROSS,SAMPIGE ROAD MALLESWARAM,BANGALORE-560003",,BANGALORE,BANGALORE URBAN,KARNATAKA
KVBL0001304,Karur Vysya Bank,KVBL0001304,560053006,BANGALORE ULSOOR,"P.B. NO. 881  13  ÔSESHA SADANÖ,CAMBRIDGE ROAD  ULSOOR,BANGALORE-560008",,BANGALORE,BANGALORE URBAN,KARNATAKA
KVBL0001305,Karur Vysya Bank,KVBL0001305,577053002,DAVANGERE,"P.B.NO 50  179/10  NARASARAJA ROAD,,DAVANGERE-577001",,DAVANGERE,DAVANAGARE,KARNATAKA
KVBL0001306,Karur Vysya Bank,KVBL0001306,563053002,KOLAR GOLD FIELDS,"996 SOORAJ MULL CIRCLE,ROBERTSONPET,KOLAR GOLD FIELDS-563122",,KOLAR GOLD FIELDS,KOLAR,KARNATAKA
KVBL0001307,Karur Vysya Bank,KVBL0001307,570053002,MYSORE,"P.B.NO.14 67-68  I FLOOR,DEVARAJ URS ROAD,MYSORE-570001",,MYSORE,MYSORE,KARNATAKA
KVBL0001308,Karur Vysya Bank,KVBL0001308,560053005,BANGALORE RAJAJI NAGAR,"869/C  17TH G MAIN ROAD,V BLOCK  RAJAJI NAGAR,BANGALORE-560010",,BANGALORE,BANGALORE URBAN,KARNATAKA
KVBL0001309,Karur Vysya Bank,KVBL0001309,572053002,TUMKUR,"P.B.NO 48  I FLOOR,SANTRUPTI COMPLEX  VIVEKANANDA RD.,TUMKUR-572101",,TUMKUR,TUMKUR,KARNATAKA
KVBL0001310,Karur Vysya Bank,KVBL0001310,560053007,BANGLORE DO,"230/2 I FLOOR, 15TH CROSS SAMPIGE ROAD, MALLESWARAM, BANGALORE-560003",,BANGALORE,BANGALORE URBAN,KARNATAKA
KVBL0001311,Karur Vysya Bank,KVBL0001311,580053002,HUBLI,"P.B.NO. 45 2921/B UMACHAGI COMPLEX,KOPPIKAR ROAD,HUBLI-580020",,HUBLI-DHARWAD,DHARWAD,KARNATAKA
KVBL0001312,Karur Vysya Bank,KVBL0001312,560053001,BANGLORE CCO,"THE KARUR VYSYA BANK LTD, BANGALORE CCO,1/1 STK PLAZA,HOSPITAL ROAD,BANGALORE-560053",,BANGALORE,BANGALORE URBAN,KARNATAKA
KVBL0001313,Karur Vysya Bank,KVBL0001313,560053008,BANGALORE ISRO LAYOUT,"253  3RD MAIN  8TH CROSS,ISRO LAYOUT,BANGALORE-560078",,BANGALORE,BANGALORE URBAN,KARNATAKA
KVBL0001314,Karur Vysya Bank,KVBL0001314,575053002,MANGALORE,"P.B. NO. 748 4-6-535/536  ESSEL CHAMBERS,K.R.RAO ROAD KARANGALPADY,MANGALORE-57",,MANGALORE,DAKSHINA KANNADA,KARNATAKA
KVBL0001315,Karur Vysya Bank,KVBL0001315,560053009,BANGALORE JAYANAGAR,"396/85  ÔSUBHASHRI BUILDINGÖ,GROUND FLOOR  3RD BLOCK 11TH MAIN  JAYANAGAR,BANGA",,BANGALORE,BANGALORE URBAN,KARNATAKA
KVBL0001316,Karur Vysya Bank,KVBL0001316,583053002,BELLARY,"DR.S.K.PANDURANGA RAO BUILDING, 148 (1&2) BANGALORE ROAD, KALAMMA STREET, BELLARY-583101 08392 273876, 273878",,BELLARY,BELLARY,KARNATAKA
KVBL0001317,Karur Vysya Bank,KVBL0001317,560053010,BANGALORE KORAMANGALA,"NO.46 6 TH BLOCK, 6 TH CROSS 100 FEET ROAD, KORAMANGALA, BANGALORE-560034",,BANGALORE,BANGALORE URBAN,KARNATAKA
KVBL0001318,Karur Vysya Bank,KVBL0001318,977053002,SHIMOGA,"NO.509/1, BEDRE COMPLEX, NEHRU ROAD, SHIMOGA - 577201.",,SHIMOGA,SHIMOGA,KARNATAKA
KVBL0001319,Karur Vysya Bank,KVBL0001319,590053002,BELGAUM,"CTS NO 1835 SAI GANESH PLAZA, HANS TALKIS ROAD , BELGAUM 590002",,BELGAUM,BELGAUM,KARNATAKA
KVBL0001320,Karur Vysya Bank,KVBL0001320,983053002,GANGAVATHI,"ARIKERE RUDRAPPA COMPLEX , GROUND FLOOR , VEERSAVARKAR MARG , GANAGAVATHI , 583227",,GANGAVATHI,KOPPAL,KARNATAKA
KVBL0001321,Karur Vysya Bank,KVBL0001321,560053011,DODDABALLAPUR,"#1 MUNICIPAL SHOPPING COMPLEX, OLD BUS STAND, DODDABALLAPUR, BANGALORE-561203",,DODDABALLAPUR,BANGALORE RURAL,KARNATAKA
KVBL0001322,Karur Vysya Bank,KVBL0001322,560053012,HOSKOTE,"J.C.CIRCLE, K.R.ROAD , HOSKOTE - 562 114, HOSKOTE-562 114",,HOSKOTE,BANGALORE RURAL,KARNATAKA
KVBL0001323,Karur Vysya Bank,KVBL0001323,584053002,RAICHUR,"RAICHUR RICE MILLERS ASSOCIATION BUILDING, NEAR GANDHI CHOWK, LINGASUGUR ROAD, RAICHUR, KARNATAKA.-584102",,RAICHUR,RAICHUR,KARNATAKA
KVBL0001324,Karur Vysya Bank,KVBL0001324,585053002,GULBARGA,"NO. 76,77 SUPER MARKET AREA,GULBARGA,585 101",,GULBARGA,GULBERGA,KARNATAKA
KVBL0001325,Karur Vysya Bank,KVBL0001325,560053013,BANGALORE BASAVANAGUDI,"NO: 54 NAGASANDRA CIRCLE, SOUTH END ROAD, BASAVANGUDI, BANGALORE-560004",,BANGALORE,BANGALORE URBAN,KARNATAKA
KVBL0001326,Karur Vysya Bank,KVBL0001326,573053302,HASSAN,"NO.366 OPP.HOTEL SOUTHERN STAR, B.M.ROAD, HASSAN-573201",,HASSAN,HASSAN,KARNATAKA
KVBL0001327,Karur Vysya Bank,KVBL0001327,571053552,RAMANAGARAM,"NO. 370/2806 & 371/2807 A,COURT ROAD,RAMANAGARA, 571511.",,RAMANAGARAM,BANGALORE RURAL,KARNATAKA
KVBL0001328,Karur Vysya Bank,KVBL0001328,583053002,HOSPET,"#241,  KLS COMPLEX, BELLARY ROAD CIRCLE, HOSPET - 583201. ",,HOSPET,BELLARY,KARNATAKA
KVBL0001329,Karur Vysya Bank,KVBL0001329,NONMICR,CHANDAPUR,"SY NO:76,K.H.NO:1195/970,HOSUR ROAD,CHANDAPURA,ANEKKAL TALUK,BANGALORE,BANGALORE,KARNATAKA,560081",,CHANDAPUR,GONDA,UTTAR PRADESH
KVBL0001330,Karur Vysya Bank,KVBL0001330,560053014,ATTIBELE,"NO.8 384/3A , OPP. KEB OFFICE SARJAPUR ROAD, ATTIBELE-562107",,ATTIBELE,BANGALORE URBAN,KARNATAKA
KVBL0001331,Karur Vysya Bank,KVBL0001331,560053016,BTM LAYOUT BANGALORE,"NO. 12,""SHRAVANTHI BLUE CHIPS"",100 FT. RING ROAD,BTM LAYOUT I STAGE,BANGALORE - 560076. ",,BANGALORE,BANGALORE URBAN,KARNATAKA
KVBL0001332,Karur Vysya Bank,KVBL0001332,NON MICR,BANGALORE - INDIRA NAGAR,"NO.316,100 FEET ROAD,INDIRA NAGAR,BANGALORE-560038",,BANGALORE,BANGALORE URBAN,KARNATAKA
KVBL0001333,Karur Vysya Bank,KVBL0001333,560053017,BANGALORE - HSR LAYOUT,"NO.387,SRI RAJ ARCADE, 9TH MAIN,7TH SECTOR,HSR LAYOUT,BANGALORE",,BANGALORE,BANGALORE URBAN,KARNATAKA
KVBL0001334,Karur Vysya Bank,KVBL0001334,NON MICR,HEBBAGODI,"SY. NO. 71/2, GURUKRUPA COMPLEX,BHAVANI ROAD,HEBBAGODI - 560099",,BANGALORE,BANGALORE URBAN,KARNATAKA
KVBL0001335,Karur Vysya Bank,KVBL0001335,NON MICR,CHITRADURGA,"CHITRADURGA,OPP.NEELAKANTESWARA TEMPLE, HOLALAKERE ROAD , 577501",,CHITRADURGA,CHITRADURGA,KARNATAKA
KVBL0001401,Karur Vysya Bank,KVBL0001401,917053002,CHITTOOR,"P.B. NO. 63  VCR COMPLEX,D. NO.10-423 SESHAPIRAN STREET,CHITTOOR-517001",,CHITTOOR,CHITTOR,ANDHRA PRADESH
KVBL0001402,Karur Vysya Bank,KVBL0001402,815053002,DHARMAVARAM,"P.B.NO 10  11/427  I FLOOR,SALE STREET JANARDHANA COMPLEX,DHARMAVARAM-515671",,DHARMAVARAM,ANANTPUR,ANDHRA PRADESH
KVBL0001403,Karur Vysya Bank,KVBL0001403,520053102,GUNTUR,"P.B.NO 135 24-4-39  ELURU BAZAAR,,GUNTUR-522003",,GUNTUR,GUNTUR,ANDHRA PRADESH
KVBL0001404,Karur Vysya Bank,KVBL0001404,500053002,HYDERABAD MAIN,"P.B.NO.517 5-2-972/1  NIZAMSHAHI ROAD,OSMANGUNJ,HYDERABAD-500195",,HYDERABAD,HYDERABAD URBAN,ANDHRA PRADESH
KVBL0001405,Karur Vysya Bank,KVBL0001405,518053002,KURNOOL,"P.B. NO. 40 42/116A  GOWL STREET,,KURNOOL-518001",,KURNOOL,KURNOOL,ANDHRA PRADESH
KVBL0001406,Karur Vysya Bank,KVBL0001406,524053002,NELLORE,"P.B.NO. 37 15/78  BRINDAVANAM,,NELLORE-524001",,NELLORE,NELLORE,ANDHRA PRADESH
KVBL0001407,Karur Vysya Bank,KVBL0001407,816053002,PRODDATUR,"P.B.NO.7 8/137  GANDHI ROAD,,PRODDATUR-516360",,PRODDATUR,CUDDAPAH,ANDHRA PRADESH
KVBL0001408,Karur Vysya Bank,KVBL0001408,933053002,RAJAHMUNDRY,"10/7/25,RANGREEZPET,RAJAHMUNDRY-533101",,RAJAHMUNDRY,EAST GODAVARI,ANDHRA PRADESH
KVBL0001409,Karur Vysya Bank,KVBL0001409,717053002,RALLABUDUGUR,"2-116  GANDHI ROAD,KUPPAM TK,RALLABUDUGUR-517423",,RALLABADUGUR,CHITTOR,ANDHRA PRADESH
KVBL0001410,Karur Vysya Bank,KVBL0001410,500053003,SECUNDERABAD,"NO 6549,RASHTRAPATHI ROAD,SECUNDERABAD-500003",,SECUNDERABAD CANTONMENT,HYDERABAD URBAN,ANDHRA PRADESH
KVBL0001411,Karur Vysya Bank,KVBL0001411,817053002,NAGARI  SATHRAWADA,"NO.9-135(NEW NO.9/160) OPP TO JILLA PARSHID GIRLS HR. SEC SCHOOL,NEAR BUS STAND",,NAGARI,CHITTOR,ANDHRA PRADESH
KVBL0001412,Karur Vysya Bank,KVBL0001412,517053002,TIRUPATHI MAIN,"NO 631,MOSQUE ROAD,TIRUPATHI-517501",,TIRUPATI,CHITTOR,ANDHRA PRADESH
KVBL0001413,Karur Vysya Bank,KVBL0001413,520053001,VIJAYAWADA GOWERNORPET,"P.B.NO.439 27-16-81 BESENT ROAD,GOVERNORPET,VIJAYAWADA-520002",,VIJAYAWADA,KRISHNA,ANDHRA PRADESH
KVBL0001414,Karur Vysya Bank,KVBL0001414,520053003,VIJAYAWADA I TOWN,"P.B.NO.79 11-13-24  SUMMETAVARI STREET,,VIJAYAWADA-520001",,VIJAYAWADA,KRISHNA,ANDHRA PRADESH
KVBL0001415,Karur Vysya Bank,KVBL0001415,506053002,WARANGAL MAIN,"P.B.NO.19 12-1-21 22&23 S.V.N.ROAD,,WARANGAL-506002",,WARANGAL,WARANGAL,ANDHRA PRADESH
KVBL0001416,Karur Vysya Bank,KVBL0001416,516053002,CUDDAPAH,"P.B.NO.26 19/59 CHENNAI TRUNK ROAD,,CUDDAPAH-516001",,CUDDAPAH,CUDDAPAH,ANDHRA PRADESH
KVBL0001417,Karur Vysya Bank,KVBL0001417,530053002,VISAKHAPATNAM PEDAWALTAIR,"1-1-114/22  RAMALAKSHMI ESTATES,PEDAWALTAIR SHIVAJIPALEM ROAD,VISAKHAPATNAM-530",,VISAKHAPATNAM,VISHAKAPATNAM,ANDHRA PRADESH
KVBL0001418,Karur Vysya Bank,KVBL0001418,521053002,GUDIVADA,"P.B.NO. 18  9/309  R.K.COMPLEX,ELURU ROAD,GUDIVADA-521301",,GUDIVADA,KRISHNA,ANDHRA PRADESH
KVBL0001419,Karur Vysya Bank,KVBL0001419,734053002,PALAKOL,"P.B.NO.32 13-1-11/9  JETTY TANK ROAD,,PALAKOL-534260",,PALAKOL,WEST GODAVARI,ANDHRA PRADESH
KVBL0001420,Karur Vysya Bank,KVBL0001420,531053002,ANAKAPALLE,"P.B. NO. 22 ANAKAPALLE MERCHANTS,ASSOCIATION BUILDINGS SRI KANYAKAPARAMESWARI T",,ANAKAPALLE,VISHAKAPATNAM,ANDHRA PRADESH
KVBL0001421,Karur Vysya Bank,KVBL0001421,523053002,CHIRALA,"P.B. NO. 11  I FLOOR,NAVAYUGA COMPLEX R.R. ROAD,CHIRALA-523155",,CHIRALA,PRAKASAM,ANDHRA PRADESH
KVBL0001422,Karur Vysya Bank,KVBL0001422,823053002,ONGOLE,"37-1-172  KURNOOL ROAD,I FLOOR  SARAVANA COMPLEX,ONGOLE-523002",,ONGOLE,PRAKASAM,ANDHRA PRADESH
KVBL0001423,Karur Vysya Bank,KVBL0001423,915053002,HINDUPUR,"P.B.NO.21 16-1-25  M.F.ROAD,T.T.COMPLEX,HINDUPUR-515201",,HINDUPUR,ANANTPUR,ANDHRA PRADESH
KVBL0001424,Karur Vysya Bank,KVBL0001424,534053002,TADEPALLIGUDEM,"2-6-2/5 K.N.ROAD,,TADEPALLIGUDEM-534101",,TADEPALLIGUDEM,WEST GODAVARI,ANDHRA PRADESH
KVBL0001425,Karur Vysya Bank,KVBL0001425,520053099,VIJAYAWADA DO,"GAYATHRI NILIYAM, I FLOOR 38-8-46, LABBIPET M.G.ROAD, VIJAYAWADA-520010",,VIJAYAWADA,KRISHNA,ANDHRA PRADESH
KVBL0001426,Karur Vysya Bank,KVBL0001426,533053002,KAKINADA,"15 -26-1-15 16  TEMPLE STREET,,KAKINADA-533001",,KAKINADA,EAST GODAVARI,ANDHRA PRADESH
KVBL0001427,Karur Vysya Bank,KVBL0001427,735053002,NIDADAVOLE,"11-5-11/1  RANGA COMPLEX,BUS STAND ROAD,NIDADAVOLU-534301",,NIDADAVOLE,WEST GODAVARI,ANDHRA PRADESH
KVBL0001428,Karur Vysya Bank,KVBL0001428,733053002,PEDDAPURAM,"19-1-217  MAIN ROAD,,PEDDAPURAM-533437",,PEDDAPURAM,EAST GODAVARI,ANDHRA PRADESH
KVBL0001429,Karur Vysya Bank,KVBL0001429,736053002,JANGAREDDIGUDEM,"25-108/A  J.P.CENTRE,,JANGAREDDYGUDEM-534447",,JANGAREDDIGUDEM,WEST GODAVARI,ANDHRA PRADESH
KVBL0001430,Karur Vysya Bank,KVBL0001430,833053002,MANDAPETA,"9-1-6  KAPILESWARAPURAM ROAD,RATHAM CENTRE,MANDAPETA-533308",,MANDAPETA,EAST GODAVARI,ANDHRA PRADESH
KVBL0001431,Karur Vysya Bank,KVBL0001431,834053002,BHIMAVARAM,"NO. 17-6-1  I FLOOR,NEW RTC COMPLEX ROAD,BHIMAVARAM-534201",,BHIMAVARAM,WEST GODAVARI,ANDHRA PRADESH
KVBL0001432,Karur Vysya Bank,KVBL0001432,530053001,VISAKHAPATNAM MAIN,"D.NO. 30-15-166 HIRAWAT CENTRE,DABA GARDENS,VISAKHAPATNAM-530020",,VISAKHAPATNAM,VISHAKAPATNAM,ANDHRA PRADESH
KVBL0001433,Karur Vysya Bank,KVBL0001433,507053002,KHAMMAM,"9-7-52  IST FLOOR,SURYA COMPLEX KAMAN BAZAAR,KHAMMAM-507001",,KHAMMAM,KHAMMAM,ANDHRA PRADESH
KVBL0001434,Karur Vysya Bank,KVBL0001434,515053002,ANANTAPUR,"P.B. NO. 48 11/170  SUBASH ROAD,,ANANTAPUR-515001",,ANANTAPUR,ANANTPUR,ANDHRA PRADESH
KVBL0001435,Karur Vysya Bank,KVBL0001435,818053002,NANDYAL,"P.B.NO.23  PLOT NO.2.41 SRINIVASA NAGAR,MAIN ROAD,NANDYAL-518501",,NANDYAL,KURNOOL,ANDHRA PRADESH
KVBL0001436,Karur Vysya Bank,KVBL0001436,535053002,VIZIANGARAM,"P.B.NO.123 16-1-31 GROUND FLOOR,M.G.ROAD,VIZIANAGARAM-535002",,VIZIANAGARAM,VIZIANAGARAM,ANDHRA PRADESH
KVBL0001437,Karur Vysya Bank,KVBL0001437,520053202,TENALI,"P.B.NO. 22 2-20-5  NEHRU ROAD,GANDHI CHOWK,TENALI-522201",,TENALI,GUNTUR,ANDHRA PRADESH
KVBL0001438,Karur Vysya Bank,KVBL0001438,934053002,ELURU,"D.NO.228-5-28  NERELLA RAJAÆS BUILDING,KANUKOLARAIVARI STREET POWERPET,ELURU-53",,ELURU,WEST GODAVARI,ANDHRA PRADESH
KVBL0001439,Karur Vysya Bank,KVBL0001439,500053006,HYDERABAD NALLAKUNTA,"D.NO.2-2-647/A-3 SAI BABA NAGAR COLONY,SHIVAM ROAD NEW NALLAKUNTA,HYDERABAD-500",,HYDERABAD,HYDERABAD URBAN,ANDHRA PRADESH
KVBL0001440,Karur Vysya Bank,KVBL0001440,517053003,TIRUPATHI KHADHI COLONY,"18-3-53/11  KHADHI COLONY,SHANTHI NAGAR,TIRUPATHI-517501",,TIRUPATI,CHITTOR,ANDHRA PRADESH
KVBL0001441,Karur Vysya Bank,KVBL0001441,520053002,VIJAYAWADA BUNDER ROAD,"38-8-46  M.G.ROAD,LABBIPET,VIJAYAWADA-520010",,VIJAYAWADA,KRISHNA,ANDHRA PRADESH
KVBL0001442,Karur Vysya Bank,KVBL0001442,500053001,HYDERABAD CCO,"THE KARUR VYSYA BANK LTD, HYDERABAD CCO,1-2-597/2 LOWER TANK BUND ROAD,HYDERABAD,HYDERABAD-500029",,HYDERABAD,HYDERABAD URBAN,ANDHRA PRADESH
KVBL0001443,Karur Vysya Bank,KVBL0001443,500053007,HYDERABAD ABIDS,"5-9-208  ANAND COMPLEX,CHIRAG ALI LANE  ABIDS,HYDERABAD-500001",,HYDERABAD,HYDERABAD URBAN,ANDHRA PRADESH
KVBL0001445,Karur Vysya Bank,KVBL0001445,506053003,WARANGAL HANAMKONDA,"6-2-177 & 178  I FLOOR SAI KRISHNA COMPLEX,MAIN ROAD HANAMKONDA,WARANGAL-506001",,WARANGAL,WARANGAL,ANDHRA PRADESH
KVBL0001446,Karur Vysya Bank,KVBL0001446,500053005,HYDERABAD SRNAGAR,"ST.VINCENT HIGH SCHOOL,7-1-621/9  I FLOOR  SANJEEV REDDY NAGAR,HYDERABAD-500038",,HYDERABAD,HYDERABAD URBAN,ANDHRA PRADESH
KVBL0001448,Karur Vysya Bank,KVBL0001448,500053008,HYDERABAD KALYAN NAGAR,"132  1448  PLOT NO.20 KALYAN NAGAR,PHASE III BORA BANDA,HYDERABAD-500018",,HYDERABAD,HYDERABAD URBAN,ANDHRA PRADESH
KVBL0001449,Karur Vysya Bank,KVBL0001449,503053002,NIZAMABAD,"7-1-61/1-H RAM GOPAL STREET,GODOWN ROAD,NIZAMABAD-1",,NIZAMABAD,NIZAMABAD,ANDHRA PRADESH
KVBL0001450,Karur Vysya Bank,KVBL0001450,520053098,VIJAYAWADA CCO,"THE KARUR VYSYA BANK LTD, VIJAYAWADA CCO,27-16-81 BESANT ROAD,GOVERNORPET,VIJAYAWADA-520002",,VIJAYAWADA,KRISHNA,ANDHRA PRADESH
KVBL0001451,Karur Vysya Bank,KVBL0001451,500053009,HYDERABAD JUBILEE HILLS,"PRIYADARSHINI HOUSE, PLOT NO.227, RD NO.1, JUBILEE HILLS, HYDERABAD - 500033",,HYDERABAD,HYDERABAD URBAN,ANDHRA PRADESH
KVBL0001452,Karur Vysya Bank,KVBL0001452,505053002,KARIM NAGAR,"DOOR NO. 2-6-283 & 284,C.V.R.N. ROAD KARIM NAGAR,KARIM NAGAR DISTRICT-1",,KARIMNAGAR,KARIM NAGAR,ANDHRA PRADESH
KVBL0001453,Karur Vysya Bank,KVBL0001453,520053103,GUNTUR LAXMIPURAM,"5-87-2 MAIN ROAD BESIDES E-SEVA,LAXMIPURAM,GUNTUR-522007",,GUNTUR,GUNTUR,ANDHRA PRADESH
KVBL0001455,Karur Vysya Bank,KVBL0001455,500053000,HYDERABAD DO,"5-8-363 TO 365 IIND FLOOR, CHIRAG ALI LANE , ABIDS, HYDERABAD-500001",,HYDERABAD,HYDERABAD,ANDHRA PRADESH
KVBL0001456,Karur Vysya Bank,KVBL0001456,500053011,HYDERABAD DILSUKH NAGAR,"FLAT NO.G-789, GROUND FLOOR A BLOCK SRINAGAR COLONY, C B EASTERN HOMES DILSUKH NAGR, HYDERABAD-500060",,HYDERABAD,HYDERABAD URBAN,ANDHRA PRADESH
KVBL0001457,Karur Vysya Bank,KVBL0001457,718053002,ADONI,"20/28-10, BESIDE RAJASHRI HOTEL,RAILWAY STATION ROAD,ADONI, KURNOOL - 518301",,ADONI,KURNOOL,ANDHRA PRADESH
KVBL0001458,Karur Vysya Bank,KVBL0001458,532053002,SRIKAKULAM,"6-1-57&58,MURTHY NIVAS,PALAKONDA ROAD,NEAR KRISHNA PARK,SRIKAKULAM-532001",,SRIKAKULAM,SRIKAKULAM,ANDHRA PRADESH
KVBL0001459,Karur Vysya Bank,KVBL0001459,504053002,ADILABAD,"DOOR NO. 3-2-24, STATION ROAD, ADILABAD-504001",,ADILABAD,ADILABAD,ANDHRA PRADESH
KVBL0001460,Karur Vysya Bank,KVBL0001460,500053013,HYDERABAD MALKAJGIRI,"26-28CHANIKYAPURI COLONY ,SAFIGUDA , MALKAJGIRI HYDERABAD",,HYDERABAD,HYDERABAD URBAN,ANDHRA PRADESH
KVBL0001461,Karur Vysya Bank,KVBL0001461,500053012,HYDERABAD MANIKONDA,"PLOT NO.33 FRIENDS COLONY, NEAR SEVEN TOMBS BEHIND DREAM VALLEY, PUPPALAGUDA MANIKONDA, HYDERABAD-500075",,HYDERABAD,HYDERABAD URBAN,ANDHRA PRADESH
KVBL0001462,Karur Vysya Bank,KVBL0001462,520053005,KANIKAPADU,"D.NO 2-104,MAIN ROAD , KANKIPADU 521151",,KANKIPADU,KRISHNA,ANDHRA PRADESH
KVBL0001463,Karur Vysya Bank,KVBL0001463,520053004,PORANKI,"NO 13-146 MG ROAD PORANKI CENTRE , PENAMALURU MANDALAM , PORANKI",,PORANKI,KRISHNA,ANDHRA PRADESH
KVBL0001464,Karur Vysya Bank,KVBL0001464,NON-MICR,RAVULAPALEM,"MUDUNURI SURAPARAJU COMPLEX, NH 5 ROAD, RAVULAPALEM-533238 PH - 08855 255466",,RAVULAPALEM,EAST GODAVARI,ANDHRA PRADESH
KVBL0001465,Karur Vysya Bank,KVBL0001465,500053014,HYDERABAD AS RAO NAGAR,"PLOT NO 1,2 PARGATHI NAGAR (KAPRA , HYDERABAD ,500032",,HYDERABAD,HYDERABAD URBAN,ANDHRA PRADESH
KVBL0001466,Karur Vysya Bank,KVBL0001466,500053016,HYDERABAD PARAGATHI NAGAR,"PLOT NO. 1256 & 1259, "" SATYABHAMA SRINILAYAM"", PRAGATHI NAGAR OPP: KUKATPALLY J.N.T.U. LANE, HYDERABAD-500 072.",,HYDERABAD,HYDERABAD URBAN,ANDHRA PRADESH
KVBL0001467,Karur Vysya Bank,KVBL0001467,500053015,KUKATPALLY,"M I G - 190, IKON MANOR, K P H B COLONY, HYDERABAD-500072",,KUKATPALLY,RANGA REDDY,ANDHRA PRADESH
KVBL0001468,Karur Vysya Bank,KVBL0001468,821053402,MACHILIPATNAM,"D.NO.11/304, SIVALAYAM STREET, CHEMMANAGIRIPET, MACHILIPATNAM-521001",,MACHILIPATNAM,KRISHNA,ANDHRA PRADESH
KVBL0001469,Karur Vysya Bank,KVBL0001469,508053302,KODADA,"NEAR HUZURNAGAR CROSS ROAD, NH-9, KODADA-508206",,KODADA,KRISHNA,ANDHRA PRADESH
KVBL0001470,Karur Vysya Bank,KVBL0001470,NON MICR,KADIAM,"D NO 114/3, HIGH SCHOOL ROAD, KADIYAM, KADIYAM-533126",,KADIAM,EAST GODAVARI,ANDHRA PRADESH
KVBL0001471,Karur Vysya Bank,KVBL0001471,500053016,BODUPPAL,"PLOT NO 2 GOVIND TOWERS, EAST HANUMAN NAGAR OPP HANUMAN TEMPLE, BODUPPAL MAIN ROAD, BODUPPAL-500039",,BODUPPAL,RANGA REDDY,ANDHRA PRADESH
KVBL0001472,Karur Vysya Bank,KVBL0001472,530053003,VISAKHAPATNAM-GAJUWAKA,"D NO 8-13-1, RAVI SHANKAR ARCADE, NH-5 OLD GAJUWAKA, VISAKHAPATNAM-530 026",,GAJUWAKA,VISHAKAPATNAM,ANDHRA PRADESH
KVBL0001473,Karur Vysya Bank,KVBL0001473,517053702,KUPPAM,"D.NO: 14-113/11 & 14-105/1, VAJRAVEL CHETTY STREET , KUPPAM",,KUPPAM,CHITTOOR,ANDHRA PRADESH
KVBL0001474,Karur Vysya Bank,KVBL0001474,500053018,HYDERABAD - NIZAMPET,"PLOT NO: 21 AND 22 SY NO: 254, GOKUL CLASSIC NIZAMPET VILLAGE, QUTHBULLAPUR MANDALR.R.DISTRICT, HYDERABAD-500090",,HYDERABAD,HYDERABAD,ANDHRA PRADESH
KVBL0001476,Karur Vysya Bank,KVBL0001476,500053019,HYDERABAD - HIMAYAT NAGAR,"D NO 3-5-927, OPP TO CHAITANYA COLLEGE MAIN ROAD, HIMAYAT NAGAR, HYDERABAD-500 029",,HYDERABAD,HYDERABAD,ANDHRA PRADESH
KVBL0001477,Karur Vysya Bank,KVBL0001477,522053602,NARASARAOPET,"D.NO: 9-10-5, BANK STREET, ARUNDEL PET, NARASARAOPET-522 601",,NARASARAOPET,BANGALORE RURAL,KARNATAKA
KVBL0001478,Karur Vysya Bank,KVBL0001478,930053302,AMALAPURAM,"DNO.3-2-136/1 AND 2 WARD NO.24, K N F ROAD , COLLEGE ROAD, AMALAPURAM,EAST GODAVARI DIST-533201",,AMALAPURAM,EAST GODAVARI,ANDHRA PRADESH
KVBL0001479,Karur Vysya Bank,KVBL0001479,539053202,SALUR,"D NO 28-6-335, MAIN ROAD, SALUR, SALUR-535591",,SALUR,VIZIANAGARAM,ANDHRA PRADESH
KVBL0001480,Karur Vysya Bank,KVBL0001480,500053020,HYDERABAD - MEHADIPATNAM,"NO 12-2-799/8 ZAMA APARTMENTS,RATHI BOWLI, GUDI MALKAPUR PVR FLYOVER ,PILLAR NO . 26, MEHDIPATNAM, HYDERABAD-500028",,HYDERABAD,HYDERABAD,ANDHRA PRADESH
KVBL0001481,Karur Vysya Bank,KVBL0001481,500053021,HYDERABAD - MEERPET,"GROUND FLOOR S.NO.52 D-NO 4-202 TEEGALA RAM REDDY COLLEGE OF PHARMACY, BLOCK II MEERPET SAROOR NAGAR MANDAL",,HYDERABAD,HYDERABAD,ANDHRA PRADESH
KVBL0001482,Karur Vysya Bank,KVBL0001482,500053023,HYDERABAD - CHANDANAGAR,"D NO 4-84FIRST FLOOR OPP. SWAGATH HOTEL, CHANDANAGAR SERILINGAMPALLI MANDAL, RANGA REDDY DISTRICT, HYDERABAD",,HYDERABAD,HYDERABAD,ANDHRA PRADESH
KVBL0001483,Karur Vysya Bank,KVBL0001483,500053024,HYDERABAD - HABSIGUDA,"D NO 1-3-20 SAIBABA MANSION, HABSIGUDA MAIN ROAD , HABSIGUDA, HYDERABAD-500007",,HYDERABAD,HYDERABAD,ANDHRA PRADESH
KVBL0001484,Karur Vysya Bank,KVBL0001484,500053022,HYDERABAD - MIYAPUR,"PLOT NOS.46 TO 49, MADHAVA NAGAR COLONY KANDI COMPLEX, NEAR SAI RANGA THEATRE MIYAPUR, HYDERABAD-500049",,HYDERABAD,HYDERABAD,ANDHRA PRADESH
KVBL0001485,Karur Vysya Bank,KVBL0001485,432053152,RAJAM,"OPP VASAVI NURSING HOUSE, SRIKAKULAM ROAD, RAJAM, SRIKAKULAM-532127",,RAJAM,SRIKAKULAM,ANDHRA PRADESH
KVBL0001486,Karur Vysya Bank,KVBL0001486,532053102,PALASA,"PALASA CASHEW  MANUFACTURES ASSOCIATION BULG,INDIRA CHOWK, MAIN ROAD",,PALASA,SRIKAKULAM,ANDHRA PRADESH
KVBL0001487,Karur Vysya Bank,KVBL0001487,NONMICR,VUYYURU,"D.NO.8-151/1,GROUND FLOOR,OPP CHAITANYA TECHNO SCHOOL,KATURU ROAD,VUYYURU,VUYYURU,ANDHRA PRADESH,521165",,VUYYURU,KRISHNA,ANDHRA PRADESH
KVBL0001488,Karur Vysya Bank,KVBL0001488,NONMICR,D.O - VISAKHAPATNAM,"DIVISIONAL OFFICE. FIRST FLOOR, D.NO: 30-10-1 PIDAPARTHI VARI STREET, DABA GARDENS, VISAKHAPATNAM-530 020",,VISAKHAPATNAM,VISHAKHAPATNAM,ANDHRA PRADESH
KVBL0001489,Karur Vysya Bank,KVBL0001489,500053026,HYDERABAD-VANASTHALIPURAM,"GROUND FLOOR,SAKETH PLAZA,BLOCK NO.5 IN PRASANTH NAGAR,VANASTHALIPURAM,HYDERABAD,VANASTHALIPURAM,HYDERABAD,ANDHRA PRADESH,500070",,HYDERABAD,HYDERABAD,ANDHRA PRADESH
KVBL0001490,Karur Vysya Bank,KVBL0001490,500053025,HYDERABAD – AMEERPET,"H.NO.8-3-945, SHOP NO. G1, CHERMAS LANE, AMEERPET, HYDERABAD – 73.",,HYDERABAD,HYDERABAD,ANDHRA PRADESH
KVBL0001491,Karur Vysya Bank,KVBL0001491,NONMICR,MIRYALGUDA,"H.NO 18 -1634, HANUMANPET SAGAR ROAD, MIRYALAGUDA, NALGONDA - 508207",,MIRYALGUDA,NALGONDA,ANDHRA PRADESH
KVBL0001492,Karur Vysya Bank,KVBL0001492,NONMICR,BAPATLA,"NO 10-2-134, GBC ROAD, OLD BUS STAND CENTRE, BAPATLA - 522101",,BAPATLA,GUNTUR,ANDHRA PRADESH
KVBL0001493,Karur Vysya Bank,KVBL0001493,NONMICR,TUNI,"SURVEY NO : 268/22, 1 A3,BALAJI ROAD,TUNI - 533 401",,TUNI,EAST GODAVARI,ANDHRA PRADESH
KVBL0001494,Karur Vysya Bank,KVBL0001494,NON MICR,BHAVANIPURAM,"D.NO: 76-7-18 & 76-8-1,SWATHI ROAD,BHAVANIPURAM,VIJAYAWADA - 520 012 KRISHNA DIST",,BHAVANIPURAM,KRISHNA,ANDHRA PRADESH
KVBL0001495,Karur Vysya Bank,KVBL0001495,NONMICR,PARVATHIPURAM,"S.NO:425/4P, WARD NO:14, BESIDE MORE DEPARTMENTAL STORES, OPP: A P G V BANK, MAIN ROAD, PARVATHIPURAM – 535 502., VIZIANAGARAM DT",,PARVATHIPURAM,VIZIANAGARAM,ANDHRA PRADESH
KVBL0001496,Karur Vysya Bank,KVBL0001496,NONMICR,KAVALI,"D.NO. 3-12-100, FIVE LAMP CENTRE, G.T. ROAD, KAVALI – 524201. NELLORE DIST",,KAVALI,NELLORE,ANDHRA PRADESH
KVBL0001497,Karur Vysya Bank,KVBL0001497,NON MICR,BOBBILI,"D.NO.11-65& 11-66/1 AND 11-66/2,WARD NO.3,VAISHNAVA ST,BOBBILI",,BOBBILI,VIZIANAGARAM,ANDHRA PRADESH
KVBL0001498,Karur Vysya Bank,KVBL0001498,NON MICR,HYDERABAD - SANTHOSH NAGAR,"PLOT NO. 9-6-195/1/1,SANTOSH NAGAR MAIN ROAD, NEAR TO YADAGIRI CINEMA TALKIES ,SANTOSH NAGAR ,HYDERABAD.A.P.",,HYDERABAD,HYDERABAD,ANDHRA PRADESH
KVBL0001499,Karur Vysya Bank,KVBL0001499,NONMICR,KURNOOL – VENKATARAMANA COLONY,"DOOR NO : 45/503/A1-A, ASHOK NAGAR, VENKATA RAMANA COLONY, KURNOOL - 518003",,KURNOOL,KURNOOL,ANDHRA PRADESH
KVBL0001500,Karur Vysya Bank,KVBL0001500,NON MICR,MADANAPALLE,"D.NO: 9-151,152,153,154,KAMMA STREET,OPP READING ROOM STREET,MADANAPALLE - 517 325 CHITTOOR DIST",,MADANAPALLE,CHITTOOR,ANDHRA PRADESH
KVBL0001501,Karur Vysya Bank,KVBL0001501,673053002,KOZHIKODE,"P.B. NO. 33 11/128  PROMOD BUILDINGS,GROUND. FLOOR CHEROOTY ROAD,KOZHIKODE-6730",,CALICUT,KOZHIKODE,KERALA
KVBL0001502,Karur Vysya Bank,KVBL0001502,695053002,THIRUVANANTHAPURAM,"TC  25/1437  S.S.KOIL ROAD,THAMPANOOR,THIRUVANANTHAPURAM-695001",,THIRUVANANTHAPURAM,TRIVANDRUM,KERALA
KVBL0001503,Karur Vysya Bank,KVBL0001503,682053002,ERNAKULAM,"P.B.NO.1704 40/1045C  I FLOOR,AMIRTHA TOWERS CONGRESS HOUSE JUNCTION,ERNAKULAM-",,KOCHI,ERNAKULAM,KERALA
KVBL0001504,Karur Vysya Bank,KVBL0001504,689053002,CHENGANNUR,"P.B. NO. 50  XIX/836  CMC,M.C.ROAD,CHENGANNUR-689121",,CHENGANNUR,ALAPUZZHA,KERALA
KVBL0001505,Karur Vysya Bank,KVBL0001505,686053002,KOTTAYAM,"P.B. NO. 158  VIII/93  M.C. ROAD,BAKER JN.,KOTTAYAM-686001",,KOTTAYAM,KOTTAYAM,KERALA
KVBL0001506,Karur Vysya Bank,KVBL0001506,691053002,KOLLAM,"P.B.NO.371 XVII/2516 MOHANÆS ENTERPRISES BUILDING,I FLOOR  MAIN ROAD,KOLLAM-691",,KOLLAM,KOLLAM,KERALA
KVBL0001507,Karur Vysya Bank,KVBL0001507,680053002,THRISSUR,"P.B.NO 171 NO. 25/1530  SMIS COMPLEX,KURUPPAM ROAD,THRISSUR-680001",,THRISSUR,TRISSUR,KERALA
KVBL0001509,Karur Vysya Bank,KVBL0001509,678053001,PALAKKAD,"KRISHNA TOWERS, S.NO 2851/ WARD NO 2 BLOCK NO 68,VELLAN STREET, SULTANPET,PALAG",,PALAKKAD,PALAKKAD,KERALA
KVBL0001510,Karur Vysya Bank,KVBL0001510,989053002,TIRUVALLA,"RELISH TOWERS GROUND FLOOR, S.C.S JUNCTION M.C ROAD, TIRUVALLA-689101, TIRUVALLA-689101",,THIRUVALLA,PATHANAMTHITTA,KERALA
KVBL0001511,Karur Vysya Bank,KVBL0001511,NON MICR,EDAPALLY,"JACOB BUILDING,SURVEY NO. 696/6, 696/7,TOLL JUNCTION (NEAR CITY SILKS) EDAPALLI, ERNAKULAM – 682 021",,EDAPALLY,ERNAKULAM,KERALA
KVBL0001512,Karur Vysya Bank,KVBL0001512,NON MICR,TRIPUNITHURA,"PARAMESHWARA ENCLAVE,S N JUNCTION,VAIKOM RD, THRIPUNITHURA,ERNAKULAM-628 301",,TRIPPUNITHURA,ERNAKULAM,KERALA
KVBL0001513,Karur Vysya Bank,KVBL0001513,NON MICR,PATHANAMTHITTA,"BUILDING NO.887/09-10,ST. PETERS JUNCTION, TK ROAD, PATHANAMTHITTA",,PATHANAMTHITTA,PATHANAMTHITTA,KERALA
KVBL0001601,Karur Vysya Bank,KVBL0001601,638053001,ERODE CCO,"24. 1ST FLOOR, MUTHURANGAM STREET, ERODE, ERODE-638002",,ERODE,ERODE,TAMIL NADU
KVBL0001602,Karur Vysya Bank,KVBL0001602,620053007,SURIYUR,"NEW ACADEMIC BLOCK, ANNA UNIVERSITY TRICHY CAMPUS, SURIYUR, TIRUCHIRAPALLI-620024",,SURIYUR,TIRUCHIORAPPALLI,TAMIL NADU
KVBL0001603,Karur Vysya Bank,KVBL0001603,804053002,GINGEE,"230-231, TIRUVANNAMALAI ROAD, NEAR TAMIL THIRUMAGAL THIRUMANA MANDABAM, GINGEE - 604202.",,GINGEE,VILLUPURAM,TAMIL NADU
KVBL0001604,Karur Vysya Bank,KVBL0001604,NONMICR,CHENNAI CLPC,"SOUTHWING FIRST FLOOR, NO.37 WHITES ROAD, CHENNAI-600014",,CHENNAI,CHENNAI,TAMIL NADU
KVBL0001605,Karur Vysya Bank,KVBL0001605,641053010,COIMBATORE VADAVALLI,"R.K COMPLEX, 3/35-A MARUTHAMALAI MAIN ROAD, VADAVALLI, COIMBATORE-641 041",,COIMBATORE,COIMBOTORE,TAMIL NADU
KVBL0001606,Karur Vysya Bank,KVBL0001606,906053102,KALLAKURICHI,"NO 11, KUTCHEERY ROAD, KALLAKURICHI - 606 202,VILLUPURAM DISTRICT",,KALLAKURICHI,VILLUPURAM,TAMIL NADU
KVBL0001607,Karur Vysya Bank,KVBL0001607,740053002,HOSUR,"S.N0 688(P), BYE PASS ROAD, HOSUR, KRISHNAGIRI DISTRICT 635 109",,HOSUR,KRISHNAGIRI,TAMIL NADU
KVBL0001608,Karur Vysya Bank,KVBL0001608,625053006,MADURAI ANNA NAGAR,"HIG 42 (EIGHTY FEET ROAD), NEAR SUGUNA STORES, ANNANAGAR, MADURAI-625 020",,MADURAI,MADURAI,TAMIL NADU
KVBL0001609,Karur Vysya Bank,KVBL0001609,808053002,CHEYYAR,"NO. 43/7, ARCOT ROAD, (NEAR GOVT. HOSPITAL), CHEYYAR - 604 407",,TIRUVATTIPURAM(CHEYYAR),TIRUVANNAMALAI,TAMIL NADU
KVBL0001610,Karur Vysya Bank,KVBL0001610,600053037,CHENNAI MEDAVAKKAM,"248/1 A MEDAVAKKAM KOOT ROAD, NEAR IOC PETROL BUNK, VELACHERY TAMBARAM MAIN ROAD, CHENNAI-600100",,CHENNAI,CHENNAI,TAMIL NADU
KVBL0001611,Karur Vysya Bank,KVBL0001611,610053002,THIRUVARUR,"19A EAST STREET, ., TIRUVARUR-610001",,TIRUVARUR,TIRUVARUR,TAMIL NADU
KVBL0001612,Karur Vysya Bank,KVBL0001612,NON MICR,COCC CHENNAI,"NO. 37, I FLOOR, WHITES ROAD,CHENNAI - 600 014",,CHENNAI,CHENNAI,TAMIL NADU
KVBL0001613,Karur Vysya Bank,KVBL0001613,436053102,DHARMAPURI,"NO.90-91 NETHAJI BYE-PASS ROAD, OPPOSITE TO HOTEL ADHIYAMAN PALACE, DHARMAPURI, -636701",,DHARMAPURI,DHARMAPURI,TAMIL NADU
KVBL0001614,Karur Vysya Bank,KVBL0001614,600053042,CHENNAI - MADIPAKKAM,"NO.37/8, GOVINDH COMPLEX,GROUND FLOOR, MEDAVAKKAM MAIN ROAD,MADIPAKKAM,CHENNAI - 600 091",,CHENNAI,CHENNAI,TAMIL NADU
KVBL0001615,Karur Vysya Bank,KVBL0001615,NONMICR,CHENNAI TAX CELL,"37 I FLOOR, WHITES ROAD, CHENNAI-600 014",,CHENNAI,CHENNAI,TAMIL NADU
KVBL0001616,Karur Vysya Bank,KVBL0001616,600053038,CHENNAI KK NAGAR,"PLOT NO 777 DO NO :9, MUNUSAMY SALAI ( NEAR PONDICHERRY GUEST HOUSE), K K NAGAR WEST, CHENNAI-600078",,CHENNAI,CHENNAI,TAMIL NADU
KVBL0001617,Karur Vysya Bank,KVBL0001617,600053039,CHENNAI - SELAIYUR,"85, VELACHERY MAIN ROAD ,NEXT TO IOC PETROL BUNK,RAJAKILPAKAM,CHENNAI - 600 073.",,CHENNAI,CHENNAI,TAMIL NADU
KVBL0001619,Karur Vysya Bank,KVBL0001619,638053018,VEERAPPANCHATIRAM,"173/2 SATHY MAIN ROAD, NEAR GOVT GIRLS HIGHER SECONDARY SCHOOL, VEERAPPANCHATIRAM, ERODE-638004",,VEERAPPAN CHATRAM,ERODE,TAMIL NADU
KVBL0001620,Karur Vysya Bank,KVBL0001620,641053011,COIMBATORE - RAMANATHAPURAM,"D.NO.753TRICHY ROAD , NEAR IYYAPPAN TEMPLE, RAMANATHAPURAM , COIMBATORE-641045",,COIMBATORE,COIMBATORE,TAMIL NADU
KVBL0001621,Karur Vysya Bank,KVBL0001621,600053041,CHENNAI - PALAVAKKAM,"1/180 SENTHUR COMPLEX, ANNA SALAI, PALAVAKKAM CHENNAI, CHENNAI-600041",,CHENNAI,CHENNAI,TAMIL NADU
KVBL0001622,Karur Vysya Bank,KVBL0001622,636053008,RASIPURAM,"197BIG BAZAAR STREET, RASIPURAM, NAMAKKAL DT.-637408",,RASIPURAM,NAMAKKAL,TAMIL NADU
KVBL0001623,Karur Vysya Bank,KVBL0001623,614053102,PATTUKOTTAI,"148/6 BIG STREET , PATTUKKOTTAI , THANJAVUR DISTRICT , -614 601",,PATTUKOTTAI,THANJAVUR,TAMIL NADU
KVBL0001624,Karur Vysya Bank,KVBL0001624,620053009,TIRUCHY - TIRUVERUMBUR,"2A, MULLAIVASAL,TRICHY - THANJAVUR MAIN ROAD,TIRUVERUMBUR,TRICHY - 620 013.",,THIRUVERAMBUR,TIRUCHIRAPALLI,TAMIL NADU
KVBL0001625,Karur Vysya Bank,KVBL0001625,621053002,PERAMBALUR,"VENKATESAPURAM COLONY ,TIRUCHY MAIN ROAD,PERAMBALUR",,PERAMBALUR,PERAMBALUR,TAMIL NADU
KVBL0001626,Karur Vysya Bank,KVBL0001626,625053007,MADURAI - PALANGANATHAM,"67-68 TIRUPARANKUNDRAM ROAD, VASANTHA NAGAR NEAR AGRINI APARTMENTS, PALANGANATHAM, MADURAI-625003",,MADURAI,MADURAI,TAMIL NADU
KVBL0001627,Karur Vysya Bank,KVBL0001627,624053501,ODDANCHATRAM,"369/10 DHARAPURAM ROAD, NEAR SRIKARTHI THEATER,ODDANCHATRAM, 624619",,ODDANCHATRAM,DINDIGUL,TAMIL NADU
KVBL0001628,Karur Vysya Bank,KVBL0001628,641053013,ANNUR,"SF NO: 350/ 1 B, AVINASHI ROAD, ANNUR 641653",,ANNUR,COIMBATORE,TAMIL NADU
KVBL0001629,Karur Vysya Bank,KVBL0001629,600053044,CHENNAI - PORUR,"NO: 65/1, KUNDRATHUR ROAD, MADANANDAPURAM, PORUR, CHENNAI-600116 ",,CHENNAI,CHENNAI,TAMIL NADU
KVBL0001630,Karur Vysya Bank,KVBL0001630,636053009,JALAKANDAPURAM,"75 & 76, THARAMANGALAM MAIN ROAD,JALAKANDAPURAM,PIN 636501",,JALAKANTAPURAM,SALEM,TAMIL NADU
KVBL0001631,Karur Vysya Bank,KVBL0001631,639053008,KARUR - VENGAMEDU,"433 SALEM MAIN ROAD, VENGAMEDU, KARUR-639006",,VENGAMEDU,KARUR,TAMIL NADU
KVBL0001632,Karur Vysya Bank,KVBL0001632,600053043,CHENGALPATTU,"NO 17 DR.VARADARAJAN STREET, VEDACHALAM NAGAR, CHENGALPATTU-603001",,CHENGALPATTU,KANCHEEPURAM,TAMIL NADU
KVBL0001633,Karur Vysya Bank,KVBL0001633,NONMICR,CHENGAM,"NEW NO,224 OLD NO,32/B,RAJA STREET,TIRUVANNAMALAI DT,CHENGAM-606701.",,CHENGAM,TIRUVANNAMALAI,TAMIL NADU
KVBL0001634,Karur Vysya Bank,KVBL0001634,722053002,ARIYALUR,"NO 25 D , MELA AGRAHARAM STREET, TRICHY MAIN ROAD, ARIYALUR-621704",,ARIYALUR,VILLUPURAM,TAMIL NADU
KVBL0001635,Karur Vysya Bank,KVBL0001635,620053010,TRICHY - SRINIVASA NAGAR,"SRINIVASA NAGAR BRANCH ,NO. 66 1D, KUMARAN NAGAR,VAYALUR MAIN ROAD,TRICHY - 620017.",,TIRUCHIRAPPALLI,TIRUCHIRAPALLI,TAMIL NADU
KVBL0001636,Karur Vysya Bank,KVBL0001636,627053007,SANKARANKOIL,"191A/266RAJAPALAYAM MAIN ROAD, SANKARANKOIL, SANKARANKOIL-627756",,SANKARANKOIL,TIRUNELVALI,TAMIL NADU
KVBL0001637,Karur Vysya Bank,KVBL0001637,635053102,TIRUPATHUR,"NO.2/15 PUDUPET ROAD,VELLORE DIST,TIRUPATTUR-635 601.",,TIRUPATTUR,VELLORE,TAMIL NADU
KVBL0001638,Karur Vysya Bank,KVBL0001638,NONMICR,ARAVAKURICHI,"NO 28/1, DHARAPURAM ROAD,OPP TO BUS STAND,ARAVAKURICHI,KARUR – 639201.",,ARAVAKURICHI,KARUR,TAMIL NADU
KVBL0001639,Karur Vysya Bank,KVBL0001639,605053009,CCO - PONDICHERRY,"NO 74 THYAGARAJA STREET, FIRST FLOOR , PONDICHERRY 605001",,PONDICHERRY,PONDICHERRY,PONDICHERRY
KVBL0001640,Karur Vysya Bank,KVBL0001640,600053009,KARUR THANTHONIMALAI,"NO 520 C, DINDIGUL ROAD,OPP THANTHONIMALAI TEMPLE,THANTHONIMALAI,KARUR",,KARUR,KARUR,TAMIL NADU
KVBL0001641,Karur Vysya Bank,KVBL0001641,638053019,CHENNIMALAI,"NO.12 ARUNAGIRINATHAR STREET, NEAR BUS STAND, CHENNIMALAI, ERODE",,CHENNIMALAI,ERODE,TAMIL NADU
KVBL0001642,Karur Vysya Bank,KVBL0001642,638053020,ANTHIYUR,"294, BHAVANI ROAD, ANTHIYUR, ERODE DT – 638 501",,ANTHIYUR,ERODE,TAMIL NADU
KVBL0001643,Karur Vysya Bank,KVBL0001643,NON MICR,AVINASHI,"NEW NO - 5/129,OLD NO. 2/39, B.S SUNDHARAM ST, AVINASHI - 641 654, TIRUPUR DIST.",,AVANASHI,COIMBATORE,TAMIL NADU
KVBL0001644,Karur Vysya Bank,KVBL0001644,NONMICR,PARAMATHI VELUR,"D.NO:311 B, OLD BY PASS ROAD, OPP: K.K. MATRICULATION HIGHER SECONDARY SCHOOL, PARAMATHY VELUR.",,PARAMATHI,NAMAKKAL,TAMIL NADU
KVBL0001645,Karur Vysya Bank,KVBL0001645,NONMICR,PANRUTI,"NO: 5/2,SRI RAMACHANDRA COMPLEX,OPP:BUS STAND,CUDDALORE ROAD,PANRUTI,PANRUTI,TAMIL NADU,607106",,PANRUTI,CUDDALORE,TAMIL NADU
KVBL0001646,Karur Vysya Bank,KVBL0001646,NON MICR,THURAIYUR,"SF. 235/7B, THURAIYUR _ TRICHY MAIN ROAD, THURAIYUR TK, THURAIYUR – 621010, TRICHY DT ",,TURAIYUR,TIRUCHIRAPALLI,TAMIL NADU
KVBL0001647,Karur Vysya Bank,KVBL0001647,620053011,MANAPPARAI,"77-G, MADURAI ROAD, KANKANIAR PETTAI, MANAPPARAI – 621 306",,MANAPPARAI,TIRUCHIRAPALLI,TAMIL NADU
KVBL0001648,Karur Vysya Bank,KVBL0001648,NONMICR,MANNARGUDI,"D.NO:236, GANDHI ROAD, MANNARGUDI, TIRUVARUR DT",,MANNARGUDI,THIRUVARUR,TAMIL NADU
KVBL0001649,Karur Vysya Bank,KVBL0001649,641053014,COIMBATORE – KUNIAMUTHUR,"8/450 A, PALAKKAD MAIN ROAD, KUNIYAMUTHUR, COIMBATORE – 641 008",,KUNIAMUTHUR,COIMBATORE,TAMIL NADU
KVBL0001650,Karur Vysya Bank,KVBL0001650,600053045,CHENNAI - PALLAVARAM,"66C, PAMMAL MAIN ROAD,PALLAVARAM,CHENNAI – 600 043. ",,CHENNAI,CHENNAI,TAMIL NADU
KVBL0001651,Karur Vysya Bank,KVBL0001651,600053046,CHENNAI - SAIDAPET,"NEW NO.22/2, POTTERS STREET,SAIDAPET,CHENNAI,CHENNAI,TAMIL NADU,600015",,CHENNAI,CHENNAI,TAMIL NADU
KVBL0001652,Karur Vysya Bank,KVBL0001652,NONMICR,MELUR,"NO1 SSV SALAI ,MELUR,TAMIL NADU,625106",,MELUR,MADURAI,TAMIL NADU
KVBL0001653,Karur Vysya Bank,KVBL0001653,636053017,SALEM - GUGAI,"445 TIRUCHY MAIN ROAD GUGAI,SALEM,TAMIL NADU,636006",,SALEM,SALEM,TAMIL NADU
KVBL0001654,Karur Vysya Bank,KVBL0001654,NONMICR,PALLIPALAYAM,"NO. 2, SANGAKIRI BYE PASS ROAD, PALLIPALAYAM – 638 006 TIRUCHENGODE TALUK, NAMAKKAL DT",,PALLIPALAYAM,ERODE,TAMIL NADU
KVBL0001655,Karur Vysya Bank,KVBL0001655,625053009,THIRUNAGAR,"133, GST ROAD, THIRUNAGAR 1ST STOP, THIRUNAGAR, MADURAI – 625 006",,MADURAI,MADURAI,TAMIL NADU
KVBL0001656,Karur Vysya Bank,KVBL0001656,625053009,PARAMAKUDI,"NO. 6/262C, RAILWAY FEEDER ROAD ,NSC BOSE ROAD,PARAMKUDI 623707",,PARAMAGUDI,RAMANATHAPURAM,TAMIL NADU
KVBL0001657,Karur Vysya Bank,KVBL0001657,600053047,CHENNAI - GUDUVANCHERRY,"NO 29, LAKSHMI NAGAR, I FLOOR,GUDUVANCHERRY,CHENNAI – 603 202.",,CHENNAI,CHENNAI,TAMIL NADU
KVBL0001658,Karur Vysya Bank,KVBL0001658,625053008,AMBASAMUDRAM,"58, SANJEEVI VILAS COMPOUND, TILAKAPURAM MAIN ROAD, AMBASAMUDRAM – 627 401 ",,AMBASAMUDRAM,TIRUNELVALI,TAMIL NADU
KVBL0001659,Karur Vysya Bank,KVBL0001659,641053015,METTUPALAYAM,"NO. 4, RAILWAY STATION ROAD,KRG COMPLEX,METTUPALAYAM  641 301 ",,METTUPALAYAM,COIMBATORE,TAMIL NADU
KVBL0001660,Karur Vysya Bank,KVBL0001660,NONMICR,COIMBATORE - AVINASHI ROAD,"1391 E, 1391 F, 1393/1,AVINASHI ROAD,PEELAMEDU,COIMBATORE-641 004",,MADURAI,MADURAI,TAMIL NADU
KVBL0001661,Karur Vysya Bank,KVBL0001661,NON MICR,KARUMANDAPAM,"6/9, GROUND FLOOR,JAYANAGAR II STREET,KARUMANDAPAM,TRICHY – 620 001.",,TIRUCHIRAPPALLI,TIRUCHIRAPALLI,TAMIL NADU
KVBL0001662,Karur Vysya Bank,KVBL0001662,NON MICR,COIMBATORE - KALAPATTI,"13/76 A,SITRA ROAD, NEHRU NAGAR, CIVIL AERODROME POST, KALAPATTI, COIMBATORE - 641014.",,KALAPATTI,COIMBATORE,TAMIL NADU
KVBL0001663,Karur Vysya Bank,KVBL0001663,600053048,SITHALAPAKKAM,"NO 2/970 A , OTTIYAMBAKKAM MAIN ROAD, SITHALAPAKKAM , CHENNAI 600126",,CHENNAI,CHENNAI,TAMIL NADU
KVBL0001664,Karur Vysya Bank,KVBL0001664,NON MICR,CHENNAI RED HILLS,"5/2, SRI SUBHASANI COMPLEX,VALLALAR STREET,KAMARAJ NAGAR, REDHILLS, CHENNAI - 600052",,CHENNAI,CHENNAI,TAMIL NADU
KVBL0001665,Karur Vysya Bank,KVBL0001665,NONMICR,SULUR,"5 J,TRICHY RD,NEAR KANNAN DEPT STORE,SULUR",,SULUR,COIMBATORE,TAMIL NADU
KVBL0001666,Karur Vysya Bank,KVBL0001666,NONMICR,THIRUPPALAI,"NO. 1/44, TWAD BOARD,THIRD COLONY,THIRUPPALAI,MADURAI - 625 014",,COIMBATORE,COIMBATORE,TAMIL NADU
KVBL0001667,Karur Vysya Bank,KVBL0001667,NON MICR,AYOTHIAPATTINAM,"VENGAI COMPLEX,ATTUR MAIN ROAD,OPP.JAYALAKSHMI NURSING HOME,SALEM",,SALEM,SALEM,TAMIL NADU
KVBL0001668,Karur Vysya Bank,KVBL0001668,NON MICR,ARAKKONAM,"ARAKKONAM,NO.208,5TH GANDHI ROAD,SUVALPET  ARAKKONAM,631001",,ARKONAM,VELLORE,TAMIL NADU
KVBL0001669,Karur Vysya Bank,KVBL0001669,NON MICR,THAMMAMPATTI,"THAMMAMPATTI,14/166, MIDDLE STREET,THAMMAMPATTI,636113",,TAMAPATTI,SALEM,TAMIL NADU
KVBL0002101,Karur Vysya Bank,KVBL0002101,400053002,MUMBAI FORT,"P.B.NO. 1414 KAMANWALA CHAMBERS,SIR. P.M.ROAD  FORT,MUMBAI-400001",,MUMBAI,GREATER MUMBAI,MAHARASHTRA
KVBL0002102,Karur Vysya Bank,KVBL0002102,400053003,VASHI NAVI MUMBAI,"E-40 A.P.M.C. MARKET- I,PHASE- II  VASHI,NAVIMUMBAI-400705",,NEW MUMBAI,THANE,MAHARASHTRA
KVBL0002103,Karur Vysya Bank,KVBL0002103,411053002,PUNE,"BAKRE APARTMENTS,BUILDING NO 5 NEAR SIVAJI CHOWK KOTHRUD,PUNE-411038",,PUNE,PUNE,MAHARASHTRA
KVBL0002104,Karur Vysya Bank,KVBL0002104,400053005,MUMBAI VASHI EC,"ICL HIGH SCHOOL, SECTOR 15/16, VASHI, NAVI MUMBAI, 400705.",,NEW MUMBAI,THANE,MAHARASHTRA
KVBL0002105,Karur Vysya Bank,KVBL0002105,400053004,MUMBAI PRABHADEVI,"GAYATHRI TOWERSÖ,954  APPA SAHEB MARATHE MARG PRABHADEVI,MUMBAI-400025",,MUMBAI,GREATER MUMBAI,MAHARASHTRA
KVBL0002106,Karur Vysya Bank,KVBL0002106,400053006,MUMBAI BORIVALI,"SUNRISE VIEW  SHOP NO.4 TO 7 EKSAR VILLAGE,NEAR VAZIARA NAKA BUS-STOP BORIVALI",,MUMBAI,GREATER MUMBAI,MAHARASHTRA
KVBL0002107,Karur Vysya Bank,KVBL0002107,400053001,MUMBAI CCO,"THE KARUR VYSYA BANK LTD, MUMBAI CCO,THE KARUR VYSYA BANK LTD  CENTRAL CLEARING OFFICE,KAMANWALA CHAMBERS  SIR PM ROAD  FORT,MUMBAI-400001",,MUMBAI,GREATER MUMBAI,MAHARASHTRA
KVBL0002108,Karur Vysya Bank,KVBL0002108,400053007,MUMBAI THANE,"VIHAN VIHAR CO-OPERATIVE HOUSING SOCIETY LTD SHOP NO:123,OPP. GOWTHAM PARK SOCI",,THANE,THANE,MAHARASHTRA
KVBL0002109,Karur Vysya Bank,KVBL0002109,400053008,MUMBAI   NERUL,"SHOP NOS. 12, 13 & 14, AMBIKA APTS, SECTOR 42-A, SEAWOODS, NERUL(W), NAVI MUMBAI - 400706",,NEW MUMBAI,THANE,MAHARASHTRA
KVBL0002110,Karur Vysya Bank,KVBL0002110,422053002,NASIK,"3,VISHWANATH SANKUL, OPP.VIJAN HOSPITALNEAR BIG BAZAR, COLLEGE ROAD, NASIK-422005",,NASHIK,NASHIK,MAHARASHTRA
KVBL0002111,Karur Vysya Bank,KVBL0002111,400053010,MUMBAI MULAND,"SHOP NO 6 & 11 NEW HAPPY LIFE CO-OP HSG SOCIETY LTD, R H B ROAD, MULUND WEST, MUMBAI-400080",,MUMBAI,GREATER MUMBAI,MAHARASHTRA
KVBL0002112,Karur Vysya Bank,KVBL0002112,400053009,MUMBAI CHEMBUR,"KASHI NIKETANNO 83, N.G.ACHARYA MARG, NEAR RAILWAY STATION CHEMBUR (EAST), MUMBAI-400 071",,MUMBAI,GREATER MUMBAI,MAHARASHTRA
KVBL0002113,Karur Vysya Bank,KVBL0002113,414053002,AHMED NAGAR,"CTS NO.2178 & 2179 MANAS SAROVAR, KARSHETHJI ROAD, RAMCHANDRA KHUNT, AHMEDNAGAR -414001",,AHMADNAGAR,AHMEDNAGAR,MAHARASHTRA
KVBL0002114,Karur Vysya Bank,KVBL0002114,440053002,NAGPUR,"740 DALMIA SADAN , SEVA SADAN SQUARE, CENTRAL AVENUE, NAGPUR-440018",,NAGPUR,NAGPUR,MAHARASHTRA
KVBL0002115,Karur Vysya Bank,KVBL0002115,400053011,ANDHERI EAST,"UNIT NO. 1 AND 2 , EVEREST GRANDE , MAHAKALI CAVES ROAD ANDHERI EAST MUMBAI 400093",,MUMBAI,GREATER MUMBAI,MAHARASHTRA
KVBL0002116,Karur Vysya Bank,KVBL0002116,431053002,AURANGABAD,"FLAT NO.1 & 2 DEEPA APARTMENT, NEXT TO SPENCER'S DAILY SAVARKAR CHOWK, SAMARTH NAGAR, AURANGABAD-431001",,AURANGABAD,AURANGABAD,MAHARASHTRA
KVBL0002117,Karur Vysya Bank,KVBL0002117,413053002,SOLAPUR,"95/1 RAILWAY LINES, OPP ST JOSEPH SCHOOL, SOLAPUR-413001",,SOLAPUR,SOLAPUR,MAHARASHTRA
KVBL0002118,Karur Vysya Bank,KVBL0002118,416053002,ICHALKARNJI,"BHAVANI TOWER,'D.NO:427, GROUND FLOOR, SHAHU CORNER,",,ICHALKARNJI,KOLHAPUR,MAHARASHTRA
KVBL0002119,Karur Vysya Bank,KVBL0002119,400053012,MUMBAI - KALBADEVI,"276/286 KILACHAND MANSION, KALBADEVI MAIN ROAD, KALBADEVI. MUMBAI, MUMBAI-400002",,MUMBAI,GREATER MUMBAI,MAHARASHTRA
KVBL0002120,Karur Vysya Bank,KVBL0002120,416053002,KOLHAPUR,"1759 E KHUSHI SANKUL, GROUND FLOOR, RAJARAMPURI 4TH LANE, KOLHAPUR-416 008",,KOLHAPUR,KOLHAPUR,MAHARASHTRA
KVBL0002122,Karur Vysya Bank,KVBL0002122,411053003,PUNE CAMP-AREA,"SHOP NO.1 AND 2, GULMOHAR APARTMENTS, EAST STREET CAMP, PUNE-411001",,PUNE,PUNE,MAHARASHTRA
KVBL0002123,Karur Vysya Bank,KVBL0002123,NON MICR,MUMBAI - BANDRA,"BANDRA,GROUND FLOOR,NEW COMMONWEALTH,COOP.SOCIETY,229,LINKING ROADOPP.SHOPPER STOP,400050",,MUMBAI,GREATER BOMBAY,MAHARASHTRA
KVBL0002124,Karur Vysya Bank,KVBL0002124,NON MICR,BHIWANDI,"DURGA KRUPA GROUND FLOOR , 223 TELIPADA AGRA ROAD, DHAMANKAR NAKA",,BHIWANDI,THANE,MAHARASHTRA
KVBL0002201,Karur Vysya Bank,KVBL0002201,380053002,AHMEDABAD,"P.B.NO. 4093 MOTILAL CENTRE,ASHRAM ROAD,AHMEDABAD-380009",,AHMEDABAD,AHMEDABAD,GUJARAT
KVBL0002202,Karur Vysya Bank,KVBL0002202,395053002,SURAT,"P.B.NO. 208 NO. 103- 114 SILVER PLAZA COMPLEX,BELGIUM SQUARE RING ROAD,SURAT-39",,SURAT,SURAT,GUJARAT
KVBL0002203,Karur Vysya Bank,KVBL0002203,360053002,RAJKOT MAIN,"P.B.NO 342 R.G.C.COMPLEX,TRIKON BAUG,RAJKOT-360001",,RAJKOT,RAJKOT,GUJARAT
KVBL0002204,Karur Vysya Bank,KVBL0002204,390053002,VADODARA,"P.B.NO 3725  13  SIDCUP TOWER,RACE COURCE CIRCLE,VADADARA-390007",,VADODARA,VADODARA,GUJARAT
KVBL0002205,Karur Vysya Bank,KVBL0002205,384053002,UNJHA,"P.B.NO 147 PATEL BUILDING,STATION ROAD,UNJHA-384170",,UNJHA,PATAN,GUJARAT
KVBL0002207,Karur Vysya Bank,KVBL0002207,380053003,AHMEDABAD EC,"GUJARAT LAW SOCIETY COMPOUND, ELLIS BRIDGE, AHMEDABAD - 380 006.",,AHMEDABAD,AHMEDABAD,GUJARAT
KVBL0002208,Karur Vysya Bank,KVBL0002208,380053004,AHMEDABAD SATELLITE TOWN,"SHILP COMPLEX,OPP. RATNAMANI TOWER SATELLITE ROAD,AHMEDABAD-0",,AHMEDABAD,AHMEDABAD,GUJARAT
KVBL0002209,Karur Vysya Bank,KVBL0002209,370053001,GANDHIDHAM,"PLOT NO.300 WARD 12-B, AMBIKA ARCADE, OPP C G HIGH SCHOOL, GANDHIDHAM-370201",,GANDHIDHAM,KACHCHH,GUJARAT
KVBL0002210,Karur Vysya Bank,KVBL0002210,338053002,ANAND,"ROYAL CITADEL 5,KEVAL BUNGALOWS SOCIETY, ANANAD-VALLABH VIDYANAGAR ROAD ANAND-338001",,ANAND,ANAND,GUJARAT
KVBL0002211,Karur Vysya Bank,KVBL0002211,380053005,SANAND,"NO: 6 SARVODAYA CO-OPERATVIE HOUSING SOCIETY, SARKHEJ SANAND HIGHWAY ",,SANAND,AHMADABAD,GUJARAT
KVBL0002212,Karur Vysya Bank,KVBL0002212,NON MICR,AHMEDABAD - NARODA,"HIMALAYA SQUARE,NEAR GALAXY CINEMA, NO.8, FINAL PLOT 33, NEAR MAIN BUS STAND & NARODA LAKE, NARODA, AHMEDABAD – 382330",,AHMEDABAD,AHMEDABAD,GUJARAT
KVBL0002213,Karur Vysya Bank,KVBL0002213,NONMICR,BHUJ,"SIDDHACHAL,DOOR NO:186, VIJAYNAGAR,OPP: SBI_NRI BRANCH,HOSPITAL ROAD,BHUJ- 370 001",,BHUJ,KACHCHH,GUJARAT
KVBL0002214,Karur Vysya Bank,KVBL0002214,NON MICR,BHARUCH,"PLOT 12 & 13,GROUND FLOOR,LABHESHWAR COMPLEX,NEAR CHAMUNDA TEMPLE,JHADESHWAR ROAD, BHARUCH - 392002.",,BHARUCH,BHARUCH,GUJARAT
KVBL0002215,Karur Vysya Bank,KVBL0002215,NON MICR,SURAT - UM ROAD,"X 1-2 K.N PARK SOCIETY,OPP. SUTEX CO. OP BANK LTD,UDHNA MAGDALLA MAIN ROAD,SURAT - 395017",,SURAT,SURAT,GUJARAT
KVBL0002301,Karur Vysya Bank,KVBL0002301,452053002,INDORE,"2-B RAJGARH KOTHI,A.B.ROAD,INDORE-452001",,INDORE,INDORE,MADHYA PRADESH
KVBL0002302,Karur Vysya Bank,KVBL0002302,462053002,BHOPAL,"12-B, ZONE II, M.P. NAGAR, BHOPAL- 462011, MADHYA PRADESH",,BHOPAL,BHOPAL,MADHYA PRADESH
KVBL0002303,Karur Vysya Bank,KVBL0002303,474053002,GWALIOR,"NEAR SURABHI HOTEL, NAYA BAZAR, LASHKAR, GWALIOR, MADHYA PRADESH",,GWALIOR,GWALIOR,MADHYA PRADESH
KVBL0002401,Karur Vysya Bank,KVBL0002401,403053002,PANAJI,"A G1 AND G2  CAMPEL TRADE CENTRE,B B BREGENZA ROAD ,NEXT TO MILITARY HOSPITAL,PANAJI,GOA – 403 601",,PANAJI,NORTH GOA,GOA
KVBL0003101,Karur Vysya Bank,KVBL0003101,700053002,KOLKATA BURRA BAZAAR,"9 RAM SEVAK MULLICK LANE,(OFF) 43  STRAND ROAD,KOLKATA-700007",,KOLKATA,KOLKATA,WEST BENGAL
KVBL0003102,Karur Vysya Bank,KVBL0003102,700053003,KOLKATA SHAKESPEARE SARANI,"NO 20 SHAKESPEARE SERRANI,PARK STREET,KOLKATA-700005",,KOLKATA,KOLKATA,WEST BENGAL
KVBL0003103,Karur Vysya Bank,KVBL0003103,700053004,KOLKATTA BALIGUNJ,"NO 13 BONDEL ROAD , KOLKATTA 700019",,KOLKATA,KOLKATA,WEST BENGAL
KVBL0003104,Karur Vysya Bank,KVBL0003104,NON MICR,GARIA,"III - B, RAJA S C MULLICK ROAD GARIA KOLKATTA - 700 047",,GARIA,SOUTH 24 PARGANAS,WEST BENGAL
KVBL0003105,Karur Vysya Bank,KVBL0003105,NON MICR,JAGACHA,ASHIRBAD  DHARSA VIVEK VILL GIP COLONY JAGACHA HOWRAH  - 711 112,,JAGACHA,HAORA,WEST BENGAL
KVBL0003106,Karur Vysya Bank,KVBL0003106,NON MICR,KOLKATTA SALT LAKE,"PLOT NO: 47,  BLOCK A A SECTOR : 1 SALT LAKE CITY KOLKATTA - 700 064",,KOLKATA,KOLKATA,WEST BENGAL
KVBL0003107,Karur Vysya Bank,KVBL0003107,NON MICR,KHARAGPUR,"418/1, MALANCHA ROAD,KHARAGPUR -721 304,WEST BENGAL",,KHARAGPUR,MEDINIPUR,WEST BENGAL
KVBL0003108,Karur Vysya Bank,KVBL0003108,NON MICR,JOKA,"JOKA & JEMS LINE CROSSING,J L NO.21, POST THAKUR PUKUR,JOKA,KOLKATTA",,JOKA,SOUTH 24 PARGANAS,WEST BENGAL
KVBL0003109,Karur Vysya Bank,KVBL0003109,NON MICR,BARUIPUR,"MENOKA BHAWAN, 33 KULPI ROAD, PADMAPUKUR, 24 SOUTH PARAGANAS, BARUIPUR - 700144.",,BARUIPUR,SOUTH 24 PARGANAS,WEST BENGAL
KVBL0003110,Karur Vysya Bank,KVBL0003110,NON MICR,DAKSHINESHWAR,"DAKSHINESHWA,9 AC SARKAR ROAD,DAKSHINESHWAR,700076",,DAKSHINESHWAR,NORTH 24 PARGANAS,WEST BENGAL
KVBL0003111,Karur Vysya Bank,KVBL0003111,NON MICR,BAGNAN,"BAGNAN,OT ROAD NEAR (BAGNAN PS),KHADINAN BAGNAN,HOWRAH, 711303",,BAGNAN,HAORA,WEST BENGAL
KVBL0003112,Karur Vysya Bank,KVBL0003112,NON MICR,GHOSHPARA,"SUPERMARKET, GHOSHPARA, HOWRAH - 711227",,GHOSHPARA,HAORA,WEST BENGAL
KVBL0003201,Karur Vysya Bank,KVBL0003201,751053002,BHUBANESHWAR,"168 B PRASANTI SISUBHAWAN CHOWK , BAPUJI NAGAR, BHUBANESWAR, BHUBANESWAR-751 009",,BHUBANESWAR,KHURDA,ORISSA
KVBL0003202,Karur Vysya Bank,KVBL0003202,760053002,BERHAMPUR,"D NO 1920/13 CITY HIGH SCHOOL ROAD ,BERHAMPUR",,BERHAMPUR,BALASORE,ORISSA
KVBL0003203,Karur Vysya Bank,KVBL0003203,753053002,CUTTACK,"MAYUR COMPLEX,GROUND FLOOR,PLOT NO.1250,BAJRAKABATI ROAD,RANIHAT,CUTTACK  - 753001",,CUTTACK,CUTTAK,ORISSA
KVBL0003204,Karur Vysya Bank,KVBL0003204,NONMICR,ASKA,"WARD NO -12,GANJAM DIST,ASIKA,ASIKA,ORISSA,761110",,ASKA,GANJAM,ORISSA
KVBL0004101,Karur Vysya Bank,KVBL0004101,110053002,NEW DELHI KAROLBAGH,"P.B.NO. 2527  POONAM CHAMBERS,XVI/2645  BANK STREET,KAROLBAGH-0",,DELHI,NEW DELHI,DELHI
KVBL0004102,Karur Vysya Bank,KVBL0004102,110053003,NEW DELHI LAWRENCE ROAD,"B-3,TYAGI PUBLIC SCHOOL COMPLEX,LAWRENCE ROAD-110035",,DELHI,NEW DELHI,DELHI
KVBL0004103,Karur Vysya Bank,KVBL0004103,110053005,NEW DELHI KASHMERE GATE,"3538  NICHOLSON ROAD,MORI GATE,KASHMEREGATE-0",,DELHI,NEW DELHI,DELHI
KVBL0004104,Karur Vysya Bank,KVBL0004104,110053006,NEW DELHI ROHINI,"C-3/10 PRASHANTH VIHAR,NIRULAS LANE SECTOR-14 ROHINI,NEW DELHI-110085",,DELHI,NEW DELHI,DELHI
KVBL0004105,Karur Vysya Bank,KVBL0004105,110053007,NEW DELHI GREATER KAILASH,"3, SANT NAGAR,EAST OF KAILASH,NEW DELHI-110065",,DELHI,NEW DELHI,DELHI
KVBL0004106,Karur Vysya Bank,KVBL0004106,110053001,DELHI CCO,"THE KARUR VYSYA BANK LTD, NEW DELHI CCO,POONAM CHAMBERS,2645 BANK STREET KAROL BAGH,NEW DELHI-110005",,DELHI,NEW DELHI,DELHI
KVBL0004107,Karur Vysya Bank,KVBL0004107,110053000,DELHI DO,"59/31 1ST FLOOR, POONAM PLAZA NEW ROHTAK ROAD, NEAR LIBERTY CINEMA KAROLBAGH, NEW DELHI-110005",,DELHI,DELHI,DELHI
KVBL0004108,Karur Vysya Bank,KVBL0004108,110053009,DELHI RAMESH NAGAR,"B-97 SHARADAPURI RADHEY SHYAM MANDIR CHOWK, RAMESH NAGAR, NEW DELHI, NEW DELHI-1100015",,DELHI,NEW DELHI,DELHI
KVBL0004109,Karur Vysya Bank,KVBL0004109,110053011,DELHI- CHANDNI CHOWK,"D.NO.241-242, FATHEPURI, CHANDNI CHOWK, DELHI-110 006",,DELHI,DELHI,DELHI
KVBL0004111,Karur Vysya Bank,KVBL0004111,110053012,DELHI-CONNAUGHT CIRCUS,"H-17, GOBIND MANSION,CONNAUGHT CIRCLE,,NEW DELHI,NEW DELHI,DELHI,110001",,DELHI,DELHI,DELHI
KVBL0004112,Karur Vysya Bank,KVBL0004112,NON MICR,DELHI – PITAMPURA,"OPP. METRO PILLAR NO 347,15, VAISHALI,PITAMPURA,NEW DELHI 110034",,DELHI,DELHI,DELHI
KVBL0004201,Karur Vysya Bank,KVBL0004201,110053004,GURGAON,"P.B.NO.35 PAYAL CINEMA COMPLEX,SECTOR- 14,GURGAN-122001",,GURGAON,GURGAON,HARYANA
KVBL0004202,Karur Vysya Bank,KVBL0004202,160053002,CHANDIGARH,"SCO NO:52 & 53, KRIBHCO BHAWAN, SECTOR 34 A, CHANDIGARH - 160 022 (HARYANA)",,CHANDIGARH,CHANDIGARH,CHANDIGARH
KVBL0004203,Karur Vysya Bank,KVBL0004203,132053002,PANIPAT,NO 932 - 935 WARD NO 8 CITY CENTRE G T KARNAL  MAIN ROAD  OPP IB COLLEGE PANIPET  132103,,PANIPAT,PANIPAT,HARYANA
KVBL0004204,Karur Vysya Bank,KVBL0004204,110053010,FARIDABAD,"1-E/20, B.P. NIT, 1-2 CHOWK, NIT FARIDABAD-121 001",,FARIDABAD,FARIDABAD,HARYANA
KVBL0004205,Karur Vysya Bank,KVBL0004205,132053102,KARNAL,"181-182, OLD G.T. ROAD,NEAR CLOCK TOWER, KARNAL HARYANA.",,KARNAL,KARNAL,HARYANA
KVBL0004301,Karur Vysya Bank,KVBL0004301,141053002,LUDHIANA,"BRAR COMPLED, N0.830/2, BLOCK- 18, MAIN DUGRI ROAD, MODEL TOWN, LUDHIANA - 141 002, PUNJAB.",,LUDHIANA,LUDHIANA,PUNJAB
KVBL0004302,Karur Vysya Bank,KVBL0004302,143053002,AMRITSAR,"CITY MALL, NO.4, LAWRENCE ROAD, AMRITSAR - 143001",,AMRITSAR,AMRITSAR,PUNJAB
KVBL0004303,Karur Vysya Bank,KVBL0004303,144053002,JALANDHAR,"MIDAS CORPORATE PARK, GROUND FLOOR, NO. 37 G.T.ROAD, JALANDHAR-144 001",,JALANDHAR,JALANDHAR,PUNJAB
KVBL0004304,Karur Vysya Bank,KVBL0004304,147053002,PATIALA,"SHOP NO. 8-9, LEELA BHAWAN MARKET, NEAR GOPAL SWEETS, PATIALA-147001",,PATIALA,PATIALA,PUNJAB
KVBL0004305,Karur Vysya Bank,KVBL0004305,NONMICR,MANDI GOBINDGARH,"PLOT BEARING NO: 270 BLOCK B,NEAR MAIN CHOWK, G T ROAD,MANDI GOBINDGARH,PATIALA DISTRICT,PUNJAB,PINCODE 147301",,GOBIND GARH,FATEHGARH SAHIB,PUNJAB
KVBL0004401,Karur Vysya Bank,KVBL0004401,110053008,NOIDA,"A - 354, SECTOR 19, NEAR ATTA CHOWK, NOIDA - 201301",,NOIDA,GAUTAM BODDA NAGAR,UTTAR PRADESH
KVBL0004402,Karur Vysya Bank,KVBL0004402,226053002,LUCKNOW,"SECTOR NO 4/46 , VIVEK KHAND, GOMATHI NAGAR , LUCKNOW , 226 010 -PH 0522 -- 2300110 ,2300111",,LUCKNOW,LUCKNOW,UTTAR PRADESH
KVBL0004403,Karur Vysya Bank,KVBL0004403,250053002,MEERUT,"G-4 KUMAR PLAZA,OPP. GOVT. INTER COLLEGE BEGUM BRIDGE ROAD, MEERUT-250002",,MEERUT,MEERUT,UTTAR PRADESH
KVBL0004404,Karur Vysya Bank,KVBL0004404,NON MICR,KANPUR,"GANGA TOWER,H.NO:18/179,MALL ROAD, KANPUR",,KANPUR,CUTTACK,ORISSA
KVBL0004405,Karur Vysya Bank,KVBL0004405,NON MICR,VARANASI,"H.NO: D.35/223 ANDD.40/56, JANGAMBARI,VARANASI, UTTAR PRADESH - 201 001",,VARANASI,VARANASI,UTTAR PRADESH
KVBL0004501,Karur Vysya Bank,KVBL0004501,302053002,JAIPUR,"P-5/2 DURGA BUSINESS CENTER, M I ROAD OPP GANGAUR HOTEL, NEAR PIN CITY PETROL PUMP, JAIPUR-302001",,JAIPUR,JAIPUR,RAJASTHAN
KVBL0004502,Karur Vysya Bank,KVBL0004502,NON MICR,BHILWARA,"SHREEJI TOWER,SHOP NO 1,2,3 GROUND FLOOR,PUR ROAD,OPPO YES BANK,GANDHI NAGAR",,BHILWARA,BHILWARA,RAJASTHAN
KVBL0004601,Karur Vysya Bank,KVBL0004601,492053002,RAIPUR,"EPI CENTRE NEAR YASHWANT HOSPITAL, G E ROAD TATYA PARA, RAIPUR , RAIPUR-492001",,RAIPUR,JALANDHAR,PUNJAB
KVBL0004701,Karur Vysya Bank,KVBL0004701,NONMICR,RANCHI,"GURUDWARA BUILDING,FIRST FLOOR,MAIN ROAD,,RANCHI,RANCHI,JHARKHAND,834001",,RANCHI,RANCHI,JHARKHAND
KVBL0004801,Karur Vysya Bank,KVBL0004801,NON MICR,HYDERABAD - KONDAPUR,"P.NO.4(P),5,6 OF KOTHAGUDA,KONDAPUR,HYDERABAD-500084",,HYDERABAD,HYDERABAD,ANDHRA PRADESH
KVBL0004802,Karur Vysya Bank,KVBL0004802,NON MICR,TANUKU,"20-10-12,13 AND 14,ACHANTAVARI STREET, TANUKU - 534211",,TANUKU,WEST GODAVARI,ANDHRA PRADESH
KVBL0004803,Karur Vysya Bank,KVBL0004803,NON MICR,GAJAPATHINAGARAM,"D.NO.5/843,GROUND FLOOR, MENTADA ROAD, GAJAPATHINAGARAM - 535270",,GAJAPATHINAGARAM,VIZIANAGARAM,ANDHRA PRADESH
KVBL0004804,Karur Vysya Bank,KVBL0004804,NON MICR,PENDURTHI,"DR.NO.6-28,6-29,CHINAMUSHIDIVADA VILLAGE,PENDURTHI MAIN ROAD,VISAKHAPATNAM - 531173                                                                           ",,PENDURTI,VISHAKHAPATNAM,ANDHRA PRADESH
KVBL0004805,Karur Vysya Bank,KVBL0004805,NON MICR,NARASAPUR,"KOTIPALLIVARI STREET,NARASAPUR - 534 275.",,NARASAPURAM,CUDDAPAH,ANDHRA PRADESH
KVBL0001336,Karur Vysya Bank,KVBL0001336,NON-MICR,BANGALORE - R T NAGAR,"DOOR NO 5,6,DINNUR MAIN ROAD  R T NAGAR     ","022-22665914, 022-22556467 NEFT@KVBMAIL.COM",BANGALORE,BANGALORE URBAN,KARNATAKA
KVBL0001337,Karur Vysya Bank,KVBL0001337,NON-MICR,CHIKKABANAVARA,MAIN ROAD NEAR KRISHNA COLLEGE    OPP JINDAL SCHOOL  CHIKKABANAVARA,"022-22665914, 022-22556467 NEFT@KVBMAIL.COM",BANGALORE,BANGALORE URBAN,KARNATAKA
KVBL0001670,Karur Vysya Bank,KVBL0001670,NON-MICR,KARUR DIVISIONAL OFFICE,"68, ERODE ROAD,FIRST FLOOR L.N.S. POST  KARUR      ","022-22665914, 022-22556467 NEFT@KVBMAIL.COM",KARUR,KARUR,TAMIL NADU
KVBL0001671,Karur Vysya Bank,KVBL0001671,NON-MICR,TAMBARAM DIVISIONAL OFFICE,"27-A, VENKATESA CHOUDRY STREET    ","022-22665914, 022-22556467 NEFT@KVBMAIL.COM",TAMBARAM,KANCHEEPURAM,TAMIL NADU
KVBL0001672,Karur Vysya Bank,KVBL0001672,NON-MICR,TIRUVALLUR,"170,J N ROAD  M S K COMPLEX,OIL MILL  TIRUVALLUR                      ","022-22665914, 022-22556467 NEFT@KVBMAIL.COM",TIRUVALLUR,TIRUVALLUR,TAMIL NADU
KVBL0001673,Karur Vysya Bank,KVBL0001673,NON MICR,UDHAGAMANDALAM,"420,SMRR PLAZA, ETTINES ROAD","022-22665914, 022-22556467 NEFT@KVBMAIL.COM",UDHAGAMANDAL,NILGIRIS,TAMIL NADU
KVBL0001674,Karur Vysya Bank,KVBL0001674,NON-MICR,COIMBATORE - SIVANANDA COLONY,"164,RAJU NAIDU STREET SIVANANDA COLONY COIMBATORE","022-22665914, 022-22556467 NEFT@KVBMAIL.COM",COIMBATORE,COIMBATORE,TAMIL NADU
KVBL0001675,Karur Vysya Bank,KVBL0001675,NON MICR,COIMBATORE - GOUNDAMPALAYAM,"5/23,SKS BUILDING, GOUNDAMPALAYAM, METTUPALAYAM ROAD","022-22665914, 022-22556467 NEFT@KVBMAIL.COM",KAVUNDAPALAYAM,COIMBATORE,TAMIL NADU
KVBL0001677,Karur Vysya Bank,KVBL0001677,641053021,CHINNIAMPALAYAM,"2/166,AVINASHI ROAD, CHINNIAMPALAYAM, COIMBATORE","022-22665914, 022-22556467 NEFT@KVBMAIL.COM",CHENNIYAMPALAYAM,COIMBATORE,TAMIL NADU
KVBL0001680,Karur Vysya Bank,KVBL0001680,NON MICR,HARUR,"7/22 BYPASS ROAD,NEAR STATE BANK OF INDIA","022-22665914, 022-22556467 NEFT@KVBMAIL.COM",HARUR,DHARMAPURI,TAMIL NADU
KVBL0001683,Karur Vysya Bank,KVBL0001683,NON-MICR,LALGUDI,S.F.NO.136/7 AND 136/8    LALGUDI - TRICHY MAIN ROAD  SIRUDAYUR,"022-22665914, 022-22556467 NEFT@KVBMAIL.COM",LALGUDI,TIRUCHIRAPALLI,TAMIL NADU
KVBL0001684,Karur Vysya Bank,KVBL0001684,NON-MICR,SANKARI,"5B,SALEM MAIN ROAD  SALEM LORRY URIMAIYALARGAL SANGAM  SANKARI TALUK,SALEM DISTRICT             ","022-22665914, 022-22556467 NEFT@KVBMAIL.COM",SANKARI,SALEM,TAMIL NADU
KVBL0001687,Karur Vysya Bank,KVBL0001687,NON-MICR,APPANALLUR,"B-50,MUSIRI TO PAVITHRAM MAIN ROAD APPANALLUR (APPANANALLUR)  THOTTIAM TALUK      ","022-22665914, 022-22556467 NEFT@KVBMAIL.COM",THOTTIYAM,VILLUPURAM,TAMIL NADU
KVBL0001689,Karur Vysya Bank,KVBL0001689,NON-MICR,ULUNDURPET,"426/2,NEXT TO BSNL OFFICE  VRIDDHACHALAM ROAD   ULUNDURPET     ","022-22665914, 022-22556467 NEFT@KVBMAIL.COM",ULUNDURPET,VILLUPURAM,TAMIL NADU
KVBL0001690,Karur Vysya Bank,KVBL0001690,NON MICR,SEYDUNGANALLUR,"M.M.KUDIL,KALAYANI COMPLEX, FIRST FLOOR, TIRUCHENDUR MAIN ROAD","022-22665914, 022-22556467 NEFT@KVBMAIL.COM",SEITHUNGANALLUR,TOOTHUKUDI,TAMIL NADU
KVBL0001691,Karur Vysya Bank,KVBL0001691,NON-MICR,MADUKKUR,"MAIN ROAD,MUKKOOTTU SALAI   MADUKKUR        ","022-22665914, 022-22556467 NEFT@KVBMAIL.COM",MADUKKUR,THANJAVUR,TAMIL NADU
KVBL0001693,Karur Vysya Bank,KVBL0001693,NON-MICR,BARGUR,NEAR CANARA BANK  KRISHNAGIRI MAIN ROAD  BARGUR,"022-22665914, 022-22556467 NEFT@KVBMAIL.COM",BARGUR,TUMKUR,KARNATAKA
KVBL0001697,Karur Vysya Bank,KVBL0001697,NON-MICR,PUNJAIPULIAMPATTI,"FASHION POINT COMMERCIAL COMPLEX  ULTAN ROAD,(BAVANI SAGAR DAM ROAD) PUNJAIPULIAMPATTI","022-22665914, 022-22556467 NEFT@KVBMAIL.COM",PUNJAI PULIAMPATTI,ERODE,TAMIL NADU
KVBL0001698,Karur Vysya Bank,KVBL0001698,NON-MICR,PERAVURANI,"DOOR NO 2 FIRST FLOOR VANIGAVALAGAM ARANTHANGI ROAD, NEAR BUS STAND  PERAVURANI THANJAVUR DISTRICT -614 804","022-22665914, 022-22556467 NEFT@KVBMAIL.COM",PERAVURANI,THANJAVUR,TAMIL NADU
KVBL0001699,Karur Vysya Bank,KVBL0001699,NON-MICR,SURANDAI,10-9-37 S-NO.217/4  Kamarajar Salai Opposite to Bus Stand  Surandai PO V.K.Pudur TK Tirunelveli-627859,"022-22665914, 022-22556467 NEFT@KVBMAIL.COM",TIRUNELVELI,TIRUNELVALI,TAMIL NADU
KVBL0001700,Karur Vysya Bank,KVBL0001700,NON MICR,THENUR,"NEW.RS.NO.201/16D,MAIN ROAD, THENUR","022-22665914, 022-22556467 NEFT@KVBMAIL.COM",MADURAI,MADURAI,TAMIL NADU
KVBL0001701,Karur Vysya Bank,KVBL0001701,NON-MICR,VILLAR,"SURVEY NO.14, D.NO.424 QUIIDE MILLETH NAGAR VILAR","022-22665914, 022-22556467 NEFT@KVBMAIL.COM",THANJAVUR,THANJAVUR,TAMIL NADU
KVBL0002125,Karur Vysya Bank,KVBL0002125,NON-MICR,MUMBAI - GHATKOPAR,"UNIVERSAL SCHOOL GHATKOPAR   PLOT NO.17,TPS -5960B TILAK ROAD   NEAR VIKRANT CIRCLE GHATKOPAR EAST MUMBAI         ","022-22665914, 022-22556467 NEFT@KVBMAIL.COM",MUMBAI,GREATER BOMBAY,MAHARASHTRA
KVBL0002216,Karur Vysya Bank,KVBL0002216,NON-MICR,AHMEDABAD DIVISIONAL OFFICE,DIVISIONAL OFFICE AHMEDABAD DO,"022-22665914, 022-22556467 NEFT@KVBMAIL.COM",AHMEDABAD,AHMEDABAD,GUJARAT
KVBL0003113,Karur Vysya Bank,KVBL0003113,NON-MICR,KOLKATA DIVISIONAL OFFICE,DIVISIONAL OFFICE KOLKATA DO,"022-22665914, 022-22556467 NEFT@KVBMAIL.COM",KOLKATA,KOLKATA,WEST BENGAL
KVBL0003114,Karur Vysya Bank,KVBL0003114,NON-MICR,KOLKATA - N.S.ROAD,"14,N.S.ROAD KOLKATA                       ","022-22665914, 022-22556467 NEFT@KVBMAIL.COM",KOLKATA,KOLKATA,WEST BENGAL
KVBL0004113,Karur Vysya Bank,KVBL0004113,NON-MICR,DELHI - LAXMINAGAR,"U-38A,SHAKARPUR    DELHI","022-22665914, 022-22556467 NEFT@KVBMAIL.COM",DELHI,DELHI,DELHI
KVBL0004114,Karur Vysya Bank,KVBL0004114,NON-MICR,DELHI - JANAKPURI,"B-1/513,JANAKPURI   NEW DELHI","022-22665914, 022-22556467 NEFT@KVBMAIL.COM",DELHI,DELHI,DELHI
KVBL0004115,Karur Vysya Bank,KVBL0004115,NON-MICR,DELHI - KAMLANAGAR,"10D,KAMLA NAGAR     DELHI","022-22665914, 022-22556467 NEFT@KVBMAIL.COM",DELHI,DELHI,DELHI
KVBL0004306,Karur Vysya Bank,KVBL0004306,NON-MICR,HARDASPUR,BLOCK NO:4L-A LOVELY PROFESSIONAL UNIVERSITY  HARDASPUR(GRAMPANCHAYAT),"022-22665914, 022-22556467 NEFT@KVBMAIL.COM",HARDASPUR,BAREILLY,UTTAR PRADESH
KVBL0004307,Karur Vysya Bank,KVBL0004307,NON-MICR,PHAGWARA,"780,HARGOBIND NAGAR PHAGWARA  DISTRICT - KAPURTHALA  PUNJAB","022-22665914, 022-22556467 NEFT@KVBMAIL.COM",PHAGWARA,KAPURTHALA,PUNJAB
KVBL0004807,Karur Vysya Bank,KVBL0004807,500053029,HYDERABAD - BANJARA HILLS,"8-2-686/B/10, PLOT NO-542,ROAD NO. 12, BANJARA HILLS","022-22665914, 022-22556467 NEFT@KVBMAIL.COM",HYDERABAD,HYDERABAD,ANDHRA PRADESH
KVBL0004808,Karur Vysya Bank,KVBL0004808,NON MICR,JAGTIAL,"H.NO.1-6-149,YAWAR ROAD, OPP: SRINIVASA THEATRE, KARIMNAGAR DIST","022-22665914, 022-22556467 NEFT@KVBMAIL.COM",JAGTIAL,KARIMNAGAR,ANDHRA PRADESH
KVBL0004809,Karur Vysya Bank,KVBL0004809,NON MICR,MANCHERIAL,"SY.NO.414,H.NO.4-101 TO 103, J.B NAGAR NEAR BELLAMPALLY X ROAD, ADILABAD DISTRICT","022-22665914, 022-22556467 NEFT@KVBMAIL.COM",MANCHERIYAL,ADILABAD,ANDHRA PRADESH
KVBL0004811,Karur Vysya Bank,KVBL0004811,NON MICR,PALWANCHA,"DNO:19-1-69,HARIDAMA STREET, NEW PALWANCHA, KHAMMAM DISTRICT ","022-22665914, 022-22556467 NEFT@KVBMAIL.COM",PALWANCHA,NIZAMABAD,ANDHRA PRADESH
KVBL0004812,Karur Vysya Bank,KVBL0004812,NON MICR,KAMAREDDY,"H.NO.5-6-126,OLD N.H 7 ROAD, NIZAMABAD DISTRICT","022-22665914, 022-22556467 NEFT@KVBMAIL.COM",KAMAREDDY,NIZAMABAD,ANDHRA PRADESH
KVBL0004814,Karur Vysya Bank,KVBL0004814,NON MICR,MAHABUBNAGAR,"PLOT NO.1 AND 2,SURVEY NO.280, OPP:IOC PETROL BUNK, SRINIVASA NAGAR COLONY,YENUGONDA","022-22665914, 022-22556467 NEFT@KVBMAIL.COM",MAHBUBNAGAR,MAHBUBNAGAR,ANDHRA PRADESH
KVBL0004815,Karur Vysya Bank,KVBL0004815,NON-MICR,DWARKANAGAR,"A.G AVENUE,SHOP NO 1GROUND FLOOR  OPP AXIS BANK  DWARKANAGAR ","022-22665914, 022-22556467 NEFT@KVBMAIL.COM",VISAKHAPATNAM,VISHAKHAPATNAM,ANDHRA PRADESH
KVBL0004816,Karur Vysya Bank,KVBL0004816,NON-MICR,YELAMANCHILI,DNO.16-271MAIN ROAD  YELLAMANCHILI,"022-22665914, 022-22556467 NEFT@KVBMAIL.COM",YELAMANCHILLI,WEST GODAVARI,ANDHRA PRADESH
KVBL0004817,Karur Vysya Bank,KVBL0004817,NON-MICR,ICHCHAPURAM,DNO:12-8-38  RADHAM VEEDHIICHAPURAM MUNICIPALITY  SRIKAKULAM DISTRICT   ICHCHAPURAM,"022-22665914, 022-22556467 NEFT@KVBMAIL.COM",ICHAPURAM,SRIKAKULAM,ANDHRA PRADESH
KVBL0004818,Karur Vysya Bank,KVBL0004818,NON MICR,RAJAMPET,"6-127/B(1),R.S ROAD, KADAPA DIST","022-22665914, 022-22556467 NEFT@KVBMAIL.COM",RAJAMPET,ADILABAD,ANDHRA PRADESH
KVBL0004819,Karur Vysya Bank,KVBL0004819,NON MICR,NALGONDA,"6-2-659 AND 6-2-660,GROUND FLOOR, BLOCK NO2,JAGINI ARCADE, HYDERABAD ROAD","022-22665914, 022-22556467 NEFT@KVBMAIL.COM",NALGONDA,NALGONDA,ANDHRA PRADESH
KVBL0001685,Karur Vysya Bank,KVBL0001685,NON-MICR,MULLAMPARAPPU,"NO 147, MULLAMPARUPPU  AVALPOONDURAI MAIN ROAD  NATHAGOUNDAMPALAYAM","022-22665914, 022-22556467 NEFT@KVBMAIL.COM",ERODE,ERODE,TAMIL NADU
KVBL0001686,Karur Vysya Bank,KVBL0001686,NON-MICR,ERODE - CHINNAIAMPALAYAM,"NO. 43,THACHANGATTUTHOTTAM BUS STOP CHINNAIAMPALAYAM POST","022-22665914, 022-22556467 NEFT@KVBMAIL.COM",ERODE,ERODE,TAMIL NADU
KVBL0001708,Karur Vysya Bank,KVBL0001708,NON-MICR,PRITHIVIMANGALAM,"R.S.NO.60/3A,ANNA NAGAR  SALEM MAIN ROAD THIYAGADHURUGAM PO PRITHIVIMANGALAM","022-22665914, 022-22556467 NEFT@KVBMAIL.COM",VILLUPURAM,VILLUPURAM,TAMIL NADU
KVBL0002127,Karur Vysya Bank,KVBL0002127,NON-MICR,NANDED,"BALAJI TOWER,PLOT NO.1,GROUND FLOOR WARDNO.1,BLOCK NO.1-17,VISAVA NAGAR VIP ROAD NANDED","022-22665914, 022-22556467 NEFT@KVBMAIL.COM",NANDED,JALGAON,MAHARASHTRA
KVBL0004820,Karur Vysya Bank,KVBL0004820,NON-MICR,MARKAPUR,"DNO:6/7,8,9, NAIDU STREET PRAKASAM DT ","022-22665914, 022-22556467 NEFT@KVBMAIL.COM",MARKAPUR,PRAKASAM,ANDHRA PRADESH
KVBL0001682,Karur Vysya Bank,KVBL0001682,NON-MICR,MADURANTAKAM,"96/A, G.S.T.ROAD, KANCHIPURAM DISTRICT, MADURANTAKAM","022-22665914, 022-22556467 NEFT@KVBMAIL.COM",MADURANTAKAM,KANCHEEPURAM,TAMIL NADU
KVBL0001688,Karur Vysya Bank,KVBL0001688,NON-MICR,THIRUMANGALAM,"SURVEY NO.40/7A,1ST CROSS, PUDUNAGAR, VILLUPURAM DISTRICT, THIRUMANGALAM","022-22665914, 022-22556467 NEFT@KVBMAIL.COM",THIRUMANGALAM,THIRUVALLUR,TAMIL NADU
KVBL0001694,Karur Vysya Bank,KVBL0001694,NON-MICR,PUTHAGARAM,"S.NO.52, PUTHAGARAM TO SURAPET MAIN ROAD NEAR VELAMMAL ENGINEERING COLLEGE PUTHAGARAM","022-22665914, 022-22556467 NEFT@KVBMAIL.COM",VELLORE,VELLORE,TAMIL NADU
KVBL0001695,Karur Vysya Bank,KVBL0001695,NON-MICR,CHINNASALEM,"NEXT TO DR.MANIVANNAN HOUSE 471,SALEM MAIN ROAD  CHINNASALEM","022-22665914, 022-22556467 NEFT@KVBMAIL.COM",CHINNASALEM,VILLUPURAM,TAMIL NADU
KVBL0001696,Karur Vysya Bank,KVBL0001696,NON-MICR,VEDASANDUR,"165 G,SRIPATHY COMPLEX, VADAMADURAI MAIN ROAD, DINDIGUL DISTRICT, VEDASANDUR","022-22665914, 022-22556467 NEFT@KVBMAIL.COM",VEDASANDUR,DINDIGUL,TAMIL NADU
KVBL0001702,Karur Vysya Bank,KVBL0001702,NON-MICR,KARUMANDAMPALAYAM,RS NO471/2B ERODE-KARUR MAIN ROAD KARUMANDAMPALAYAM ERODE,"022-22665914, 022-22556467 NEFT@KVBMAIL.COM",ERODE,ERODE,TAMIL NADU
KVBL0001703,Karur Vysya Bank,KVBL0001703,NON-MICR,P.KOMARAPALAYAM,"NO.5, P. KOMARAPALAYAM POST NATHAKADAIYUR (VIA)  ERODE","022-22665914, 022-22556467 NEFT@KVBMAIL.COM",NATHAKADAIYUR,ERODE,TAMIL NADU
KVBL0001704,Karur Vysya Bank,KVBL0001704,NON-MICR,NILAKOTTAI,"NO. 6-2-36A, PERIYAR COLONY MADURAI MAIN ROAD  DINDIGUL DT  NILAKOTTAI","022-22665914, 022-22556467 NEFT@KVBMAIL.COM",NILAKKOTTAI,DINDIGUL,TAMIL NADU
KVBL0001707,Karur Vysya Bank,KVBL0001707,NON-MICR,MURARBADU,MIDDLE STREET SANKARAPURAM TALUK  VILLUPURAM DISTRICT MURARBADU,"022-22665914, 022-22556467 NEFT@KVBMAIL.COM",VILLUPURAM,VILLUPURAM,TAMIL NADU
KVBL0001709,Karur Vysya Bank,KVBL0001709,NON-MICR,ARUPPUKOTTAI,"SRI JAYAVILAS COMPLEX FIRST FLOOR 141, SATHIYAMOORTHY BAZAAR ARUPPUKOTTAI","022-22665914, 022-22556467 NEFT@KVBMAIL.COM",ARUPPUKOTTAI,VIRUDHUNAGAR,TAMIL NADU
KVBL0002217,Karur Vysya Bank,KVBL0002217,NON-MICR,MAHESANA,"RAJKAMAL CITY MALL, RAJKAMAL COMPOUND MAHESANA HIGHWAY MAHESANA","022-22665914, 022-22556467 NEFT@KVBMAIL.COM",MAHESANA,MAHESANA,GUJARAT
KVBL0003205,Karur Vysya Bank,KVBL0003205,NON-MICR,ROURKELA,"GROUND FLOOR,ANANDI NIWAS BUILDING ROURKELA  ORISSA","022-22665914, 022-22556467 NEFT@KVBMAIL.COM",RAURKELA,SUNDARGARH,ORISSA
KVBL0001514,Karur Vysya Bank,KVBL0001514,NON-MICR,KANNUR,P.K.COMMERCIAL COMPLEX  OLD SUBWAY ROAD  MUNISHWARAN TEMPLE ROAD      KANNUR,"022-22665914, 022-22556467 NEFT@KVBMAIL.COM",CANNUR,CANNUR,KERALA
KVBL0001706,Karur Vysya Bank,KVBL0001706,NON-MICR,VADASITHUR,"NO 3/151,VADASITHUR  POLLACHI TALUK    VADASITHUR    COIMBATORE      ","022-22665914, 022-22556467 NEFT@KVBMAIL.COM",COIMBATORE,COIMBATORE,TAMIL NADU
KVBL0001710,Karur Vysya Bank,KVBL0001710,NON-MICR,VILLIANUR,"NO:9,THENGOPURAVEETHI  VILLIANUR PONDICHERRY","022-22665914, 022-22556467 NEFT@KVBMAIL.COM",VILLIANUR,PONDICHERRY,PONDICHERRY
KVBL0001712,Karur Vysya Bank,KVBL0001712,NON-MICR,DEVIYAKURICHI,"DOOR NO 2/117 - D   SALEM - CHENNAI HIGHWAY, NH 79     DEVIYAKURICHI           ","022-22665914, 022-22556467 NEFT@KVBMAIL.COM",SALEM,SALEM,TAMIL NADU
KVBL0001713,Karur Vysya Bank,KVBL0001713,NON-MICR,KADAYANALLUR,"BAJANAI MANDAPAM   DOOR NO.347A1,EAST WEST BAZAAR ROAD KADAYANALLUR","022-22665914, 022-22556467 NEFT@KVBMAIL.COM",KADAYANALLUR,TIRUNELVALI,TAMIL NADU
KVBL0002129,Karur Vysya Bank,KVBL0002129,NON-MICR,AMRAVATI,"AMAR ARCADE PHASE III,GROUND FLOOR OPP.RAJPETH POLICE STATION  NEAR VANDU INTERNATIONAL HOTEL  AMRAVATI ","022-22665914, 022-22556467 NEFT@KVBMAIL.COM",AMRAVATI,AMRAVATI,MAHARASHTRA
KVBL0003115,Karur Vysya Bank,KVBL0003115,NON-MICR,DURGAPUR,"188/181,NACHAN ROAD   BENACHITY  DISTT - BURDWAN DURGAPUR            ","022-22665914, 022-22556467 NEFT@KVBMAIL.COM",DURGAPUR,BARDDHAMAN,WEST BENGAL
KVBL0004806,Karur Vysya Bank,KVBL0004806,NON-MICR,NUZVID,DNO:13-387(NEAR DOOR NO)  NEAR VENKATESWARASWAMY TEMPLE  POTTI SRIRAMULU BOMMA CENTRE  NUZVID,"022-22665914, 022-22556467 NEFT@KVBMAIL.COM",NUZVID,KRISHNA,ANDHRA PRADESH
KVBL0001679,Karur Vysya Bank,KVBL0001679,NON-MICR,OTHAKADAI,"SF NO.148/4,MOLANKADU  KARUR MAIN ROAD OTHAKADI","022-22665914, 022-22556467 NEFT@KVBMAIL.COM",ERODE,ERODE,TAMIL NADU
KVBL0001714,Karur Vysya Bank,KVBL0001714,NON-MICR,JAYANKONDAM,NO 28. CHIDAMBARAM ROAD ARIYALUR DISTRICT JAYAKONDAM,"022-22665914, 022-22556467 NEFT@KVBMAIL.COM",ARIYALUR,PERAMBALUR,TAMIL NADU
KVBL0004810,Karur Vysya Bank,KVBL0004810,NON-MICR,KOTHAGUDEM,"HNO:6-12-43,44 GV BUILDING,GANESH BASTHI KHAMMAM DT KOTHAGUDEM","022-22665914, 022-22556467 NEFT@KVBMAIL.COM",KOTHAGUDEM,KHAMMAM,ANDHRA PRADESH
KVBL0001341,Karur Vysya Bank,KVBL0001341,NON-MICR,NELAMANGALA,"SY NO:2060/2310,SUBHASH NAGAR NELAMANGALA NELAMANGALA TALUK BANGALORE KARNATAKA","022-22665914, 022-22556467 NEFT@KVBMAIL.COM",NELAMANGALA,BANGALORE RURAL,KARNATAKA
KVBL0001515,Karur Vysya Bank,KVBL0001515,NON-MICR,THALASSERY,BIG BAZZAR      SAIDAR PALLI ROAD  THALASSERY  KERALA,"022-22665914, 022-22556467 NEFT@KVBMAIL.COM",THALASSERY,CANNUR,KERALA
KVBL0001676,Karur Vysya Bank,KVBL0001676,NON-MICR,KANAKAMPALAYAM,"S.A.B MAIN ROAD  KALLIPATTI KANAKKAMPALAYAM (PO),GOBI(T.K)","022-22665914, 022-22556467 NEFT@KVBMAIL.COM",KALLIPATTI,ERODE,TAMIL NADU
KVBL0001678,Karur Vysya Bank,KVBL0001678,NON-MICR,SOUNDAPUR,"GOBI-ATHANI MAIN ROAD SAVANDAPUR, GOBI TK  ERODE DT","022-22665914, 022-22556467 NEFT@KVBMAIL.COM",GOBICHETTIPALAYAM,ERODE,TAMIL NADU
KVBL0001692,Karur Vysya Bank,KVBL0001692,NON-MICR,THEETHIPALAYAM,SIRUVANI MAIN ROAD KALAMPALAYAM,"022-22665914, 022-22556467 NEFT@KVBMAIL.COM",KALAMPALAYAM,COIMBATORE,TAMIL NADU
KVBL0001715,Karur Vysya Bank,KVBL0001715,NON-MICR,VILPATTI,"W 4-609 ,LOURDHUPURAM  VILPATTY PACHAYAT,ATTUVANPATTY POST  KODAIKANAL,DINDIGUL DIST","022-22665914, 022-22556467 NEFT@KVBMAIL.COM",KODAIKANAL,DINDIGUL,TAMIL NADU
KVBL0001716,Karur Vysya Bank,KVBL0001716,NON-MICR,T. VELLODE,NO.10A-GANDHI NAGAR  CHENNIMALAI ROAD  PERUNDURAI TALUK- ERODE DIST,"022-22665914, 022-22556467 NEFT@KVBMAIL.COM",PERUNDURAI,ERODE,TAMIL NADU
KVBL0001718,Karur Vysya Bank,KVBL0001718,NON-MICR,PATTANAM,"4/143,PATTANAM MAIN ROAD PATTANAM (PO),ONDIPUDUR (VIA)","022-22665914, 022-22556467 NEFT@KVBMAIL.COM",COIMBATORE,COIMBATORE,TAMIL NADU
KVBL0001719,Karur Vysya Bank,KVBL0001719,NON-MICR,AVADI,"PLOT NO:6/PC,2/3   60 FEET WIDE ROAD,T.N.H.B  AVADI","022-22665914, 022-22556467 NEFT@KVBMAIL.COM",AVADI,THIRUVALLUR,TAMIL NADU
KVBL0001721,Karur Vysya Bank,KVBL0001721,NON-MICR,COIMBATORE - THUDIYALUR,"VIP COLONY,SITE NO.46  K.VADAMADURAI THUDIYALUR","022-22665914, 022-22556467 NEFT@KVBMAIL.COM",THUDIYALOOR,COIMBATORE,TAMIL NADU
KVBL0001724,Karur Vysya Bank,KVBL0001724,NON-MICR,ARANTHANGI,"NO.9,KAMARAJAR STREET ARANTHANGI TAMIL NADU","022-22665914, 022-22556467 NEFT@KVBMAIL.COM",ARANTANGI,PUDUKKOTTAI,TAMIL NADU
KVBL0001725,Karur Vysya Bank,KVBL0001725,NON-MICR,SAMAYAPURAM,MANACHANALLUR (TK) TRICHY TAMIL NADU,"022-22665914, 022-22556467 NEFT@KVBMAIL.COM",SAMAYAPURAM,TIRUCHIRAPALLI,TAMIL NADU
KVBL0001726,Karur Vysya Bank,KVBL0001726,NON-MICR,KOOMBUR,"SF NO.689/3A4, KARUR MAIN ROAD KOOMBUR - KOOMBUR PANCHAYAT GUZILLIAMPARAI BLOCK,VEDASANDUR TK KOOMBUR TAMIL NADU","022-22665914, 022-22556467 NEFT@KVBMAIL.COM",VEDASANDUR,DINDIGUL,TAMIL NADU
KVBL0004406,Karur Vysya Bank,KVBL0004406,NON-MICR,GHAZIABAD,"PLOT NOS:9,10,23 AND 24  ADVOCATE CHAMBERS,RDC,RAJ NAGAR  GHAZIABAD","022-22665914, 022-22556467 NEFT@KVBMAIL.COM",GHAZIABAD,GHAZIABAD,UTTAR PRADESH
KVBL0004824,Karur Vysya Bank,KVBL0004824,NON-MICR,CHINTALAPUDI,"D. NO: 169-2, MAIN ROAD  PONNUR(M), GUNTUR DISTRICT   CHINTALAPUDI  ","022-22665914, 022-22556467 NEFT@KVBMAIL.COM",CHINTALAPUDI,WEST GODAVARI,ANDHRA PRADESH
KVBL0004825,Karur Vysya Bank,KVBL0004825,NON-MICR,HYDERABAD - L.B.NAGAR,"MADHURA ARCADE,MANSOORBAD LB NAGAR RING ROAD,LB NAGAR HYDERABAD","022-22665914, 022-22556467 NEFT@KVBMAIL.COM",L.B.NAGAR,RANGAREDDY,ANDHRA PRADESH
KVBL0004827,Karur Vysya Bank,KVBL0004827,NON-MICR,WARANGAL - KAZIPET,"GROUND FLOOR,VISHNUPURI ANDHRA PRADESH","022-22665914, 022-22556467 NEFT@KVBMAIL.COM",KAZIPET,WARANGAL,ANDHRA PRADESH
KVBL0001339,Karur Vysya Bank,KVBL0001339,NON-MICR,HIRUYUR,"BALAJI PLAZA , MAIN ROAD, HIRIYUR, CHITRADURGA DISTRICT.","022-22665914, 022-22556467 NEFT@KVBMAIL.COM",HIRIYUR,CHITRADURGA,KARNATAKA
KVBL0001340,Karur Vysya Bank,KVBL0001340,NON-MICR,BANGALORE WHITEFILED,"186, THUBRAHALLI MAIN ROAD, WHITEFIELD, BANGALORE-560066","022-22665914, 022-22556467 NEFT@KVBMAIL.COM",BANGALORE,BANGALORE URBAN,KARNATAKA
KVBL0001711,Karur Vysya Bank,KVBL0001711,NON-MICR,TIRUKKOYILUR,"NO:53A,SOUTH STREET TIRUKKOYILUR TAMIL NADU","022-22665914, 022-22556467 NEFT@KVBMAIL.COM",TIRUKOILUR,VILLUPURAM,TAMIL NADU
KVBL0001723,Karur Vysya Bank,KVBL0001723,NON-MICR,MOHANUR,NO.128/1 RASIPALAYAM VILLAGE NAMAKKAL DIST MOHANUR TAMIL NADU,"022-22665914, 022-22556467 NEFT@KVBMAIL.COM",MOHANUR,NAMAKKAL,TAMIL NADU
KVBL0001727,Karur Vysya Bank,KVBL0001727,NON-MICR,KORUKKATHUR,"NO:432,BHARATHIYAR STREET KORUKKATHUR VILLAGE CHEYYAR TALUK KORUKKATHUR TAMIL NADU","022-22665914, 022-22556467 NEFT@KVBMAIL.COM",TIRUVATTIPURAM(CHEYYAR),TIRUVANNAMALAI,TAMIL NADU
KVBL0001728,Karur Vysya Bank,KVBL0001728,NON-MICR,ADAMANGALAM,"NEW NO:3/81-A,OLD NO:3/414 ROAD STREET,ADAMANGALAM PUDURKALASAPAKKAM TK,TIRUVANAMALAI DISTADAMANGALAM TAMIL NADU","022-22665914, 022-22556467 NEFT@KVBMAIL.COM",ADAMANGALAM,TIRUVANNAMALAI,TAMIL NADU
KVBL0004702,Karur Vysya Bank,KVBL0004702,NON-MICR,JAMSHEDPUR,"H.NO:479,KASIDIH AREA,P.S.SAKCHI EAST SINGHBHUM DIST JAMSHEDPUR JHARKHAND","022-22665914, 022-22556467 NEFT@KVBMAIL.COM",JAMSHEDPUR,PURBI SINGHBHUM,JHARKHAND
KVBL0004813,Karur Vysya Bank,KVBL0004813,NON-MICR,MURAKAMBATTU,CHITTOOR - TIRUPATHI HIGHWAY ROAD MURAKAMBATTU CHITTOOR DISTRICT MURAKAMBATTU ANDHRA PRADESH,"022-22665914, 022-22556467 NEFT@KVBMAIL.COM",CHITTOOR,CHITTOOR,ANDHRA PRADESH
KVBL0004821,Karur Vysya Bank,KVBL0004821,NON-MICR,NARASANNAPETA,"D.NO 21-268,S.NO 215/1 G.T.ROAD SRIKAKULAM DIST NARASANNAPETA ANDHRA PRADESH","022-22665914, 022-22556467 NEFT@KVBMAIL.COM",SRIKAKULAM,KRISHNA,ANDHRA PRADESH
KVBL0004822,Karur Vysya Bank,KVBL0004822,NON-MICR,SAMALKOT,"D NO: 11-2-2,MAIN ROAD OPP: HEAD POST OFFICE PEDDAPURAM ROAD SAMALKOT ANDHRA PRADESH","022-22665914, 022-22556467 NEFT@KVBMAIL.COM",SAMALKOT,EAST GODAVARI,ANDHRA PRADESH
KVBL0004823,Karur Vysya Bank,KVBL0004823,NON-MICR,VALLURU," OPPOSITE WATER TANK NEAR VALLURAMMA TEMPLE SITE VALLURU VILLAGE,NEAR ONGOLE PRAKASAM DISTRICT ANDHRA PRADESH","022-22665914, 022-22556467 NEFT@KVBMAIL.COM",ONGOLE,PRAKASAM,ANDHRA PRADESH
KVBL0004826,Karur Vysya Bank,KVBL0004826,NON-MICR,VIZAG - GOPALAPATNAM,"T SREE RAMA MURTHY AND VARALAXMI MAIN ROAD, 10-149,10-150 GOPALAPATNAM VISAKHAPATNAM ANDHRA PRADESH","022-22665914, 022-22556467 NEFT@KVBMAIL.COM",GOPALAPATNAM,VISHAKHAPATNAM,ANDHRA PRADESH
KVBL0004829,Karur Vysya Bank,KVBL0004829,NON-MICR,RAJAHMUNDRY - TILAK ROAD,NO: 79-7-16/1  SYAMALA NAGAR RAJAHMUNDRYANDHRA PRADESH,"022-22665914, 022-22556467 NEFT@KVBMAIL.COM",RAJAHMUNDRY,EAST GODAVARI,ANDHRA PRADESH
KVBL0009999,Karur Vysya Bank,KVBL0009999,NON-MICR,KARUR VYSYA BANK TREASURY,"POST BOX NO. 21, ERODE ROAD, KARUR-639002","022-22665914, 022-22556467 NEFT@KVBMAIL.COM",KARUR,KARUR,TAMIL NADU
KVBL0001717,Karur Vysya Bank,KVBL0001717,NON-MICR,MADURAI - KAMARAJAR SALAI,DOOR NO. 162/A/1 KAMARAJAR SALAI MADURAI TAMIL NADU,"022-22665914, 022-22556467 NEFT@KVBMAIL.COM",MADURAI,MADURAI,TAMIL NADU
KVBL0001722,Karur Vysya Bank,KVBL0001722,NON-MICR,CHENNAI - RLPC,SOUTHWING FIRST FLOOR NO.37 WHITES ROAD ROYAPETTAH CHENNAI TAMIL NADU,"022-22665914, 022-22556467 NEFT@KVBMAIL.COM",CHENNAI,CHENNAI,TAMIL NADU
KVBL0002126,Karur Vysya Bank,KVBL0002126,NON-MICR,MUMBAI - MATUNGA,TEJ-GAURAV HOUSE PLOT NO 109 TELANG ROAD MATUNGA MUMBAI MAHARASHTRA,"022-22665914, 022-22556467 NEFT@KVBMAIL.COM",MUMBAI,GREATER BOMBAY,MAHARASHTRA
KVBL0004828,Karur Vysya Bank,KVBL0004828,NON-MICR,HYDERABAD - RLPC,5-8-363 TO 365 (FIRST FLOOR) CHIRAG ALI LANE ABIDS HYDERABAD ANDHRA PRADESH,"022-22665914, 022-22556467 NEFT@KVBMAIL.COM",HYDERABAD,HYDERABAD,ANDHRA PRADESH
KVBL0001516,Karur Vysya Bank,KVBL0001516,NON-MICR,ERNAKULAM DIVISIONAL OFFICE,"40/0145C, I FLOOR,AMIRTHA TOWERS,CONGRESS HOUSE JUNCTION,ERNAKULAM,KERALA","022-22665914, 022-22556467 NEFT@KVBMAIL.COM",KOCHI,ERNAKULAM,KERALA
KVBL0001681,Karur Vysya Bank,KVBL0001681,NON-MICR,PONDICHERRY - LAWSPET,"PLOT NO.NO.14 AND 15,BASS TOWERS (GROUND FLOOR),ECR,KARUVADIKUPPAM,LAWSPET","022-22665914, 022-22556467 NEFT@KVBMAIL.COM",PONDICHERRY,PONDICHERRY,PONDICHERRY
KVBL0001720,Karur Vysya Bank,KVBL0001720,NON-MICR,CHENNAI - SALIGRAMAM,"FIRST FLOOR 44 A, ARCOT ROAD SALIGRAMAM CHENNAI","022-22665914, 022-22556467 NEFT@KVBMAIL.COM",CHENNAI,CHENNAI,TAMIL NADU