ID,BANK,IFSC_CODE,MICR_CODE,BRANCH_NAME,ADDRESS,CONTACT,CITY,DISTRICT,STATE
DLXB0000001,Dhanlaxmi Bank Ltd,DLXB0000001,680048002,THRISSUR MAIN,NAICKANAL JUNCTION        THE ROUND                 THRISSUR,,THRISSUR,TRISSUR,KERALA
DLXB0000002,Dhanlaxmi Bank Ltd,DLXB0000002,682048002,ERNAKULAM - SHANMUGHAM ROAD,"C/40/664(2), ALEX BUILDG , SHANMUGHAM ROAD, ERNAKULAM-31",,KOCHI,ERNAKULAM,KERALA
DLXB0000003,Dhanlaxmi Bank Ltd,DLXB0000003,NON_MICR,PALAKKAD-BIG BAZAR,"1ST FLOOR,                HAJEE COMPLEX,            MARKET ROAD,              PALAKKAD",,PALAKKAD,PALAKKAD,KERALA
DLXB0000004,Dhanlaxmi Bank Ltd,DLXB0000004,680048004,THRISSUR - PUSHPAGIRI,"GROUND FLOOR              DHANALAKSHMI COMPLEX,     DHANALAKSHMI BUILDINGS    PUNKUNNAM,THRISSUR",,THRISSUR,TRISSUR,KERALA
DLXB0000005,Dhanlaxmi Bank Ltd,DLXB0000005,680048452,PERINGOTTUKARA,"VEMBANAT BUILDING         EAST NADA, TRIPRAYAR      PERINGOTTUKARA            THRISSUR DIST",,VALAPAD,TRISSUR,KERALA
DLXB0000006,Dhanlaxmi Bank Ltd,DLXB0000006,680048010,KANJANY,"I/359, THOTUPURA SN BLDG., KANJANY CENTRE,  VADANAPPILLY ROAD ,  THRISSUR DIST",,VADANAPPALLY,TRISSUR,KERALA
DLXB0000007,Dhanlaxmi Bank Ltd,DLXB0000007,NON_MICR,KALPARAMBA,"KALPARAMBA, ,   ARIPALAM (P O),    VIA IRANJALAGUDA     TRICHUR DIST       KERALA STATE,     680688",,KALPARAMBA,TRISSUR,KERALA
DLXB0000008,Dhanlaxmi Bank Ltd,DLXB0000008,680048352,KODAKARA,"IST FLOOR,                K.R.COMPLEX,              KODAKARA,                 THRISSUR.",,KODAKARA,TRISSUR,KERALA
DLXB0000009,Dhanlaxmi Bank Ltd,DLXB0000009,680048005,THRISSUR-HIGH ROAD,"XXV/1103                  HIGH ROAD,                THRISSUR",,THRISSUR,TRISSUR,KERALA
DLXB0000010,Dhanlaxmi Bank Ltd,DLXB0000010,680048302,KUNNAMKULAM,1/804-M                   WADAKKANCHERY ROAD        P.B.NO.26                 KUNNAMKULAM,,KUNNAMKULAM,TRISSUR,KERALA
DLXB0000011,Dhanlaxmi Bank Ltd,DLXB0000011,NON_MICR,PAZHANJI,PAZHANJI-KATTAKAMPAL ROAD PAZHANJI                  THRISSUR DIST,,PAZHANJI,TRISSUR,KERALA
DLXB0000012,Dhanlaxmi Bank Ltd,DLXB0000012,680048202,IRINJALAKUDA,"PB NO:14,DOOR NO XIX/546H CHITTILAPPILLY TOWERS,    OPP TOWN HALL, NEAR BUS   STAN, IRINJALAKUDA",,IRINJALAKUDA,TRISSUR,KERALA
DLXB0000013,Dhanlaxmi Bank Ltd,DLXB0000013,NON_MICR,CHERTHALA,"CMC IV/165 A BMG COMPLEX, NORTH GATE                KARTHIAYINI TEMPLE ROAD   CHERTHALA",,CHERTHALA,ALAPUZZHA,KERALA
DLXB0000014,Dhanlaxmi Bank Ltd,DLXB0000014,NON_MICR,KUTHIYATHODE,"KUTHIYATHODE,   FIRST FLOOR R K COMPLEX,    ALLEPPY DIST       KERALA STATE,     688533",,KUTHIATHODE,ALAPUZZHA,KERALA
DLXB0000015,Dhanlaxmi Bank Ltd,DLXB0000015,680048003,THRISSUR-ROUND SOUTH,"1ST FLOOR ""PATHAYAPURA""   PARAMEKKAVU DEVSWOM BUILD ROUND SOUTH               THRISSUR",,THRISSUR,TRISSUR,KERALA
DLXB0000016,Dhanlaxmi Bank Ltd,DLXB0000016,NON_MICR,PARLI,VII/146                   SHORNUR ROAD              PARLI                     PALAKKAD,,PARLI,PALAKKAD,KERALA
DLXB0000017,Dhanlaxmi Bank Ltd,DLXB0000017,682048006,MATTANCHERRY,"P B NO:303,               VI/368 ANAVATHIL,         MATTANCHERRY               EKM DIST",,KOCHI,ERNAKULAM,KERALA
DLXB0000018,Dhanlaxmi Bank Ltd,DLXB0000018,682048007,PALLURUTHY,23/2642 C                 ASB ESTATE.               PALLURUTHY                ERNAKULAM DIST,,KOCHI,ERNAKULAM,KERALA
DLXB0000019,Dhanlaxmi Bank Ltd,DLXB0000019,NON_MICR,VADAKKENCHERRY,"NO:III/901-H,FIRST FLOOR  SHAH TOWERS               VADAKKENCHERRY            PALAKKAD DIST",,VADAKKANCHERI,PALAKKAD,KERALA
DLXB0000020,Dhanlaxmi Bank Ltd,DLXB0000020,NON_MICR,EDAPPAL,"6/485                     PALGHAT ROAD              P.B.NO.2                  EDAPPAL, MALAPPURAM",,EDAPPAL,MALAPURAM,KERALA
DLXB0000021,Dhanlaxmi Bank Ltd,DLXB0000021,NON_MICR,CHERUTHURUTHY,"IX/139,  MAIN ROAD,  CHERUTHURUTHY, THRISSUR DIST.",,CHERUTHURUTHY,TRISSUR,KERALA
DLXB0000022,Dhanlaxmi Bank Ltd,DLXB0000022,NON_MICR,PATTAMBI,"PB NO.3,DOOR NO.5/1672,   1ST FLOOR, YEMKAY TRADE   CENTRE, MAIN ROAD,        PATTAMBI 679 303",,PATTAMBI,PALAKKAD,KERALA
DLXB0000023,Dhanlaxmi Bank Ltd,DLXB0000023,NON_MICR,PAZHAYANNUR,"PB NO;9, 1ST FLOOR,       PRABHALA SHOPPING COMPLEX MAIN ROAD,PAZHAYANNUR     THRISSUR",,PAZHAYANNUR,TRISSUR,KERALA
DLXB0000024,Dhanlaxmi Bank Ltd,DLXB0000024,682048014,KUZHUPALLY,"SRI BALAKRISHNA SWAMY DEWASOM COMP,    VYPEEN MUNAMBAM ROAD     AYYANPILLY P O  KUZHUPPALLI    KERALA STATE,     682501",,KUZHUPILLY,ERNAKULAM,KERALA
DLXB0000025,Dhanlaxmi Bank Ltd,DLXB0000025,NON_MICR,HARIPAD,"P.BNO:1,                  SREE MURUGAN BLDG.,TION   NEAR TOWN HALL JUNCTION   HARIPAD",,HARIPAD,ALAPUZZHA,KERALA
DLXB0000026,Dhanlaxmi Bank Ltd,DLXB0000026,NON_MICR,KONGAD,"KRISHNA BUILDING,    MAIN ROAD     KONGAD PALAKKAD DIST.    KONGAD,    KERALA,     678631",,KONGAD,PALAKKAD,KERALA
DLXB0000027,Dhanlaxmi Bank Ltd,DLXB0000027,NON_MICR,S L PURAM,"287, MAIN ROAD,    SL PURAM P O     SL PURAM    KANJIKKUZHI,ALPPUZHA,    KERALA,     688523",,ALAPPUZHA,PALAKKAD,KERALA
DLXB0000028,Dhanlaxmi Bank Ltd,DLXB0000028,680048252,THIRUVANCHIKULAM,"P B NO. 17                863 A ,DHARMARAJ BUILDING SRINGAPURAM,KODUGALLUR    TRISSUR DIST",,KODUNGALLUR,TRISSUR,KERALA
DLXB0000029,Dhanlaxmi Bank Ltd,DLXB0000029,NON_MICR,KUNISSERY,"ALATTUR PALAKKAD ROAD,    KUNNISSERY       PALAKKAD DIST,    KERALA,     678681",,KUNISSERY,PALAKKAD,KERALA
DLXB0000030,Dhanlaxmi Bank Ltd,DLXB0000030,NON_MICR,PARAPPUR,"6/407 THOLUR PANCHAYATH,    PARAPPUR JUNCTION     PARAPPUR    TRICHUR,    KERALA,     680552",,PARAPPUR,TRISSUR,KERALA
DLXB0000031,Dhanlaxmi Bank Ltd,DLXB0000031,682048015,CHERANELLUR,VIA EDAPPALLY             ERNAKULAM DIST.,,KOCHI,ERNAKULAM,KERALA
DLXB0000032,Dhanlaxmi Bank Ltd,DLXB0000032,NON_MICR,THAZHAVA,"BLDG.NO:TP 9/371A,   PC ROAD, SRP MARKET,   NEAR SAG THEATRE,THAZHAVA KOLLAM.",,MYNAGAPALLY,KOLLAM,KERALA
DLXB0000033,Dhanlaxmi Bank Ltd,DLXB0000033,NON_MICR,THACHAMPARA,"THUNDIL COMPLEX,    CALICUT ROAD     THACHAMPARA   ,    KERALA,     678593",,TACHAMPARA,PALAKKAD,KERALA
DLXB0000034,Dhanlaxmi Bank Ltd,DLXB0000034,NON_MICR,ALOOR,"577 G, FIRST FLOOR        ST.JOSEPH CHURCH SHOPPING COMPLEX,NEAR ESI          DISPENSARY, ALOOR ,TCR",,KODAKARA,TRISSUR,KERALA
DLXB0000035,Dhanlaxmi Bank Ltd,DLXB0000035,NON_MICR,KAINAKARI,"BUILDING NO 96/5,    KAINAKARI     ALAPUZHA DIST.    KAINAKARI,    KERALA,     688501",,KAINAKARY,ALAPUZZHA,KERALA
DLXB0000036,Dhanlaxmi Bank Ltd,DLXB0000036,NON_MICR,PUNNAKUNNAM,PULINKUNNU P.O.           PUNNAKUNNAM               ALAPUZHA,,PULINCUNNOO,ALAPUZZHA,KERALA
DLXB0000037,Dhanlaxmi Bank Ltd,DLXB0000037,695048004,TVM VAZHUTHACAUD,HDFC HOUSE                VAZHUTHACAUD              THIRUVANANTHAPURAM        PIN - 695 010.,,THIRUVANANTHAPURAM,TRIVANDRUM,KERALA
DLXB0000038,Dhanlaxmi Bank Ltd,DLXB0000038,682048003,ERNAKULAM - PALARIVATTOM,"GROUND FLOOR,K M M BUILDI 32/2383 A-1,OP.KSEB OFFIC S N JUNCTION PALARIVATTOM ERNAMKULAM",,KOCHI,ERNAKULAM,KERALA
DLXB0000040,Dhanlaxmi Bank Ltd,DLXB0000040,695048006,KARAKULAM,"KP/1024 A,KRP BLDGS.,  PALAM JUNCTION,VAZHAYILA, KARAKULAM, THIRUVANANTHAPURAM",,KARAKULAM,TRIVANDRUM,KERALA
DLXB0000041,Dhanlaxmi Bank Ltd,DLXB0000041,673048002,KOZHIKODE,"17/1341 H,RAM MOHAN ROAD,  CHINTHAVALAPPU,   KOZHIKODE",,CALICUT,KOZHIKODE,KERALA
DLXB0000042,Dhanlaxmi Bank Ltd,DLXB0000042,680048009,MUNDUR,"SAHABA COMPLEX,1ST FLOOR  TRICHUR GURUVAYUR ROAD    MUNDUR                    THRISSUR DIST",,THRISSUR,TRISSUR,KERALA
DLXB0000044,Dhanlaxmi Bank Ltd,DLXB0000044,680048152,MURINGOOR,"PAYYAPPILLY BUILDINGS     MURINGOOR JUNCTION        NH 47, MURINGOOR          THRISSUR",,CHALAKUDY,TRISSUR,KERALA
DLXB0000045,Dhanlaxmi Bank Ltd,DLXB0000045,NON_MICR,ARYANAD,"ARYANAD,   AP 585,    ARYANAD     THIRUVANANTHAPURAM      KERALA STATE,     695542",,ARYANAD,TRIVANDRUM,KERALA
DLXB0000046,Dhanlaxmi Bank Ltd,DLXB0000046,NON_MICR,THOTTIPAL,"11/122                    PUDUKKAD MAPRANAM ROAD    THOTTIPAL, THRISSUR",,THOTTIPPAL,TRISSUR,KERALA
DLXB0000047,Dhanlaxmi Bank Ltd,DLXB0000047,NON_MICR,CHANGANACHERRY,"P.B.NO:2                  KAVALAM BLDG.,            S.B COLLEGE  ROAD         CHANGANACHERRY, KOTTAYAM",,CHANGANASSERY,KOTTAYAM,KERALA
DLXB0000048,Dhanlaxmi Bank Ltd,DLXB0000048,NON_MICR,VAIKOM,P.B.NO 1                  VAIKOM KOTTAYAM           KERALA,,VAIKOM,KOTTAYAM,KERALA
DLXB0000049,Dhanlaxmi Bank Ltd,DLXB0000049,680048008,ATHANI,"168,  TRICHUR-SHORANUR ROAD,  ATHANI,  THRISSUR",,MINALUR (ATHANI),TRISSUR,KERALA
DLXB0000050,Dhanlaxmi Bank Ltd,DLXB0000050,NON_MICR,VALLANGI - NEMMARA,"V/47-A,GROUND FLOOR       I.G.TOWERS                NEMMARA                   PALAKKAD",,ALATHUR,PALAKKAD,KERALA
DLXB0000051,Dhanlaxmi Bank Ltd,DLXB0000051,NON_MICR,KOTTAYAM,WARD NO.17 P B 261        KANIANTHARA HEIGHTS       BAKER JUNCTION            KOTTAYAM,,KOTTAYAM,KOTTAYAM,KERALA
DLXB0000052,Dhanlaxmi Bank Ltd,DLXB0000052,NON_MICR,KANICHIKULANGARA,"13/7 DEWASOOM BUILDING,    ALAPUZHA ROAD     ALAPUZHA DIST.    KANICHIKULANGARA,    KERALA STATE,     984011",,KANICHIKULANGARA,ALAPUZZHA,KERALA
DLXB0000053,Dhanlaxmi Bank Ltd,DLXB0000053,NON_MICR,PUTHUR,1ST FLOOR                 KAKANAT TOWERS            PUTHUR                    THRISSUR,,THRISSUR,TRISSUR,KERALA
DLXB0000054,Dhanlaxmi Bank Ltd,DLXB0000054,600048002,CHENNAI - MOUNT ROAD,"P.B.NO.359                163,OM SAKTHI TOWER       ANNA SALAI                CHENNAI",,CHENNAI,CHENNAI,TAMIL NADU
DLXB0000055,Dhanlaxmi Bank Ltd,DLXB0000055,682048011,ERNAKULAM - HOSPITAL ROAD,"P.B.NO:1150,              XL/252 HOSPITAL ROAD,     ERNAKULAM",,KOCHI,ERNAKULAM,KERALA
DLXB0000056,Dhanlaxmi Bank Ltd,DLXB0000056,NON_MICR,PALAKKAD - SULTANPET,LAKSHMI PLAZA             COIMBATORE ROAD           SULTANPET                 PALAKKAD,,PALAKKAD,PALAKKAD,KERALA
DLXB0000057,Dhanlaxmi Bank Ltd,DLXB0000057,695048002,TRIVANDRUM - FORT,P.B.NO 5067               KARIMPANAL ARCADE         FORT                      THIRUVANANTHAPURAM,,THIRUVANANTHAPURAM,TRIVANDRUM,KERALA
DLXB0000058,Dhanlaxmi Bank Ltd,DLXB0000058,NON_MICR,TRIKKUNNAPUZHA,"III-507, T.PUZHA-THOTTAPILLY,    PALLIPATTUMURY     ALAPUZHA    THRIKUNNAPUZHA,    KERALA,     690515",,THRIKKUNNAPUZHA,ALAPUZZHA,KERALA
DLXB0000059,Dhanlaxmi Bank Ltd,DLXB0000059,NON_MICR,KOLLAM,"GROUND FLOOR, GANGOTHRI   TOWERS, NEAR IRON BRIDGE  KOLLAM - 691 001",,KOLLAM,KOLLAM,KERALA
DLXB0000060,Dhanlaxmi Bank Ltd,DLXB0000060,680048052,GURUVAYOOR,"P.B.NO.14,  III 541 A & III 541 B,  EAST NADA,  GURUVAYOOR, KERALA",,GURUVAYUR,TRISSUR,KERALA
DLXB0000061,Dhanlaxmi Bank Ltd,DLXB0000061,NON_MICR,PERINKULAM,"PERINKULAM,   BANK ROAD ALLATHUR,       PALAKKAD DIST.      KERALA STATE,     678541",,ALATHUR,PALAKKAD,KERALA
DLXB0000062,Dhanlaxmi Bank Ltd,DLXB0000062,641048002,COIMBATORE,"P.B.NO.2951               268, CROSS CUT ROAD       GANDHIPURAM               COIMBATORE",,COIMBATORE,COIMBOTORE,TAMIL NADU
DLXB0000063,Dhanlaxmi Bank Ltd,DLXB0000063,NON_MICR,POLLACHI,"P.B.NO. 21                NO.84,COIMBATORE ROAD     POLLACHI                  T.N",,POLLACHI,COIMBOTORE,TAMIL NADU
DLXB0000064,Dhanlaxmi Bank Ltd,DLXB0000064,NON_MICR,VARANDARAPILLY,"IV/788 KOVENDA CHURCH     BUILDING,VARANDARAPPILLY  THRISSUR DIST",,VARANDRAPALLY,TRISSUR,KERALA
DLXB0000065,Dhanlaxmi Bank Ltd,DLXB0000065,NON_MICR,THRIKKARIYOOR,"THERATHENAL BUILDING,     TRIKKARIYOOR              ERNAKULAM DISTRICT",,KOTHAMANGALAM,ERNAKULAM,KERALA
DLXB0000066,Dhanlaxmi Bank Ltd,DLXB0000066,NON_MICR,KANNUR,"P.B.NO:60,DOOR NO:2471,   WARD CC/XXIX,1ST FLOOR,   SHAAN BLDG., J S PAUL JN. M A RAOD, KANNUR",,CANNUR,KANNUR,KERALA
DLXB0000067,Dhanlaxmi Bank Ltd,DLXB0000067,NON_MICR,MUNNAR,"MP/IX/2728 -F             CHALAKKAL KRISHNAN & SON  ALUVA-MUNNAR ROAD,        MUNNAR, KERALA",,MUNNAR,IDUKKI,KERALA
DLXB0000068,Dhanlaxmi Bank Ltd,DLXB0000068,600048003,CHENNAI-MANDAVELI,"NO:34, CSM PLAZA,V.K.ROAD MANDVELI, CHENNAI         CHENNAI, T.N",,CHENNAI,CHENNAI,TAMIL NADU
DLXB0000069,Dhanlaxmi Bank Ltd,DLXB0000069,560048002,BANGLOORE - DICKENSON ROAD,"P.B.NO.4214   NO.9,DICKENSON ROAD, BANGALORE",,BANGALORE,BANGALORE URBAN,KARNATAKA
DLXB0000070,Dhanlaxmi Bank Ltd,DLXB0000070,575048002,MANGALORE,"DHINDA CHAMBERS,GROUND    FLOOR,NO.5-5-301/3        M G ROAD,OPP:S D M LAW    COLLAGE,MANGALORE",,MANGALORE,DAKSHINA KANNADA,KARNATAKA
DLXB0000071,Dhanlaxmi Bank Ltd,DLXB0000071,680048402,KUMARANELLUR,"VIII/1023                 TRICHUR-SHORNUR ROAD      KUMARANELLUR-OTTUPPARA    WADAKKANCHERY, TCR DIST",,KUMARANELLUR,TRISSUR,KERALA
DLXB0000072,Dhanlaxmi Bank Ltd,DLXB0000072,682048009,DESOM,"III/202                   NATIONAL HIGH WAY 47      DESOM                     ALUVA, EKM DIST",,DESOM,ERNAKULAM,KERALA
DLXB0000073,Dhanlaxmi Bank Ltd,DLXB0000073,NON_MICR,ANGAMALY,"P.B.NO.8                  GROUND FLOOR              K V VARKEY MEMORIAL       COMPLEX, ANGAMALY",,ANGAMALY,ERNAKULAM,KERALA
DLXB0000074,Dhanlaxmi Bank Ltd,DLXB0000074,NON_MICR,PUDUSSERY,5/657 MAIN ROAD           PUDUSSERY                 KANJIKODE                 PALAKKAD DIST,,KANJIKODE,PALAKKAD,KERALA
DLXB0000075,Dhanlaxmi Bank Ltd,DLXB0000075,NON_MICR,KODUNTHIRAPILLY,"PRIYADARSHINI NAGAR,    KODUNTHIRAPPULLY     PALAKKAD    PALAKKAD,    KERALA,     678004",,KODUNTHRIRAPALLY,PALAKKAD,KERALA
DLXB0000076,Dhanlaxmi Bank Ltd,DLXB0000076,NON_MICR,ARATTUPUZHA,SREE MURALI COMPLEX       PALLESSERY P.O.           ARATTUPUZHA               TCR DIST,,ARATTUPUZHA,TRISSUR,KERALA
DLXB0000077,Dhanlaxmi Bank Ltd,DLXB0000077,695048152,ANAD,"3/53                      V V BUILDINGS,            PAZHAKUTTY P.O.NEDUMANGAD THIRUVANANTHAPURAM.",,NEDUMANGAD,TRIVANDRUM,KERALA
DLXB0000078,Dhanlaxmi Bank Ltd,DLXB0000078,NON_MICR,CHADHAYAMANGALAM,DEVARAGAM BUILDING        NEAR KSRTC BUS STAND      CHADAYAMANGALM- 691534    KOLLAM,,AYOOR,KOLLAM,KERALA
DLXB0000079,Dhanlaxmi Bank Ltd,DLXB0000079,NON_MICR,KOPPAM,"KOPPAM,   PULASSERY,    KOPPAM VILLAGE     PALAKKAD DIST   ,    KERALA,     679307",,KOPPAM,PALAKKAD,KERALA
DLXB0000080,Dhanlaxmi Bank Ltd,DLXB0000080,682048010,TRIPUNITHURA,P.B.NO.9                  EAST FORT GATE            TRIPUNITHURA              EKM DIST,,KOCHI,ERNAKULAM,KERALA
DLXB0000081,Dhanlaxmi Bank Ltd,DLXB0000081,680048007,PALAKKAL,"""MONON'S COMPLEX          AMMADAM/KODANNUR ROAD     PALAKKAL                  THRISSUR",,CHERPU,TRISSUR,KERALA
DLXB0000082,Dhanlaxmi Bank Ltd,DLXB0000082,NON_MICR,KURICHIKKARA,"CHEERIAN SHOPPING COMPLEX,    PONGANAMKED       KURICHIKKARA,    KERALA STATE,     680028",,KURICHIKARA,TRISSUR,KERALA
DLXB0000083,Dhanlaxmi Bank Ltd,DLXB0000083,NON_MICR,CHITTUR,9/IV                      CHITTUR-COIMBATORE ROAD   CHITTUR                   PALAKKAD DIST,,CHITTUR,PALAKKAD,KERALA
DLXB0000084,Dhanlaxmi Bank Ltd,DLXB0000084,NON_MICR,NAGERCOIL,"DOOR NO: 86, 1ST FLOOR,   EAST TOWER,               VSK BUILDING,             NAGERCOIL,KANYA KUMARI DT",,NAGERCOIL,KANNIYAKUMARI,TAMIL NADU
DLXB0000085,Dhanlaxmi Bank Ltd,DLXB0000085,NON_MICR,KALLAMBALAM,"THULASI COMPLEX,          KALLAMBALAM               THIRUVANANTHAPURAM DIST",,KALLAMBALAM,TRIVANDRUM,KERALA
DLXB0000086,Dhanlaxmi Bank Ltd,DLXB0000086,680048006,THAIKKATUSERY,"EDAKUNNI TEMPLE ROAD,    OLLUR     TRICHUR DIST    THAIKKATTUSSERY,    KERALA STATE,     680303",,THAIKKATTUSSERY,TRISSUR,KERALA
DLXB0000087,Dhanlaxmi Bank Ltd,DLXB0000087,NON_MICR,KOTTEKKAD,"10/508, KUNNATH BUILDING,    KOTTEKKAD     KUTTUR P.O    THRISSUR,    KERALA,     680001",,KOTTEKKAD,TRISSUR,KERALA
DLXB0000088,Dhanlaxmi Bank Ltd,DLXB0000088,500048002,HYDERABS - ABIDS,"P.B.NO.246                1ST FLOOR, KUNDA'S ESTATE ABIDS,                    HYDERABAD, A.P",,HYDERABAD,HYDERABAD URBAN,ANDHRA PRADESH
DLXB0000089,Dhanlaxmi Bank Ltd,DLXB0000089,NON_MICR,K V KUPPAM,"VASANTH MAHAL, NO:4/106   KATAPADI-GUDIYATAM MAIN   ROAD, K V KUPPAM,         VELLORE DISTRICT, TN",,K.V.KUPPAM,VELLORE,TAMIL NADU
DLXB0000090,Dhanlaxmi Bank Ltd,DLXB0000090,NON_MICR,LATHERI,"1/327 MAIN ROAD           LATHERI                   NORTH ARCOT, T.N",,LATHERI,VELLORE,TAMIL NADU
DLXB0000091,Dhanlaxmi Bank Ltd,DLXB0000091,NON_MICR,VELLORE,"NO 20, 1ST FLOOR          GANDHI ROAD               P.B.NO.406                VELLORE, T.N",,VELLORE,VELLORE,TAMIL NADU
DLXB0000092,Dhanlaxmi Bank Ltd,DLXB0000092,NON_MICR,SREENIVASAPURAM,C-VI/300                  COLLEGE-NADAYANA ROAD     SREENIVASAPURAM           VARKALA TVM DT,,VARKALA,TRIVANDRUM,KERALA
DLXB0000094,Dhanlaxmi Bank Ltd,DLXB0000094,NON_MICR,TUMKUR,"2 KUVEMPU NAGAR P.O.BLDG  B.H.ROAD                  BATAWADI                  TUMKUR, KARNATAKA STATE",,TUMKUR,TUMKUR,KARNATAKA
DLXB0000095,Dhanlaxmi Bank Ltd,DLXB0000095,NON_MICR,ALAPPUZHA,26/1006 PALACE ROAD       ALAPPUZHA                 KERALA,,ALAPPUZHA,ALAPUZZHA,KERALA
DLXB0000096,Dhanlaxmi Bank Ltd,DLXB0000096,NON_MICR,VAZHAPANDAL,"SRI L N PERUMAL KOIL STREET,    VAZHAIPANDAL     NORTH ARCOT DIST ,VELLORE   ,    TAMIL NADU,     600001",,VAZHAIPANDAL,VELLORE,TAMIL NADU
DLXB0000097,Dhanlaxmi Bank Ltd,DLXB0000097,600048004,CHENNAI-G.T,"OLD NO;128,NEW NO.269     THAMBU CHETTY STRE        GEORGE TOWN,              CHENNAI",,CHENNAI,CHENNAI,TAMIL NADU
DLXB0000098,Dhanlaxmi Bank Ltd,DLXB0000098,NON_MICR,EDAVILANGU,"PANCHAYAT OFFICE BUILDING EDAVILANGU ROAD           EDAVILANGU,KODUNGALLOOR   THRISSUR DIST",,EDAVILANGU,TRISSUR,KERALA
DLXB0000099,Dhanlaxmi Bank Ltd,DLXB0000099,NON_MICR,AYARKUNNAM,"FIRST FLOOR,    CHIRAPURATHU BUILDINGS     MAIN ROAD AYARKUNNAM    AYARKUNNAM,    KERALA STATE,     686564",,AYARKUNNAM,KOTTAYAM,KERALA
DLXB0000100,Dhanlaxmi Bank Ltd,DLXB0000100,NON_MICR,CHIRAKADAVU,"III- 53 K.K.ROAD          KOLLATHUKULAM BLDG.,      CHIRAKADAVU,PONKUNNAM     KOTTAYAM DIST",,PONKUNNAM,KOTTAYAM,KERALA
DLXB0000101,Dhanlaxmi Bank Ltd,DLXB0000101,NON_MICR,PERUVAMBA,"6/168 SHERIFF MENZIL,    CHUNGAM PALAKKAD ROAD     PERUVAMBA    PALAKKAD DIST,    KERALA,     678531",,PERUVEMBA,PALAKKAD,KERALA
DLXB0000102,Dhanlaxmi Bank Ltd,DLXB0000102,NON_MICR,VATTAPPARA,"VATTAPPARA 678506,    TRIVANDRUM DIST         VATTAPPARA,    KERALA STATE,     678506",,VATTAPARA,TRIVANDRUM,KERALA
DLXB0000103,Dhanlaxmi Bank Ltd,DLXB0000103,520048001,VIJAYAWADA,"27-6-177                  PRAKASHAM ROAD,IST FLOOR  434 GOVERNERPET           VIJAYAWADA, A.P",,VIJAYAWADA,KRISHNA,ANDHRA PRADESH
DLXB0000104,Dhanlaxmi Bank Ltd,DLXB0000104,NON_MICR,CHITTUMALA,1V/406                    KOLLAM-KALLADA ROAD       MULAVANA P O              KOLLAM DIST,,CHITTUMALA,KOLLAM,KERALA
DLXB0000105,Dhanlaxmi Bank Ltd,DLXB0000105,620048002,THIRUCHIRAPALLI,"P.B.NO 451, 12 MADURAI ROAD,  THIRUCHIRAPPALLAI.",,TIRUCHIRAPPALLI,TIRUCHIORAPPALLI,TAMIL NADU
DLXB0000106,Dhanlaxmi Bank Ltd,DLXB0000106,625048002,MADURAI,216-A.                    NETAJI ROAD               MADURAI                   TAMIL NADU,,MADURAI,MADURAI,TAMIL NADU
DLXB0000107,Dhanlaxmi Bank Ltd,DLXB0000107,636048002,SALEM,"# 77, 1ST FLOOR,          ORIENTAL SHOPPING COMPLEX A A STREET, SALEM - 1.    T.N",,SALEM,SALEM,TAMIL NADU
DLXB0000108,Dhanlaxmi Bank Ltd,DLXB0000108,NON_MICR,MELARKODE,"CHITTILANCHERRY P O,    MELARCODE     PALAKKAD DIST.    MELARCODE,    KERALA STATE,     678704",,MELARCODE,PALAKKAD,KERALA
DLXB0000110,Dhanlaxmi Bank Ltd,DLXB0000110,NON_MICR,PERUNNA,XIX/514                   M.C.ROAD                  PERUNNA                   KOTTAYAM DIST,,CHANGANASSERY,KOTTAYAM,KERALA
DLXB0000111,Dhanlaxmi Bank Ltd,DLXB0000111,NON_MICR,THAZHAKKARA,"421                       MAVELIKARA-PANDALAM ROAD  KUNNAM P O,               ALAPUZHA",,THAZHAKKARA,ALAPUZZHA,KERALA
DLXB0000112,Dhanlaxmi Bank Ltd,DLXB0000112,638048003,ERODE,"D.NO.523, NETHAJI ROAD, ERODE,   PERIYAR DIST  T.N",,ERODE,ERODE,TAMIL NADU
DLXB0000113,Dhanlaxmi Bank Ltd,DLXB0000113,NON_MICR,THIRUVALLA,17/567                    M.C.ROAD                  THIRUVALLA                KERALA,,THIRUVALLA,PATHANAMTHITTA,KERALA
DLXB0000114,Dhanlaxmi Bank Ltd,DLXB0000114,NON_MICR,OTTAPPALAM,"V/421 , MAIN ROAD         P.B. NO  18               OTTAPALAM                 PALAKKAD DIST",,OTTAPALAM,PALAKKAD,KERALA
DLXB0000115,Dhanlaxmi Bank Ltd,DLXB0000115,NON_MICR,ADIRAMAPATTANAM,"27 B AND C,    POST OFFICE ROAD     ADIRAMPATTINAM    TANJORE DIST,    TAMIL NADU,     614701",,ADIRAMAPATTINAM,THANJAVUR,TAMIL NADU
DLXB0000116,Dhanlaxmi Bank Ltd,DLXB0000116,560048003,BANGLOORE J C ROAD,"J C ROAD BRANCH,  GROUND FLOOR,  NO.92, SHIVAJI TOWERS,   J C ROAD,BANGALORE",,BANGALORE,BANGALORE URBAN,KARNATAKA
DLXB0000117,Dhanlaxmi Bank Ltd,DLXB0000117,NON_MICR,PAMBA,"TRIVENI,PATHANAMTHITTA DT 689714",,PATHANAMTHITTA,PATHANAMTHITTA,KERALA
DLXB0000118,Dhanlaxmi Bank Ltd,DLXB0000118,695048003,TRIVANDRUM - MANACAUD,T.C. 41/2343(4)           MALSON TOWER              MANACAUD                  TVM DIST,,THIRUVANANTHAPURAM,TRIVANDRUM,KERALA
DLXB0000119,Dhanlaxmi Bank Ltd,DLXB0000119,NON_MICR,THOTTAMON,"NSS UNION BUILDING,    PERUNKULUM RANNI ROAD     THOTTAMON    PATHANAMTHITTA DIST.,    KERALA,     689672",,RANNI,PATHANAMTHITTA,KERALA
DLXB0000120,Dhanlaxmi Bank Ltd,DLXB0000120,NON_MICR,KAPPIL,"PARAVOOR VARKALA ROAD,    KRISHAN KOVIL ROAD     KAPPIL TRIVANDRUM DIST.    KAPPIL,    KERALA,     695311",,KARAKULAM,TRIVANDRUM,KERALA
DLXB0000121,Dhanlaxmi Bank Ltd,DLXB0000121,NON_MICR,PATHANAMTHITTA,"PB NO.54,CHANGAYIL BLDG   COLLEGE ROAD              PATHANAMTHITTA",,PATHANAMTHITTA,PATHANAMTHITTA,KERALA
DLXB0000122,Dhanlaxmi Bank Ltd,DLXB0000122,NON_MICR,CHENGANNUR,XIV/242.M.C.ROAD          CHENGANNUR                ALAPPUZHA,,CHENGANNUR,ALAPUZZHA,KERALA
DLXB0000123,Dhanlaxmi Bank Ltd,DLXB0000123,641048102,TIRUPUR,"NO.318,SRI MUTHU PLAZA    AVINASHI ROAD,            TIRUPUR",,TIRUPUR,COIMBOTORE,TAMIL NADU
DLXB0000124,Dhanlaxmi Bank Ltd,DLXB0000124,400048003,MUMBAI MATUNGA,"2/323-B,SUDHIR SADAN,  CHANDAVARKAR ROAD ,  MATUNGA MUMBAI.",,MUMBAI,GREATER BOMBAY,MAHARASHTRA
DLXB0000125,Dhanlaxmi Bank Ltd,DLXB0000125,638048251,VEERAPANCHATRAM,"10/210, SATHY ROAD,  VEERAPANCHATRAM,  ERODE,   TAMIL NADU",,ERODE,ERODE,TAMIL NADU
DLXB0000126,Dhanlaxmi Bank Ltd,DLXB0000126,695048005,TRIVANDRUM SASTHAMANGALAM,BALAKRISHNA BUILDING      TC NO.IX/767 (1)          SASTHAMANGALAM            THIRUVANANTHAPURAM,,THIRUVANANTHAPURAM,TRIVANDRUM,KERALA
DLXB0000127,Dhanlaxmi Bank Ltd,DLXB0000127,641048003,PEELAMEDU,"286, STANDARD TOWERS      AVANASHI ROAD,            PEELAMEDU                 COIMBATORE",,COIMBATORE,COIMBOTORE,TAMIL NADU
DLXB0000128,Dhanlaxmi Bank Ltd,DLXB0000128,NON_MICR,THALASSERY,"1ST FLOOR,HOPES SHOPPING  COMPLEX,7/154 LOGANS ROAD THALASSERY                KANNUR",,THALASSERY,KANNUR,KERALA
DLXB0000129,Dhanlaxmi Bank Ltd,DLXB0000129,NON_MICR,UDUMALPET,"NO.23,SREE KRISHNA TOWERS BYE PASS ROAD,UDUMALPET   COIMBATORE DT.",,UDUMALPET,COIMBOTORE,TAMIL NADU
DLXB0000130,Dhanlaxmi Bank Ltd,DLXB0000130,NON_MICR,PERINTHALMANNA,"DOOR NO.PM/5/148/13       FIRST FLOOR,CITY CENTRE,  PATTAMBI ROAD,            PEINTHALMANNA",,PERINTALMANNA,MALAPURAM,KERALA
DLXB0000131,Dhanlaxmi Bank Ltd,DLXB0000131,NON_MICR,THODUPUZHA,"DOOR NO.162/9             JYOTHI SUPER BAZAR        P.B.NO. 36, THODUPUZHA",,THODUPUZHA,IDUKKI,KERALA
DLXB0000132,Dhanlaxmi Bank Ltd,DLXB0000132,NON_MICR,TIRUR,1ST FLOOR                 K M S TOWER               THAZHEPALAM               TIRUR,,TIRUR,MALAPURAM,KERALA
DLXB0000133,Dhanlaxmi Bank Ltd,DLXB0000133,673048003,CHEVARAMBALAM,"28 / 648-R,WARD28,KOYENCO SHOPPING COMPLEX, MAVOOR, CALICUT ROAD,CHEVAYOOR, KOZHIKODE,KERALA-673017",,CHEVARAMBALAM,KOZHIKODE,KERALA
DLXB0000134,Dhanlaxmi Bank Ltd,DLXB0000134,NON_MICR,PONNANI,"7/859 A,1ST FLOOR         AMBADY BULDGS,            CHAMMARAVATTOM JN,        PONNANI",,PONNANI,MALAPURAM,KERALA
DLXB0000135,Dhanlaxmi Bank Ltd,DLXB0000135,NON_MICR,MUVATTUPUZHA,"XI/2734(3),VETTUKATTIL    HOSPITAL COMPLEX BLDG     M C ROAD, (TB JUNCTION)   MUVATTUPUZHA",,MUVATTUPUZHA,ERNAKULAM,KERALA
DLXB0000136,Dhanlaxmi Bank Ltd,DLXB0000136,NON_MICR,VALANCHERY,214A PBNO28 OPP.BUS STAND CALICUT ROAD              VALANCHERY                MALAPPURAM,,VALANCHERRY,MALAPURAM,KERALA
DLXB0000137,Dhanlaxmi Bank Ltd,DLXB0000137,600048005,CHENNAI - T NAGAR,"47, SOUTH USMAN ROAD      T.NAGAR                   CHENNAI",,CHENNAI,CHENNAI,TAMIL NADU
DLXB0000138,Dhanlaxmi Bank Ltd,DLXB0000138,NON_MICR,KARUR,"021044, GROUND FLOOR,     KOVAI ROAD,               KARUR.                    TAMIL NADU",,KARUR,KARUR,TAMIL NADU
DLXB0000139,Dhanlaxmi Bank Ltd,DLXB0000139,560048004,BANGALORE 'PEENYA,"PEENYA INDUSTRIAL ASSN    BHAVAN,PEENYA TRADE CENTR 1ST CROSS,1ST STAGE       PEENYA, BANGALORE",,PEENYA,BANGALORE URBAN,KARNATAKA
DLXB0000140,Dhanlaxmi Bank Ltd,DLXB0000140,400048004,MUMBAI CHEMBUR,"DOOR NO:1,2,3GROUND FLOOR, URMILA COMPLEX,32   STATION AVENUE ROAD,   CHEMBUR, MUMBAI 400071",,MUMBAI,GREATER BOMBAY,MAHARASHTRA
DLXB0000141,Dhanlaxmi Bank Ltd,DLXB0000141,600048001,CHENNAI-SERVICE BR.,"THE DHANALAKSHMI BANK LTD., SERVICE BRANCH, CHENNAI, NO:163, OM SAKTHI TOWERS, ANNA SALAI, CHENNAI - 600002",,CHENNAI,CHENNAI,TAMIL NADU
DLXB0000142,Dhanlaxmi Bank Ltd,DLXB0000142,395048002,SURAT,"3RD FLOOR,THE SURAT       VANKAR SAHAKARI SANGH BLG OPP.RESHAMWALA MARKET     RING ROAD, SURAT,GUJARAT",,SURAT,SURAT,GUJARAT
DLXB0000143,Dhanlaxmi Bank Ltd,DLXB0000143,380056251,AHMEDABAD,"3, MOTILAL CHAMBERS INCOME TAX CIRCLE,  NEAR 'SALES INDIA'  ASHRAM ROAD, AHMEDABAD",,AHMEDABAD,AHMEDABAD,GUJARAT
DLXB0000144,Dhanlaxmi Bank Ltd,DLXB0000144,400048002,MUMBAI FORT,,,MUMBAI,GREATER BOMBAY,MAHARASHTRA
DLXB0000145,Dhanlaxmi Bank Ltd,DLXB0000145,682048004,ERNAKULAM - IFB,"P.B.NO:3548,  XL/7296,ADJACENT TO T.D,.  EAST SANNIDHI ROAD, M G ROAD ERNAKULAM.",,KOCHI,ERNAKULAM,KERALA
DLXB0000146,Dhanlaxmi Bank Ltd,DLXB0000146,400048002,"TREASURY DEPT, MUMBAI",,,MUMBAI,GREATER BOMBAY,MAHARASHTRA
DLXB0000147,Dhanlaxmi Bank Ltd,DLXB0000147,110048002,NEW DELHI,"H 17,GOBIND MANSION,   OUTER CIRCLE, CONNAUGHT CIRCUS,   NEW DELHI -110 001",,DELHI,NEW DELHI,DELHI
DLXB0000148,Dhanlaxmi Bank Ltd,DLXB0000148,682048008,ERNAKULAM - KALOOR,"DHANALAKSHMI BANK LTD.,   M E S CULTURAL COMPLEX    BUILDING, GROUND FLOOR,   KALOOR, ERNAKULAM",,KALOOR,ERNAKULAM,KERALA
DLXB0000149,Dhanlaxmi Bank Ltd,DLXB0000149,600048006,CHENNAI - ANNA NAGAR,"DHANALAKSHMI BANK LTD, Y-219, 2ND AVENUE,  NEAR AYYAPPAN TEMPLE,  ANNA NAGAR, CHENNAI-40",,CHENNAI,CHENNAI,TAMIL NADU
DLXB0000150,Dhanlaxmi Bank Ltd,DLXB0000150,NON_MICR,PALAI,"FIRST FLOOR               JOBEES COMPLEX            KATTAKKAYAM ROAD          PALAI,KOTTAYAM DT",,PALAI,KOTTAYAM,KERALA
DLXB0000151,Dhanlaxmi Bank Ltd,DLXB0000151,560048005,KORAMANGALA,"100, 18TH MAIN, 6TH BLOCK, KORAMANGALA ,  BANGALORE",,BANGALORE,BANGALORE URBAN,KARNATAKA
DLXB0000152,Dhanlaxmi Bank Ltd,DLXB0000152,NON_MICR,KALPETTA,"SAKEENA SHOPPING COMPLEX, 1ST FLOOR, KALPETTA,      WAYANAD DISTRICT,         KERALA",,KALPETTA,WAYANAD,KERALA
DLXB0000153,Dhanlaxmi Bank Ltd,DLXB0000153,NON_MICR,KASARGODE,"APSARA REGENCY COMPLEX,   OPP. K S R T C BUS STAND, BANK ROAD, KASARGODE",,KASARAGOD,KASARAGOD,KERALA
DLXB0000154,Dhanlaxmi Bank Ltd,DLXB0000154,700048003,KOLKATA,"IDEAL PLAZA,  GROUND FLOOR, 11/1, SARAT BOSE ROAD, KOLKATA.",,KOLKATA,KOLKATA,WEST BENGAL
DLXB0000155,Dhanlaxmi Bank Ltd,DLXB0000155,682048012,EDAPALLY,"THE DHANALAKSHMI BANK LTD, AMRITHA INSTITUTE OF   MEDICAL SCIENCES,   EDAPPALLY, KOCHI.",,THRIKKAKARA,ERNAKULAM,KERALA
DLXB0000156,Dhanlaxmi Bank Ltd,DLXB0000156,NON_MICR,KOLLANGODE,"VASANTHA COMPLEX,    KOLLENGODE     PALAKKAD DIST.       KERALA STATE,     678506",,KOLLENGODE I,PALAKKAD,KERALA
DLXB0000157,Dhanlaxmi Bank Ltd,DLXB0000157,682048001,"SERVICE BRANCH , EKM","THE DHANALAKSHMI BANK LTD ,XXX/147-G, N H ROAD, PALARIVATTOM,  ERNAKULAM..",,KOCHI,ERNAKULAM,KERALA
DLXB0000158,Dhanlaxmi Bank Ltd,DLXB0000158,695048001,"SERVICE BRANCH , TVM","THE DHANALAKSHMI BANK LTD PB NO.5067, KARIMPAMAL    ARCADE, FORT,             THIRUVANANTHAPURAM",,THIRUVANANTHAPURAM,TRIVANDRUM,KERALA
DLXB0000159,Dhanlaxmi Bank Ltd,DLXB0000159,680048001,"SERVICE BRANCH, THRISSUR","THE DHANALAKSHMI BANK LTD, DHANALAKSHMI BUILDINGS,   NAICKANAL, THRISSUR.",,THRISSUR,TRISSUR,KERALA
DLXB0000160,Dhanlaxmi Bank Ltd,DLXB0000160,,R. S. PURAM,"SRI NANDHINI COMPLEX, 8 VENKITASAMY ROAD, R.S.PURAM, COIMBATORE - 641 002.",,COIMBATORE,COIMBATORE,TAMIL NADU
DLXB0000161,Dhanlaxmi Bank Ltd,DLXB0000161,560048010,HRBR LAYOUT BRANCH,"4M-407,4TH MAIN,3RD BLOCK,HRBR LAYOUT,BANGALORE-560043.",,BANGALORE,BANGALORE URBAN,KARNATAKA
DLXB0000162,Dhanlaxmi Bank Ltd,DLXB0000162,600 048 009,VELACHERY,"NO 12, FIRST MAIN ROAD,BABY NAGAR, VELACHERY,CHENNAI- 600 042",,CHENNAI,CHENNAI,TAMIL NADU
DLXB0000164,Dhanlaxmi Bank Ltd,DLXB0000164,400048001,"SERVICE BRANCH, MUMBAI","GROUND FLOOR,JANMABHOOMI  BHAVAN,JANMABHOOMI MARG,  FORT,MUMBAI-400 001",,MUMBAI,GREATER BOMBAY,MAHARASHTRA
DLXB0000165,Dhanlaxmi Bank Ltd,DLXB0000165,682048013,"BAR COUNCIL, KERALA.","BAR COUNCIL OF KER. BR.   HIGH COURT CAMPUS,   ERNAKULAM - 682 031.",,KOCHI,ERNAKULAM,KERALA
DLXB0000166,Dhanlaxmi Bank Ltd,DLXB0000166,NON_MICR,ADOOR,MOHANA BUILDING           CENTRAL JUNCTION          ADOOR                     PATHANAMTHITTA DIST.,,ADOOR,PATHANAMTHITTA,KERALA
DLXB0000167,Dhanlaxmi Bank Ltd,DLXB0000167,500048003,"BANJARA HILLS, HYD.","TREND TOWERS, GR FLOOR 8-2-289/10, ROAD NO.2 , BANJARA HILLS, HYDERABAD,  ANDHRA PRADESH",,HYDERABAD,HYDERABAD URBAN,ANDHRA PRADESH
DLXB0000168,Dhanlaxmi Bank Ltd,DLXB0000168,500048004,KUKATPALLY,"686, VIVEKANANDA NAGAR COLONY, KUKATPALLY,  HYDERABAD  ANDHRA PRADESH",,HYDERABAD,HYDERABAD URBAN,ANDHRA PRADESH
DLXB0000169,Dhanlaxmi Bank Ltd,DLXB0000169,400048005,MUMBAI SION,"THIRUMALAI HOUSE ,GROUND FLOOR, ROAD NO.29,  NEAR SION HILL FORT SION (E), MUMABI.",,MUMBAI,GREATER BOMBAY,MAHARASHTRA
DLXB0000170,Dhanlaxmi Bank Ltd,DLXB0000170,110048003,NEW DELHI KAROL BHAG,"16/15, W.E.A., J.S.PLAZA , ARYA SAMAJ ROAD,  KAROL BAGH, NEW DELHI",,DELHI,NEW DELHI,DELHI
DLXB0000171,Dhanlaxmi Bank Ltd,DLXB0000171,520048102,GUNTUR,"P S COMPLEX,D.NO;4-12-40  NAIDUPET,1ST LANE,        KORETIPADU MAIN ROD,      GUNTUR, ANDHRA PRADESH",,GUNTUR,GUNTUR,ANDHRA PRADESH
DLXB0000172,Dhanlaxmi Bank Ltd,DLXB0000172,560048006,BANGLOORE MG ROAD,"1A,NITISH BROADWAY,  M G ROAD ,  BANGALORE",,BANGALORE,BANGALORE URBAN,KARNATAKA
DLXB0000173,Dhanlaxmi Bank Ltd,DLXB0000173,530048002,VISAKHAPATNAM,"VIP ROAD, CBM COMPOUND    VISAKHAPATNAM             ANDHRA PRADESH - 530 003",,VISAKHAPATNAM,VISHAKAPATNAM,ANDHRA PRADESH
DLXB0000174,Dhanlaxmi Bank Ltd,DLXB0000174,400048006,MUMBAI - VASHI.,"PLOT NO.1 C,   NISHANT MILLENNIUM , SECTOR 28, VASHI NAVI, MUMBAI-400703.",,NEW BOMBAY,THANE,MAHARASHTRA
DLXB0000175,Dhanlaxmi Bank Ltd,DLXB0000175,NON_MICR,TIRUPATHI,"PLOT NO.3, TUDA LAY OUT   RC ROAD, TIRUPATI         ANDHRA PREDESH",,TIRUPATI,CHITTOR,ANDHRA PRADESH
DLXB0000176,Dhanlaxmi Bank Ltd,DLXB0000176,NON_MICR,NELLORE,"15/345,BRINDAVANAM        BEHIND VIJAYA DAIRY       NELLORE                   ANDHRA PRADESH",,NELLORE,NELLORE,ANDHRA PRADESH
DLXB0000177,Dhanlaxmi Bank Ltd,DLXB0000177,110048004,DELHI LAJPATH NAGAR,"A II/44,LAJPAT NAGAR II,   LAJPAT NAGAR , NEW DELHI.",,DELHI,NEW DELHI,DELHI
DLXB0000178,Dhanlaxmi Bank Ltd,DLXB0000178,600048007,CHENNAI ASHOK NAGAR,"""SRI GOWTHAM""             NEW NO.5,OLD NO.3         1ST AVENUE,               ASHOK NAGAR, CHENNAI",,CHENNAI,CHENNAI,TAMIL NADU
DLXB0000179,Dhanlaxmi Bank Ltd,DLXB0000179,NON_MICR,ELURU,"1ST FLOOR,BAVA' ARCADE    DOWN HILL                 MALAPPURAM",,ELURU,WEST GODAVARI,ANDHRA PRADESH
DLXB0000180,Dhanlaxmi Bank Ltd,DLXB0000180,520048002,VIJAYAWADA RING ROAD,"23A-3-28, DR.G S PRASAD   HOSPITAL COMPLEX          GOSAMRAKSHANA SAMITHI RD  ELURU",,VIJAYAWADA,KRISHNA,ANDHRA PRADESH
DLXB0000181,Dhanlaxmi Bank Ltd,DLXB0000181,NON_MICR,MALAPPURAM,"59-14-8, SILPA ARCADE     RAMACHANDRA NAGAR         RING ROAD                 VIJAYAWADA",,MALAPPURAM,MALAPURAM,KERALA
DLXB0000182,Dhanlaxmi Bank Ltd,DLXB0000182,NON_MICR,KAKINADA,"NO.26-1-12,TEMPLE STREET  KAKINADA                  EAST GODAVARI DIST,       ANDHRA PRADESH",,KAKINADA,EAST GODAVARI,ANDHRA PRADESH
DLXB0000183,Dhanlaxmi Bank Ltd,DLXB0000183,NON_MICR,NIZAMABAD,"11-1-1623/2&3,SINGIDI COM PLEX,OPP.INDUR TRADERS,   KANTESHWAR,ARMOOR ROAD,   NIZAMABAD",,NIZAMABAD,NIZAMABAD,ANDHRA PRADESH
DLXB0000184,Dhanlaxmi Bank Ltd,DLXB0000184,NON_MICR,KARUNAGAPALLY,"ANNEXE EXCLLENCY BUILDING KARUNAGAPALLY, KOLLAM",,KARUNAGAPALLY,KOLLAM,KERALA
DLXB0000186,Dhanlaxmi Bank Ltd,DLXB0000186,700048004,SALT LAKE CITY,"PLOT NO. 88, BLOCK BE, SECTOR - 1, SALT LAKE CITY, KOLKATA - 700 064.",,KOLKATA,KOLKATA,WEST BENGAL
DLXB0000187,Dhanlaxmi Bank Ltd,DLXB0000187,700048005,HOWRAH,"23/2, B & C, HARINIKETAN, MAULANA ABDUL KALAM AZAD ROAD, (DOBSON ROAD), HOWRAH, WEST BENGAL - 711 101.",,HOWRAH,HOARA,WEST BENGAL
DLXB0000188,Dhanlaxmi Bank Ltd,DLXB0000188,500048005,SANJEEVA REDDY NAGAR,"GROUND FLOOR, SAI SUSHMA HOMES, 23 / A, SANJEEVA REDDY NAGAR, HYDERABAD - 500 138.",,HYDERABAD,HYDERABAD,ANDHRA PRADESH
DLXB0000189,Dhanlaxmi Bank Ltd,DLXB0000189,560048007,JAYANAGAR,"NEW NO. 52 (OLD NO. 745), 33RD CROSS ROAD, 4TH BLOCK, JAYANAGAR, BANGALORE - 560 011.",,BANGALORE,BANGALORE URBAN,KARNATAKA
DLXB0000190,Dhanlaxmi Bank Ltd,DLXB0000190,110048005,JANAKPURI,"B-3/174, GROUND FLOOR, JANAKPURI, NEW DELHI - 110 058.",,DELHI,DELHI,DELHI
DLXB0000191,Dhanlaxmi Bank Ltd,DLXB0000191,110048006,GHAZIABAD,"GROUND FLOOR & BASEMENT, R 2/240, RAJNAGAR, GHAZIABAD, UTTAR PRADESH - 201 002.",,GHAZIABAD,GHAZIABAD,UTTAR PRADESH
DLXB0000192,Dhanlaxmi Bank Ltd,DLXB0000192,110048007,GREATER KAILASH,"M-72, M BLOCK MARKET, GREATER KAILASH - II, NEW DELHI-110048.",,DELHI,DELHI,DELHI
DLXB0000193,Dhanlaxmi Bank Ltd,DLXB0000193,110048009,NEHRU PLACE,"UPPER GROUND FLOOR, SKYLARK BUILDING, 60, NEHRU PLACE, NEW DELHI - 110 019.",,DELHI,DELHI,DELHI
DLXB0000194,Dhanlaxmi Bank Ltd,DLXB0000194,110048008,ROHINI,"GROUND FLOOR & BASEMENT, PLOT NO. 4, POCKET A-1, SECTOR 8, ROHINI, DELHI - 110 085.",,DELHI,DELHI,DELHI
DLXB0000195,Dhanlaxmi Bank Ltd,DLXB0000195,110048010,GURGAON,"GROUND FLOOR, SCO 17, SECTOR 14, GURGAON, HARYANA - 122 001.",,GURGAON,GURGAON,HARYANA
DLXB0000196,Dhanlaxmi Bank Ltd,DLXB0000196,110048011,FARIDABAD,"GROUND FLOOR & BASEMENT, CROWN PLAZA, SHOP NO. 2D/10B, 1 & 2 CHOWK, OPP. GHAZAL RESTAURANT, NIT, FARIDABAD, HARAYANA - 121 001.",,FARIDABAD,FARIDABAD,HARYANA
DLXB0000197,Dhanlaxmi Bank Ltd,DLXB0000197,110048012,NOIDA,"GROUND FLOOR, K -23 & 24, SECTOR - 18, NOIDA, UTTAR PRADESH 201301.",,NOIDA,GAUTAM BUDDHA NAGAR,UTTAR PRADESH
DLXB0000198,Dhanlaxmi Bank Ltd,DLXB0000198,400048007,ULHAS NAGAR,"GROUND FLOOR& MEZZANINE FLOOR, KOMAL PARK BLDG, GOLE MAIDAN, ULHASNAGAR, MUMBAI, MAHARASHTRA - 421 001",,ULHASNAGAR,THANE,MAHARASHTRA
DLXB0000199,Dhanlaxmi Bank Ltd,DLXB0000199,400048008,GOREGOAN,"RISAB MANSION, PLOT NO. 3, JAWAHAR NAGAR, S.V. ROAD, GOREGAON (W), MUMBAI - 400 069.",,MUMBAI,GREATER BOMBAY,MAHARASHTRA
DLXB0000200,Dhanlaxmi Bank Ltd,DLXB0000200,400048009,CBD BELAPUR,"GROUND FLOOR, WARDEN HOUSE, PLOT NO. 65, SECTOR 11, CBD BELAPUR, NAVI MUMBAI, MAHARASHTRA - 400 614.",,MUMBAI,GREATER MUMBAI,MAHARASHTRA
DLXB0000201,Dhanlaxmi Bank Ltd,DLXB0000201,400048010,BORIVLI,"GROUND FLOOR, SHOP NO. 2, 3 & 4, KAPOOR APARTMENT, CHANDAVARKAR ROAD, BORIVLI (WEST), MUMBAI, MAHARASHTRA - 400 092.",,MUMBAI,GREATER MUMBAI,MAHARASHTRA
DLXB0000202,Dhanlaxmi Bank Ltd,DLXB0000202,624048001,PALANI,"GROUND FLOOR, ANGURAJ COMPLEX, NO. 41, NEW DHARAMPURAM ROAD, PALANI, TAMIL NADU - 624 601.",,PALANI,DINDIGUL,TAMIL NADU
DLXB0000203,Dhanlaxmi Bank Ltd,DLXB0000203,600048008,KANCHEEPURAM,"GROUND FLOOR, VAISHNAVI PLAZA, 17 & 18, WEST RAJA STREET, KANCHEEPURAM, TAMIL NADU - 631 502.",,KANCHIPURAM,KANCHEEPURAM,TAMIL NADU
DLXB0000204,Dhanlaxmi Bank Ltd,DLXB0000204,695048007,DHANUVACHAPURAM,"GROUND FLOOR, MORIAH COMPLEX, UDIYANKULANGARA JUNCTION, AMRAVAVILA P.O. DHANUVACHAPURAM, TRIVANDRUM, KERALA - 695 122",,DHANUVACHAPURAM,THIRUVANANTHAPURAM,KERALA
DLXB0000205,Dhanlaxmi Bank Ltd,DLXB0000205,691048152,PUNALUR,"GROUND FLOOR, UNION BUILDING, ANCHAL ROAD, PUNALUR, KERALA - 691 305",,PUNALUR,KOLLAM,KERALA
DLXB0000206,Dhanlaxmi Bank Ltd,DLXB0000206,700048006,BRABOURNE ROAD,"15 PORTUGUESE CHURCH STREET, SHAHEED NITYANAND SAHA SARANI, KOLKATA - 700 001.",,KOLKATA,KOLKATA,WEST BENGAL
DLXB0000207,Dhanlaxmi Bank Ltd,DLXB0000207,400048014,MIRA BHAYANDAR,"GROUND FLOOR, JANAKI HERITAGE, OPP. MAXUS MALL, 150 FT. ROAD, BHAYANDER (WEST), DIST. THANE, MAHARASHTRA - 401 101.",,MIRA-BHAYANDAR,THANE,MAHARASHTRA
DLXB0000208,Dhanlaxmi Bank Ltd,DLXB0000208,400048016,NALLASOPARA,"GROUND FLOOR, SHOP NO. 9 TO 16, OLIVE BUILDING, JIVDANI BUILDERS & DEVELOPERS, PATNKAR WADI, NALLA SOPARA (WEST) 401 203",,NALLASOPARA,THANE,MAHARASHTRA
DLXB0000209,Dhanlaxmi Bank Ltd,DLXB0000209,400048012,DOMBIVLI,"GROUND FLOOR, MIRAGE ARCADE, OPP GANESH TEMPLE, NEHRU ROAD, DOMBIVALI (EAST), MUMBAI, MAHARASHTRA - 421201.",,DOMBIVLI,THANE,MAHARASHTRA
DLXB0000210,Dhanlaxmi Bank Ltd,DLXB0000210,400048013,BHIWANDI,"GROUND FLOOR, DHAMANKAR PSD PLAZA, DHAMANKAR NAKA, AGRA ROAD, BHIWANDI, THANE DISTRICT, MUMBAI, MAHARASHTRA - 421 302",,BHIWANDI,THANE,MAHARASHTRA
DLXB0000211,Dhanlaxmi Bank Ltd,DLXB0000211,400048015,AMBERNATH,"1ST FLOOR & GROUND FLOOR, LAXMI SAGAR APT,  PLOT NO.3-C, SHIV MANDIR ROAD, SWAMI SAMARTH CHOWK, AMBERNATH (EAST), DIST THANE, MAHARASHTRA - 421501",,THANE,THANE,MAHARASHTRA
DLXB0000212,Dhanlaxmi Bank Ltd,DLXB0000212,400048011,MUMBAI CENTRAL,"GROUND&1ST FLOOR,SHOP NO.12-13-14,OFFICE NO.104,105,106,NAVJIVAN COMMERCIAL PREMISES CO-OP.SOC.LTD, MUMBAI CENTRAL,MUMBAI, MAHARASHTRA -400 008",,MUMBAI,GREATER MUMBAI,MAHARASHTRA
DLXB0000213,Dhanlaxmi Bank Ltd,DLXB0000213,390048002,VADODARA,"SHINE PLAZA, OPP. PASABHAI PARK, NEAR NATUBHAI CIRCLE, RACE COURSE ROAD, VADODARA, GUJARAT - 390 007",,VADODARA,VADODARA,GUJARAT
DLXB0000214,Dhanlaxmi Bank Ltd,DLXB0000214,516048642,RAJAMPET,"1ST FLOOR, 6/1015, RAILWAY STATION ROAD, RAJAMPET, KADAPA DIST, ANDHRA PRADESH – 516 115",,RAJAMPET,CUDDAPAH,ANDHRA PRADESH
DLXB0000215,Dhanlaxmi Bank Ltd,DLXB0000215,394048051,BARDOLI,"GROUND FLOOR, SHRI RANG PLAZA, SARDAR CHOWK, NEAR POLICE STATION, BARDOLI, GUJARAT - 394 601",,BARDOLI,SURAT,GUJARAT
DLXB0000216,Dhanlaxmi Bank Ltd,DLXB0000216,226048002,LUCKNOW,"GROUND FLOOR & BASEMENT, HALWASIYA HOUSE NO. 11, M.G. ROAD, HAZRATGANJ, LUCKNOW, UTTAR PRADESH - 226 001",,LUCKNOW,LUCKNOW,UTTAR PRADESH
DLXB0000217,Dhanlaxmi Bank Ltd,DLXB0000217,637048001,NAMAKKAL,"GROUND FLOOR, RANGA PLAZA, PARAMATHY ROAD, NAMAKKAL",,NAMAKKAL,NAMAKKAL,TAMIL NADU
DLXB0000218,Dhanlaxmi Bank Ltd,DLXB0000218,302048002,JAIPUR,"G - 3/4/5/6/7, ROYAL WORLD, OPP. CITY CENTRE, SANSAR CHAND ROAD, JAIPUR, RAJASTHAN - 302 001. ",,JAIPUR,JAIPUR,RAJASTHAN
DLXB0000219,Dhanlaxmi Bank Ltd,DLXB0000219,160048002,CHANDIGARH,"GROUND FLOOR, RAI BUILDING, SECTOR - 17, NEAR K C CINEMA, CHANDIGARH - 160 017.",,CHANDIGARH,CHANDIGARH,CHANDIGARH
DLXB0000220,Dhanlaxmi Bank Ltd,DLXB0000220,144048022,JALANDHAR,"GROUND FLOOR, 465 - A, NEW JAWAHAR NAGAR, JALANDHAR, PUNJAB - 144 021.",,JALANDHAR,JALANDHAR,PUNJAB
DLXB0000221,Dhanlaxmi Bank Ltd,DLXB0000221,227048002,JAGDISHPUR,"NEW BUILDING, GROUND FLOOR, SHANTI MARKET, GT ROAD, JAGDISHPUR - 227809",,JAGDISHPUR,SULTANPUR,UTTAR PRADESH
DLXB0000222,Dhanlaxmi Bank Ltd,DLXB0000222,221048002,VARANASI,"GROUND FLOOR, SHAKTI SIKHA COMPLEX, SIGRA, VARANASI, UTTAR PRADESH - 221 010",,VARANASI,VARANASI,UTTAR PRADESH
DLXB0000223,Dhanlaxmi Bank Ltd,DLXB0000223,570048002,MYSORE,"GROUND FLOOR, DOOR NO. 14, 4TH MAIN, 8TH CROSS, KAMAKSHI HOSPITAL ROAD, SARSWATHIPURAM, MYSORE, KARNATAKA - 570 009.",,MYSORE,MYSORE,KARNATAKA
DLXB0000224,Dhanlaxmi Bank Ltd,DLXB0000224,385048001,PALANPUR,"PALANPUR BRANCH, TIRUPATI SHOPPING PLAZA, GIDC PLOT NO. 1, ASHIRWAD HALL, PALANPUR - 385001

",,PALANPUR,BANAS KANTHA,GUJARAT
DLXB0000225,Dhanlaxmi Bank Ltd,DLXB0000225,,PUTTAPARTI,"GROUND FLOOR, SHOP NO. 102, SREE GURU TOWERS, OLD NO. 3-632, GOPURAM ROAD, ANANTPUR DIST, PUTTAPARTHI - 515 134, ANDHRA PRADESH.",,PUTTAPARTHI,ANANTAPUR,ANDHRA PRADESH
DLXB0000226,Dhanlaxmi Bank Ltd,DLXB0000226,462048002,BHOPAL,"GROUND FLOOR, VNV PLAZA, PLOT NO. 6, ZONE - II, MAHARANA PRATAP NAGAR, BHOPAL, MADHYA PRADESH - 462 001.",,BHOPAL,BHOPAL,MADHYA PRADESH
DLXB0000227,Dhanlaxmi Bank Ltd,DLXB0000227,713048202,DURGAPUR,"FIRST FLOOR, GALAZEE SHAHID KHUDIRAM SARANI, CITY CENTER, DURGAPUR, WEST BENGAL - 713 216.",,DURGAPUR,BARDDHAMAN,WEST BENGAL
DLXB0000228,Dhanlaxmi Bank Ltd,DLXB0000228,560048008,YELAHANKA,"GROUND FLOOR, DOOR NO. 1143, MIG, 16TH ""B"" MAIN ROAD, YELAHANKA NEW TOWN, BANGALORE, KARNATAKA - 560 064.",,YELAHANKA,BANGALORE URBAN,KARNATAKA
DLXB0000229,Dhanlaxmi Bank Ltd,DLXB0000229,400048017,MULUND,"A-WING, RAJYOG RESIDENCY, DR.RAJENDRA PRASAD ROAD, OPP. VARDHAMAN NAGAR, MULUND (WEST), MUMBAI, MAHARASHTRA - 400 080",,MUMBAI,GREATER BOMBAY,MAHARASHTRA
DLXB0000230,Dhanlaxmi Bank Ltd,DLXB0000230,400048018,BANDRA,"GROUND FLOOR, GRAND BELLEVISTA, OPP.BANDRA TALAO, S.V.ROAD, BANDRA (WEST),  MUMBAI-400050.",,BHANDARA,BHANDARA,MAHARASHTRA
DLXB0000231,Dhanlaxmi Bank Ltd,DLXB0000231,411048002,PUNE,"GROUND & FIRST FLOOR, SHOP NUMBER 1A, RADIANT ARCADE, EAST STREET, 150, M.G.ROAD, PUNE DISTRICT, MAHARASHTRA - 411 001 ",,PUNE,PUNE,MAHARASHTRA
DLXB0000232,Dhanlaxmi Bank Ltd,DLXB0000232,,RAMESWARAM,"GROUND FLOOR, 18/71, OLD POLICE LANE STREET, VEERABADRASWAMY KOIL/STREET, RAMESWARAM, RAMANATHAPURAM DISTRICT, TAMIL NADU - 623 526",,RAMESWARAM,RAMANATHAPURAM,TAMIL NADU
DLXB0000233,Dhanlaxmi Bank Ltd,DLXB0000233,671048801,UDMA,"GROUND FLOOR, NEW BUILDING, NEAR RAILWAY GATE, MAIN ROAD, UDMA, KASARGODE DISTRICT, KERALA - 671  319",,UDMA,KASARAGOD,KERALA
DLXB0000234,Dhanlaxmi Bank Ltd,DLXB0000234,400048019,GHATKOPAR,"SHOP NO: 3-7, OFFICE NO:1, BUILDING NO:5, TIARA, 90 FEET ROAD, GHATKOPAR (EAST), MUMBAI, MAHARASHTRA - 400 075",,MUMBAI,GREATER BOMBAY,MAHARASHTRA
DLXB0000235,Dhanlaxmi Bank Ltd,DLXB0000235,NON MICR,CHIDAMBARAM,"GROUND FLOOR, NO. 2, PRINCE MAHAL, JAWAHAR STREET, CHIDAMBARAM, CUDDALORE DISTRICT, TAMIL NADU - 608 001 ",,CHIDAMBARAM,CUDDALORE,TAMIL NADU
DLXB0000236,Dhanlaxmi Bank Ltd,DLXB0000236,362048051,VERAVAL,"ANUGRAH COMMERCIAL COMPLEX, 1ST FLOOR, OPP. VERAVAL MUNICIPALITY, RAJMAHEL ROAD, VERAVAL, GUJARAT 362 266",,VIRAVAL,NAVSARI,GUJARAT
DLXB0000237,Dhanlaxmi Bank Ltd,DLXB0000237,676048052,MANJERI,"GROUND FLOOR, KORAMBAYIL COPERATE MALL, CENTRAL BAZAR, CALICUT ROAD, MANJERI, MALAPPURAM DISTRICT,               KERALA - 676 121",,MANJERI,MALAPPURAM,KERALA
DLXB0000238,Dhanlaxmi Bank Ltd,DLXB0000238,670048003,KATTAMPALLY,"UPPER GROUND, CENTER PLAZA, KATTAMPALLY ROAD, PUTHIYATHERU, KANNUR, KERALA - 670 011",,KATTAMPALLY,CANNUR,KERALA
DLXB0000239,Dhanlaxmi Bank Ltd,DLXB0000239,671048802,KAYYUR,"GROUND FLOOR, CHEEMENI KAKADAV ROAD, CHEEMENI,  KAYYUR, KASARGODE DISTRICT   671313",,KAYYUR,KASARAGOD,KERALA
DLXB0000240,Dhanlaxmi Bank Ltd,DLXB0000240,682 048 016,THRIKKAKARA,"DOOR NO: X-170, A-1, SEAPORT AIRPORT ROAD, BCG  RESIDENCY TOWER, OPP. CSEPZ, CSEPZ P.O, KAKKANAD, COCHIN - 682 037",,THRIKKAKARA,ERNAKULAM,KERALA
DLXB0000241,Dhanlaxmi Bank Ltd,DLXB0000241,673048302,VADAKARA,"GROUND FLOOR, KVR COMPLEX, NUTSTREET , VADAKARA, KOZHIKODE DISTRICT, KERALA - 673 101",,VADAKARA,KOZHIKODE,KERALA
DLXB0000242,Dhanlaxmi Bank Ltd,DLXB0000242,671048052,KANHANGAD,"GROUND FLOOR, SOLAR AVENUE, NEAR SHILPA COLOUR LAB, KOTTACHERY, KANHANGAD, KASARGOD DIST, KERALA-671 315",,KANHANGAD,KASARAGOD,KERALA
DLXB0000243,Dhanlaxmi Bank Ltd,DLXB0000243,110048013,PUNJABI BAGH,"37, CLUB ROAD, WEST PUNJABI BAGH, NEW DELHI - 110 026",,DELHI,DELHI,DELHI
DLXB0000244,Dhanlaxmi Bank Ltd,DLXB0000244,683048052,KURUPPAMPADY,"1ST FLOOR, POKKATHAYIL BUILDINGS, HOSPITAL JUNCTION, ALWAYE - MUNNAR ROAD, KURUPPAMPADY, ERNAKULAM, KERALA - 683 545.",,KURUPPAMPADY,ERNAKULAM,KERALA
DLXB0000245,Dhanlaxmi Bank Ltd,DLXB0000245,500048001,CPC HYDERABAD,"3RD FLOOR, THABGHA TERRAIN, 53/3RT,S , R NAGAR, MAIN ROAD,HYDERABAD, ANDHRA PRADESH 500038  ",,HYDERABAD,HYDERABAD,ANDHRA PRADESH
DLXB0000246,Dhanlaxmi Bank Ltd,DLXB0000246,403048002,PANAJI,"GROUND FLOOR, SHANTHADURGA NIWAS, BEHIND HOTEL FIDALGO, M.G. ROAD, PANAJI, GOA - 403 001",,PANAJI,NORTH GOA,GOA
DLXB0000247,Dhanlaxmi Bank Ltd,DLXB0000247,400048022,ANDHERI,"GROUND FLOOR ,HARRISON HOUSE, A-1, MIDC CENTRAL ROAD,    ANDHERI EAST,    MUMBAI     MAHARASHTRA -400 093
",,MUMBAI,GREATER BOMBAY,MAHARASHTRA
DLXB0000248,Dhanlaxmi Bank Ltd,DLXB0000248,400048023,PRABHADEVI,DHANLAXMI BANK LTD,,400048023,PRABHADEVI,"WEST VIEW CO OP HOUSING SOCIETY LTD,485 VEER SAVARKAR MARG.PRABHADEVI,MUMBAI-400025"
DLXB0000249,Dhanlaxmi Bank Ltd,DLXB0000249,400 048 020,VASAI,"GROUND FLOOR, DHURI COMPLEX, MANIKPUR ROAD,  VASAI (W), THANE DISTRICT, MAHARASHTRA-401202",,VASAI,THANE,MAHARASHTRA
DLXB0000250,Dhanlaxmi Bank Ltd,DLXB0000250,400 048 021,VIRAR,"GROUND FLOOR, GOKUL ARCADE, AGASHI ROAD, BOLINJ, VIRAR (W) THANE DISTRICT, MAHARASHTRA- 401303",,VIRAR,THANE,MAHARASHTRA
DLXB0000251,Dhanlaxmi Bank Ltd,DLXB0000251,600 048 010,AMRITA INSTITUTE OF COMPUTER TECHNOLOGY CHENNAI,"AMRITA INSTITUTE OF COMPUTER TECHNOLOGY, 134, ARCOT ROAD, VIRUGAMBAKKAM, CHENNAI,  690 093",,CHENNAI,CHENNAI,TAMIL NADU
DLXB0000252,Dhanlaxmi Bank Ltd,DLXB0000252,600 048 012,S.N.SCHOOL AND COLLEGE CHENNAI,"S.N.MISSION SCHOOL, 2/64, EASWARAN KOIL STREET, WEST MAMBALAM, CHENNAI   600 033",,CHENNAI,CHENNAI,TAMIL NADU
DLXB0000253,Dhanlaxmi Bank Ltd,DLXB0000253,641048006,AIT BRANCH ETTIMADAI,"AMRITA VISHWA VIDYAPEETHAM ETTIMADAI, COIMBATORE - 641 105.",,COIMBATORE,COIMBATORE,TAMIL NADU
DLXB0000254,Dhanlaxmi Bank Ltd,DLXB0000254,600 048 013,MGR ADARSH MATRICULATION HIGH SCHOOL CHENNAI,"MGR ADARSH MATRICULATION SCHOOL, 11TH BLOCK, KANNADASAN SALAI, MUGAPPAIR EAST, JJ NAGAR, CHENNAI  600 037 ",,CHENNAI,CHENNAI,TAMIL NADU
DLXB0000255,Dhanlaxmi Bank Ltd,DLXB0000255,629048003,ST HINDU COLLEGE NAGERCOIL,"SOUTH ROA, NAGERCOIL-629002",,NAGERCOIL,KANYAKUMARI,TAMIL NADU
DLXB0000256,Dhanlaxmi Bank Ltd,DLXB0000256,600 048 011,"AMRUTANJAN LTD, MYLAPORE CHENNAI","NO:103, LUZ CHURCH ROAD, MYLAPORE, CHENNAI   600004",,CHENNAI,CHENNAI,TAMIL NADU
DLXB0000257,Dhanlaxmi Bank Ltd,DLXB0000257,520 048 302,"NRI MEDICAL COLLEGE, CHINNA KAKKANI,","NRI MEDICAL COLLEGE AND GENERAL HOSPITAL, CHINAKAKANI, MANGALAGIRI MANDAL, GUNDUR DT, ANDHRA PRADESH 522510",,MANGALAGIRI,GUNTUR,ANDHRA PRADESH
DLXB0000258,Dhanlaxmi Bank Ltd,DLXB0000258,560 048 009,AMIRTA INSTITUTE OF SCIENCE ANDTECHNOLOGY BANGALORE,"AMRITHA SCHOOL INSTITUTE OF TECHNOLOGY, KASAVANAHALLI, CARMELARAM POST, BANGALORE, KARNATAKA 560035",,BANGALORE,BANGALORE URBAN,KARNATAKA
DLXB0000259,Dhanlaxmi Bank Ltd,DLXB0000259,680 048 053,"GURUVAYOOR DEVASWOM, GURUVAYOOR","SREE PADMAM BLDG, SOUTH NADA, GURUVAYOOR, THRISSUR DIST, KERALA - 680 101 ",,GURUVAYUR,THRISSUR,KERALA
DLXB0000260,Dhanlaxmi Bank Ltd,DLXB0000260,690 048 801,"M.A.MATH, VALLIKKAVU","MATHA AMRITHANANDA MAYI MATH, VALLIKAVU, AMRITHA PURI  P O   KOLLAM  KERALA   690525",,KOLLAM,KOLLAM,KERALA
DLXB0000261,Dhanlaxmi Bank Ltd,DLXB0000261,673 048 004,MIMS GOVINDAPURAM KERALA,"MIMS, GOVINDAPURAM, KOZHIKODE DIST,  KERALA - 673016",,CALICUT,KOZHIKODE,KERALA
DLXB0000262,Dhanlaxmi Bank Ltd,DLXB0000262,680 048 021,"MEDICAL COLLEGE, MULANKUNNATHUKAVU","ADMINISTRATIVE BLOCK, MULANKUNNATHUKAVU P.O, THRISSUR DIST, KERALA - 680 596 ",,THRISSUR,THRISSUR,KERALA
DLXB0000263,Dhanlaxmi Bank Ltd,DLXB0000263,695 048 253,"MUNCIPAL BLDG, VARKALA","23/149, MUNCIPAL BUILDING, STATION ROAD, VARKALA, TRIVANDRUM, KERALA  695141",,VARKALA,THIRUVANANTHAPURAM,KERALA
DLXB0000264,Dhanlaxmi Bank Ltd,DLXB0000264,691 048 103," N.S.S.TALUK UNION, KOTTARAKKARA","N S S BUILDING, KOTTARAKKARA, KOLLAM, KERALA  691506",,KOTTARAKKARA,KOLLAM,KERALA
DLXB0000265,Dhanlaxmi Bank Ltd,DLXB0000265,688 048 054,SN COLLEGE CHERTHALA,"S.N.COLLEGE, CHERTHALA, ALAPPUZHA DIST, KERALA - 688 523 ",,CHERTHALA,ALAPUZHA,KERALA
DLXB0000266,Dhanlaxmi Bank Ltd,DLXB0000266,690 048 153,"T.D.B.OFFICE, MAVELIKKARA","NEAR KSRTC BUS STAND, MAVELIKKARA, ALAPUZHA DISTRICT, KERALA - 690101",,MAVELIKKARA,ALAPUZHA,KERALA
DLXB0000267,Dhanlaxmi Bank Ltd,DLXB0000267,686 048 352,"T.D.B.OFFICE, ETTUMANOOR","OFFICE OF THE ASST. COMMISSIONER, TRAVANCORE DEVASWOM BOARD, ETTUMANOR, KOTTAYAM DISTRICT, KERALA - 686 631",,ETTUMANOOR,KOTTAYAM,KERALA
DLXB0000268,Dhanlaxmi Bank Ltd,DLXB0000268,682 048 017,"VIDHYADIRAJA VIDYA BHAVAN, CHEERAKADA, ALUVA","XXI/325, VIDHYADHIRAJA VIDHYA BHAVAN, CHEERAKADA, ALUVA, ERNAKULAM DIST, KERALA - 683 101",,ALUVA,ERNAKULAM,KERALA
DLXB0000269,Dhanlaxmi Bank Ltd,DLXB0000269,695 048 012,ATTUKAL DEVI TEMPLE TRIVANDRUM,"DEVII AUDITORIUM ANNEXE BUILDING, ATTUKAL, TRIVANDRUM, KERALA . 695 009",,THIRUVANANTHAPURAM,THIRUVANANTHAPURAM,KERALA
DLXB0000270,Dhanlaxmi Bank Ltd,DLXB0000270,695 048 011,"BAR COUNCIL, VANCHIYOOR","TRIVANDRUM BAR ASSOCIATION, COURT COMPLEX, VANCHIYOOR, TRIVANDRUM, KERALA   695035",,THIRUVANANTHAPURAM,THIRUVANANTHAPURAM,KERALA
DLXB0000271,Dhanlaxmi Bank Ltd,DLXB0000271,691 048 003,DR. NAIR'S HOSPITAL KOLLAM,"SCHOOL OF NURSING, DR. NAIR'S HOSPITAL ASRAMAM, KOLLAM, KERALA - 691  ",,KOLLAM,KOLLAM,KERALA
DLXB0000272,Dhanlaxmi Bank Ltd,DLXB0000272,682 048 018,GCDA ERNAKULAM,"GCDA EXTENSION COUNTER, OPPOSITE KENDRIYA VIDYALAYA, GANDHI NAGAR, KADAVANTHRA, ERNAKULAM DIST, KERALA - 682 020 ",,KOCHI,ERNAKULAM,KERALA
DLXB0000273,Dhanlaxmi Bank Ltd,DLXB0000273,688 048 003,SD COLLEGE ALLEPY,"S.D.COLLEGE, SANATHANAPURAM, KALARKODE.P.O, ALAPPUZHA, KERALA - 688 003",,ALAPPUZHA,ALAPUZHA,KERALA
DLXB0000274,Dhanlaxmi Bank Ltd,DLXB0000274,691 048 004,SHANKER'S HOSPITAL KOLLAM,"SHANKER'S HOSPITAL, Q  S  ROAD, KOLLAM,  KERALA - 691001",,KOLLAM,KOLLAM,KERALA
DLXB0000275,Dhanlaxmi Bank Ltd,DLXB0000275,695 048 010,"TDB OFFICE, NANTHANCODE","TDB OFFICE, CLIFF HOUSE ROAD, NANTHANCODE, TRIVANDRUM, KERALA   695 003",,THIRUVANANTHAPURAM,THIRUVANANTHAPURAM,KERALA
DLXB0000276,Dhanlaxmi Bank Ltd,DLXB0000276,682 048 019,"WELCARE HOSPITAL, VYTILA","WELCARE HOSPITAL , S.A.ROAD, VYTILLA, ERNAKULAM DIST, KERALA - 682 019 ",,KOCHI,ERNAKULAM,KERALA
DLXB0000277,Dhanlaxmi Bank Ltd,DLXB0000277,NON MICR,C P C THRISSUR,"1ST FLOOR, BHUHARI TOWERS, M.G.ROAD, WEST FORT, POOTHOLE.P.O, THRISSUR ",,THRISSUR,THRISSUR,KERALA
DLXB0000278,Dhanlaxmi Bank Ltd,DLXB0000278,342048002,JODHPUR,"PLOT NO. 76,GROUND FLOOR,LK TOWER, CHOPASANI ROAD,JODHPUR -342002",,JODHPUR,JODHPUR,RAJASTHAN
DLXB0000279,Dhanlaxmi Bank Ltd,DLXB0000279,243048002,BAREILLY,"GROUND FLOOR,1160,JANAKPURI,OPP PRABHAT NAGAR GATE,BAREILLY,UTTARPRADESH 243122",,BAREILLY,BAREILLY,UTTAR PRADESH
DLXB0000996,Dhanlaxmi Bank Ltd,DLXB0000996,NON MICR,RTGS CELL,"2ND FLOOR, DLB BHAVAN, PUNKUNNAM, THRISSUR-4 680002 KERALA",,THRISSUR,THRISSUR,KERALA
DLXB0000998,Dhanlaxmi Bank Ltd,DLXB0000998,NON MICR,CORPORATE OFFICE,"DHANALAKSHMI BUILDINGS, NAIKANAL, THRISSUR, KERALA 680001",,THRISSUR,THRISSUR,KERALA
DLXB0000999,Dhanlaxmi Bank Ltd,DLXB0000999,NON MICR,DCS THRISSUR,"IST FLOOR, KOCHU BHAVAN, M G ROAD, THRISSUR, KERALA 680004",,THRISSUR,THRISSUR,KERALA