ID,BANK,IFSC_CODE,MICR_CODE,BRANCH_NAME,ADDRESS,CONTACT,CITY,DISTRICT,STATE
ABNA0100310,The Royal Bank of Scotland N.V.,ABNA0100310,400030002,"BRADY HOUSE, MUMBAI","BRADY HOUSE,14 VEER NARIMAN ROAD,FORT, MUMBAI - 400023","+91 22 66585858,FAX: 91-22-2284 1234
",MUMBAI,GREATER BOMBAY,MAHARASHTRA
ABNA0100311,The Royal Bank of Scotland N.V.,ABNA0100311,700030003,"CAMAC STREET, KOLKATA","AZIMGANJ HOUSE, 7 CAMAC STREET, KOLKATA - 700017","+91 33 2282 0990,FAX: +91-33 -22820844
",KOLKATA,KOLKATA,WEST BENGAL
ABNA0100312,The Royal Bank of Scotland N.V.,ABNA0100312,110030003,"HANSALAYA, NEW DELHI","HANSALAYA BUILDING, 15, BARAKHAMBA ROAD, NEW DELHI - 110001","+91 11 23702555,FAX: +91-11-23755470",DELHI,NEW DELHI,DELHI
ABNA0100313,The Royal Bank of Scotland N.V.,ABNA0100313,600030002,CHENNAI,"19/1, HADDOWS ROAD,  NUNGAMBAKKAM, CHENNAI 600006.","+91 44 28217171,FAX: 91-44-28240951
",CHENNAI,CHENNAI,TAMIL NADU
ABNA0100314,The Royal Bank of Scotland N.V.,ABNA0100314,411030001,PUNE,"327, MAHATMA GANDHI ROAD, PUNE CAMP, PUNE - 411001","+91 20 26139733,FAX: +91-20-26139734
",PUNE,PUNE,MAHARASHTRA
ABNA0100316,The Royal Bank of Scotland N.V.,ABNA0100316,390030002,BARODA,"7, ALKAPURI, R.C. DUTT ROAD, BARODA - 390 007","+91 265 2357002,FAX: +91-265- 2355900 / 2356000",VADODARA,VADODARA,GUJARAT
ABNA0100317,The Royal Bank of Scotland N.V.,ABNA0100317,500030001,HYDERABAD,"6-3-248/1/1/A, ROAD NO. 1, BANJARA HILLS, HYDERABAD - 500034","+91 40 6666 4321,FAX: 91-040-6666 3131
",HYDERABAD,HYDERABAD URBAN,ANDHRA PRADESH
ABNA0100318,The Royal Bank of Scotland N.V.,ABNA0100318,560030002,BANGALORE,"PRESTIGE TOWERS', GROUND FLOOR, 99 & 100, RESIDENCY ROAD, BANGALORE 560 025. ","+91 80 41998999,FAX: 91-80-2079600 / 2079400",BANGALORE,BANGALORE URBAN,KARNATAKA
ABNA0100319,The Royal Bank of Scotland N.V.,ABNA0100319,395030002,SURAT,"UPPER GROUND FLOOR, K G HOUSE, GHOD DOD ROAD, SURAT - 395007","+91 261 2255539,FAX:+ 91-261-2257147 
",SURAT,SURAT,GUJARAT
ABNA0100320,The Royal Bank of Scotland N.V.,ABNA0100320,132030002,PANIPAT,"SHOWROOM #1196/7(PART), OPP. N.K. TOWER, G.T. ROAD, PANIPAT - 132103","+91 180 4016328-32,FAX: +91-180-4016326",PANIPAT,PANIPAT,HARYANA
ABNA0100321,The Royal Bank of Scotland N.V.,ABNA0100321,641030102,TIRUPUR,"NO 16, G.G. TOWERS, KUMARAN ROAD, TIRUPUR - 641 601","+91 421 4355522,FAX :+91-421 - 2233112",TIRUPUR,CHENNAI,TAMIL NADU
ABNA0100322,The Royal Bank of Scotland N.V.,ABNA0100322,226030002,LUCKNOW,"ABN AMRO HOUSE, 93 M.G.MARG, LUCKNOW - 226001","+91 522 3982408,FAX :+91-522-3982555",LUCKNOW,LUCKNOW,UTTAR PRADESH
ABNA0100323,The Royal Bank of Scotland N.V.,ABNA0100323,380030002,AHMEDABAD,"VIVA COMPLEX, OPP. PARIMAL GARDEN,ELLISBRIDGE,AHMEDABAD -380 006","+91 79 40015600,FAX : 91-79-26422511",AHMEDABAD,AHMEDABAD,GUJARAT
ABNA0100324,The Royal Bank of Scotland N.V.,ABNA0100324,422030002,NASIK,"21, KRUSHINAGAR, COLLEGE ROAD, NASIK - 422005.","+91 253 6609999,FAX: +91-253 - 660 9988
",NASHIK,NASHIK,MAHARASHTRA
ABNA0100325,The Royal Bank of Scotland N.V.,ABNA0100325,636030002,SALEM,"103/1D5 SRIRAM NAGAR, SARADHA COLLEGE ROAD, SALEM - 636016 ","+91 427 4554111,FAX: +91-427-4554416
",SALEM,SALEM,TAMIL NADU
ABNA0100326,The Royal Bank of Scotland N.V.,ABNA0100326,575030002,MANGALORE,"MAXIMUS COMMERCIAL COMPLEX, LIGHT HOUSE HILL ROAD, MANGALORE - 575001","+91 824 3001300,FAX : +91-824 -2422782",MANGALORE,DAKSHINA KANNADA,KARNATAKA
ABNA0100327,The Royal Bank of Scotland N.V.,ABNA0100327,110030007,"HAUZ KHAS, NEW DELHI","M-6 HAUZ KHAS, NEW DELHI 110016","+91 11 51657777,FAX:+91-11-41655886",DELHI,NEW DELHI,DELHI
ABNA0100328,The Royal Bank of Scotland N.V.,ABNA0100328,110030009,"GK 1, NEW DELHI","R-67, GREATER KAILASH-I, NEW DELHI - 110048","+91 11 41630791,FAX : +91-11 - 41731838
",DELHI,NEW DELHI,DELHI
ABNA0100329,The Royal Bank of Scotland N.V.,ABNA0100329,110030010,"RAJOURI GARDEN, NEW DELHI","J-12/11 RAJOURI GARDEN,NEW DELHI-110027","+91 124 411 1111,FAX : +91-11- 41440055",DELHI,NEW DELHI,DELHI
ABNA0100330,The Royal Bank of Scotland N.V.,ABNA0100330,110030006,GURGAON,"VATIKA FIRST INDIA PLACE, TOWER B GROUND FLOOR, BLOCK A SUSHANT LOK PHASE I, MEHRAULI GURGAON ROAD, GURGAON - 122 002","+91 124 4062555,FAX: +91-124-4062333
",GURGAON,GURGAON,HARYANA
ABNA0100331,The Royal Bank of Scotland N.V.,ABNA0100331,416030002,KOLHAPUR,"GROUND FLOOR, ANANT TOWERS , 1115 K-1 SHAHUPURI, KOLHAPUR - 416001","+91 231 6612903,FAX: +91- 231-6612940",KOLHAPUR,KOLHAPUR,MAHARASHTRA
ABNA0100332,The Royal Bank of Scotland N.V.,ABNA0100332,700030002,"BRABOURNE ROAD, KOLKATA","18 A, BRABOURNE ROAD, KOLKATA - 700001","+91 33 2234 3333,FAX: +91-33-2234 3310 / 2234 3312
",KOLKATA,KOLKATA,WEST BENGAL
ABNA0100333,The Royal Bank of Scotland N.V.,ABNA0100333,700030004,"SALT LAKE CITY, KOLKATA","CD-16 , SECTOR - 1, SALT LAKE CITY, KOLKATA - 700064","+91 33 23196000,FAX: +91-33-23196010",KOLKATA,KOLKATA,WEST BENGAL
ABNA0100334,The Royal Bank of Scotland N.V.,ABNA0100334,30000,MORADABAD,"GF1 PARASNATH PLAZA II, NEELGIRI COMMERCIAL COMPLEX , DELHI ROAD , MORADABAD - 244 001","+91 591 2480710,FAX : +91- 591-2480748
",MORADABAD,MORADABAD,UTTAR PRADESH
ABNA0100335,The Royal Bank of Scotland N.V.,ABNA0100335,400030005,"JUHU, MUMBAI","GROUND & FIRST FLOOR, DURU HOUSE, JUHU TARA ROAD, JUHU, MUMBAI - 400049","+91 22 67020280,FAX :+ 022-6702 0285",MUMBAI,GREATER BOMBAY,MAHARASHTRA
ABNA0100336,The Royal Bank of Scotland N.V.,ABNA0100336,110030004,NOIDA,"OCEAN HEIGHTS, K - 4 SECTOR 18, NOIDA - 201301","+91 120 2517448,FAX: +91-120-2517447",NOIDA,GAUTAM BODDA NAGAR,UTTAR PRADESH
ABNA0100337,The Royal Bank of Scotland N.V.,ABNA0100337,313030002,UDAIPUR,"""SHUBH APPT"", GROUND FLOOR , PLOT NO. 99, L ROAD, BHUPALPURA, VERMA CIRCLE, OPP. COLLECTOR BUNGALOW, UDAIPUR - 313001","+91 294 5152004,FAX: +91-294-5103883
",UDAIPUR,UDAIPUR,RAJASTHAN
ABNA0100338,The Royal Bank of Scotland N.V.,ABNA0100338,282030002,AGRA,"KHASRA NO.71&72 VILLAGE MAUZA DEHTURA, TEHSIL AND DISTRICT AGRA - 282 007","TE :-91-0522-3982500, FAX, 91-0562-2275451",AGRA,AGRA,UTTAR PRADESH
ABNA0100339,The Royal Bank of Scotland N.V.,ABNA0100339,342030002,JODHPUR,"KHASRA NO.9/4,OPP.IOCL PUNP,MAIN SALAWAS ROAD, BASNI PHASE - II, VILLAGE SANGARIYA, TEHSIL JODHPUR- 324005
","+91 9214301111, FAX- 91-291-2741555",JODHPUR,JODHPUR,RAJASTHAN
ABNA0100340,The Royal Bank of Scotland N.V.,ABNA0100340,144030002,JALANDHAR,"MIDLAND FINANCIAL CENTRE,GROUND FLOOR, 21-22, G.T. ROAD,JALANDHAR, PUNJAB- 144001",+91 9216501111,JALANDHAR,JALANDHAR,PUNJAB
ABNA0200001,The Royal Bank of Scotland N.V.,ABNA0200001,400030004,"SAKHAR BHAVAN, MUMBAI","SAKHAR BHAVAN, NARIMAN POINT,MUMBAI - 400021.","+91 22 2281 8008,FAX: 91-22-2281 8252",MUMBAI,GREATER BOMBAY,MAHARASHTRA