ID,BANK,IFSC_CODE,MICR_CODE,BRANCH_NAME,ADDRESS,CONTACT,CITY,DISTRICT,STATE
INDB0000412,Indusind Bank Ltd,INDB0000412,301234202,BHIWADI,"GROUND FLOOR, A-6, BHAGAT SINGH COLONY, ADJ. HERO SHOW ROOM,DELHI-ALWAR HIGHWAY, BHIWADI-301 019, ALWAR DIST, RAJASTHAN",01493-230083,BHIWADI,ALWAR,RAJASTHAN
INDB0000422,Indusind Bank Ltd,INDB0000422,831234003,KHARSAWAN,"GROUND FLOOR OF THE BUILDING CHANDNI CHOWK, 
KUCHAI ROAD.POIPS:
KHARSAWAN- 833 216.JHARKHAND
","06583-254803, 06583-254804, 
06583-254805--(FAX)",KHARSAWAN,SARAIKELA-KHARSAWAN,JHARKHAND
INDB0000425,Indusind Bank Ltd,INDB0000425,767234102,SONAPUR,"GROUND FLOOR,PO- MAJHIPADA, MARKET ROAD,SONAPUR, DIST.SUBRNAPUR – 762 016, ODISHA.
","06654-220134
06654-220135
06654-220136--(FAX)

",SONEPUR,SONEPUR,ORISSA
INDB0000428,Indusind Bank Ltd,INDB0000428,344234002,BARMER,"GROUND FLOOR, “OMEGA TOWER”, PROPERTY NO 414, ROY COLONY, NEAR COLLECTOR’S BUNGLOW, BARMER-344 001, RAJASTHAN

",02912 -221005-6 FAX 02912 -221105,BARMER,BARMER,RAJASTHAN
INDB0000429,Indusind Bank Ltd,INDB0000429,304234002,DEOLI,"GROUND FLOOR,“GOYAL SALES CORPORATION”, PLOT NO.16 & 17,WARD NO 18, OPP. GOYAL MOTORS, KOTA MAIN ROAD, DEOLI-304 804,TONK DIST, RAJASTHAN
","01434-232433/35/
01434-232434
",DEOLI,TONK,RAJASTHAN
INDB0000432,Indusind Bank Ltd,INDB0000432,160234014,"PHASE – XI, MOHALI","BASEMENT & GROUND FLOOR, SCF NO. 36, PHASE – XI, MOHALI – 160062 (PUNJAB)",0172- 5058210,SAS NAGAR(MOHALI),RUPNAGAR,PUNJAB
INDB0000435,Indusind Bank Ltd,INDB0000435,226234003,OBRI,"UPPER GROUND FLOOR AT MITRA PLAZA, 507-508 
OBRI GRAM, OPP. DM NIVAS, 
BARABANKI DISTT. – 225001 (UP)
","05248-225822, 226822 

",OBAREE,BARA BANKI,UTTAR PRADESH
INDB0000436,Indusind Bank Ltd,INDB0000436,302234005,MAHAPURA,"GROUND FLOOR, SHOP NO. 10,11 & 12, SHIVANANDAPURI VISTAR, KALWADA ROAD, MAHAPURA – 302026.  JAIPUR DISTT. RAJASTHAN","0141- 2251748, 2251749, 2251746
",MAHAPURA,JAIPUR,RAJASTHAN
INDB0000439,Indusind Bank Ltd,INDB0000439,327234002,BANSWARA,"GROUND FLOOR,  PLOT NO. – 174/A, B, C & D, 
MOHAN COLONY, UDAIPUR ROAD, 
BANSWARA – 327001 (RAJASTHAN)
","02962 – 240767, 241166, 240065 
",BANSWARA,BANSWARA,RAJASTHAN
INDB0000441,Indusind Bank Ltd,INDB0000441,342234003,PAOTA- JODHPUR,"GROUND FLOOR, PLOT NO. 114 & 115, LAXMAN BHAWAN, POLO 1ST, PAOTA, FACING MAIN MANDORE ROAD, JODHPUR – 342 006 (RAJASTHAN)",0291-2545601-2 FAX 0291-2545603,JODHPUR,JODHPUR,RAJASTHAN
INDB0000452,Indusind Bank Ltd,INDB0000452,342234502,SOOR SAGAR,"“ DURGA VILLA”, MANNA KI BADI, FIDUSAR ROAD, SOOR SAGAR – 342 024, DIST:JODHPUR (RAJASTHAN) ",0291-2780784 - 85 FAX 0291-2781785,SURSAGAR,JODHPUR,RAJASTHAN
INDB0000453,Indusind Bank Ltd,INDB0000453,342234501,BORANADA,"GROUND FLOOR AT SHOP NO. S-9,S - 10, RIICO HOUSING COLONY, BALOTARA ROAD, BORANADA – 342 012, DISTRICT. JODHPUR (RAJASTHAN)","02931-281310-73, FAX 02931-281173",BARANADA,JODHPUR,RAJASTHAN
INDB0000389,Indusind Bank Ltd,INDB0000389,110234039,JASOLA,"SHOP NO.GF-1,2 & 5, GROUND FLOOR, TOI CENTRE, JASOLA, NEW DELHI - 110025","011-41008510, 41008511",DELHI,DELHI,DELHI
INDB0000390,Indusind Bank Ltd,INDB0000390,533234402,RAMACHANDRAPURAM,"GROUND FLOOR, “KRISHNAM RAJU COMPLEX”, 28-1-7/1, MAIN ROAD, RAMACHANDRAPURAM- 533 255,  EAST GODAVARI DIST, AP",08857-244402 /03 /04,RAMACHANDRAPURAM,EAST GODAVARI,ANDHRA PRADESH
INDB0000394,Indusind Bank Ltd,INDB0000394,793234002,SHILLONG,"“ HOTEL PEGASUS  CROWN”, HOUSE NO 194, WARD NO 10, JAIL ROAD, POLICE BAZAAR, SHILLONG- 793 001, MEGHALAYA","0364-2501490, 2501405, 2501504, 2501479",SHILLONG,EAST KHASI HILLS,MEGHALAYA
INDB0000397,Indusind Bank Ltd,INDB0000397,712234002,"TARAKESHWAR, HOOGLY","GROUND FLOOR AT TC ROAD, SARDAPALLY, TARAKESHWAR, HOOGLY DIST- 712 710,WEST BENGAL","03212-278220, 278221, 278219",TARAKESWAR,HUGLI,WEST BENGAL
INDB0000399,Indusind Bank Ltd,INDB0000399,411234010,SHIKRAPUR,"GROUND FLOOR, “SAMBHAJI RAO KARANJE COMPLEX”, NAGAR ROAD, AT& POST SHIKRAPUR- 412 208, TAL SHIRUR, DIST: PUNE, MAHARASHTRA","02137 - 286136,  286137
",SHIRUR,PUNE,MAHARASHTRA
INDB0000400,Indusind Bank Ltd,INDB0000400,387234001,NADIAD,"GROUND FLOOR, “D-CUBE”, NEAR KIDNEY HOSPITAL, PETLAD ROAD, NADIAD-387 001, GUJARAT",0268 2520081 / 2520082 / 2520146  / 252282 / 2520147,NADIAD,KHEDA,GUJARAT
INDB0000401,Indusind Bank Ltd,INDB0000401,110234037,"GOLF COURSE ROAD,  GURGAON","GROUND FLOOR AT SHOP NO 2, ’ SUNCITY BUSINESS TOWER’, SECTOR-54,  GOLF COURSE ROAD,  GURGAON- 122 002, HARYANA","0124 -2573567, 2572567",GURGAON,GURGAON,HARYANA
INDB0000402,Indusind Bank Ltd,INDB0000402,400234033,"THAKUR COMPLEX, KANDIVALI-E, MUMBAI","SHOP. NO 2,3,4,5 & 6, KANAKIA PARK II CHS, THAKUR COMPLEX, KANDIVALI-E, MUMBAI-400 101","022 2870 1139,  28704993 / 5526 / 5571 / 6411",MUMBAI,GREATER BOMBAY,MAHARASHTRA
INDB0000403,Indusind Bank Ltd,INDB0000403,360234003,"RING ROAD, RAJKOT","GROUND FLOOR,  SHOP NO. 5& 6(PART) “ THE IMPERIAL HEIGHTS”, 150FT RING ROAD, OPP.ISCON PROZONE MALL, KALAWAD ROAD, RAJKOT-360 007, GUJARAT",0281-2571850 / 60 /70,RAJKOT,RAJKOT,GUJARAT
INDB0000406,Indusind Bank Ltd,INDB0000406,400234034,"SECTOR NO.17, VASHI","GROUND FLOOR, SHOP. NO. 5, MAHATMA PHULE BHAVAN, PLOT NO.66, SECTOR NO.17, VASHI, NAVI MUMBAI- 400 703","022 -27668457 /58/62/63, 27668456, 27668464, ",THANE,THANE,MAHARASHTRA
INDB0000409,Indusind Bank Ltd,INDB0000409,NA,KHAMANON,"1ST FLOOR, OPP. MANDI, LUDHIANA –CHANDIGARH HIGHWAY, KHAMMANON-141 801, DIST: FATEHGARH SAHEB, PUNJAB","01628-503440,42,43,44 FAX NO -  01628-503441 ",KHAMANON,FATEHGARH SAHIB,PUNJAB
INDB0000410,Indusind Bank Ltd,INDB0000410,250234002,MEERUT,"GROUND FLOOR “TYAGI MARKET”, # 22, TEJ GARHI, GARH ROAD,  MEERUT- 250 004, UTTAR PRADESH",0121-2604771,MEERUT,MEERUT,UTTAR PRADESH
INDB0000411,Indusind Bank Ltd,INDB0000411,301234002,ALWAR,"GROUND FLOOR  “DREAMS”, NEAR BIJLI GHAR CIRCLE, GAURAV PATH, ALWAR- 301 001, RAJASTHAN ","0144 - 2701368, 2701072",ALWAR,ALWAR,RAJASTHAN
INDB0000413,Indusind Bank Ltd,INDB0000413,680234003,KODUNGALLUR,"GROUND FLOOR, AT “ROYAL SPOT SHOPPING MALL” NORTH NADA, KODUNGALLUR, TRISSUR DIST- 680 664, KERALA","0480-2809210 /220/240, 2809250",KODUNGALLUR,THRISSUR,KERALA
INDB0000414,Indusind Bank Ltd,INDB0000414,370234501,NARANPAR PASAYALI,"GROUND + FIRST FLOOR, NARANPUR, UPLOVAS, NARANPAR PASAYALI- 370 429, KACHCH DIST, GUJARAT","02832 – 282300, 282307, 282302 282303",NARANPAR,KACHCHH,GUJARAT
INDB0000415,Indusind Bank Ltd,INDB0000415,393234051,ANKLESHWAR,"SHOP NO 10 & 11  “ SHREE GANESH BUILDING”  OLD NH-8, ANKLESHWAR- 393 001, GUJARAT","02646 - 226405, 226406, 226407,  226408, 226409, 226410",ANKLESHWAR,BHARUCH,GUJARAT
INDB0000417,Indusind Bank Ltd,INDB0000417,0,DHAMRA,"GROUND FLOOR, PLOT NO 6/664, PRADYUT NAGAR, DUSINGA, PO- DHAMRA- 756 171, BHADRAK DIST, ODISHA",06786-212094 / 95 / 96,DHAMARA,BHADRAK,ORISSA
INDB0000418,Indusind Bank Ltd,INDB0000418,758234002,KENDUJHAR,"GROUND FLOOR, PLOT NO 590, PABITRADIHA, KAMARGADIA, KEONJHAR- 758 001, ODISHA","06766-255832, 255858, 255791",KEONJHAR,KEONJHAR,ORISSA
INDB0000419,Indusind Bank Ltd,INDB0000419,700234018,DIAMOND HARBOUR BRANCH,"1ST FLOOR, MADHAPUR, NEAR POLICE STATION,WARD NO 13, PO & PS: DIAMOND HARBOUR, DIST: 24 SOUTH PARAGNAS- 743 331, WEST BENGAL ","03174-258583, 258584, 258585",DIAMOND HARBOUR,SOUTH 24 PARGANAS,WEST BENGAL
INDB0000420,Indusind Bank Ltd,INDB0000420,313234003,RAJSAMAND,"GROUND FLOOR,“GIRIDHAR COMPLEX”, AARAJI NO 41/3, NEAR SURBHI COMPLEX, 100FT ROAD CHOURAHA, NATHWARA ROAD, RAJASAMAND-313 324, RAJASTHAN","02952-224003/4, 224005
",RAJSAMAND,RAJSAMAND,RAJASTHAN
INDB0000421,Indusind Bank Ltd,INDB0000421,312234002,CHITTORGARH,"GROUND FLOOR AT “APSARA COMPLEX”,  SHOP NO. 31,32 & 49, NEAR COLLECTORATE CHAURAHA, OPP. MEERA MARKET, CHITTORGARH – 312 001 (RAJASTHAN)","01472-243335/6, 243330
",CHITTORGARH,CHITTAURGARH,RAJASTHAN
INDB0000423,Indusind Bank Ltd,INDB0000423,492234003,BHATAGAON,"PLOT NO B-75, RING ROAD NO1,NEAR SIDDHESHWARI TEMPLE,BHATAGAON, RAIPUR DIST- 492 001, CHHATISGARH","03771-2273833
03771-2273835
03771-2273834--(FAX)
",BHATGAON,RAIPUR,CHHATTISGARH
INDB0000424,Indusind Bank Ltd,INDB0000424,494234101,KANKER,"GROUND + 1ST FLOOR PREMISES  AT SHOP NO 55, “ AMBEDKAR SHOPPING COMPLEX”, MAJHAPARA, KANKER- 494 334, CHHATISGARH","07868-222260, 222155, 222297",KANKER,KANKER,CHHATTISGARH
INDB0000426,Indusind Bank Ltd,INDB0000426,146234002,HOSHIARPUR,"""UGF-S"", LOCATED AT UPPER GROUND FLOOR, "" J'S EMINENT MALL, MUNICIPAL NO.8-XVII/81S, SUTHERI ROAD. HOSHIARPUR-146001 PUNJAB ","01882-502700,502701,502702,502703",HOSHIARPUR,HOSHIARPUR,PUNJAB
INDB0000376,Indusind Bank Ltd,INDB0000376,768234002,SAMBALPUR,"UPPER GROUND FLOOR, AT PLOT NO 2121/2392, UNIT-14,DANIPALI, OPP. LIC BUILDING, PO BUDHARAJA, SAMBALPUR- 768 004, ODISHA","0663-2541366, 2541466, 2541566",SAMBALPUR,SAMBALPUR,ORISSA
INDB0000387,Indusind Bank Ltd,INDB0000387,627234002,TUTICORIN,"GROUND FLOOR, # 148, DEVARPURAM ROAD, V. E. ROAD EXTN, NEAR ALWIN HOTEL, TUTICORIN-628 002, TAMIL NADU","0461- 2300702, 2300703, 2300704, 2300706",TUTICORIN,TOOTHUKUDI,TAMIL NADU
INDB0000001,Indusind Bank Ltd,INDB0000001,400234002,OPERA HOUSE,"INDUSIND HOUSE, 425, DADASAHEB BHADKAMKAR MARG MUMBAI - 400 004 ",,,MUMBAI,GREATER MUMBAI
INDB0000002,Indusind Bank Ltd,INDB0000002,411234002,PUNE,"2401,GEN.THIMMAYYA RD. (CANTONMENT), PUNE - 411 001. ",,,PUNE,PUNE
INDB0000003,Indusind Bank Ltd,INDB0000003,400234003,BANDRA,"INDUSIND CENTRE 231, S.V. ROAD, BANDRA (WEST) 'MUMBAI - 400 050.",,,MUMBAI,GREATER MUMBAI
INDB0000004,Indusind Bank Ltd,INDB0000004,500234002,SECUNDERABAD,"1-8-448, SARDAR PATEL RD. BEGUMPET, SECUNDERABAD – 500003",,,SECUNDERABAD,HYDERABAD URBAN
INDB0000005,Indusind Bank Ltd,INDB0000005,110234002,BARAKHAMBA,"DR. GOPAL DAS BHAWAN, 28, BARAKHAMBA ROAD, NEW DELHI - 110 001",,,NEW DELHI,NEW DELHI
INDB0000006,Indusind Bank Ltd,INDB0000006,400234004,NARIMAN POINT,"GROUND FLOOR, MAKER CHAMBERS IV, NARIMAN POINT",,,MUMBAI,GREATER MUMBAI
INDB0000007,Indusind Bank Ltd,INDB0000007,600234002,CHENNAI,"NO.3 VILLAGE ROAD NUNGAMBAKKAM, 'CHENNAI - 600 034",,,CHENNAI,CHENNAI
INDB0000008,Indusind Bank Ltd,INDB0000008,560234002,BANGALORE,"DU PARC TRINITY 1ST FLOOR, WEST WING NO.17, M.G. ROAD BANGALORE - 560 001         ",,,BANGALORE,BANGALORE URBAN
INDB0000009,Indusind Bank Ltd,INDB0000009,380234002,AHMEDABAD,"WORLD BUSINESS HOUSE, M. G. ROAD 'NR. PARIMAL GARDEN, ELLIS BRIDGE AHMEDABAD - 380015",,,AHMEDABAD,AHMEDABAD
INDB0000010,Indusind Bank Ltd,INDB0000010,682234002,KOCHI,"GOWRINARAYAN, (OPP. TO NEW JAYALAKSHMI SILKS), '40/8399, 8400, M. G. ROAD, KOCHI – 682035",,,KOCHI,ERNAKULAM
INDB0000011,Indusind Bank Ltd,INDB0000011,452234002,INDORE,"INDUSTRY HOUSE 15 AGRA MUMBAI ROAD, OLD PALASIA, INDORE - 452 001",,,INDORE,INDORE
INDB0000012,Indusind Bank Ltd,INDB0000012,110234003,GREATER KAILASH II,M-56 GREATER KAILASH II (MAIN MARKET) NEW DELHI – 110 048,,"011 - 47168700, 
47168713",NEW DELHI,NEW DELHI
INDB0000014,Indusind Bank Ltd,INDB0000014,160234002,CHANDIGARH,"S.C.O. NO.53-54, SECTOR 8-C, 'MADHYA MARG CHANDIGARH - 160 018.",,,CHANDIGARH,CHANDIGARH
INDB0000015,Indusind Bank Ltd,INDB0000015,700234002,KOLKATA,"SAVITRI TOWERS, 3A, UPPER WOOD STREET, KOLKATA – 700 017",,,KOLKATTA,KOLKATA
INDB0000016,Indusind Bank Ltd,INDB0000016,302234002,JAIPUR,"SANGAM COMPLEX, GR.FLR.CHURCH ROAD,         'JAIPUR 302 001",,,JAIPUR,JAIPUR
INDB0000017,Indusind Bank Ltd,INDB0000017,390234002,BARODA,"VANIJYA BHAVAN RACE COURSE CIRCLE, BARODA 390 007",,,BARODA,VADODARA
INDB0000018,Indusind Bank Ltd,INDB0000018,400234005,ANDHERI,"ACME PLAZA, C.T.S. NO. 32OPP. SANGAM TALKIES, ANDHERI-KURLA ROAD,'ANDHERI (E), MUMBAI 400 059 '                    BOAN@INDUSIND.COM",,,MUMBAI,GREATER MUMBAI
INDB0000019,Indusind Bank Ltd,INDB0000019,226234002,LUCKNOW,"OLD BASANT BLDG. H.NO. 45/2, NEWAL KISHORE ROAD, 'LALBAGH, LUCKNOW 226 001",,,LUCKNOW,LUCKNOW
INDB0000020,Indusind Bank Ltd,INDB0000020,141234002,LUDHIANA,"S.C.O. 21, FEROZE GANDHI MARKET, OPP. LUDHIANA STOCK EXCH., 'LUDHIANA 141 001",,,LUDHIANA,LUDHIANA
INDB0000021,Indusind Bank Ltd,INDB0000021,641234002,COIMBATORE,"652-662, TRISTAR TOWERSAVANASHI ROAD,'COIMBATORE 641 037 ",,,COIMBATORE,COIMBOTORE
INDB0000022,Indusind Bank Ltd,INDB0000022,110234004,GURGAON,"BLOCK A, SUSHANT LOK, PHASE I, TOWER B, FIRST INDIA PLACE,'GR. FLOOR, MEHRAULI-GURGAON ROAD, GURGAON 122002, HARYANA ",,,NEW DELHI,GURGAON
INDB0000023,Indusind Bank Ltd,INDB0000023,395234002,SURAT,"G-2, EMPIRE STATE BLDG., NEAR UDHANA DARWAJA,'RING ROAD, SURAT 395 002",,,SURAT,SURAT
INDB0000024,Indusind Bank Ltd,INDB0000024,400234006,VASHI,"SHOWROOM NOS. 3  5 PLOT NO. 21, SECTOR 24 VASHI  TURBHE 'NAVI MUMBAI 400 705 ",,,THANE,THANE
INDB0000025,Indusind Bank Ltd,INDB0000025,440234002,NAGPUR,"SHRI SWAMI PLAZA, 97, EAST HIGH COURT ROAD, RAMDAS PETH, NAGPUR – 440 010 ",,,NAGPUR,NAGPUR
INDB0000026,Indusind Bank Ltd,INDB0000026,342234002,JODHPUR,"SHOWROOM NO. 3&4, OLYMPIC TOWER BLDG.,'STATION ROAD, JODHPUR 342 003 ",,,JODHPUR,JODHPUR
INDB0000027,Indusind Bank Ltd,INDB0000027,492234002,RAIPUR,"KRISHNA COMPLEX, LAL BAHADUR SHASTRI SQUARE,'JAIL ROAD, RAIPUR,                CHATTISGARH 492 001",,,RAIPUR,RAIPUR
INDB0000028,Indusind Bank Ltd,INDB0000028,400234007,LOKHANDWALA,"MORYA ESTATE, NEW LINK ROAD,'ANDHERI (W), OSHIWARA, MUMBAI 400 053 ",,,MUMBAI,GREATER MUMBAI
INDB0000029,Indusind Bank Ltd,INDB0000029,700234003,GARIAHAT,"P-9, GARIAHAT ROAD, 'KOLKATA 700 029 ",,,GARIAHAT,KOLKATA
INDB0000030,Indusind Bank Ltd,INDB0000030,834234002,RANCHI,"JAIN ENCLAVE BLDG., 56/B, MAIN ROAD,'NEAR HERO HONDA SHOWROOM, RANCHI 834 001 ",,,RANCHI,RANCHI
INDB0000031,Indusind Bank Ltd,INDB0000031,110234005,PREET VIHAR,"C-61, PREET VIHARVIKAS MARG,'               NEW DELHI 110 092 ",,,NEW DELHI,NEW DELHI
INDB0000032,Indusind Bank Ltd,INDB0000032,NON MICR,DHANBAD,"SHASTRI NAGAR, BESIDE LAXMI PETROL PUMP,'BANK MORE,                             DHANBAD – 826 001JHARKHAND ",,,DHANBAD,DHANBAD
INDB0000033,Indusind Bank Ltd,INDB0000033,400234009,FORT,"PREMISES NO. 1, SONAWALA BUILDING 57, 'MUMBAI SAMACHAR MARG, FORT, MUMBAI 400 001",,,MUMBAI,GREATER MUMBAI
INDB0000034,Indusind Bank Ltd,INDB0000034,638234002,ERODE,"J.B.PLAZA, NO. 1155, METTUR ROAD, ERODE – 638 011  ",,,ERODE,ERODE
INDB0000035,Indusind Bank Ltd,INDB0000035,751234002,BHUBANESHWAR,"NO. 78, JANPATH, KHARAVELA NAGAR, UNIT III, BHUBANESHWAR – 751 001 ",,,BHUBANESHWAR,KHURDA
INDB0000036,Indusind Bank Ltd,INDB0000036,110234006,NOIDA,"B-11, VARDHAMAN PLAZA, GAUTAM BUDH NAGAR,'SECTOR 16, NOIDA ",,,NEW DELHI,GAUTAM BODDA NAGAR
INDB0000037,Indusind Bank Ltd,INDB0000037,221234002,VARANASI,"MAANSAROVAR, C-30/35 – B, MALDHIYA, VARANASI – 221 001 UTTAR PRADESH",,,VARANASI,VARANASI
INDB0000038,Indusind Bank Ltd,INDB0000038,781234002,GUWAHATI,"G. S. ROAD, BHANGAGARH, 'GUWAHATI 781 005 ",,,GUWAHATI,KAMRUP
INDB0000039,Indusind Bank Ltd,INDB0000039,560234003,BASAVANGUDI,"NO. 87, BULL TEMPLE ROAD, BASAVANAGUDI, BANGALORE 560004 ",,,BASAVANGUDI,BANGALORE URBAN
INDB0000040,Indusind Bank Ltd,INDB0000040,400234011,THANE,"JINJA SOCIETY, OPP. DHAMANI ESTATE, L. B. S. MARG,'THANE  400 602 ",,,THANE,THANE
INDB0000041,Indusind Bank Ltd,INDB0000041,208234002,KANPUR,"113/120,  OPPOSITE MOTI JHEEL GATE,'SWAROOP NAGAR, KANPUR 208 002    ",,,KANPUR,KANPUR NAGAR
INDB0000042,Indusind Bank Ltd,INDB0000042,462234002,BHOPAL,"55, SHOPPING CENTRE, OPP. T. T. NAGAR POLICE STATION,'NEW MARKET, BHOPAL ",,,BHOPAL,BHOPAL
INDB0000043,Indusind Bank Ltd,INDB0000043,110234007,PUNJABI BAUG,"33, NORTH WEST AVENUE, CLUB ROAD, WEST PUNJABI BAUG,'NEW DELHI - 110026 ",,,NEW DELHI,NEW DELHI
INDB0000044,Indusind Bank Ltd,INDB0000044,110234008,JANAKPURI,"B 23, COMMUNITY CENTRE, JANAKPURI, NEW DELHI - 110 058",,,NEW DELHI,NEW DELHI
INDB0000045,Indusind Bank Ltd,INDB0000045,144234002,JALLANDHAR,"289, SHAHEED UDAMSINGH NAGAR, 'T. V. STUDIO ROAD, JALLANDHAR ",,,JALLANDAR,JALANDHAR
INDB0000046,Indusind Bank Ltd,INDB0000046,600234003,ANNA NAGAR," AL COMPLEX, W 115 A,  3RD AVENUE, ANNANAGAR,' CHENNAI 600040 ",,,CHENNAI,CHENNAI
INDB0000047,Indusind Bank Ltd,INDB0000047,400234012,MULUND,"MARATHON MAX, SHOP NO. 12-15, MULUND -GOREGAON LINK ROAD, 'MULUND (W), MUMBAI -400080                 ",,,MUMBAI,GREATER MUMBAI
INDB0000048,Indusind Bank Ltd,INDB0000048,400234014,KANDIVALI (WEST),"SHOP NO. 5, BETWEEN A & B WING, KAMALA NAGAR, 'M G ROAD, KANDIVALI (W),       MUMBAI - 400 067 ",,,MUMBAI,GREATER MUMBAI
INDB0000049,Indusind Bank Ltd,INDB0000049,245234002,HAPUR,"RAJAN PLAZA, 128, RAILWAY ROAD, 'HAPUR-245101",,,NEW DELHI,GHAZIABAD
INDB0000050,Indusind Bank Ltd,INDB0000050,695234003,THIRUVANANTHAPURAM,"SWASTIK CENTRE, M.G ROAD, THIRUVANANTHAPURAM-695001 ",,,THIRUVANANTHAPURAM,TRIVANDRUM
INDB0000051,Indusind Bank Ltd,INDB0000051,600234004,ADYAR,"SREELA TERRACE, OLD NO. 48, NEW NO. 105, 1ST MAIN ROAD, GANDHI NAGAR, ADYAR,     CHENNAI-600020 ",,,CHENNAI,CHENNAI
INDB0000052,Indusind Bank Ltd,INDB0000052,700234005,BURRA BAZAR,"BURRA BAZAR, 46, KALI KRISHNA TAGORE STREET (1ST FLOOR) 'KOLKATA-700007 ",,,KOLKATTA,KOLKATA
INDB0000053,Indusind Bank Ltd,INDB0000053,400234015,CHEMBUR,"UNIT NUMBERS 8,9,10, SUNNY ESTATE (2), SION TROMBAY ROAD 'CHEMBUR, MUMBAI - 400 071 ",,,MUMBAI,GREATER MUMBAI
INDB0000054,Indusind Bank Ltd,INDB0000054,248234002,DEHRADUN,"GROUND FLOOR, 59/4, INTERNATIONAL TRADE CENTER, RAJPUR ROAD, OPPOSITE UTTARAKHAND SECRETARIAT, DEHRADUN 248001 ",,,DEHRADUN,DEHRADUN
INDB0000055,Indusind Bank Ltd,INDB0000055,800234002,PATNA,"SHOWROOM NO. SR02, RAJENDRA RAM PLAZA,'EXHIBITION ROAD, PATNA ",,,PATNA,PATNA
INDB0000056,Indusind Bank Ltd,INDB0000056,400234013,DADAR,"607 A, GROUND FLOOR, DOLAT MANZIL, NEXT TO PARSI GYMKHANA 'DR. AMBEDKAR ROAD, DADAR (EAST), MUMBAI - 400 014 ",,,MUMBAI,GREATER MUMBAI
INDB0000057,Indusind Bank Ltd,INDB0000057,520234001,VIJAYAWADA,"M. G. ROAD, NEAR BENZ CIRCLE, VIJAYAWADA-520010 ",,,VIJAYAWADA,KRISHNA
INDB0000058,Indusind Bank Ltd,INDB0000058,580234002,HUBLI,"RR’S MAHALAXMI MANSION, DESAI CROSS, PINTO ROAD, HUBLI 580 020 ",,,HUBLI,DHARWAD
INDB0000059,Indusind Bank Ltd,INDB0000059,734234002,SILIGURI,"GOLDEN PLAZA, GROUND FLOOR, 'BURDWAN ROAD, SILIGURI 734 401 ",,,SILIGURI,DARJEELING
INDB0000060,Indusind Bank Ltd,INDB0000060,570234002,MYSORE,"NO. 28, DEVARAJ URS ROAD, DEVRAJ MOHALLA, 'MYSORE - 570 001 ",,,MYSORE,MYSORE
INDB0000061,Indusind Bank Ltd,INDB0000061,520234102,GUNTUR,"D NO 6-9-17, RATNADEEPIKA PLAZA, 9/1 ARUNDELPET, GUNTUR - 522002",,,GUNTUR,GUNTUR
INDB0000062,Indusind Bank Ltd,INDB0000062,431234003,AURANGABAD,"ETHIBIZ CTS NO. 12996, OPP. JAMMU & KASHMIR BANK 'JALNA ROAD,                AURANGABAD - 431001",,,AURANGABAD,AURANGABAD
INDB0000063,Indusind Bank Ltd,INDB0000063,518234002,KURNOOL,"40/581, S.V.COMPLEX, R. S. ROAD, 'KURNOOL  - 518004  ",,,KURNOOL,KURNOOL
INDB0000064,Indusind Bank Ltd,INDB0000064,282234002,AGRA,"BLOCK NO.48/6, GROUND FLOOR, PUNEET VRINDAVAN BUILDING 'SANJAY PLACE,               AGRA - 282002 ",,,AGRA,AGRA
INDB0000065,Indusind Bank Ltd,INDB0000065,NON MICR,JAMNAGAR,"SHIVAM COMPLEX, TEEN BATTI, OPP. BADRI COMPLEX, JAMNAGAR -361 001 ",,,JAMNAGAR,JAMNAGAR
INDB0000066,Indusind Bank Ltd,INDB0000066,370234001,GANDHIDHAM,"AMAR COMPLEX, PLOT NO. 158, WARD 12 - B,'GANDHIDHAM 370 201 ",,,GANDHIDHAM,KUTCH
INDB0000067,Indusind Bank Ltd,INDB0000067,575234002,MANGALORE,"PREMIUM ENCLAVE, 1ST FLOOR, NO. C - 3,4,5, LIGHT HOUSE HILL ROAD, HAMPANKATTA, MANGALORE - 575 001 ",,,MANAGALORE,DAKSHINA KANNADA
INDB0000068,Indusind Bank Ltd,INDB0000068,831234002,JAMSHEDPUR,"SWAMY BUILDING, SAKCHI BOULEVARD SHOP AREA,'MAIN ROAD (OPP. RAM MANDIR), BISTUPUR, JAMSHEDPUR 831 001",,,JAMSHEDPUR,PURBI SINGHBHUM
INDB0000069,Indusind Bank Ltd,INDB0000069,721234102,KHARAGPUR,"ATWALS REAL ESTATE PVT LTD, O T ROAD, KHARAGPUR 721 305",,,KHARAGPUR,WEST MEDINIPUR
INDB0000070,Indusind Bank Ltd,INDB0000070,751234102,CUTTACK,"PLOT NO. 1320, BAJRAKABATI ROAD, 'CUTTACK 753 001 ",,,CUTTAK,CUTTAK
INDB0000071,Indusind Bank Ltd,INDB0000071,NON MICR,CHITTOOR,"DNO. 20-114, NAIDU BUILDINGS, NAIDU BUILDING ROAD 'CHITTOOR - 517 001 ",,,CHITTOOR,CHITTOR
INDB0000072,Indusind Bank Ltd,INDB0000072,NON MICR,HISSAR,"SCO NO. 91 RED SQUARE  MARKET, 'NEAR TELEPHONE EXCHANGE, HISSAR – 125 001 ",,,HISSAR,HISSAR
INDB0000073,Indusind Bank Ltd,INDB0000073,NON MICR,KARNAL,"SCO 254, SECTOR 12,'PART 1, KARNAL 132 001 ",,,KARNAL,KARNAL
INDB0000074,Indusind Bank Ltd,INDB0000074,416234002,KOLHAPUR,"VASANT PRABHA CHAMBERS (GROUND FLOOR), 1125, 'E' SYKES EXTENSION AREA,'OPP. PAREKH BRIDGE, NEAR S.T. STAND, KOLHAPUR – 416001 ",,,KOLHAPUR,KOLHAPUR
INDB0000075,Indusind Bank Ltd,INDB0000075,NON MICR,ANANTHAPUR,"10/373, NAMA TOWERS, SUBHASH ROAD, ANANTAPUR-515001 ",,,ANANTHAPUR,ANANTPUR
INDB0000076,Indusind Bank Ltd,INDB0000076,NON MICR,NELLORE,"DNO. 24-2-382, NO. 10 CHANDRABAGH, OPP. KASTURIDEVI SCHOOL, G.N.T. ROAD, DARGAMITTA, NELLORE - 524003 ",,,NELLORE,NELLORE
INDB0000077,Indusind Bank Ltd,INDB0000077,NON MICR,GUDIVADA,"NO. 15/48, ELURU ROAD, NEAR SOBHANA HOTEL, GUDIVADA 521 301  ",,,GUDIVADA,KRISHNA
INDB0000078,Indusind Bank Ltd,INDB0000078,364234001,BHAVNAGAR,"SHOP NOS 1 TO 7 AND 13, MADHAV HILLS 'WAGHAWADI ROAD, BHAVNAGAR – 364 002 ",,,BHAVNAGAR,BHAVNAGAR
INDB0000079,Indusind Bank Ltd,INDB0000079,360234002,RAJKOT,"PICK POINT,I FLOOR,DR YAGNIK ROAD,'NEAR VIVEKANANDA STATUE, RAJKOT - 360 001 ",,,RAJKOT,RAJKOT
INDB0000080,Indusind Bank Ltd,INDB0000080,641234103,AVINASHI,"5/132, MAIN ROADTIRUPUR CIRCLE'       AVANASHI 641 654 ",,,TIRUPUR,COIMBOTORE
INDB0000081,Indusind Bank Ltd,INDB0000081,530234002,GAJUWAKA,"1ST FLOOR, MOHINI COMPLEX MAIN ROAD, GAJUWAKA VISHAKAPATNAM 530 026 ",,,VISAKHAPATNAM,VISHAKAPATNAM
INDB0000082,Indusind Bank Ltd,INDB0000082,NON MICR,MORBI,"PARMANAND COMPLEX SANALA ROAD, MORBI, RAJKOT DISTRICT 363 641 ",,,MORBI,RAJKOT
INDB0000083,Indusind Bank Ltd,INDB0000083,160234003,MOHALI,"S.C.F. 23-24PHASE III-B-2,'SAS NAGAR, MOHALI, CHANDIGARH 160 059",,,MOHALI,CHANDIGARH
INDB0000084,Indusind Bank Ltd,INDB0000084,403234003,MADGOAN,"CHAZE ART GALLERYRUA ABADE FARIA ROAD, MARGAO 403 601",,,MADGOAN,SOUTH GOA
INDB0000085,Indusind Bank Ltd,INDB0000085,NON MICR,VAPI,"PLOT NO. C 6-13, SHRINATHJI CHAMBERS,'VAPI INDUSTRIAL AREA, CHAR RASTA, VAPI 396 195 ",,,VAPI,VALSAD
INDB0000086,Indusind Bank Ltd,INDB0000086,144234202,PHAGWARA,"OPP. S. T. BUS STAND, G. T. ROAD, 'PHAGWARA 144 401, PUNJAB ",,,PHAGWARA,KAPURTHALA
INDB0000087,Indusind Bank Ltd,INDB0000087,695234002,KAZHAKUTTOM,"MODULE 14, NILA BLDG. TECHNOPARK COMPLEX,' KAZHAKUTTOM, THIRUVANANTHAPURAM 695 581 ",,,THIRUVANANTHAPURAM,TRIVANDRUM
INDB0000088,Indusind Bank Ltd,INDB0000088,403234002,PANJIM,"SHOP NO 1, 2 & 3, LANDSCAPE EXCELSIOR DAYANAD BANDODKAR MARG, PANJIM, GOA ",,,PANJIM,NORTH GOA
INDB0000089,Indusind Bank Ltd,INDB0000089,NON MICR,DHARMAJ,"DHARMAJ CO-OPERATIVE CONSUMERS STORES LTD, DHARMAJ, DISTRICT ANAND, GUJARAT 388430'",,,DHARMAJ,ANAND
INDB0000090,Indusind Bank Ltd,INDB0000090,160234004,PANCHKULA,"SCO 28, SECTOR 11, PANCHKULA,'HARYANA ",,,PANCHKULA,PANCHKULA
INDB0000091,Indusind Bank Ltd,INDB0000091,682234003,KAKKANAD,"CSEZ ADMINISTRATIVE BUILDING, KAKKANAD, KOCHI 682 037 KERALA",,,KOCHI,ERNAKULAM
INDB0000092,Indusind Bank Ltd,INDB0000092,NON MICR,VALSAD,"SHOP NO. 7 –10, MEGH RACHANA TOWER, SHEELA PARK, TITHAL ROAD, VALSAD 396 001 ",,,VALSAD,VALSAD
INDB0000093,Indusind Bank Ltd,INDB0000093,400234010,PANVEL," LAKHANI LANDMARK, PLOT NO. 19, SECTOR NO. 19,  SHOP NO. S-01A,'PANVEL MATHERAN ROAD, NEW PANVEL (EAST), NAVI MUMBAI 410 206 ",,,PANVEL,RAIGAD
INDB0000094,Indusind Bank Ltd,INDB0000094,NON MICR,BARDOLI,"SARDAR BAUG, OPPOSITE FUWARA, 'NEAR PETROL PUMP, BARDOLI 394 602 ",,,BARDOLI,SURAT
INDB0000095,Indusind Bank Ltd,INDB0000095,NON MICR,PALAKKAD,"VIII/1251, NH BYE-PASS JUNCTION, 'CHANDRANAGAR, PALAKKAD 678 007",,,PALAKKAD,PALAKKAD
INDB0000110,Indusind Bank Ltd,INDB0000110,688234002,ALAPPUZHA,"CSN BUILDING, DISTRICT COURT WARD 'OPP. SDV SCHOOL, ALAPPUZHA - 688 013",,,ALAPPUZHA,ALAPUZZHA
INDB0000111,Indusind Bank Ltd,INDB0000111,313234002,UDAIPUR,"2-C, CHOWGAAN YOJANA, NEAR LOK KALA MANDAL, 'PANCHAVATI CHORAHA,                  UDAIPUR - 313 001 ",,,UDAIPUR,UDAIPUR
INDB0000112,Indusind Bank Ltd,INDB0000112,NON MICR,KOTA,"412 SHOPPING CENTRE, 'KOTA 324 007 ",,,KOTA,KOTA
INDB0000113,Indusind Bank Ltd,INDB0000113,334234002,BIKANER,"GANPATI PLAZA, KEM ROAD, BIKANER: - 334001 ",,,BIKANER,BIKANER
INDB0000114,Indusind Bank Ltd,INDB0000114,243234002,BAREILLY,"C/O HOTEL MANSAROVAR, 44/45, CIVIL LINES, BAREILLY - 243 001 ",,,BAREILLY,BAREILLY
INDB0000115,Indusind Bank Ltd,INDB0000115,620234002,TIRUCHIRAPALLI,"PREMIER PLAZA, 122/5, BHARATHIAR SALAI,'CANTONMENT, TIRUCHIRAPALLI 620 001 ",,,TIRUCHIRAPALLI,TIRUCHIORAPPALLI
INDB0000116,Indusind Bank Ltd,INDB0000116,636234002,SALEM,"SANTHAM SHOPPING COMPLEX, 137 SARADHA COLLEGE, MAIN ROAD, ALAGAPURAM, SALEM 636 016",,,SALEM,SALEM
INDB0000117,Indusind Bank Ltd,INDB0000117,625234002,MADURAI,"GP BUILDING, NO.30, KAMALA IIND STREET, CHINNA CHOKKIKULAM, MADURAI - 625 002 ",,,MADURAI,MADURAI
INDB0000118,Indusind Bank Ltd,INDB0000118,605234002,PONDICHERRY,"NEW NO. 105, 107, OLD NO. 55,'CHETTI STREET, PONDICHERRY – 605 001 ",,,PONDICHERRY,PONDICHERRY
INDB0000119,Indusind Bank Ltd,INDB0000119,143234002,AMRITSAR,"PLATINUM PLAZA, 39 MALL ROAD, AMRITSAR 143 001 ",,,AMRITSAR,AMRITSAR
INDB0000120,Indusind Bank Ltd,INDB0000120,0,KOLLAM,"VARINJAM TOWERS, RESIDENCY ROAD,'   KOLLAM – 691 001",,,KOLLAM,KOLLAM
INDB0000121,Indusind Bank Ltd,INDB0000121,NON MICR,MALDA,"N H 34, SUKANTO MORE, FIRST FLOOR, MALD DIST.,'MALDA 732 101  ",,,MALDA,MALDA
INDB0000122,Indusind Bank Ltd,INDB0000122,482234001,JABALPUR,"COMMERCIAL AUTOMOBILES BUILDING, 124 , NAPIER TOWN,'SHASTRI BRIDGE CHOWK, JABALPUR - 482 001  ",,,JABALPUR,JABALPUR
INDB0000123,Indusind Bank Ltd,INDB0000123,474234002,GWALIOR,"102/103, NARAYAN KRISHNA, 44 , CITY CENTRE,'MADHAVRAO SCINDIA ROAD, GWALIOR - 474011 ",,,GWALIOR,GWALIOR
INDB0000124,Indusind Bank Ltd,INDB0000124,211234002,ALLAHABAD,"GANPATI TOWERS, 56 SARDAR PATEL MARG CIVIL LINES, ALLAHABAD - 211 001",,,ALLAHABAD,ALLAHABAD
INDB0000125,Indusind Bank Ltd,INDB0000125,NON MICR,BHATINDA,"2679 /  C - 1- A, GURU KANSHI MARG' BHATINDA 151 001    ",,,BHATINDA,BHATINDA
INDB0000126,Indusind Bank Ltd,INDB0000126,NON MICR,KADAPA,"DNO. 2-787/788/789, 1ST FLOOR, SAI RAM TOWERS,'SRI HARI RAO STREET, NAGARAJUPET, KADAPA 516 001 ",,,CUDDAPAH,CUDDAPAH
INDB0000127,Indusind Bank Ltd,INDB0000127,NON MICR,BOKARO,"A-16, CITY CENTRE, SECTOR 4 'BOKARO STEEL CITY, BOKARO  - 827 004 ",,,BOKARO,BOKARO
INDB0000128,Indusind Bank Ltd,INDB0000128,713234002,ASANSOL,"74(192), G T ROAD, P C CHATTERJEE MARKET'RAMBANDAN TALA, ASANSOL -713 303 ",,,ASANSOL,BARDHAMAN
INDB0000129,Indusind Bank Ltd,INDB0000129,NON MICR,AJMER,"RANG VIHAR, 9/86, KUTCHERY ROAD 'M. G. ROAD, AJMER - 305 001 ",,,AJMER,AJMER
INDB0000130,Indusind Bank Ltd,INDB0000130,NON MICR,ROHTAK,"SCO 19 & 20 , SUBHASH PARK  , CIVIL LINES, ROHTAK - 124 001",,,ROHTAK,ROHTAK
INDB0000131,Indusind Bank Ltd,INDB0000131,NON MICR,SHIMOGA,"BANDIGADI COMPLEX, I FLOOR, 'NEHRU ROAD, SHIMOGA- 577 201 ",,,SHIMOGA,SHIMOGA
INDB0000132,Indusind Bank Ltd,INDB0000132,713234202,DURGAPUR,"LAYEK'S, 1ST FLOOR, NEAR PEERLESS INN, CITY CENTRE, KHUDIRAM SARANI, PLOT NO - 843 (P), DURGAPUR – 713216, WEST BENGAL ",,,DURGAPUR,BARDHAMAN
INDB0000133,Indusind Bank Ltd,INDB0000133,311234002,BHILWARA,"BASANT VIHAR, NEAR HOTEL LANDMARK, 
OPP.CIRCUIT HOUSE, BHILWARA – 311 001 ",,,BHILWARA,BHILWARA
INDB0000134,Indusind Bank Ltd,INDB0000134,506234002,WARANGAL,"6-1-29 & 30, GANAPATHI PLAZA, OPP. MARKAJI SCHOOL, , LASHKAR BAZAAR, HANAMKONDA, WARANGAL 506001, ANDHRA PRADESH",,,WARANGAL,WARANGAL
INDB0000135,Indusind Bank Ltd,INDB0000135,NON MICR,VELLORE,"153/3 & 4, NEW KATPADI ROAD,
CHENNAI-BANGALORE HIGH WAY CIRCLE, VELLORE  632 004",,,VELLORE,VELLORE
INDB0000136,Indusind Bank Ltd,INDB0000136,190234002,SRINAGAR,"ZERO MILE STONE, BUDSHAH BRIDGE, SRINAGAR - 190001, JAMMU AND KASHMIR ",,,SRINAGAR,SRINAGAR
INDB0000137,Indusind Bank Ltd,INDB0000137,786234002,DIBRUGARH,"RHYTHMS COMPLEX, 1ST FLOOR, P. N. ROAD, TINIALI, NEAR NRL PETROL PUMP, CHOWKIDINGHEE (WEST), DIBRUGARH – 786 001, ASSAM.",,,DIBRUGARH,DIBRUGARH
INDB0000138,Indusind Bank Ltd,INDB0000138,788234002,SILCHAR,"1ST FLOOR, CACHAR MARKET, RANGIRKHARI, N. S. AVENUE, SILCHAR -788005, ASSAM",,,SILCHAR,CACHAR
INDB0000139,Indusind Bank Ltd,INDB0000139,786234202,TINSUKIA,"ANKIT TOWER, 1ST FLOOR, CHIRWAPATTY ROAD, TINSUKIA – 786125, ASSAM",,,TINSUKIA,TINSUKIA
INDB0000140,Indusind Bank Ltd,INDB0000140,799234002,AGARTALA,"MANTRI BARI ROAD, AGARTALA, TRIPURA (WEST), PIN - 799001",,,AGARTALA,WEST TRIPURA
INDB0000141,Indusind Bank Ltd,INDB0000141,796234002,AIZAWL,"C/O PACHUNGA & SONS, CHANMARI, AIZWAL – 796007, MIZORAM",,,AIZAWL,AIZAWL
INDB0000142,Indusind Bank Ltd,INDB0000142,422234002,NASHIK,"THAKKERS NEXUS POINT, GR. FLOOR, COLLEGE ROAD,
NEAR BHOSLA MILITARY SCHOOL,
NASHIK,    MAHARASHTRA 
",,,NASHIK,MUMBAI
INDB0000143,Indusind Bank Ltd,INDB0000143,110234003,ASHOK VIHAR,"B-1/8, ASHOK VIHAR, 
PHASE II, NEW DELHI - 110052. ",,,DELHI,DELHI
INDB0000144,Indusind Bank Ltd,INDB0000144,673234002,KOZHIKODE,"GROUND AND FIRST FLOOR, EDAHS TOWERS, YMCA CROSS ROAD, KOZHIKODE – 673 001.KERALA",,,CALICUT,KOZHIKODE
INDB0000145,Indusind Bank Ltd,INDB0000145,110234011,"ROHINI, NEW DELHI","AGGARWAL E-MALL, SECTOR – 7, ROHINI, DELHI – 110 005",,,DELHI,DELHI
INDB0000146,Indusind Bank Ltd,INDB0000146,700234006,MADHYAMGRAM,"BASUNDHARA HOUSING COMPLEX, NO 109, JESSORE ROAD,CHOMOTHE MORE, MADHYAMGRAM NORTH 24 PARGANAS DIST,
WEST BENGAL - 700129
",,,MADHYAMGRAM,NORTH 24 PARGANAS
INDB0000147,Indusind Bank Ltd,INDB0000147,,BILASPUR,"GROUND FLOOR, OPP. ANIMESH STEEL, DEENDAYAL UPADHYAYA CHOWK, SRIKANT VERMA MARG,NEAR MANGNETO MALL, BILASPUR - 495001
",,,BILASPUR,BILASPUR
INDB0000148,Indusind Bank Ltd,INDB0000148,110234010,LAJPAT NAGAR,"“RAVISSANCE HOUSE” 1ST RING ROAD, LAJPAT NAGAR IV, NEW DELHI – 110 024",,,DELHI,DELHI
INDB0000149,Indusind Bank Ltd,INDB0000149,147234002,PATIALA,"INDIRA KUMARI SCHEME
S.C.F. # 6,7
BHUPINDRA ROAD,
PATIALA – 147 001",,,PATIALA,PATIALA
INDB0000150,Indusind Bank Ltd,INDB0000150,273234002,GORAKHPUR,"6 PARK ROAD, GOLGHAR, GORAKHPUR 273001",,,GORAKHPUR,GORAKHPUR
INDB0000151,Indusind Bank Ltd,INDB0000151,0,MORADABAD,"SAI TOWER, NEXT TO KOTAK MAHINDRA BANK, EKTA DWAR CIVIL LINES,
MORADABAD – 244 001, UP ",,,MORADABAD,MORADABAD
INDB0000152,Indusind Bank Ltd,INDB0000152,400234016,GHATKOPAR,"BUSINESS PARK, TILAK ROAD, GHATKOPAR EAST, MUMBAI – 400 077 ",,,MUMBAI,MUMBAI
INDB0000153,Indusind Bank Ltd,INDB0000153,400234017,JUHU,"SONBAR, PLOT NO 13, JUHU 10TH ROAD, MUMBAI – 400 049 ",,,MUMBAI,MUMBAI
INDB0000154,Indusind Bank Ltd,INDB0000154,400234018,KALYAN,"SHUBAM GROUND FLOOR, KALYAN MURBAD ROAD, NR ICICI BANK, KALYAN WEST, THANE DIST.",,,KALYAN,THANE
INDB0000155,Indusind Bank Ltd,INDB0000155,388234002,ANAND,"MARUTI SUNAY BUILDING, GROUND FLOOR, OPP. ARAYNAGAR, AMUL DAIRY ROAD, ANAND- 388 001",,,ANAND,ANAND
INDB0000156,Indusind Bank Ltd,INDB0000156,180234001,JAMMU,"GUPTA PLAZA, BAHU PLAZA, JAMMU - 180004 ",,,JAMMU,JAMMU
INDB0000160,Indusind Bank Ltd,INDB0000160,110234014,KAILASH COLONY,"134/4,LALA LAJPAT RAI MARG, KAILASH COLONY NEW DELHI-110048",,,DELHI,DELHI
INDB0000161,Indusind Bank Ltd,INDB0000161,110234013,VASANT KUNJ,"COMMON CAUSE HOUSE, 5,INSTITUTIONAL AREA, NELSON MANDELA ROAD,  VASANT KUNJ, NEW DELHI-110070",,,DELHI,DELHI
INDB0000162,Indusind Bank Ltd,INDB0000162,110234012,NOIDA SECTOR 63,"H-1,A/1, ZYGON SQUARE,  SECTOR 63, NOIDA 201307",,,NOIDA,GAUTAM BUDDHA NAGAR
INDB0000163,Indusind Bank Ltd,INDB0000163,141234521,"MILLERGANJ, LUDHIANA","LOWER GROUND FLOOR, GANAPATI TOWERS, GILL ROAD, NEAR CYCLE MARKET, MILLERGANJ, LUDHIANA – 141003 PUNJAB",,,LUDHIANA,LUDHIANA
INDB0000164,Indusind Bank Ltd,INDB0000164,160234006,PANCHKULA SECTOR 9,"SCO-P, SECTOR 9, 
PANCHKULA -134109 ,
HARYANA",,,PANCHKULA,PANCHKULA
INDB0000165,Indusind Bank Ltd,INDB0000165,400234020,"BORIVALI, MUMBAI","GROUND FLOOR, RAM KRUPA CO-OPERATIVE HOUSING SOCIETY LTD., NEAR GOKUL HOTEL, S.V.P. ROAD, BORIVIALI (WEST), MUMBAI 400 092",,,MUMBAI,GREATER BOMBAY
INDB0000166,Indusind Bank Ltd,INDB0000166,560234009,"MALLESWARAM, BANGALOARE","SRI GANESH TOWERS, # 124, 3RD MAIN ROAD, (MARGOSA ROAD), MALLESWARAM, BENGALURU- 560 003, KARNATAKA",,,BANGALORE,BANGALORE URBAN
INDB0000167,Indusind Bank Ltd,INDB0000167,600234008,RAJAJI SALAI,"J C. HOUSE, GRD FLR, MAIN BUILDING, NO.72, RAJAJI SALAI, OPP. BEACH STATION, CHENNAI - 600 001 TAMIL NADU",,,RAJAJI SALAI,CHENNAI
INDB0000168,Indusind Bank Ltd,INDB0000168,110234014,GULMOHAR - YUSUF SARAI,"S-6, BUILDING NO. 18&19, ORIENTAL HOUSE, GULMOHAR COMMUNITY CENTRE, YUSUF SARAI, NEW DELHI – 110 0016  ",,,DELHI,DELHI
INDB0000169,Indusind Bank Ltd,INDB0000169,110234017,KAROL BAGH,"18/8, KELTRON CHAMBERS, MAIN, ARYA SAMAJ ROAD, KAROL BAGH, NEW DELHI - 110 005 ",,,DELHI,DELHI
INDB0000170,Indusind Bank Ltd,INDB0000170,110234015,"SECTOR 14, GURGAON","SCO 7, SECTOR 14, GURGAON - 122 001, HARYANA ",,,GURGAON,GURGAON
INDB0000171,Indusind Bank Ltd,INDB0000171,110234018,GHAZIABAD,"C-76, RAJ NAGAR, MAIN ROAD, DISTRICT: GHAZIABAD 201002",,,GHAZIABAD,GHAZIABAD
INDB0000172,Indusind Bank Ltd,INDB0000172,390234004,MANJALPUR,"AXAT CENTER, AXI HOSPITAL, GROUND FLOOR, NEAR SHREYAS VIDYALAYA, JANSHAKTI (RELIANCE) CIRCLE, LALBAUG - MANJALPUR ROAD, MANJALPUR, VADODARA - 390004",,,VADODARA,VADODARA
INDB0000173,Indusind Bank Ltd,INDB0000173,411234005,KONDHWA KHURD,"GROUND FLOOR, S. NO.1-A (PART), ADITYA BUSINESS CENTRE, NIBM ROAD, KONDHWA KHURD, PUNE – 411 048",,,PUNE,PUNE
INDB0000174,Indusind Bank Ltd,INDB0000174,641234004,RAM NAGAR,"RAMANI PARAS, 239 VIVEKANANDA ROAD, RAMNAGAR, COIMBATORE - 641008",,,COIMBATORE,COIMBATORE
INDB0000175,Indusind Bank Ltd,INDB0000175,380234004,MANINAGAR,"SHANT PRABHA HEIGHT, OPP. VALLABH WADI, RAMBAGH JAWAHAR CHOWK, MANINAGAR, AHMEDABAD- 380 008",,,AHMEDABAD,AHMADABAD
INDB0000176,Indusind Bank Ltd,INDB0000176,396234501,SAMROLI,"GROUND FLOOR, SUTHARWAD, 
SAMROLI, DIST NAVSARI:396521
",,,SAMAROLJ,NAVSARI
INDB0000177,Indusind Bank Ltd,INDB0000177,600234009,"ASHOK NAGAR, CHENNAI","GROUND FLOOR, NO42, 10TH AVENUE, ASHOK NAGAR, CHENNAI - 600083 TAMIL NADU ",,,CHENNAI,CHENNAI
INDB0000178,Indusind Bank Ltd,INDB0000178,560234010,JAYANAGAR 5TH BLOCK,"NO. 310, 9TH MAIN, 39TH CROSS, V-BLOCK, JAYANAGAR BANGLORE 560041 KARNATAKA",,,BANGALORE,BANGALORE URBAN
INDB0000179,Indusind Bank Ltd,INDB0000179,400234022,"MALAD, MUMBAI","03/103, ACCORD NIDHI, LINK ROAD, MALAD (W), MUMBAI – 400 101",,,MUMBAI,GREATER BOMBAY
INDB0000180,Indusind Bank Ltd,INDB0000180,680234002,THRISSUR,"HOTEL PALACE TOWER,NORTH BUS STAND, 'THRISSUR - 680 020 ",,,THRISSUR,TRISSUR
INDB0000181,Indusind Bank Ltd,INDB0000181,141234001,KHANNA,"SURYA TOWER, NEAR MAIN BUS STAND, G.T ROAD,  KHANNA-141401 ",,,KHANNA,LUDHIANA
INDB0000182,Indusind Bank Ltd,INDB0000182,643234102,COONOOR,"6, NANJAPPA RAO BUILDING,'BEDFORD, COONOOR - 643101  ",,,COONOOR,NILGIRIS
INDB0000183,Indusind Bank Ltd,INDB0000183,NON MICR,KODAD,"12-104, HUZUR NAGAR ROAD, KODAD 508 206",,,KODAD,NALGONDA
INDB0000184,Indusind Bank Ltd,INDB0000184,756234002,BALASORE,"MOTILAL DIDWANI BUILDING, FM CIRCLE, ORISSA TRUNK ROAD'BALASORE 756 001 ",,,BALASORE,BALASORE
INDB0000185,Indusind Bank Ltd,INDB0000185,NON MICR,SHIMLA,"BELL VILLA, THE MALL, SHIMLA ",,,SHIMLA,SHIMLA
INDB0000186,Indusind Bank Ltd,INDB0000186,686234002,KOTTAYAM,"REGENCY SQUARE, K.K. ROAD,'NEAR KOTTAYAM COLLECTORATE PO,                KOTTAYAM - 686002.",,,KOTTAYAM,KOTTAYAM
INDB0000187,Indusind Bank Ltd,INDB0000187,NON MICR,KANNUR,"RAABY TOWERS, RAILWAY STATION ROAD, 'KANNUR - 670001       ",,,KANNUR,KANNUR
INDB0000188,Indusind Bank Ltd,INDB0000188,NON MICR,MALAPURAM,"PEEKAY'S ARCADE, OPP PRIVATE BUS STAND, DOWN HILL, MALAPPURAM - 676 519 ",,,MALAPURAM,MALAPURAM
INDB0000189,Indusind Bank Ltd,INDB0000189,NON MICR,NAMAKKAL,"NEW NO. 60, (OLD NO. 29 D), SHRI BHUVANESHWARI SHOPPING COMPLEX, DR. SANKARAN SALAI, NAMAKKAL - 637 001",,,NAMAKKAL,NAMAKKAL
INDB0000190,Indusind Bank Ltd,INDB0000190,NON MICR,GANGTOK,"SARDA BUILDING, OPP. SBI,'CONVOY GROUND, TA DONG, GANGTOK, SIKKIM (EAST) 737 102 ",,,GANGTOK,EAST SIKKIM
INDB0000191,Indusind Bank Ltd,INDB0000191,NON MICR,BARBIL,"ST. MARY’S SCHOOL ROAD, BARBIL - 758035, DIST. KEONJHAR. ORISSA",,,BARBIL,KEONJHAR
INDB0000192,Indusind Bank Ltd,INDB0000192,NON MICR,THIRUVALLA,"BUILDING NO:610(1), GROUND FLOOR, CHANDRIMA BUILDINGS, NEAR CROSS JUNCTION,             THIRUVALLA-689101 ",,,THIRUVALLA,PATHANAMTHITTA
INDB0000193,Indusind Bank Ltd,INDB0000193,NON MICR,HAZARIBAGH,"VIDYA MARKET COMPLEX, LEPO ROAD, HAZARIBAGH - 825301, JHARKHAND ",,,HAZARIBAGH,HAZARIBAGH
INDB0000194,Indusind Bank Ltd,INDB0000194,NON MICR,CHHINDWARA,"POOJA PLUS COMPLEX, PARASIA ROAD, CHHINDWARA - 480001, MADHYA PRADESH ",,,CHHINDWARA,CHHINDWARA
INDB0000195,Indusind Bank Ltd,INDB0000195,NON MICR,AMBIKAPUR,"NEAR BANARAS ROAD, MANENDRAGARH ROAD, AMBIKAPUR, DISTT. SURGUJA, CHATTISGARH 497001",,,AMBIKAPUR,SURGUJA
INDB0000196,Indusind Bank Ltd,INDB0000196,NON MICR,MEHSANA,"RAJENDRA ESTATE, OPP. GAYATRI TEMPLE, STATE HIGHWAY, MEHSANA - 384002, GUJARAT ",,,MEHSANA,MEHSANA
INDB0000197,Indusind Bank Ltd,INDB0000197,333234002,JHUNJHUNU,"RAMA COMPLEX, NEAR SANGAM HOTEL, B-21, MAN NAGAR, JHUNJHUNU—333001",,,JHUNJHUNU,JHUNJHUNU
INDB0000198,Indusind Bank Ltd,INDB0000198,NON MICR,SHAHPURA,"DABHAS COMPLEX, NEAR NEW BUS STAND, SHAHPURA (JAIPUR), 
PIN- 303103",,,SHAHPURA,JAIPUR
INDB0000199,Indusind Bank Ltd,INDB0000199,0,MANSA,"WARD NO. 13, MANDIR WALI STREET , BARAN HATTAN CHOWK, MANSA – 151 505 PUNJAB ",,,MANSA,MANSA
INDB0000200,Indusind Bank Ltd,INDB0000200,NON MICR,SUMERPUR,"OPP. MAIN POST OFFICE, JAWAI BANDH ROAD, SUMERPUR -306902
RAJASTHAN",,,SUMERPUR,PALI
INDB0000201,Indusind Bank Ltd,INDB0000201,NON MICR,SIVAKASI,"144, N. R. K. R. ROAD, RATHNA COMPLEX, I FLOOR, SIVAKASI – 626 123, TAMIL NADU",,,SIVAKASI,VIRUDHUNAGAR
INDB0000202,Indusind Bank Ltd,INDB0000202,NON MICR,DHARMAPURI,"NO.136, NETAJI BYE PASS ROAD, OPP TO HOTEL SRIRAMA, DHARMAPURI 636701, TAMILNADU",,,DHARMAPURI,DHARMAPURI
INDB0000203,Indusind Bank Ltd,INDB0000203,637234302,SANKARI,"3-3-27C, BHARATHI NAGAR, SANKARI – SALEM MAIN ROAD (NH47), AKKAMAPET, SANKARI – 637301 TAMIL NADU",,,SALEM,SALEM
INDB0000204,Indusind Bank Ltd,INDB0000204,NON MICR,KARUR,"1ST FLOOR, V.V TOWERS,
OPP. LGB PETROL BUNK,
KOVAI ROAD,
KARUR 639 002,
TAMIL NADU",,,KARUR,KARUR
INDB0000205,Indusind Bank Ltd,INDB0000205,NON MICR,AMALSAD,"SHREE SHANKHESHWAR PLAZA, ZAVERI BAZAR, GANDEVI ROAD,  AMALSAD – 396310. GUJARAT",,,AMALSAD,NAVSARI
INDB0000206,Indusind Bank Ltd,INDB0000206,NON MICR,SILVASSA,"SHOP NO.6,7,8 & 9, ROSHAN AVENUE, SILVASSA – VAPI ROAD, SILVASSA - 396230. DADRA & NAGAR HAVELI (U.T.)",,,SILVASSA,DADRA & NAGAR HAVELI
INDB0000207,Indusind Bank Ltd,INDB0000207,NON MICR,MIRYALAGUDA,19-145/146/147 VSN REDDY COMPLEX SAGAR ROAD MIRYALAGUDA - 508207,,,MIRYALAGUDA,NALGONDA
INDB0000208,Indusind Bank Ltd,INDB0000208,NON MICR,NASIRABAD,"1207/1208 , 1ST FLOOR
GCA COMPLEX , SUBASH GANJ
NASIRABAD 305601, RAJASTHAN",,,NASIRABAD,AJMER
INDB0000209,Indusind Bank Ltd,INDB0000209,NON MICR,NAGAUR,"NAKASH GATE, NAGAUR – 341001
RAJASTHAN",,,NAGAUR,NAGAUR
INDB0000210,Indusind Bank Ltd,INDB0000210,NON MICR,PERINTHALMANNA,ROYAL PLAZA OPP KSRTC BUS STAND PERINTHALMANNA -679322,,,PERINTHALMANNA,MALAPURAM
INDB0000211,Indusind Bank Ltd,INDB0000211,NON MICR,KATTAPPANA,"CHAMATHARAYIL BUILDING, NEAR  IDUKKI KAVALA, KUTTIKKANAM ROAD, KATTAPPANA 685508. KERALA",,,KATTAPPANA,IDUKKI
INDB0000212,Indusind Bank Ltd,INDB0000212,NON MICR,JAGDALPUR,"ASHWINI RAJKUMAR COMPLEX, GEEDAM ROAD, JAGDALPUR – 494 001, CHATTISGARH",,,JAGDALPUR,BASTAR
INDB0000213,Indusind Bank Ltd,INDB0000213,560234004,BOMMASSANDRA,"""ANNA"" COMPLEX, #430, HENNAGARA GATE, BOMMASSANDRA INDUSTRIAL, AREA, HOSUR MAIN ROAD, BANGALORE - 560 099",,,BANGALORE,BANGALORE URBAN
INDB0000214,Indusind Bank Ltd,INDB0000214,635234402,HOSUR,"#20,STAR BUILDING, 1ST FLOOR, NEAR HOTEL TAMILNADU, KRISHANAGIRI BYE-PASS ROAD, HOSUR, TAMIL NADU - 635109",,,HOSUR,DHARMAPURI
INDB0000215,Indusind Bank Ltd,INDB0000215,785234002 ,JORHAT,"1ST FLOOR, MADHU MARKET, J. B. ROAD, JORHAT, ASSAM, PIN - 785 001",,,JORHAT,JORHAT
INDB0000216,Indusind Bank Ltd,INDB0000216,784234002,TEZPUR,"DUGAR MANSION, GROUND FLOOR, MAIN ROAD, TEZPUR – 784001 (ASSAM)",,,TEZPUR,SONITPUR
INDB0000217,Indusind Bank Ltd,INDB0000217,799234102,DHARMANAGAR,"KADAMTALA ROAD, NEAR AUTO STAND, NAYAPARA, DHARMANAGAR, TRIPURA, PIN – 799250",,,DHARMANAGAR,NORTH TRIPURA
INDB0000218,Indusind Bank Ltd,INDB0000218,NON-MICR,JODA,"AT / PO – JODA, DIST – KEONJHAR, ORISSA – 758043",,,JODA,KEONJHAR
INDB0000219,Indusind Bank Ltd,INDB0000219,NON MICR,GUALI,"LOIDAPADA, SREEMETALIKS COMPOUND, AT/PO – GUALI, VIA BARBIL, DIST – KEONJHAR, ORISSA – 758035",,,GUALI,KEONJHAR
INDB0000220,Indusind Bank Ltd,INDB0000220,560234005,MARATHALLI,"NO 89: KMJ ARENA, ANAND NAGAR, OUTER RING ROAD, MARATHALLI, BANGALORE-37 KARNATAKA",,,MARATHAHALLI,BANGALORE URBAN
"INDB0000221
",Indusind Bank Ltd,"INDB0000221
",395234003,HAZIRA,"1ST FLOOR, SIDDHI PLAZA, OPP. KRIBHCO HSG, KAWAS PATIA, HAZIRA ROAD, DIST. SURAT – 394516 ",,,HAZIRA,SURAT
INDB0000222,Indusind Bank Ltd,INDB0000222,560234006,BIDADI,"UPPER GROUND FLOOR, COMMERCIAL COMPLEX B C CIRCLE, KENCHNKUPPE GATE, TELESWARI, BIDADI – 562 109",,,BIDADI,BANGALORE RURAL
INDB0000223,Indusind Bank Ltd,INDB0000223,560234007,THIPPASANDRA,"NO. 43, 80 FEET ROAD, HAL 3RD STAGE, JEEVANBHEEMA NAGAR, OPP. TO BSNL OFFICE, THIPPASANDRA, BANGALORE - 560 086 KARNATAKA",,,THIPPASANDRA,BANGALORE RURAL
INDB0000224,Indusind Bank Ltd,INDB0000224,0,GOBIND GARH,"AMLOH ROAD, MANDI GOBIND GARH – 147301, DIST. FATEHGARH SAHIB, PUNJAB",,,GOBIND GARH,FATEHGARH SAHIB
INDB0000225,Indusind Bank Ltd,INDB0000225,,CHANDIKHOLE,"ROUT MARKET COMPLEX, 
CHANDIKHOLE CHAKKA,
OPP. POLICE OUTPOST, 
POST - SUNGUDA, DIST JAJPUR, CHANDIKHOLE – 754 024",,,CHANDIKHOLE,JAJPUR
INDB0000226,Indusind Bank Ltd,INDB0000226,500234003,MADHAPUR,"RAGHUMA TOWERS PLOT NO.3, GUTLALA BEGUMPET, SERILINGANPALLY MUNICIPALITY, NEXT GINGER COURT HOTEL, MADHAPUR MAIN ROAD, MADHAPUR – 500 081",,,MADHAPUR,RANGAREDDY
INDB0000227,Indusind Bank Ltd,INDB0000227,682234004,ALUVA,"LAXMANS TOWER, M. NO 7/534, M. O. ROAD, OPP. MUNCIPAL OFFICE, ALUVA – 683101, KERALA.",,,ALUVA,ERNAKULAM
INDB0000228,Indusind Bank Ltd,INDB0000228,160234005,BADDI,"GTM TOWERS, NEAR SAGAR RATNA, NALAGARH ROAD, BADDI. DIST SOLAN 173205",,,BADDI,SOLAN
INDB0000229,Indusind Bank Ltd,INDB0000229,560234008,JAKKASANDRA,"63-88, C M PLAZA, KORAMANGALA !ST BLOCK, SARJAPURA MAIN ROAD, JAKKASANDRA     
BANGALORE – 560 034 KARNATAKA",,,JAKKASANDRA,BANGALORE RURAL
INDB0000230,Indusind Bank Ltd,INDB0000230,600234006,MOWLIVAKKAM,"PLOT NO:35,SRI RANGA NAGAR, MOWLIVAKKAM, SRIPERUMBUDUR TALUK, KANCHIPURAM DT,CHENNAI-600116",,,MOWLIVAKKAM,KANCHEEPURAM
INDB0000231,Indusind Bank Ltd,INDB0000231,500234004,GADDIANNARAM,"NEXT TO NALANDA COLLEGE, GADDIANNARAM, DILSUKHNAGAR, HYDERABAD 500 006",,,GADDIANNARAM,RANGAREDDY
INDB0000232,Indusind Bank Ltd,INDB0000232,380234003,BODAKDEV,"ZODIAC SQUARE, SHOW ROOM NO 2, OPP GURUDHWARA, S G ROAD, BODAKDEV, AHMEDABAD – 380 054",,,BODAKDEV,AHMADABAD
INDB0000233,Indusind Bank Ltd,INDB0000233,411234003,HINJAWADI,"PLOT NO 30, TECH CENTRE, PHASE I, MIDC,HINJEWADI,PUNE 411057",,,HINJAWADI,PUNE
INDB0000234,Indusind Bank Ltd,INDB0000234,769234002,PANPOSH,"PLOT NO-H-1, PANPOSH ROAD, CIVIL TOWNSHIP, ROURKELA-769004, DIST- SUNDERGARH",,,PANPOSH,SUNDARGARH
INDB0000235,Indusind Bank Ltd,INDB0000235,0,JAGDISHPUR,"ABOVE CENTRAL BANK OF INDIA, LUCKNOW - JUANPUR HIGHWAY,JAGDISPUR - 227 809, SULTANPUR DIST (U.P.)  - 227809 ",,,JAGDISHPUR,SULTANPUR
INDB0000236,Indusind Bank Ltd,INDB0000236,600234005,MADIPPAKKAM,"NO 23, MEDAVAKKAM MAIN ROAD, MADIPAKKAM, CHENNAI - 600 091",,,MADIPPAKKAM,KANCHEEPURAM
INDB0000237,Indusind Bank Ltd,INDB0000237,400234019,VASAI,"SHOP NO. S-30/31/8, GOPAL CHS, AMBADI MAIN ROAD, 
NR BHAJI MARKET, VASAI (W), THANE – 401202.          ",,,VASAI,THANE
INDB0000238,Indusind Bank Ltd,INDB0000238,0,LANDRAN,"VILL – LANDRAN, KHARAR ROAD, TEH & DISTT – MOHALI 140307",,,LANDRAN,MOHALI
INDB0000239,Indusind Bank Ltd,INDB0000239,0,BAKARPUR,"VILL - BAKARPUR (NEAR GOVT. SCHOOL), PO MANAULI, MOHALI",,,BAKARPUR,SAHIBZADA AJIT SINGH NAGAR
INDB0000240,Indusind Bank Ltd,INDB0000240,0,RAJPPIPLA,"SHOP NO 2,HP MEHTA COMPLEX,    M V ROAD,RAJPIPLA",,,RAJPPIPLA,NARMADA
INDB0000241,Indusind Bank Ltd,INDB0000241,465234051,SHUJALPUR,"ASHRA PLACE,NEAR CHOUBEY SCHOOL, SHUJALPUR MANDI, 465 333",,,SHUJALPUR,SHAJAPUR
INDB0000242,Indusind Bank Ltd,INDB0000242,,BARWANI,"GROUND FLOOR,ROOM NO 3, NEAR KALIKA MATA MANDIR,BARWANI-451551",,,BARWANI,BARWANI
INDB0000243,Indusind Bank Ltd,INDB0000243,481 234 001,MANDLA,"1ST FLOOR, BEHIND HOTEL ASHTHA, CIVIL LINE, MANDLA- 481661 MADHYA PRADESH",,,MANDLA,MANDLA
INDB0000244,Indusind Bank Ltd,INDB0000244,,AMLOH,"AMLOH BYE PASS ROAD, BELOW LIC OFFICE, AMLOH - 147203, DIST FATEHGARH SAHIB, PUNJAB.",,,AMLOH,AMLOH
INDB0000245,Indusind Bank Ltd,INDB0000245,0,RAHON,"OPP. COCA COLA AGENCY, PHILLOR ROAD, RAHON 144517",,,RAHON,SHAHID BHAGAT SINGH NAGAR
INDB0000246,Indusind Bank Ltd,INDB0000246,0,LACHLMANGARH,"MAIN MARKET,OPP POLICE STATION,  LAXMANGARH,SIKAR",,,LACHLMANGARH,SIKAR
INDB0000247,Indusind Bank Ltd,INDB0000247,0,ARANTHANGI,"NO 24, 1ST FLOOR, VEERAMAKAILAMMAN COMP,PATTUKOTTAI ROAD,ARANTHANGI-614616",,,ARANTHANGI,PUDUKKOTTIA
INDB0000248,Indusind Bank Ltd,INDB0000248,0,THIRUVALLUR,"1 ST FLOOR,DOOR NO 180/1A, J N ROAD, TIRUVALLUR -602001",,,THIRUVALLUR,THIRUVALLUR
INDB0000249,Indusind Bank Ltd,INDB0000249,231234202,ANPARA,"OPP SRIRAM GENERAL STOR, PARSI MAIN ROAD, ANPARA,UTTAR PRADESH",,"05446-272747/ 74, FAX NO. 272448",ANAPARA,SONBHADRA
INDB0000250,Indusind Bank Ltd,INDB0000250,,PEHOWA,"NO 307/3, CENTRAL BANK WALI GALI, PEHOWA 136128",,,PEHOWA,KURUKSHETRA
INDB0000251,Indusind Bank Ltd,INDB0000251,,JHAJJAR,"GRD FLR, OLD BURF  KHANNA ROAD, NR. DESWAL FOOD POINT,
BEHIND BUS STAND, TEHSIL & DISTT: JHAJJAR 124 103, HARYANA",,,JHAJJAR,JHAJJAR
INDB0000252,Indusind Bank Ltd,INDB0000252,0,ANGUL,"GRD FLR + FRT FLR, SANKAR CINEMA ROAD, ANGUL-759122, ORISSA",,,ANGUL,ANGUL
INDB0000253,Indusind Bank Ltd,INDB0000253,,MEDAK,"SHOP NOS.1-3-80/4/1-5, VENKATESHWARA COLONY, OPP.HEAD POST OFFICE, MEDAK 502110",,,MEDAK,MEDAK
INDB0000254,Indusind Bank Ltd,INDB0000254,0,DAON,"SHOP NO.2, GREEN ENCLAVE, KHARAR ROAD, DAON - 140301, TEHSIL & DIST: MOHALI",,,DAON,MOHALI
INDB0000255,Indusind Bank Ltd,INDB0000255,APPLIED FOR,MULLANPUR,MAIN ROAD MULLANPUR GARIBDASS TEHSIL KHARAR DIST MOHALI 140901,,,MULLANPUR GARIBADAS,RUPNAGAR
INDB0000256,Indusind Bank Ltd,INDB0000256,0,TALCHER,"PLOT NO 1606/3202, SHARMA CHHAK, PO TALCHER- 759 100, DIST: ANGUL, ORISSA",,,TALCHER,ANGUL
INDB0000257,Indusind Bank Ltd,INDB0000257,691234052,ADOOR,"INDUSIND BANK LTD.CHITTUNDAYIL SHOPPING COMPLEX NR. PARTHSARATHY TEMPLE, KONNAMANKARA, ADOOR – 691523",,,ADOOR,PATHANAMTHITTA
INDB0000258,Indusind Bank Ltd,INDB0000258,403234004,SANVORDEM,"INDUSIND BANK LTD. UG 5, 6 & 7, VINAYAK PLAZA, CURCHOREM, GOA - 403 706",,,SANVORDEM,GOA
INDB0000259,Indusind Bank Ltd,INDB0000259,APPLIED FOR,GOTAN,"GROUND FLOOR, BALAJI MOTORS, MERTACITY ROAD, GOTAN, DIST: NAGAUR, 342902 RAJASTHAN ",,,GOTAN,NAGAUR
INDB0000260,Indusind Bank Ltd,INDB0000260,0,JAIGAON,"1ST FLOOR, ABOVE HOTEL ANAND, MAHATMA GANDHI ROAD, NEXT TO JAYSHREE STORE,  JAIGAON - 736 128, DIST. JALPAIGURI, WEST BENGAL",,,JAYGAON,JALPAIGURI
INDB0000261,Indusind Bank Ltd,INDB0000261,500234006,NIZAMPET,"H NO 3-86/A/1, NIZAMPET MAIN ROAD, NIZAMPET VILLAGE – 500090. QUTHBULLAPUR MANDAL, RANGA REDDY DISTRICT ",,,QUTHBULLAPUR,RANGAREDDY
INDB0000262,Indusind Bank Ltd,INDB0000262,700234007,DOMJUR,"FF & GF, SOUMILI BHAVAN, HOWRAH AMTA ROAD, VILL & PO - DOMJUR, HOWRAH - 711405",,,DOMJUR,HAORA
INDB0000263,Indusind Bank Ltd,INDB0000263,0,NIMAPADA,"PLOT NO -2732, JATSHREE CHOWK,GANESH MARKET, NIMAPADA MAIN ROAD OPP.BHARAT PETROLEUM NIMAPADA, ORISSA 752106",,,NIMAPARA,PURI
INDB0000264,Indusind Bank Ltd,INDB0000264,0,KODERMA,"SALOJA HOUSE,RANCHI-PATNA ROAD, KODERMA 825409 JHARKHAND",,,KODARMA,KODERMA
INDB0000265,Indusind Bank Ltd,INDB0000265,395234004,KAMREJ,"UG-49,50, UPPER GROUND FLOOR, DADA BHAGVAN COMPLEX, KAMREJ CHAR RASTA KAMREJ- 394 185 DIST: SURAT GUJARAT",,,KAMREJ,SURAT
INDB0000266,Indusind Bank Ltd,INDB0000266,416234151,SANGLI,"GROUND FLOOR, SHUBAM PLAZA, C. S. NO. 150 + 151 B1, OPP. BIG BAZAAR, SANGLI – 416 416 MAHARASHTRA",,,SANGLI-MIRAJ-KUPWAD,SANGLI
INDB0000267,Indusind Bank Ltd,INDB0000267,400234021,NERUL,"GROUND FLOOR, KRISHNA KAMAL CHS, SHOP # 1&2, PLOT NO. 111/E/1, SECTOR 21, NERUL EAST 400 706, NAVI MUMBAI",,,NEW BOMBAY,THANE
INDB0000268,Indusind Bank Ltd,INDB0000268,400234023,"VILE PARLE (EAST), MUMBAI","GROUND FLOOR, SHOP NO.1, GEMINI BUILDERS, NEHRU ROAD,  VILE PARLE -E, MUMBAI - 400 057",,,MUMBAI,GREATER BOMBAY
INDB0000269,Indusind Bank Ltd,INDB0000269,411234004,AUNDH,"GROUND FLOOR, 163/1, SURMANI SOCIETY, DP RD,   AUNDH, PUNE-411004, MAHARASHTRA",,,PUNE,PUNE
INDB0000271,Indusind Bank Ltd,INDB0000271,411234006,PIMPRI CHINCHWAD,"K-3 TO K-6, EMPIRE ESTATE, MUMBAI-PUNE ROAD, CHINCHWARD, PUNE-411019 MAHARASHTRA",,,PUNE,PUNE
INDB0000272,Indusind Bank Ltd,INDB0000272,396234061,NAVSARI,"SHOP NO 2 & 3, PREM RESIDENCY CO. OP. HO. SOC. LTD, LUNSIKUI, NAVSARI- 396 465  GUJARAT",,,NAVSARI,NAVSARI
INDB0000273,Indusind Bank Ltd,INDB0000273,380234005,GANDHINAGAR,"GF, UNIT NO. 14, SUMAN CITY, PLOT NO. 17, SEC – 11, GANDHINAGAR – 382 0110.",,,GANDHINAGAR,GANDHINAGAR
INDB0000274,Indusind Bank Ltd,INDB0000274,440234003,"C A ROAD, NAGPUR","2, GANDHI GRAIN MARKET,  NR. CHHAPRUNAGAR SQ,  C. A. ROAD,  NAGPUR 440 008  MAHARASHTRA",,,NAGPUR,NAGPUR
INDB0000275,Indusind Bank Ltd,INDB0000275,110234023,RAJOURI GARDEN,"J2/21, RAJAURI GARDEN, NEW DELHI - 110 027 ",,,DELHI,DELHI
INDB0000276,Indusind Bank Ltd,INDB0000276,110234021,NOIDA SECTOR 51,"B-1/A, SHOP NO. 21,SEC 51, NOIDA – 201 301,UTTAR PRADESH",,,NOIDA,GAUTAM BUDDHA NAGAR
INDB0000277,Indusind Bank Ltd,INDB0000277,141234004,SUNDER NAGAR (LUDHIANA),"BXXIV-4569, SUNDER NAGAR, LUDHIANA - 141 007 PUNJAB ",,,LUDHIANA,LUDHIANA
INDB0000278,Indusind Bank Ltd,INDB0000278,302234004,"RAJA PARK, JAIPUR","B -10, GOVIND MARG, RAJA PARK, JAIPUR - 302004 RAJASTHAN",,,JAIPUR,JAIPUR
INDB0000279,Indusind Bank Ltd,INDB0000279,302234003,"JOHRI BAZAR, JAIPUR","67-68, IST FLOOR, KHANDAKA DIAMOND TRADE CENTRE,  JOHRI BAZAR, JAIPUR – 302003",,,JAIPUR,JAIPUR
INDB0000280,Indusind Bank Ltd,INDB0000280,301234201,"NEEMRANA, ALWAR","MEEMRANA CITY CENTRE., CC-2, RIICO INDUSTRIAL AREA, NEEMRANA- 301705 ALWAR, RAJASTHAN",,,NEEMRANA,ALWAR
INDB0000281,Indusind Bank Ltd,INDB0000281,110234022,DEFENSE COLONY,"A -276,BHISHMA PITHAMAHA MARG, DEFENCE COLONY, NEW DELHI – 110 024",,,DELHI,DELHI
INDB0000282,Indusind Bank Ltd,INDB0000282,110234019,GUJRANWALA,"B-8 GUJRANWAL TOWN PART-I,OPPOSITE MODEL TOWN-II, NEW DELHI-110009",,,DELHI,DELHI
INDB0000283,Indusind Bank Ltd,INDB0000283,NON-MICR,FARIDABAD,"SCO NO. 10, SECTOR – 16, 
HUDA COMMERCIAL COMPLEX, 
FARIDABAD – 121 002, HARYANA",,,HARYANA,HARYANA
INDB0000284,Indusind Bank Ltd,INDB0000284,144234003,JALANDHAR (OPP GYMKHANA),"SHOPPER’S SQUARE, 365-A, OPP. THE GYMKHANA CLUB, MODEL TOWN ROAD, LAJPAT NAGAR MARKET, JALLANDHAR-144 001, PUNJAB",,,JALANDHAR,JALANDHAR
INDB0000285,Indusind Bank Ltd,INDB0000285,143234003,"G. T. ROAD, AMRITSAR","55, CITY CENTRE, NEAR MAIN BUS STAND, G. T. ROAD, OPP. PINGALWARA, AMRITSAR – 143 001 PUNJAB",,,AMRITSAR,AMRITSAR
INDB0000288,Indusind Bank Ltd,INDB0000288,560234012,DEVANAHALLI,"PARVATHESWARA COMPLEX, D B CROSS, BB ROAD, OPPOSITE JAIN TEMPLE, DEVANAHALLI, BANGALORE- 562110",,,DEVANAHALLI,BANGALORE RURAL
INDB0000289,Indusind Bank Ltd,INDB0000289,500234010,MIYAPUR,"UPPER GROUND FLOOR, H. NO. 1-248, MIYAPUR, BOLLARAM CROSS ROAD, HYDERABAD – 500 052",,,HYDERABAD,HYDERABAD
INDB0000290,Indusind Bank Ltd,INDB0000290,500234007,KARKHANA,"GRD FLR, #3/1/101, MOTI VALLEY, 
NEXT TO DEVI SHETTY HOSPITAL, THIRUMALGIRI, 
KARKHAANA, SECUNDERABAD – 500 009.

",,,HYDERABAD,HYDERABAD
INDB0000291,Indusind Bank Ltd,INDB0000291,600234010,SRIPERUMBUDUR,"87, GANDHI ROAD, SRIPERUMBUDUR 602 105 DIST – KANCHEEPURAM",,,SRIPERUMBUDUR,KANCHEEPURAM
INDB0000292,Indusind Bank Ltd,INDB0000292,502234522,SADASIVPET,"GR FLR, 3/7/83/101/2, BADARI COMPLEX,GURUNAGAR COLONY NH9, SADASIVPET (MEDAK DISTRICT), PIN-502291.",,,SADASHIVPET,MEDAK
INDB0000293,Indusind Bank Ltd,INDB0000293,501234002,VICARABAD,"GROUND FLOOR, H. NO. 4/1/674/A, ALAMPALLY ROAD, VICARABAD – 501 101. DIST RANGAREDDY AP",,,VIKARABAD,RANGAREDDY
INDB0000294,Indusind Bank Ltd,INDB0000294,560234011,"HBR LAYOUT, BANGALORE","NO. 208, B,80 FEET MAIN ROAD, (INTERNATIONAL AIRPORT), HBR LAYOUT, FIRST STAGE, 2ND BLOCK, BANGALORE",,,BANGALORE,BANGALORE URBAN
INDB0000295,Indusind Bank Ltd,INDB0000295,533234002,SARPAVARAM,"D.NO : 70-1-28/2, NAGAMALLI THOTA JN, NEAR HP PETROL PUMP, PITHAPURAM RD. SARPAVARAM KAKINADA - 533003",,,SARPAWARAM,EAST GODAVARI
INDB0000296,Indusind Bank Ltd,INDB0000296,0,SIRKALI,"GROUND FLOOR, # 35, THADALAN NORTH STREET, CHIDAMBARAM MAIN ROAD, SIRKALI- 609 110, TN ",,,SIRKALI,NAGAPATTINAM
INDB0000297,Indusind Bank Ltd,INDB0000297,,"PAKUR
","GROUND FLOOR,BHAGAT PALA, BELOW SAHARA OFFICE, OPP. PAKUR HEAD POST OFFICE, PAKUR-DUMKA MAIN ROAD, PAKUR, JHARKHAND 816 107",,,PAKAUR,PAKUR
INDB0000298,Indusind Bank Ltd,INDB0000298,700234012,AMTALA,"GROUND FLOOR BLOCK A1, SANGAM SUPER MARKET, DIAMOND HARBOUR ROAD, SOUTH 24 PARGANAS, AMTALA - 743 503, WEST BENGAL ",,,AMTALA,MURSHIDABAD
INDB0000299,Indusind Bank Ltd,INDB0000299,700234013,BAGNAN,"GROUND FLOOR ,TRADE CENTRE, NH-6, NR. SUJATA CINEMA, BAGNAN, HOWRAH DIST, W. B. 711 303",,,BAGNAN,HAORA
INDB0000300,Indusind Bank Ltd,INDB0000300,,GOHAD,"GROUND FLOOR, GOHAD CHOWK, GWALIOR BHIND ROAD DISTRICT - BHIND 477 116",,,GOHAD,BHIND
INDB0000301,Indusind Bank Ltd,INDB0000301,,TILDA NEWRA,"OPP. MOHAN TRADER, STATION ROAD, NR. VIJAY LOG KA PASS, TILDA - 493 114 RAIPUR DIST,CHHATISGARH",,,TILDA,RAIPUR
INDB0000302,Indusind Bank Ltd,INDB0000302,,TAMLUK,"GROUND FLOOR, WARD NO. 17, SANKARARA, TAMLUK, PURBA MEDNIPUR, WEST BENGAL 721 636",,,TAMLUK,PURBA MEDINIPUR
INDB0000303,Indusind Bank Ltd,INDB0000303,,JAJPUR,"T C PLAZA, FIRST FLOOR, C/O HEMRAJ TARACHAND, CHORDA BYPASS SQUARE, PO. JAJPUR ROAD, DIST-JAJPUR, 755019 ORISSA",,,JAJPUR ROAD,JAJPUR
INDB0000304,Indusind Bank Ltd,INDB0000304,700234010,DUNLOP,"H-84, B.T. ROAD, NETAJI COLONY, DUNLOP (NR TOBIN ROAD CROSSING), KOLKATA-700 090",,,KOLKATA,KOLKATA
INDB0000305,Indusind Bank Ltd,INDB0000305,700234008,KANKURGACHI,"194 A, JYOTSNA APT, MANIKATA MAIN ROAD, KANKURGACHI, KOLKATA - 700 054",,,KOLKATA,KOLKATA
INDB0000306,Indusind Bank Ltd,INDB0000306,NON MICR,SUNDARGARH,"OPP. STADIUM ROAD, NR. PATANJI CHIKITSALAY, SAI VIHAR ROAD, SUNDERGARH 770 001,ORISSA ",,,SUNDARGARH,SUNDARGARH
INDB0000307,Indusind Bank Ltd,INDB0000307,411234007,"KALYANI NAGAR, PUNE","132, FORT ELIZA, DIAGONALLY OPP. MARIEPLEX MULTIPLEX, KALYANI NAGAR, PUNE – 411 014",,,PUNE,PUNE
INDB0000308,Indusind Bank Ltd,INDB0000308,370234051,BHUJ,"SHOP NO 5 & 6, ‘SUN PLAZA’,BHUJ- MIRZAPUR HIGHWAY, OPP. COMMERCE COLLEGE, BHUJ-KUTCH DIST, GUJARAT- 370 001",,,BHUJ,KACHCHH
INDB0000309,Indusind Bank Ltd,INDB0000309,535234602,KOTHAVALASA,"D. NO. 7-105 & 7-96/5M, OPP. POLICE STATION, VIJAYANAGARAM ROAD, KOTHAVALASA – 535 183 ANDHRA PRADESH",,,KOTHAVALASA,VIZIANAGARAM
INDB0000310,Indusind Bank Ltd,INDB0000310,530234522,NAKKAPALLI,"MAIN ROAD NH-5, OPP POLICE STATION, NAKKAPALLI, 
VISAKHAPANTNAM-531081",,,NAKKAPALLE,VISHAKHAPATNAM
INDB0000312,Indusind Bank Ltd,INDB0000312,110234025,MANESAR,"SHOP NO. 2&3, EROS CORPORATE PARK, K-BLOCK, IMT, SEC-02, MANESAR, GURGAON 122 050, HARYANA",,,MANESAR,GURGAON
INDB0000313,Indusind Bank Ltd,INDB0000313,700234011,BARUIPUR,"SARDAR COMPLEX, KULPI ROAD, P.O. BARUIPUR, BARUIPUR 700144 WEST BENGAL",,,BARUIPUR,SOUTH 24 PARGANAS
INDB0000314,Indusind Bank Ltd,INDB0000314,700234009,"PRINCE ANWAR SHAH, KOLKATA","GROUND FLOOR, “MERLIN OXFORD” #22, PRINCE ANWAR SHAH ROAD, KOLKATA - 700 033, WEST BENGAL   ",,,KOLKATA,KOLKATA
INDB0000315,Indusind Bank Ltd,INDB0000315,600234013,TEYNAMPET,"30, OLD NO.159, ELDAMS ROAD, TEYNAMPET, CHENNAI – 600 018",,,CHENNAI,CHENNAI
INDB0000316,Indusind Bank Ltd,INDB0000316,110234024,"SOHNA ROAD, GURGAON","GROUND FLOOR, SHOP NO. A-12A, A-15, A-19, OMAXE CITY CENTRE, SECTOR-49, SOHNA ROAD, GURGAON, HARYANA",,,GURGAON,GURGAON
INDB0000317,Indusind Bank Ltd,INDB0000317,466234001,ASTHA,"GROUND FLOOR, GOSWAMI MARKET, KANNOD ROAD DIST-SEHORE, ASHTA - 466116 MADHYA PRADESH.",,,ASTHA,SEHORE
INDB0000318,Indusind Bank Ltd,INDB0000318,160234007,CHANDIGARH SEC. 35,"SCO - 359-360, SEC 35-B, CHANDIGARH - 160035",,,CHANDIGARH,CHANDIGARH
INDB0000319,Indusind Bank Ltd,INDB0000319,110234026,"WEST PATEL NAGAR, DELHI","GROUND FLOOR, 2W/3, WEST PATEL NAGAR, OPP. METRO PILLAR NO 195, NEW DELHI- 110 008",,,DELHI,DELHI
INDB0000320,Indusind Bank Ltd,INDB0000320,500234008,SOMAJIGUDA,"GROUND FLOOR, 6-3-1239/2, “AMAR”, RAJ-BHAWAN ROAD, SOMAJIGUDA, HYDERABAD - 500 082",,,HYDERABAD,HYDERABAD
INDB0000321,Indusind Bank Ltd,INDB0000321,110234028,NARAINA,"B-225, NARAINA INDUSTRIAL AREA, PHASE-1,NEAR BIKANERWALA, NEW DELHI- 110 028",,,DELHI,DELHI
INDB0000322,Indusind Bank Ltd,INDB0000322,0,MAIHAR,"CHOPRA COMPLEX, NH-7, ROAD, MAIHAR-485771, MADHYA PRADESH",,,MAIHAR,SATNA
INDB0000323,Indusind Bank Ltd,INDB0000323,0,"PANDHURNA, CHHINDWARA","YAMUNA COMPLEX, ROAD NO.69, NATIONAL HIGHWAY PANDHURNA,480334, DISTRICT CHHINDWARA",,,PANDHURNA,CHHINDWARA
INDB0000324,Indusind Bank Ltd,INDB0000324,825234501,BARHI,"GROUND FLOOR, BARHI CHOWK, GAYA ROAD, BARHI, HAZARIBAGH, DISTRICT, JHARKHAND- 825405",,,BARHI,HAZARIBAG
INDB0000325,Indusind Bank Ltd,INDB0000325,802234102,KAEM NAGAR,"GROUND FLOOR, SINGH COMPLEX, NH-30,KAEM NAGAR, DISTRICT, BHOJPUR 802 314, BIHAR",,,KAEMNAGAR,BHOJPUR
INDB0000326,Indusind Bank Ltd,INDB0000326,800234003,RUKANPURA,"GROUND FLOOR, “RAJHANS NIKETAN”, BAILEY ROAD, RUKANPARA (NEAR CANAL), PATNA- 800 014",,,RUKANPURA,PATNA
INDB0000327,Indusind Bank Ltd,INDB0000327,636234005,OMALUR,"26 METTUR MAIN ROAD, PPS COMPLEX, OMALUR, 636 455, DIST. SALEM",,,OMALUR,SALEM
INDB0000328,Indusind Bank Ltd,INDB0000328,600234013,"T NAGAR, CHENNAI","5/6 OLD NO.3/2 SWETHAMBAR, BAZULLAH ROAD, T NAGAR, CHENNAI 600 017",,,CHENNAI,CHENNAI
INDB0000329,Indusind Bank Ltd,INDB0000329,500234009,KOMPALLY,"GROUND FLOOR, SANA MALLESH YADAV COMPLEX, MAIN ROAD, KOMPALLY- 500 014, RANGA REDDY DIST, ANDHRA PRADESH",,,KOMPALLY,NALGONDA
INDB0000330,Indusind Bank Ltd,INDB0000330,380234006,"PRAHLAD NAGAR, AHMEDABAD","GROUND FLOOR; SHOP NO 1 SUMAN –II, OPP. RELIANCE PETROL PUMP, 100 FT ROAD, PRAHLAD NAGAR ROAD, SATELLITE, AHMEDABAD-380051",,,AHMEDABAD,AHMEDABAD
INDB0000331,Indusind Bank Ltd,INDB0000331,560234014,NELAMANGALA,"GROUND FLOOR, 1212 BH ROAD,DWARKA PLAZA, NEELAMANGALA, BANGALORE 562123",,,NELAMANGALA,BANGALORE RURAL
INDB0000332,Indusind Bank Ltd,INDB0000332,400234025,"PRABHADEVI, MUMBAI","GROUND FLOOR, UNIT NO. 2, MARATHE UDYOG BHAVAN, APPASAHEB MARATHE MARG, PRABHADEVI, MUMBAI - 400 025",,,MUMBAI,GREATER BOMBAY
INDB0000333,Indusind Bank Ltd,INDB0000333,560234013,SADASHIVNAGAR,"GF, NEW NO 15 (OLD NO 13), SANKEY ROAD, NEXT TO SHELL PETROL SERVICE STATION, LOWER PALACE ORCHARD,  SADASHIVNAGAR, BANGLORE 560 080 ",,,BANGALORE,BANGALORE URBAN
INDB0000334,Indusind Bank Ltd,INDB0000334,110234027,NAYA BAZAR DELHI,"INDUSIND BANK LTD.
NO.4070 - 4075
NAYA BAZAR 
DELHI-110006
",,,DELHI,DELHI
INDB0000335,Indusind Bank Ltd,INDB0000335,0,DHUPGURI,"GROUND FLOOR, SAMPRITI SARANI, WARD NO.4, P.O DHUPGURI, DIST: JALPAIGURI- 735 210, WEST BENGAL",,,DHUPGURI,JALPAIGURI
INDB0000336,Indusind Bank Ltd,INDB0000336,461234310,PIPARIYA,"GROUND FLOOR, TILAK WARD, OPP PNB, CEMENT ROAD, PIPARIYA,  DIST: HOSAHANGABAD- 461 775, MADHYA PRADESH",,,PIPARIA,HOSHANGABAD
INDB0000337,Indusind Bank Ltd,INDB0000337,0,VALLABH NAGAR,"NEAR GOVERNMENT HOSPITAL, STATION ROAD, VALLABH NAGAR,UDAIPUR – 313601",,,VALLABHNAGAR,UDAIPUR
INDB0000338,Indusind Bank Ltd,INDB0000338,0,BIJOLIA,"GROUND FLOOR, TEJAJI CHOWK, BUNDI ROAD, BIJOLIA - 311602",,,BIJOLIA,BHILWARA
INDB0000339,Indusind Bank Ltd,INDB0000339,600234014,VALASARAVAKKAM,"GROUND FLOOR, VEDACHALAM COMPLEX, NEW NO. 33B, ARCOT ROAD, DIAGONALLY OPP TO NILGIRIS, VALASARAVAKKAM, THIRUVALLUR DISTRICT, CHENNAI - 600087",,,VALASARAVAKKAM,THIRUVALLUR
INDB0000340,Indusind Bank Ltd,INDB0000340,144234902,SHAHKOT,"SHOP NOS.1-2-3, OPPOSITE BHARAT PETROLEUM PUMP, MALSIAN ROAD, SHAHKOT, PIN 144702 DISTT JALLANDHAR (PUNJAB)",,,SHAHKOT,JALANDHAR
INDB0000341,Indusind Bank Ltd,INDB0000341,400234026,"LOWER PAREL (WEST), MUMBAI ","GROUND FLOOR, RAGHUVANSHI MILLS COMPOUND, SENAPATI BAPAT MARG, LOWER PAREL (WEST), MUMBAI – 400 013",,,MUMBAI,GREATER BOMBAY
INDB0000342,Indusind Bank Ltd,INDB0000342,400234027,"BANDRA KURLA COMPLEX, MUMBAI","NO.C-2, WEST CORE AREA, GROUND FLOOR TOWER NO.3, BHARAT DIAMOND BOURSE COMPLEX, G BLOCK, BANDRA KURLA COMPLEX, BANDRA (EAST),  MUMBAI 400 051",,,MUMBAI,GREATER BOMBAY
INDB0000343,Indusind Bank Ltd,INDB0000343,400234028,"BANDRA MEHBOOB STUDIOS, MUMBAI","1ST FLOOR, MUNICIPAL MARKET, NEAR MEHBOOB STUDIOS, #17, HILL ROAD, BANDRA-W, MUMBAI- 400 050",,,MUMBAI,GREATER BOMBAY
INDB0000344,Indusind Bank Ltd,INDB0000344,160234009,BARWALA,"SHOP NO.1, GROUND FLOOR, BANSAL COMPLEX, MAIN ROAD, BARWALA-134119, DISTRICT PANCHKULA, HARYANA",,,BARWALA,PANCHKULA
INDB0000352,Indusind Bank Ltd,INDB0000352,400234029,"KHAR, MUMBAI","GLACIS TOWER, BASEMENT & GROUND FLOOR, PLOT NO. 391, CSTNO. E1271, LINKING ROAD, KHAR (W), MUMBAI - 400 052",,,MUMBAI,GREATER BOMBAY
INDB0000353,Indusind Bank Ltd,INDB0000353,400234024,"PEDDAR ROAD, MUMBAI","GROUND FLOOR,“VIKAS”, VAIBHAV CHS,# 31, DR. GOPAL RAO DESHMUKH MARG, PEDDAR  ROAD, MUMBAI- 400 026",,,MUMBAI,GREATER BOMBAY
INDB0000354,Indusind Bank Ltd,INDB0000354,560234015,"J P NAGAR, BANGALORE","“ANAND SURYA”, NO.600, 100FT ROAD, 6TH PHASE, JP NAGAR, BANGALORE- 560 078, KARNATAKA",,,BANGALORE,BANGALORE URBAN
INDB0000355,Indusind Bank Ltd,INDB0000355,160234008,MANAULI,"GROUND FLOOR, SHOP NO1-5,GURUDWARA SAHIB, PATSHAHI, 6TH V.P O MANAULI, TEHSIL & DISTRICT- MOHALI-140306, PUNJAB",,,MANAULI,RUPNAGAR
INDB0000356,Indusind Bank Ltd,INDB0000356,500234011,"TOWLICHOWKI, HYDERABAD","GROUND FLOOR, GOLDEN CHAMBERS, OLD MUMBAI HIGHWAY, OPP.IOC, TOLI CHOWKI, HYDERABAD- 500 008, ANDHRA PRADESH",,,HYDERABAD,HYDERABAD
INDB0000357,Indusind Bank Ltd,INDB0000357,400234031,"GHODBUNDER ROAD, THANE ","GROUND FLOOR, “CORAL SQUARE”, VIJAY GARDEN NAKA, OPP. SURAJ WATERPARK, GHODBUNDER ROAD, THANE (W) – 400 607",,,THANE,THANE
INDB0000358,Indusind Bank Ltd,INDB0000358,400234030,KHARGHAR,"GROUND & FIRST FLOOR, “PATEL HERITAGE”, SHOP # 54 & 55, SECTOR-7, PLOT NO. 15 & 17, KHARGHAR, NAVI MUMBAI – 410 210",,,PANVEL,RAIGAD
INDB0000359,Indusind Bank Ltd,INDB0000359,533234102,RAJAHMUNDRY,"“LALITHA TOWERS’,# 76-1-4/1, GANDHIPURAM 2, RAJAHMUNDRY-533 103, EAST GODAVARI  DIST, AP",,,RAJAHMUNDRY,EAST GODAVARI
INDB0000360,Indusind Bank Ltd,INDB0000360,110234030,"PACHIM VIHAR, NEW DELHI","# 2, STATE BANK NAGAR, PASCHIM VIHAR, NEW DELHI- 110 063",,,DELHI,DELHI
INDB0000361,Indusind Bank Ltd,INDB0000361,600234017,"KILPAUK, CHENNAI","GROUND FLOOR, NEW NO 9,(OLD NO 5), BELFOUR ROAD, KILPAUK, CHENNAI- 600 010",,044-26420409/0423/0436/0468,CHENNAI,CHENNAI
INDB0000362,Indusind Bank Ltd,INDB0000362,0,CHAIBASA," “B-WING, AIKATH MARKET, CHAIBASA-833201, 
PASCHIM SINGHBUM DIST, JHARKHAND
",,,CHAIBASA,PASCHIMI SINGHBHUM
INDB0000363,Indusind Bank Ltd,INDB0000363,682234005,TRIPUNITHARA,"PANAIKAL HOUSE"", NEAR TRIPUNITHARA CRICKET CLUB, GOVT HOSPITAL ROAD, TRIPUNITHARA-682301, EMAKULAM DISTRICT, KERALA.",,,TRIPPUNITHURA,ERNAKULAM
INDB0000364,Indusind Bank Ltd,INDB0000364,577234102,CHIKMAGALUR,"GROUND FLOOR AT “MRS COMPLEX”, MG ROAD, CHIKMAGALUR-577 101, KARNATAKA",,,CHIKMAGALUR,CHIKMAGALUR
INDB0000365,Indusind Bank Ltd,INDB0000365,NA,JHARSUGUDA,"GROUND FLOOR, PLOT NO. 626/5879, BEHERMAL CHOWK,S.H.10,. JHARSUGUDA-768203,ODISHA",,,JHARSUGUDA,JHARSUGUDA
INDB0000366,Indusind Bank Ltd,INDB0000366,751234003,PATRAPARA,"PLOT NO B-32, NH-5, MOUZA-DUMDUMA, TEH- BHUBANESWAR, SRO-KHANDAGIRI,  PATRAPARA- 751 019 DIST :KHURDA, ODISHA",,,KHANDAGIRI,KHURDA
INDB0000367,Indusind Bank Ltd,INDB0000367,400234032,"KANJURMARG(W), MUMBAI","SHOP NO 4 & 5, A WING, “ GUNDECHA HEIGHTS”, L.B.S. MARG,  KANJURMARG(W), MUMBAI- 400 078, MAHARASHTRA",,,MUMBAI,GREATER BOMBAY
INDB0000368,Indusind Bank Ltd,INDB0000368,110234029,"OKHLA, NEW DELHI","SHOP NO G-1 BUILDING NO. 5, CAPITAL EXIM CENTRE, LOCAL SHOPPING CENTRE, OKHLA INDUSTRIAL AREA,  NEAR C LAL CHOWK , OKHLA INDL AREA PH-II NEW DELHI-110 020",,,DELHI,DELHI
INDB0000369,Indusind Bank Ltd,INDB0000369,110234031,CHHAPRAULA,"GROUND FLOOR, ""NAGAR SADAN"", NEAR CHHAPRAULA POLICE CHOWKI, OPP. HARLSH CHANDRA KA BAGH, NH-24, CHHAPRAULA-203201, DISTRICT: GAUTAM BUDH NAGAR, U.P.",,,DADRI,GAUTAM BUDDHA NAGAR
INDB0000370,Indusind Bank Ltd,INDB0000370,110234034,"NEHRU PLACE, NEW DELHI","SHOP NO- G-5,G-6,G-7 SKIPPER HOUSE, BUILDING NO-62-63, NEHRU PLACE, NEW DELHI – 110019",,,DELHI,DELHI
INDB0000371,Indusind Bank Ltd,INDB0000371,110234032,"PITAMPURA, NEW DELHI","GROUND FLOOR, NO. A-4, LOK VIHAR, PITAMPURA, NEW DELHI-L10034",,,DELHI,DELHI
INDB0000372,Indusind Bank Ltd,INDB0000372,110234033,"CHANDNI CHOWK, DELHI","MUNICIPAL NO -43 TO 46, LAXMI NIWAS BUILDING, MAIN ROAD- CHANDNI CHOWK, DELHI – 110006",,"011 - 23255006, 23255007  ",DELHI,DELHI
INDB0000373,Indusind Bank Ltd,INDB0000373,700234014,HOWRAH,"GROUND FLOOR 8/1, HARDUT RAI CHAMARIA ROAD, HOWRAH- 711 101, WEST BENGAL ",,,HOWRAH,HAORA
INDB0000374,Indusind Bank Ltd,INDB0000374,751234005,PIPILI,"GROUND FLOOR “HOSPITAL SQUARE”, PIPLI MAIN ROAD, BELOW SHUBHAM KALYAN MANTAP, AT/PO- PIPILI, PURI DIST, - 752 104, ODISHA ",,,PIPILI,PURI
INDB0000375,Indusind Bank Ltd,INDB0000375,0,GHATAL,"1ST FLOOR,” RAJ PALACE”, KONNAGAR, GHATAL, WEST MIDNAPORE DIST- 721212, WEST BENGAL ",,,GHATAL,MEDINIPUR
INDB0000377,Indusind Bank Ltd,INDB0000377,751234004,CHANDRASHEKHARPUR,"GROUND FLOOR  “ ROYAL TOWER”, AT- DAMANA SQUARE, PO- SAILASHREE VIHAR, P.S. CHANDRASEKHARPUR, BHUBANESWAR- 751 023, ODISHA",,,BHUBANESWAR,KHURDA
INDB0000378,Indusind Bank Ltd,INDB0000378,452234003,"SAPNA SANGEETA MAIN ROAD,INDORE","GROUND FLOOR, “ SHUBHAM CORPORATE”, NO.27,PATEL NAGAR, SCHEME 31, TRAFFIC ROOT NO.6, 7,SAPNA SANGEETA MAIN ROAD,INDORE, MADHYAPRADESH",,"0731-2760419, 2760420, 2760421, 2760422, 2760423  (FAX)  0731-2760424 ",INDORE,INDORE
INDB0000379,Indusind Bank Ltd,INDB0000379,110234035,"SUSHANT LOK, GURGAON","LOWER GROUND FLOOR, SHOP NO LG- 7, 8 & 9 AND UG-6,“BESTECH CENTRE POINT”, A- BLOCK, GALERIA MARKET ROAD, SUSHANT LOK-1, GURGAON-122 002",,"0124 2578477, 2576577 ",GURGAON,GURGAON
INDB0000380,Indusind Bank Ltd,INDB0000380,411234009,"VIMAN NAGAR, PUNE","GROUND FLOOR OF SHOP NO. G-1, G-2, G-3 AND 4, NECO NX, NEXT TO NECO GARDENS, SRY NO 209(PART), VIMAN NAGAR, PUNE-411 014, MAHARASHTRA",,,PUNE,PUNE
INDB0000381,Indusind Bank Ltd,INDB0000381,600234015,"AMINJIKARAI,  CHENNAI","GROUND FLOOR AT NO. 1&3, LAKSHMIAMMAL STREET, AYYAVOO NAIDU COLONY, AMINJIKARAI,  CHENNAI – 600 029, TAMIL NADU",,,CHENNAI,CHENNAI
INDB0000382,Indusind Bank Ltd,INDB0000382,700234015,"RN MUKHERJEE RD- KOLKATA
","G-4, BUILDING NO18, RAJENDRA NATH MUKHERJEE ROAD, KOLKATA- 700 001, WEST BENGAL",,033-22624731 / 33 / 34 / 35 / 36 / 38,KOLKATA,KOLKATA
INDB0000383,Indusind Bank Ltd,INDB0000383,110234036,"INDIRAPURAM, GHAZIABAD","HALL NO. 13,  GAUR GRAVITY MALL , GAUR GREEN CITY, PLOT NO-8, VAIBHAV KHAND, INDIRAPURAM, GHAZIABAD – 201014, U.P",,"0120 – 4299450, 4299451  ",GHAZIABAD,GHAZIABAD
INDB0000384,Indusind Bank Ltd,INDB0000384,411234008,"KOTHRUD, PUNE","GRD. FLOOR & MEZZANINE FLOOR, SHOP NO 13 & 14, “ECSTASY” SANGAM PRESS ROAD, KOTHRUD, PUNE – 411038",,,PUNE,PUNE
INDB0000386,Indusind Bank Ltd,INDB0000386,403234005,PORVORIM,"SHOP NO 107( GF2), SALSONS TRADE CENTRE, OPP. TATA MOTORS, NEAR O’COQUIERO JUNCTION, NH-17,PANAJI-MAPUSA ROAD, PORVORIM, BARDEZ, GOA- 403 512",,"0832-2410071, 2410216,2410263, 2410130  0832-2410133  FAX ",PORVORIM,NORTH GOA
INDB0000388,Indusind Bank Ltd,INDB0000388,600234016,"MEDAVAKKAM, CHENNAI","GROUND FLOOR, G-3, RAGAMAALIKA, PHASE-II, # 150, TAMBARAM VELACHERY MAIN ROAD, MEDAVAKKAM, CHENNAI- 600 042, TN",,044 – 22770972/0981/0989/0968,CHENNAI,CHENNAI
INDB0000391,Indusind Bank Ltd,INDB0000391,625234003,"DINDIGUL
","GROUND FLOOR, “ VENKATESHWARA LODGE”, # 86,SCHEME ROAD, DINDIGUL-624 001,TN",,0451-2432120 / 130 / 140,DINDIGUL,DINDIGUL
INDB0000392,Indusind Bank Ltd,INDB0000392,695234004,"KESAVADASAPURAM, THIRUVANANTHAPURAM","GROUND FLOOR, SUN SAPPHIRE APARTMENTS. KESAVADASAPURAM. PATTOM PO., THIRUVANANTHAPURAM 695 004, KERALA",,"0471-2445099, 446099, 2447099, FAX 2448099",THIRUVANANTHAPURAM,THIRUVANANTHAPURAM
INDB0000393,Indusind Bank Ltd,INDB0000393,800234004,BORING ROAD  – PATNA (II),"GROUND FLOOR, “ VISHWAS AMAWAN HOUSE”, JAMUNA APARTMENTS COMPLEX (FRONT BLOCK), BORING ROAD, PATNA- 800 013. BIHAR",,"0612-2570235, 2570236, 2570240, 2572241",PATNA,PATNA
INDB0000503,Indusind Bank Ltd,INDB0000503,400234008,MAHIM,"P.D.HINDUJA NATIONAL HOSPITAL , VEER SAVARKAR MARG, MAHIM, MUMBAI 400016 ",,,MUMBAI,GREATER MUMBAI
INDB0000504,Indusind Bank Ltd,INDB0000504,500234002,BANJARA HILLS,"8-2-541,MERIDIAN SCHOOL ROAD, ROAD NO. 7, BANJARA HILLS, SECUNDERABAD  – 500 034 ",,,SECUNDERABAD,HYDERABAD URBAN
INDB0000515,Indusind Bank Ltd,INDB0000515,700234004,STOCK EXCHANGE,"FORTUNE CHAMBER,'6, LYONS RANGE, GROUND FLOOR, KOLKATA 700 001 ",,,KOLKATTA,KOLKATA
INDB0000517,Indusind Bank Ltd,INDB0000517,390234003,WARASIA,"GROUND FLOOR, SWAMI PREMDAS JALARAM HOSPITAL, BEHIND R. T. O.'HARNI WARASIA RING ROAD, WARASIA, VADODARA– 390 006 ",,,VADODARA,VADODARA
INDB0000519,Indusind Bank Ltd,INDB0000519,226234051,AMINABAD,"MAHILA VIDYALAYA, GANGA PRASAD ROAD, AMINABAD,'LUCKNOW (U.P.) ",,,LUCKNOW,LUCKNOW
INDB0000520,Indusind Bank Ltd,INDB0000520,141234003,URBAN ESTATE FOCUL POINT,"UPSC JAIN PUBLIC SCHOOL,CHANDIGARH ROAD, URBAN ESTATE II, LUDHIANA – 141010  ",,,LUDHIANA,LUDHIANA
INDB0000521,Indusind Bank Ltd,INDB0000521,641234003,R S PURAM,"KIKANI CHARITIES, SHRI GOPAL DAS KIKANI, DIAGNOSTIC CENTRE, NO. 1,'KRISHNASWAMY RD. R. S PURAM COIMBATORE 641 002",,,COIMBATURE,COIMBOTORE
INDB0000580,Indusind Bank Ltd,INDB0000580,641234102,TIRUPUR,"NO. 19, T. S. PURAM (LOGU BUILDING), 
VALIPALAYAM, TIRUPUR – 641 601   ",,,TIRUPUR,COIMBOTORE
INDB0000581,Indusind Bank Ltd,INDB0000581,530234001,VISAKHAPATNAM,"CDR HOSPITAL,  A. S. RAJA COMPLEX 'WALTAIR MAIN ROAD, VISAKHAPATNAM 530 002 ",,,VISAKHAPATNAM,VISHAKAPATNAM
INDB0000586,Indusind Bank Ltd,INDB0000586,NON MICR,BANGA,"SWAMI ROOPCHAND JAIN MODEL HIGH SCHOOL, GARSHANKAR ROAD, BANGA – 144 505         DIST. NAVA SAHER'   ",,,BANGA,NAVANSAHAR
INDB0000681,Indusind Bank Ltd,INDB0000681,530234003,SEETHAMDHARA,"OPP. EENADU RYTHU BAZAAR, SEETHAMMADHARA, VISAKHAPATNAM –530013",,,VISAKHAPATNAM,VISHAKAPATNAM
INDB0000430,Indusind Bank Ltd,INDB0000430,400234035,"KALBADEVI ROAD, MUMBAI","GROUND FLOOR, SHOP. NO 1,2,3 & 12,13,14, 
JEWEL WORLD, COTTON EXCHANGE BUILDING, 
175, KALBADEVI ROAD, MUMBAI- 400 002, 
MAHARASHTRA
","022-22417532, 22417536
",MUMBAI,GREATER BOMBAY,MAHARASHTRA
INDB0000447,Indusind Bank Ltd,INDB0000447,800234005,BHAGWANPUR,"1ST FLOOR, “ RAJA MARKET, PURBI BAZAAR, 
BHAGWANPUR- 844 114, VAISHALI DIST, BIHAR
","06224-245398, 245399, 245400
",BHAGWANPUR,VAISHALI,BIHAR
INDB0000395,Indusind Bank Ltd,INDB0000395,713234102,ALAMGANJ,"GROUND FLOOR # 359, NETAJI SARANI,  
ALAMGUNJ ROAD, NUTANGUNJ PO, 
BURDHWAR DIST- 713 102, WB
",0342-2634117/18 / 2634116,ALAMGANJ,BARDDHAMAN,WEST BENGAL
INDB0000427,Indusind Bank Ltd,INDB0000427,0,APRA,"GROUND FLOOR AT VPO:PIND APRA,BANGA ROAD,TEH:PHILLAUR, DIST: JALLANDHAR,PUNJAB - 144 416","01826-250533, 01826-252533  ",APRA,JALANDHAR,PUNJAB
INDB0000431,Indusind Bank Ltd,INDB0000431,221234102,BHADOHI,"GROUND FLOOR, PLOT NO. 389/10, JALALPUR STATION ROAD, BHADOHI – 221401( DISTRICT RAVIDAS NAGAR ) U.P","05414-224301
 / 224302   ",BHADOHI,SANT RAVIDAS NAGAR,UTTAR PRADESH
INDB0000433,Indusind Bank Ltd,INDB0000433,141234005,THREEKAY,"GROUND FLOOR, # 5, BABA FARID NAGAR, 
PO BADOWAL, FEROZE GANDHI ROAD, 
THREEKAY CHOWK, THREEKAY – 142021 
(LUDHIANA DISTT). PUNJAB
","0161-5001590-93,5001595-99
/ 5001596
",THREEKE,LUDHIANA,PUNJAB
INDB0000434,Indusind Bank Ltd,INDB0000434,136234002,PIPLI MAJRA,"GROUND FLOOR, GITA DWAR, KURUSHETRA ROAD, 
PIPLI MAJRA – 132 131 (KURUSHETRA DISTT. HARYANA)
","01744-230212 / 213
/ 230214     ",PIPLI,KURUKSHETRA,HARYANA
INDB0000437,Indusind Bank Ltd,INDB0000437,221234302,GOPIGANJ,"GT ROAD (PADAV), GOPI GANJ- 221 303, 
S.R.N., UTTAR PRADESH
","05414- 232056, 232057",GOPIGANJ,SANT RAVIDAS NAGAR,UTTAR PRADESH
INDB0000438,Indusind Bank Ltd,INDB0000438,262234421,PALIA KHALAN,"INDIRA NAGAR COLONY, BHIRA ROAD, PALIA KHALAN – 262902, DISTT. LAKHIMPUR KHERI (UTTAR PRADESH)",05871 - 233021 / 233185,PALIA KALAN,LAKHIMPUR KHERI,UTTAR PRADESH
INDB0000440,Indusind Bank Ltd,INDB0000440,148234002,SANGRUR,"GROUND FLOOR, GAUSHALA ROAD, OPP.",01672-500201,SANGRUR,SANGRUR,PUNJAB
INDB0000444,Indusind Bank Ltd,INDB0000444,834234003,LALPUR CHOWK –RANCHI,"GROUND & 1ST FLOOR, HOLDING NO 719/A, 
PLOT NO 1358/B, LALPUR CHOWK , 
RANCHI- 834 001, JHARKHAND
",0651 - 2560861 /2560864 /2560892 / 2560810,RANCHI,RANCHI,JHARKHAND
INDB0000445,Indusind Bank Ltd,INDB0000445,783234501,JOGIGHOPA,"GROUND FLOOR, DAG NO 128,  NEAR BHARAT WAYBRIDGE,  
VILLAGE & PO JOGIGHOPA- 783 382, DIST: BONGAIGAON, ASSAM",03644- 210021 / 22 / 23,JOGIGHOPA,BONGAIGAON,ASSAM
INDB0000446,Indusind Bank Ltd,INDB0000446,343234501,RANIWARA,"GROUND FLOOR 3 SHOPS, NEAR RAILWAY CROSSING, SANCHORE ROAD, RANIWARA-343 040, DIST: JALORE, RAJASTHAN","02990 – 232001, 232011, 232012",RANIWARA,JALOR,RAJASTHAN
INDB0000448,Indusind Bank Ltd,INDB0000448,0,ORCHHA,"GROUND FLOOR, NEAR GANESH DARWAJA, 
JHANSI ROAD, ORCHHA- 472 246. 
TEEKAMGARH DIST, MADHYA PRADESH
",07680-252032 / 252033 / 252034,ORCHHA,TIKAMGARH,MADHYA PRADESH
INDB0000449,Indusind Bank Ltd,INDB0000449,461234101,HOSANGABAD,"1ST FLOOR, “ SHREE SAI KRUPA”, SAT RASTA, HOSANGABAD- 461 001, MADHYA PRADESH",07574-250308,HOSHANGABAD,HOSHANGABAD,MADHYA PRADESH
INDB0000455,Indusind Bank Ltd,INDB0000455,380234007,CHANGODAR,"GROUND FLOOR, “GAGAN COMPLEX”, NEAR GAGAN HOTEL, SARKHEJ –BAWLA ROAD, POST: CHANGODAR, TALUKA: SANAND, DIST: AHMEDABAD- 382 213, GUJARAT ","02717 – 294891, 02717 – 294892. ",CHANGODAR,AHMADABAD,GUJARAT
INDB0000456,Indusind Bank Ltd,INDB0000456,313234501,GORDHANVILAS,"SHOP NO. S-7+S-15 “TRIMURTY APARTMENTS”, 100FT. MAIN ROAD, M – BLOCK, SECTOR – 14, GORDHANVILAS – 313 001, DIST : UDAIPUR, (RAJASTHAN) ","0294-2641802-3, 0294-2641804",GORDHAN VILAS,UDAIPUR,RAJASTHAN
INDB0000463,Indusind Bank Ltd,INDB0000463,700234019,BHOWANIPORE,"13, ELGIN ROAD,  KOLKATA 700 020, WEST BENGAL ",033- 22870278,KOLKATA,KOLKATA,WEST BENGAL
INDB0000396,Indusind Bank Ltd,INDB0000396,700234016,RAGHUNATHPUR,"1ST FLOOR, # 310, TARAKNATH MUKHERJEE ROAD, PO : RAGHUNATHPUR, NEAR MAKHLA SEVASADAN HOSPITAL, HOOGHLY- 712 247, WEST BENGAL","033-26630311, 26630313, 26630314",RAGHUNATHPUR,HOOGHLY,WEST BENGAL
INDB0000398,Indusind Bank Ltd,INDB0000398,700234017,BAISNABGHATA-PATULI,"GROUND FLOOR, AT R 1/2 , BAISNABGHATA-PATULI, SOUTH 24PARAGNAS DIST, KOLKATA- 700 094, WEST BENGAL","033-24620132, 033-24620136, 033-24620042",BAISHNABGHATA-PATULI,SOUTH 24 PARGANAS,WEST BENGAL
INDB0000451,Indusind Bank Ltd,INDB0000451,396234112,DADRA,"GROUND FLOOR, SHOP NO 4  “ RAS AVENUE” SURVEY NO. 11/2/2/2 & 11/3/1 OPP. LE ROYAL HOTEL, NEAR DADRA GARDEN, VAPI- SILVASSA ROAD, DADRA- 396 193  ( U.T OF DADRA & NAGAR HAVELI)",0260-2667041/42/ 43/44,DADRA,DADRA&NAGAR HAVELI,DADRA&NAGAR HAVELI
INDB0000454,Indusind Bank Ltd,INDB0000454,132234352,ASSANDH,"OPP. TO GRAIN MARKET, KARNAL ROAD, ASSANDH, DIST: KARNAL 132039, HARYANA","01749-277222-23 
01749-277224 
",ASSANDH,KARNAL,HARYANA
INDB0000457,Indusind Bank Ltd,INDB0000457,314234501,GOWARI,"GROUND FLOOR, OPP. IRRIGATION OFFICE & G.P.O, NEAR HONDA SHOWROOM, PUNARWAS COLONY, DUNGARPUR ROAD, GOWARI – 314 025 TEH: SAGWARA, DIST: DOONGARPUR, RAJASTHAN",02966-255332-33  02966-255334,GOWARI,DUNGARPUR,RAJASTHAN
INDB0000458,Indusind Bank Ltd,INDB0000458,470234101,BINA,"GROUND FLOOR,  “RAJ TRACTORS BUILDING”, STATION ROAD, BINA-470 113, SAGAR DIST, MADHYA PRADESH",07580-224016/17/18,BINA,SAGAR,MADHYA PRADESH
INDB0000450,Indusind Bank Ltd,INDB0000450,400234036,DOMBIVALI,"GROUND FLOOR, SHOP NO 1- 5, “ SIMRAN ELEGANCE”, TANDAN ROAD, RAM NAGAR, DOMBIVALI-E- 421 201, THANE DIST, MAHARASHTRA","0251-2860512 / 13, 2860581
",DOMBIVLI,THANE,MAHARASHTRA
INDB0000460,Indusind Bank Ltd,INDB0000460,781234152,BARPETA ROAD,"1ST FLOOR, STATION ROAD, BARPETA ROAD, 
DIST- BARPETA- 781 315, ASSAM
",03666- 261009 / 10 / 11,BARPETA ROAD,BARPETA,ASSAM
INDB0000462,Indusind Bank Ltd,INDB0000462,0,JORETHANG,"GROUND FLOOR, 1ST STREET, NEAR FOUNTAIN, JORETHANG, SOUTH SIKKIM DIST - 737 121, SIKKIM","03595 - 257701, 257702, 257710
",JORETHANG,SOUTH SIKKIM,SIKKIM
INDB0000466,Indusind Bank Ltd,INDB0000466,0,ISRANA,"GROUND FLOOR, SHOP NO 82 & 83, WAKA MOTI MANDI, ISRANA- 132107, DIST: PANIPAT , HARYANA",0180-2579102/ 103/ 104,ISRANA,PANIPAT,HARYANA
INDB0000469,Indusind Bank Ltd,INDB0000469,0,ANDAR,"FIRST FLOOR, ASAON ROAD, NEAR POLICE STATION, ANDAR- 841 231, SIWAN DIST, BIHAR ","06154- 284058 / 284059 / 284060
",ANDAR,SIWAN,BIHAR
INDB0000404,Indusind Bank Ltd,INDB0000404,110234042,KUNDLI,"SCO NO. 30, SHOPPING COMPLEX HSIIDC, PHASE-I, KUNDLI-131028 DIST. SONEPAT (HARYANA).","0130 - 2370033, 2370050",KUNDLI,SONIPAT,HARYANA
INDB0000461,Indusind Bank Ltd,INDB0000461,797234002,DIMAPUR,"1ST FLOOR, N.L. ROAD(CHURCH ROAD), 
OPP. PLAZA RESTAURANT, 
DIMAPUR- 797 112, NAGALAND
","03862-234021, 234020, 234031",DIMAPUR,DIMAPUR,NAGALAND
INDB0000459,Indusind Bank Ltd,INDB0000459,206234501,SAIFAI,"GROUND FLOOR AT KHASRA NO 292, OPP. HOSPITAL, PGI ROAD, SAIFAI- 206130 (DIST: ETAWAH, U.P).","05688-276115, 276114  
",SAIFAI,ETAWAH,UTTAR PRADESH
INDB0000470,Indusind Bank Ltd,INDB0000470,400234037,"CRAWFORD MARKET, MUMBAI","GROUND FLOOR, SHOP NO 5 & 6,AHOKA SHOPPING CENTRE, G.T HOSPITAL COMPLEX, L.T. MARG, CRAWFORD MARKET, MUMBAI- 400 001, MAHARASHTRA","022- 22632125, 22632127, 22632128, 22632129, 22632126",MUMBAI,GREATER BOMBAY,MAHARASHTRA
INDB0000921,Indusind Bank Ltd,INDB0000921,,DELHI HUB,"INDUSIND BANK, GREEN PARK OFFICE, GREEN PARK, NEW DELHI - 101000",011-45209916  ,DELHI,DELHI,DELHI
INDB0000405,Indusind Bank Ltd,INDB0000405,110234038,REWARI,"BASEMENT & GROUND FLOOR, SCO NO. 2, BRASS MARKET, OPP. LIC BLDG, REWARI – 123401 (HARYANA)","01274 - 221102, 221115",REWARI,REWARI,HARYANA
INDB0000407,Indusind Bank Ltd,INDB0000407,110234040,"SADAR BAZAAR, GURGAON","GROUND FLOOR, # 646/9, OLD RAILWAY ROAD, KABIR BHAWAN CHOWK, SADAR BAZAAR, GURGAON- 122 001, HARYANA","0124 - 2300057, 2300047",GURGAON,GURGAON,HARYANA
INDB0000408,Indusind Bank Ltd,INDB0000408,110234041,"PANCHGAON, GURGAON","GROUND FLOOR , SAHU ROAD, VILLAGE FAJILUAS( PANCHGAON), TEH: MANESAR, DIST GURGAON- 122 005,HARYANA","0124 - 2164757, 2164758 ",PACHGAON,GURGAON,HARYANA
INDB0000416,Indusind Bank Ltd,INDB0000416,442234102,CHANDRAPUR,"GROUND FLOOR “ZANZARI COMPLEX”,  SARAF MARKET, ZILA PARISHAD ROAD, CHANDRAPUR-442402, MAHARASTHRA",07172 - 272321-25,CHANDRAPUR,CHANDRAPUR,MAHARASHTRA
INDB0000471,Indusind Bank Ltd,INDB0000471,283234102,JAMALPUR,"PROPERTY NO 74, GROUND FLOOR , KHASRA NO 87, VILLAGE JAMALPUR, DISTRICT FIROZABAD, UTTAR PRADESH- 283 203",8795839003,JAMALPUR,FIROZABAD,UTTAR PRADESH
INDB0000472,Indusind Bank Ltd,INDB0000472, 282234501,SIKRI HISSA IV,"SIKRI HISSA IV, POST FATEHPUR SIKRI, BLOCK FATEHPUR SIKRI, TEHSIL KIRAWALI – 283110 (UP).",8795839004,SIKRI HISSA IV,AGRA,UTTAR PRADESH
INDB0000473,Indusind Bank Ltd,INDB0000473,,BADJHIRI,"GROUND FLOOR, KHASRA NO. 207, VILLAGE: BADJHIRI, MAIN ROAD, POST: JHAGARIYA KHURD, PS: RATIBAD, BLOCK- PHANDA, TEH: HUZUR, DIST: BHOPAL, MADHYA PRADESH- 462 044",7509333356,BADJHIRI,BHOPAL,MADHYA PRADESH
INDB0000474,Indusind Bank Ltd,INDB0000474,206234002,SIRSA- ETAWAH,"GROUND FLOOR, PROPERTY NO. 36, KHASRA NO. 378, VILLAGE SIRSA, BLOCK BASREHAR, TEHSIL AND DISTT ETAWAH, UTTAR PRADESH-  206123",8795839001,SIRSA ETAWAH,ETAWAH,UTTAR PRADESH
INDB0000475,Indusind Bank Ltd,INDB0000475,206234502,KUNDOL,"GROUND FLOOR, VILLAGE, KUNDOL, POST: BACHEDI, TEH: CHAKAR NAGAR, DIST: ETAWAH, UTTAR PRADESH- 206125",8795839002,KUNDOL,ETAWAH,UTTAR PRADESH
INDB0000476,Indusind Bank Ltd,INDB0000476,,DIWANGUNJ,"GROUND FLOOR, KHASRA NO 148/3/2, VILLAGE: DEWANGANJ, FACTORY CHAWRAHA, PH NO 4, TEH & DIST: RAISEN,BLOCK- SANCHI, PS: SALAMATPUR, MADHYA PRADESH- 464 651",7509333350,DIWANGANJ,RAISEN,MADHYA PRADESH
INDB0000481,Indusind Bank Ltd,INDB0000481,,BILADI,"HOUSE NO.467, PATWARI HAL NO.7, VILLAGE: BILADI, TEHSIL TILDA, P.S. TILDA, DIST. RAIPUR, PIN-493114, CHATTISGARH",8518883215,BILADI,RAIPUR,CHHATTISGARH
INDB0000482,Indusind Bank Ltd,INDB0000482,,BANSANKARA,"HOUSE NO-57, PATWARI HAL NO- 12, TEHSIL- SIMGA, PS & PO- BANSANKARA, DISTRICT- RAIPUR, PIN- 492101, CHHATISGARH",8518883216,BANSANKRA,RAIPUR,CHHATTISGARH
INDB0000483,Indusind Bank Ltd,INDB0000483,,KHARAMAU,"GROUND FLOOR, LAKMI NARAYAN VIDHYALA,  VILLAGE: KHANDAMAU, PO PIHANI, DIST: KANPUR- 209 202, UTTAR PRADESH",8795839005,KHARAMAU,KANPUR NAGAR,UTTAR PRADESH
INDB0000484,Indusind Bank Ltd,INDB0000484,243234501,TANDA SADAT,"GROUND FLOOR, KHASRA NO 560(OLD) 1138 & 1139
 ( NEW NO), GRAM: TANDA- SADAT, PO: SETHAL, TEH: NAWABGANJ, BAREILLY DIST, UTTAR PRADESH- 262 407",8795839010,TANDA SADAT,BAREILLY,UTTAR PRADESH
INDB0000485,Indusind Bank Ltd,INDB0000485,,KHURERI,"GROUND FLOOR,SURVEY NO 442, VILLAGE: KHURERI , KHURERI MAIN ROAD,BLOCK- MORAR, DIST: GWALIOR, MADHYA PRADESH, PIN CODE-474 006",7509333364,KHURERI,GWALIOR,MADHYA PRADESH
INDB0000486,Indusind Bank Ltd,INDB0000486,,RAIROO,"GROUND FLOOR,SURVEY NO 1622, VILLAGE: RAIROO ,  
NEAR MATA MANDIRAB ROAD, NEAR MATA MANDIR, BLOCK- BARAI, PS: PURANI CHHAWANI,, DIST: GWALIOR, MADHYA PRADESH, PIN CODE-474010",7509333362,RAIRU,GWALIOR,MADHYA PRADESH
INDB0000487,Indusind Bank Ltd,INDB0000487,,SIROL,"GROUND FLOOR,SURVEY NO 151-1, SIROL GRAM PANCHAYAT LIMITS,  BLOCK- MORAR, DIST: GWALIOR, MADHYA PRADESH, PIN CODE- 474006",7509333361,SIROL,GWALIOR,MADHYA PRADESH
INDB0000489,Indusind Bank Ltd,INDB0000489,,SIMGA,"GROUND FLOOR, HOUSE NO 1015/1 & 1017/1, R.B. ROAD, APPU CHOWK, VILLAGE SIMGA, BLOCK: BHATAPARA DIST: RAIPUR, CHHATISGARH – 493101","• 07726-274310
• 07726-274311
• 07726-274312 (FAX)
",BHATAPARA,RAIPUR,CHHATTISGARH
INDB0000495,Indusind Bank Ltd,INDB0000495,,CHITORA,"GROUND FLOOR #409, VILLAGE: CHITAURA, PO: CHITAURA, BLOCK: SHAMSHABAD, TEHSIL- FATEHABAD, DIST: AGRA, UTTAR PRADESH-283125",8795839006,CHITAURA,AGRA,UTTAR PRADESH
INDB0000498,Indusind Bank Ltd,INDB0000498,,KENDRI,"GROUND FLOOR, KHASRA NO.581/21 VILL. KENDRI TAUHSIL ABHANPUR, PIN-493661 DIST. RAIPUR, CHATTISGARH",8518883217,KENDRI,RAIPUR,CHHATTISGARH
INDB0000499,Indusind Bank Ltd,INDB0000499,,DHANORA,"GROUND FLOOR, KHASRA NO 744, VILLAGE: DHANORA, PO: HANODA, TEH& DIST: DURG- 491 001, CHHATISGARH",8518883218,DHANORA,DURG,CHHATTISGARH
INDB0000501,Indusind Bank Ltd,INDB0000501,,TALAWALI CHANDA,"GROUND FLOOR, SURVEY NO. 141, VILLAGE TALAWALI CHANDA, POST MANGLIA, TEH & DIST. INDORE- 453771, MADHYA PRADESH
",7509333325,TALAWALI CHANDA,INDORE,MADHYA PRADESH
INDB0000502,Indusind Bank Ltd,INDB0000502,,KOLUKHEDI,"GROUND FLOOR, KHASRA NO 200, RAJASYA NIRMAN MA 04, VILLAGE- KOLUKHEDI, BLOCK: PHANDA, DIST: BHOPAL- 462 030, M.P",7509333365,"KOLUKHEDI, BHOPAL ",BHOPAL,MADHYA PRADESH
INDB0000505,Indusind Bank Ltd,INDB0000505,,KURANA,"GROUND FLOOR, KHASRA NO 70/2/1/1/KA & 5/KA VILLAGE: KURANA, BLOCK: PHANDA PS: PARWADIYA SADAK, TEH: HUZUR, DIST: BHOPAL- 462 036, M.P
",7509333345,KURANA,BHOPAL,MADHYA PRADESH
INDB0000508,Indusind Bank Ltd,INDB0000508,,PAIKRAMAU,"UPPER GROUND FLOOR, KURSI ROAD, VILLAGE: PAIKRAMAU, 
PO: BEHTA, PS: GUDAMBA, TEH: BAKSHI KA TALAB, DIST: LUCKNOW-226 026, UP",8795839009,BAKSHI-KA-TALAB,LUCKNOW,UTTAR PRADESH
INDB0000509,Indusind Bank Ltd,INDB0000509,,SUKHA,"GROUND FLOOR, KHASRA 284, VILLAGE SUKHA, PO: SUKHA, 
TEHSIL- PANAGAR, PATAN ROAD, DIST: JABALPUR, MADHYA PRADESH-482 002.
",7509333360,PATAN,JABALPUR,MADHYA PRADESH
INDB0000464,Indusind Bank Ltd,INDB0000464,132234103,NIGDHU,"GROUND FLOOR, NILOKHERI DHAND ROAD, MAIN CHOWK,NIGDHU-132157, DIST: KARNAL HARYANA",01745 – 267003 / 267004 / 267005                        ,NIGDHU,KARNAL,HARYANA
INDB0000465,Indusind Bank Ltd,INDB0000465,133234002,DHAKOLA,"GROUND FLOOR, HOUSE NO 253, SHAHBAD ROAD, VILLAGE & PO: DHAKOLA-  133 104, SAHA, DIST:AMBALA, HARYANA",0171 – 2822177 / 2822277 / 2822377                  ,DHAKOLA,AMBALA,HARYANA
INDB0000468,Indusind Bank Ltd,INDB0000468,135234002,CHHACHHRAULI,"GROUND & FIRST FLOOR, DEEP MARKET, CHHACHHRAULI , 135103, DIST: YAMUNA NAGAR, HARYANA",01735 – 276101 / 102 / 103,CHHACHHRAULI,YAMUNANAGAR,HARYANA
INDB0005018,Indusind Bank Ltd,INDB0005018,,PORTFOLIO INVESTMENT SCHEME TEAM,"INDUSIND BANK LIMITED,BUILDING NO. 9, 6TH FLOOR, SOLITAIRE CORPORATE PARK, 167,GURU HARGOVINDJI MARG, ANDHERI ( E), MUMBAI – 400093","022-67728737, 66412200",MUMBAI,GREATER BOMBAY,MAHARASHTRA