ID,BANK,IFSC_CODE,MICR_CODE,BRANCH_NAME,ADDRESS,CONTACT,CITY,DISTRICT,STATE
TMBL0000001,Tamil Nadu Mercantile Bank,TMBL0000001,,THOOTHUKUDI MAIN,"56 & 57 BEACH ROAD, TUTICORIN-628001 TAMILNADU",044-28131091/92  EMAIL- RTGS@TNMBONLINE.COM,TUTICORIN,THOOTHKUDI,DELHI
TMBL0000002,Tamil Nadu Mercantile Bank,TMBL0000002,625060002,MADURAI MAIN.,"51, EAST AVANI MOOLA STREET, MADURAI-625001 TAMILNADU",044-28131091/92  EMAIL- RTGS@TNMBONLINE.COM,MADURAI,MADURAI,TAMIL NADU
TMBL0000003,Tamil Nadu Mercantile Bank,TMBL0000003,,SIVAKASI,"1-2-1 SUVISESHAMUTHU VATHYAR STREET, SIVAKASI-626123 TAMILNADU",044-28131091/92  EMAIL- RTGS@TNMBONLINE.COM,SIVAKASI,VIRUDHUNAGAR,TAMIL NADU
TMBL0000004,Tamil Nadu Mercantile Bank,TMBL0000004,,VIRUDHUNAGAR,"129-A, MADURAI ROAD, VIRUDHUNAGAR-626001 TAMILNADU",044-28131091/92  EMAIL- RTGS@TNMBONLINE.COM,MADURAI,MADURAI,TAMIL NADU
TMBL0000005,Tamil Nadu Mercantile Bank,TMBL0000005,,NAGERCOIL,"229-A, CHARLES MILLER STREET, COLLEGE ROAD, NAGERCOIL-629001 TAMILNADU",044-28131091/92  EMAIL- RTGS@TNMBONLINE.COM,NAGERCOIL,KANNIYAKUMARI,TAMIL NADU
TMBL0000006,Tamil Nadu Mercantile Bank,TMBL0000006,,DINDIGUL,"SALAI ROAD, DINDIGUL-624001 TAMILNADU",044-28131091/92  EMAIL- RTGS@TNMBONLINE.COM,DINDIGUL,DINDIGUL,TAMIL NADU
TMBL0000007,Tamil Nadu Mercantile Bank,TMBL0000007,,THENI,"1084-A,PERIYAKULAM ROAD, THENI-626531 TAMILNADU",044-28131091/92  EMAIL- RTGS@TNMBONLINE.COM,PERIYAKULAM,THENI,TAMIL NADU
TMBL0000008,Tamil Nadu Mercantile Bank,TMBL0000008,600060005,CHENNAI-21,"20,GOLLAWAR AGRAHARAM ROAD, OLD WASHERMENPET, CHENNAI-600021 TAMILNADU",044-28131091/92  EMAIL- RTGS@TNMBONLINE.COM,CHENNAI,CHENNAI,TAMIL NADU
TMBL0000009,Tamil Nadu Mercantile Bank,TMBL0000009,,VILATHIKULAM,"10/21/A1, ETTAYAPURAM ROAD, VILATHIKULAM-628907 TAMILNADU",044-28131091/92  EMAIL- RTGS@TNMBONLINE.COM,VILATHIKULAM,THOOTHKUDI,TAMIL NADU
TMBL0000010,Tamil Nadu Mercantile Bank,TMBL0000010,,MUHAVOOR,"3-MAIN ROAD, MUHAVOOR-626111 TAMILNADU",044-28131091/92  EMAIL- RTGS@TNMBONLINE.COM,MUHAVOOR,VIRUDHUNAGAR,TAMIL NADU
TMBL0000011,Tamil Nadu Mercantile Bank,TMBL0000011,,KAMUTHI,"26,MUTHUKULATHUR ROAD, KAMUTHI, TAMILNADU",044-28131091/92  EMAIL- RTGS@TNMBONLINE.COM,KAMUTHI(KAMUDI),RAMANATHAPURAM,TAMIL NADU
TMBL0000012,Tamil Nadu Mercantile Bank,TMBL0000012,,PAVOORCHATRAM,"5-10-108, MAIN ROAD, PAVOORCHATRAM-627808 TAMILNADU",044-28131091/92  EMAIL- RTGS@TNMBONLINE.COM,TIRUNELVELI,TIRUNELVELI,TAMIL NADU
TMBL0000013,Tamil Nadu Mercantile Bank,TMBL0000013,,PUTHIAMPUTHUR,"12/4D/1,MELAMADAM, PUTHIAMPUTHUR-628402 TAMILNADU",044-28131091/92  EMAIL- RTGS@TNMBONLINE.COM,PUTHIAMPUTHUR,THOOTHKUDI,TAMIL NADU
TMBL0000014,Tamil Nadu Mercantile Bank,TMBL0000014,,RAJAKKAMANGALAM,"4-34 G, NAGERCOIL-COLACHAL ROAD, RAJAKKAMANGALAM-629502 TAMILNADU",044-28131091/92  EMAIL- RTGS@TNMBONLINE.COM,RAJAKKAMANGALAM,KANNIYAKUMARI,TAMIL NADU
TMBL0000015,Tamil Nadu Mercantile Bank,TMBL0000015,625060005,NAGAMALAI PUDUKOTTAI,"5/69-A, THENI MAIN ROAD, NAGAMALAI PUTHUKOTTAI-625019 TAMILNADU",044-28131091/92  EMAIL- RTGS@TNMBONLINE.COM,MADURAI,MADURAI,TAMIL NADU
TMBL0000016,Tamil Nadu Mercantile Bank,TMBL0000016,641060002,COIMBATORE-MAIN,"122,BIG BAZAR STREET, COIMBATORE-641001 TAMILNADU",044-28131091/92  EMAIL- RTGS@TNMBONLINE.COM,COIMBATORE,COIMBOTORE,TAMIL NADU
TMBL0000017,Tamil Nadu Mercantile Bank,TMBL0000017,,PUDUR,"25-B, ANNA NEDUNSALAI, PUDUR-628905 TAMILNADU",044-28131091/92  EMAIL- RTGS@TNMBONLINE.COM,PUDUR,THOOTHKUDI,TAMIL NADU
TMBL0000018,Tamil Nadu Mercantile Bank,TMBL0000018,,ANJUGRAMAM,"7/31, MAIN ROAD, ANJUGRAMAM-629401 TAMILNADU",044-28131091/92  EMAIL- RTGS@TNMBONLINE.COM,NAGERCOIL,KANNIYAKUMARI,TAMIL NADU
TMBL0000019,Tamil Nadu Mercantile Bank,TMBL0000019,620060002,TRICHY,"209, PALAKKARAI MAIN ROAD, MAILAM CHANDAI, TRICHY-620008 TAMILNADU",044-28131091/92  EMAIL- RTGS@TNMBONLINE.COM,TIRUCHIRAPPALLI,TIRUCHIORAPPALLI,TAMIL NADU
TMBL0000020,Tamil Nadu Mercantile Bank,TMBL0000020,600060004,CHENNAI-GT,"194, ANNA PILLAI STREET, GEORGE TOWN, CHENNAI-600001 TAMILNADU",044-28131091/92  EMAIL- RTGS@TNMBONLINE.COM,CHENNAI,CHENNAI,TAMIL NADU
TMBL0000021,Tamil Nadu Mercantile Bank,TMBL0000021,,KOMMADIKOTTAI,"1/21, MAIN ROAD, KOMADIKOTTAI-628653 TAMILNADU",044-28131091/92  EMAIL- RTGS@TNMBONLINE.COM,KOMMADIKOTTAI,THOOTHKUDI,TAMIL NADU
TMBL0000022,Tamil Nadu Mercantile Bank,TMBL0000022,,MEGNANAPURAM,"4/111, TIRUCHENDUR ROAD, MEGNANAPURAM-628210 TAMILNADU",044-28131091/92  EMAIL- RTGS@TNMBONLINE.COM,MEGNANAPURAM,THOOTHKUDI,TAMIL NADU
TMBL0000023,Tamil Nadu Mercantile Bank,TMBL0000023,,YERCAUD,"30-27A, MC MOHAN ROAD, YERCAUD-636601 TAMILNADU",044-28131091/92  EMAIL- RTGS@TNMBONLINE.COM,YERCAUD,SALEM,TAMIL NADU
TMBL0000024,Tamil Nadu Mercantile Bank,TMBL0000024,,KAYAMOZHI,"5/105-B,MAIN ROAD, KAYAMOZHI-628205 TAMILNADU",044-28131091/92  EMAIL- RTGS@TNMBONLINE.COM,KAYAMOZHI,THOOTHKUDI,TAMIL NADU
TMBL0000025,Tamil Nadu Mercantile Bank,TMBL0000025,,TIRUNELVELI,"25D, SWAMY NELLAIYAPPAR HIGH ROAD, TIRUNELVELI-627001 TAMILNADU",044-28131091/92  EMAIL- RTGS@TNMBONLINE.COM,TIRUNELVELI,TIRUNELVELI,TAMIL NADU
TMBL0000026,Tamil Nadu Mercantile Bank,TMBL0000026,,THALAKKULAM,"16/6-P, NAGERCOIL MAIN ROAD, THALAKKULAM-629802 TAMILNADU",044-28131091/92  EMAIL- RTGS@TNMBONLINE.COM,THALAKKULAM,KANNIYAKUMARI,TAMIL NADU
TMBL0000027,Tamil Nadu Mercantile Bank,TMBL0000027,,MULLAKKADU,"TIRUCHENDUR MAIN ROAD, MULLAKKADU-628005 TAMILNADU",044-28131091/92  EMAIL- RTGS@TNMBONLINE.COM,MULLAKKADU,THOOTHKUDI,TAMIL NADU
TMBL0000028,Tamil Nadu Mercantile Bank,TMBL0000028,636060002,SALEM,"126,FORT MAIN ROAD, SHEVAPET, SALEM-636002 TAMILNADU",044-28131091/92  EMAIL- RTGS@TNMBONLINE.COM,SALEM,SALEM,TAMIL NADU
TMBL0000029,Tamil Nadu Mercantile Bank,TMBL0000029,,RADHAPURAM,"15,SOUTH CAR STREET, RADHAPURAM-627111 TAMILNADU",044-28131091/92  EMAIL- RTGS@TNMBONLINE.COM,RADHAPURAM,TIRUNELVELI,TAMIL NADU
TMBL0000030,Tamil Nadu Mercantile Bank,TMBL0000030,,TISAIYANVILAI,"44A,ARPUTHA VINAYAGAR KOIL STREET, TISAYANVILAI-627657",044-28131091/92  EMAIL- RTGS@TNMBONLINE.COM,TISAIYANVILLAI,TIRUNELVELI,TAMIL NADU
TMBL0000031,Tamil Nadu Mercantile Bank,TMBL0000031,,T.KALLIKULAM,"26-A/5, ST.ANTONY'S WEST CAR STREET, T.KALLIKULAM-627113 TAMILNADU",044-28131091/92  EMAIL- RTGS@TNMBONLINE.COM,VALLIOOR,TIRUNELVELI,TAMIL NADU
TMBL0000032,Tamil Nadu Mercantile Bank,TMBL0000032,,VELLORE,"7,MUNDY STREET, VELLORE-632004 TAMILNADU",044-28131091/92  EMAIL- RTGS@TNMBONLINE.COM,VELLORE,VELLORE,TAMIL NADU
TMBL0000033,Tamil Nadu Mercantile Bank,TMBL0000033,,ELAYIRAMPANNAI,"9/32A, SATTUR MAIN ROAD, ELAYIRAMPANNAI-626201 TAMILNADU",044-28131091/92  EMAIL- RTGS@TNMBONLINE.COM,ELAYIRAMPANNAI,VIRUDHUNAGAR,TAMIL NADU
TMBL0000034,Tamil Nadu Mercantile Bank,TMBL0000034,,KOVILPATTI,"794, MAIN ROAD, KOVILPATTI-628501 TAMILNADU",044-28131091/92  EMAIL- RTGS@TNMBONLINE.COM,KOVILPATTI,THOOTHKUDI,TAMIL NADU
TMBL0000035,Tamil Nadu Mercantile Bank,TMBL0000035,,PUDUKOTTAI,"4/26-A, MAIN ROAD, PUDUKOTTAI-628103 TUTICORIN DIST, TAMILNADU",044-28131091/92  EMAIL- RTGS@TNMBONLINE.COM,PUDUKOTTAI,THOOTHKUDI,TAMIL NADU
TMBL0000036,Tamil Nadu Mercantile Bank,TMBL0000036,638060002,ERODE,"260,EASWARAN KOIL STREET, ERODE-638001 TAMILNADU",044-28131091/92  EMAIL- RTGS@TNMBONLINE.COM,ERODE,ERODE,TAMIL NADU
TMBL0000037,Tamil Nadu Mercantile Bank,TMBL0000037,,KUMBAKONAM,"63,NAGESWARAN NORTH STREET, KUMBAKONAM-612001 TAMILNADU",044-28131091/92  EMAIL- RTGS@TNMBONLINE.COM,KUMBAKONAM,THANJAVUR,TAMIL NADU
TMBL0000038,Tamil Nadu Mercantile Bank,TMBL0000038,,ARUPPUKOTTAI,"25,VIRUDHUNAGAR ROAD, ARUPPUKOTTAI-626101 TAMILNADU",044-28131091/92  EMAIL- RTGS@TNMBONLINE.COM,ARUPPUKOTTAI,VIRUDHUNAGAR,TAMIL NADU
TMBL0000039,Tamil Nadu Mercantile Bank,TMBL0000039,,KALLOORANI,"2-111/B, MAIN ROAD, KALLOORANI-626105 TAMILNADU",044-28131091/92  EMAIL- RTGS@TNMBONLINE.COM,KALLOORANI,VIRUDHUNAGAR,TAMIL NADU
TMBL0000040,Tamil Nadu Mercantile Bank,TMBL0000040,,ALANGULAM,"549A,TENKASI MAIN ROAD, ALANGULAM-627851 TAMILNADU",044-28131091/92  EMAIL- RTGS@TNMBONLINE.COM,ALANGULAM,TIRUNELVELI,TAMIL NADU
TMBL0000041,Tamil Nadu Mercantile Bank,TMBL0000041,,BOMMIDI,"15,SALEM MAIN ROAD, BOMMIDI-635301 TAMILNADU",044-28131091/92  EMAIL- RTGS@TNMBONLINE.COM,BOMMIDI,DHARMAPURI,TAMIL NADU
TMBL0000042,Tamil Nadu Mercantile Bank,TMBL0000042,,THICKANAMCODE,"6/19D, KARINGAL ROAD, THICKANAMCODE-629804 TAMILNADU",044-28131091/92  EMAIL- RTGS@TNMBONLINE.COM,THIKKANAMCODE,KANNIYAKUMARI,TAMIL NADU
TMBL0000043,Tamil Nadu Mercantile Bank,TMBL0000043,,THIRUVARUR,"130-131, PALLIVASAL STREET, THIRUVARUR-610001 TAMILNADU",044-28131091/92  EMAIL- RTGS@TNMBONLINE.COM,TIRUVARUR,TIRUVARUR,TAMIL NADU
TMBL0000044,Tamil Nadu Mercantile Bank,TMBL0000044,560060002,BANGALORE CITY,"19-F, B.V.K.IYENGAR ROAD, BANGALORE-560009 KARNATAKA",044-28131091/92  EMAIL- RTGS@TNMBONLINE.COM,BANGALORE,BANGALORE URBAN,KARNATAKA
TMBL0000045,Tamil Nadu Mercantile Bank,TMBL0000045,,VILLUPURAM,"13, KANYA KULAM ROAD, VILLUPURAM-605602 TAMILNADU",044-28131091/92  EMAIL- RTGS@TNMBONLINE.COM,VILLUPURAM,VILLUPURAM,TAMIL NADU
TMBL0000046,Tamil Nadu Mercantile Bank,TMBL0000046,,PALLIYADI,"24/14F, SUGANTHAM BUILDING, PALLIYADI-629169 TAMILNADU",044-28131091/92  EMAIL- RTGS@TNMBONLINE.COM,PALLIYADI,KANNIYAKUMARI,TAMIL NADU
TMBL0000047,Tamil Nadu Mercantile Bank,TMBL0000047,,VERKIZHAMBI,"CHANIVILLAI, VERKIZHAMBI-629166 TAMILNADU",044-28131091/92  EMAIL- RTGS@TNMBONLINE.COM,VERKIZHAMBI,KANNIYAKUMARI,TAMIL NADU
TMBL0000048,Tamil Nadu Mercantile Bank,TMBL0000048,,CHINNAMANUR,CHINNAMANUR-625515 TAMILNADU,044-28131091/92  EMAIL- RTGS@TNMBONLINE.COM,CHINNAMANUR,THENI,TAMIL NADU
TMBL0000049,Tamil Nadu Mercantile Bank,TMBL0000049,,COLACHEL,"30-5-B, MAIN ROAD, COLACHEL-629251 TAMILNADU",044-28131091/92  EMAIL- RTGS@TNMBONLINE.COM,COLACHEL,KANNIYAKUMARI,TAMIL NADU
TMBL0000050,Tamil Nadu Mercantile Bank,TMBL0000050,,AGASTHEESWARAM,"12-7-B, COLLEGE ROAD, AGASTHEESWARAM-629701 TAMILNADU",044-28131091/92  EMAIL- RTGS@TNMBONLINE.COM,AGASTEESWARAM,KANNIYAKUMARI,TAMIL NADU
TMBL0000051,Tamil Nadu Mercantile Bank,TMBL0000051,,ERIYODU,"2-1-96-F, AYYALUR ROAD, ERIYODU-624702 TAMILNADU",044-28131091/92  EMAIL- RTGS@TNMBONLINE.COM,ERIODU,DINDIGUL,TAMIL NADU
TMBL0000052,Tamil Nadu Mercantile Bank,TMBL0000052,,SAYALKUDI,"10-288-A, KANYAKUMARI ROAD. SAYALKUDI-623120 TAMILNADU",044-28131091/92  EMAIL- RTGS@TNMBONLINE.COM,SAYALKUDI,RAMANATHAPURAM,TAMIL NADU
TMBL0000053,Tamil Nadu Mercantile Bank,TMBL0000053,,SIRUTHONDANALLUR,"10-50-B, ERAL-SAWYERPURAM MAIN ROAD, SRUTHONDANALLURI-628802 TAMILNADU",044-28131091/92  EMAIL- RTGS@TNMBONLINE.COM,SIRUTHONDANALLUR,THOOTHKUDI,TAMIL NADU
TMBL0000054,Tamil Nadu Mercantile Bank,TMBL0000054,,PRAHASAPURAM,"32-A, EAST RAILWAY GATE ROAD, PRAHASAPURAM-628617 TAMILNADU",044-28131091/92  EMAIL- RTGS@TNMBONLINE.COM,PRAHASAPURAM,THOOTHKUDI,TAMIL NADU
TMBL0000055,Tamil Nadu Mercantile Bank,TMBL0000055,600060003,CHENNAI-T.NAGAR,"25, VENKATNARAYANA ROAD, T.NAGAR, CHENNAI-600017 TAMILNADU",044-28131091/92  EMAIL- RTGS@TNMBONLINE.COM,CHENNAI,CHENNAI,TAMIL NADU
TMBL0000056,Tamil Nadu Mercantile Bank,TMBL0000056,,RAYAGIRI,"177, GANDHI STREET, RAYAGIRI-627764 TAMILNADU",044-28131091/92  EMAIL- RTGS@TNMBONLINE.COM,RAYAGIRI,TIRUNELVELI,TAMIL NADU
TMBL0000057,Tamil Nadu Mercantile Bank,TMBL0000057,,KANJAMPURAM,"22/4-C, NITHIRAVILAI JUNCTION, KANJAMPURAM-629154 TAMILNADU",044-28131091/92  EMAIL- RTGS@TNMBONLINE.COM,KANJAMPURAM,KANNIYAKUMARI,TAMIL NADU
TMBL0000058,Tamil Nadu Mercantile Bank,TMBL0000058,641060004,PODANUR,"127-A, CHURCH ROAD, PODANUR-641023 TAMILNADU",044-28131091/92  EMAIL- RTGS@TNMBONLINE.COM,PODANUR,COIMBOTORE,TAMIL NADU
TMBL0000059,Tamil Nadu Mercantile Bank,TMBL0000059,641060005,KUMARAPALAYAM PUTHUR,"366-D, PERUR MAIN ROAD, SELVAPURAM, KUMARAPALAYAM PUTHUR-641026 TAMILNADU",044-28131091/92  EMAIL- RTGS@TNMBONLINE.COM,KUMARAPALAYAM PUTHUR,COIMBOTORE,TAMIL NADU
TMBL0000060,Tamil Nadu Mercantile Bank,TMBL0000060,636060003,KANNANKURICHI,"4-80, YERCAUD MAIN ROAD, KANNANKURICHI, SALEM-636008 TAMILNADU",044-28131091/92  EMAIL- RTGS@TNMBONLINE.COM,SALEM,SALEM,TAMIL NADU
TMBL0000061,Tamil Nadu Mercantile Bank,TMBL0000061,,AYYALUR,"6-S, SANDAI ROAD, AYYALUR-624001 TAMILNADU",044-28131091/92  EMAIL- RTGS@TNMBONLINE.COM,AIYALUR,DINDIGUL,TAMIL NADU
TMBL0000062,Tamil Nadu Mercantile Bank,TMBL0000062,,TIRUPURAM,"NO.T.P.4-212 PAZHAYAKADAI JUNCTION, NEYYATTINKARA(VIA) TIRUPURAM-695133 KERALA",044-28131091/92  EMAIL- RTGS@TNMBONLINE.COM,NEYYATTINKARA,TRIVANDRUM,KERALA
TMBL0000063,Tamil Nadu Mercantile Bank,TMBL0000063,,KOTTUGAL,"NEAR BALARAMAPURAM PANCHAYAT OFFICE, BALARAMAPURAM, KOTTUGAL-695501 KERALA",044-28131091/92  EMAIL- RTGS@TNMBONLINE.COM,BALARAMAPURAM,TRIVANDRUM,KERALA
TMBL0000064,Tamil Nadu Mercantile Bank,TMBL0000064,695060002,THIRUVANANTHAPURAM,"HHYS BUILDING, CHALAI, TIRUVANDRUM-695036 KERALA",044-28131091/92  EMAIL- RTGS@TNMBONLINE.COM,THIRUVANANTHAPURAM,TRIVANDRUM,KERALA
TMBL0000065,Tamil Nadu Mercantile Bank,TMBL0000065,500060002,HYDERABAD,"15-2-696, SIDDIAMBER BAZAR, KISHANGANG, HYDERABAD-500012 ANDHRA PRADESH",044-28131091/92  EMAIL- RTGS@TNMBONLINE.COM,HYDERABAD,HYDERABAD URBAN,ANDHRA PRADESH
TMBL0000066,Tamil Nadu Mercantile Bank,TMBL0000066,400060002,MUMBAI-MANDVI,"104-104 KAZI SYED STREET, GORADIA HOUSE, MUMBAI-400003 MAHARASHTRA",044-28131091/92  EMAIL- RTGS@TNMBONLINE.COM,MUMBAI,GREATER BOMBAY,MAHARASHTRA
TMBL0000067,Tamil Nadu Mercantile Bank,TMBL0000067,,THANJAVUR,"936, EAST MAIN ROAD, THANJAVUR-613001 TAMILNADU",044-28131091/92  EMAIL- RTGS@TNMBONLINE.COM,THANJAVUR,THANJAVUR,TAMIL NADU
TMBL0000068,Tamil Nadu Mercantile Bank,TMBL0000068,,SONAKANVILAI,"12 & 13, TIRUCHENDUR ROAD, AMMANPURAM, SONAKANVILAI-628201 TAMILNADU",044-28131091/92  EMAIL- RTGS@TNMBONLINE.COM,SONAKANVILAI,THOOTHKUDI,TAMIL NADU
TMBL0000069,Tamil Nadu Mercantile Bank,TMBL0000069,,ARUMANAI,"19-9-A, NEDIA SALAI, ARUMANAI-629151 TAMILNADU",044-28131091/92  EMAIL- RTGS@TNMBONLINE.COM,ARUMANAI,KANNIYAKUMARI,TAMIL NADU
TMBL0000070,Tamil Nadu Mercantile Bank,TMBL0000070,,USILAMPATTI,"14/1/148/A-8, MADURAI MAIN ROAD, USILAMPATTI-625532 TAMILNADU",044-28131091/92  EMAIL- RTGS@TNMBONLINE.COM,USILAMPATTI,MADURAI,TAMIL NADU
TMBL0000071,Tamil Nadu Mercantile Bank,TMBL0000071,,VALLALNATHI,"MAIN ROAD, GANDAMANAYAKANUR, VALLALNATHI-625517 TAMILNADU",044-28131091/92  EMAIL- RTGS@TNMBONLINE.COM,VALLALNATHI,THENI,TAMIL NADU
TMBL0000072,Tamil Nadu Mercantile Bank,TMBL0000072,,PANNAIPURAM,"MAIN ROAD, PANNAIPURAM-625524 TAMILNADU",044-28131091/92  EMAIL- RTGS@TNMBONLINE.COM,PANNAIPURAM,THENI,TAMIL NADU
TMBL0000073,Tamil Nadu Mercantile Bank,TMBL0000073,,RAJAPALAYAM,"391-TENKASI ROAD, AISHWARYA COMPLEX, RAJAPALAYAM-626117 TAMILNADU",044-28131091/92  EMAIL- RTGS@TNMBONLINE.COM,RAJAPALAIYAM,VIRUDHUNAGAR,TAMIL NADU
TMBL0000074,Tamil Nadu Mercantile Bank,TMBL0000074,520060102,GUNTUR,"24-2-49, CHAPPALAVARI STREET,RATNAM BAZAR, GUNTUR-522003 ANDHRA PRADESH",044-28131091/92  EMAIL- RTGS@TNMBONLINE.COM,GUNTUR,GUNTUR,ANDHRA PRADESH
TMBL0000075,Tamil Nadu Mercantile Bank,TMBL0000075,641060102,TIRUPUR,"6-CHIKKANNA CHETTIAR STREET, TIRUPUR-641604 TAMILNADU",044-28131091/92  EMAIL- RTGS@TNMBONLINE.COM,TIRUPUR,COIMBOTORE,TAMIL NADU
TMBL0000076,Tamil Nadu Mercantile Bank,TMBL0000076,,GULBARGA,"8-421-1, FORT ROAD, GULBARGA-585101 KARNATAKA",044-28131091/92  EMAIL- RTGS@TNMBONLINE.COM,GULBARGA,GULBERGA,KARNATAKA
TMBL0000077,Tamil Nadu Mercantile Bank,TMBL0000077,,ODAIPATTI,"6-1-113, MAIN ROAD, MELAPATTI, ODAIPATTI-625540 TAMILNADU",044-28131091/92  EMAIL- RTGS@TNMBONLINE.COM,ODAIPATTI,THENI,TAMIL NADU
TMBL0000078,Tamil Nadu Mercantile Bank,TMBL0000078,,KALLIMANDAYAM,"DHARAPURAM ROAD, KALLIMANDAYAM-624616 TAMILNADU",044-28131091/92  EMAIL- RTGS@TNMBONLINE.COM,KALLIMANDAYAM,DINDIGUL,TAMIL NADU
TMBL0000079,Tamil Nadu Mercantile Bank,TMBL0000079,,VIRALIPATTI,"4/243, MAIN ROAD, VIRALIPATTI-624202 TAMILNADU",044-28131091/92  EMAIL- RTGS@TNMBONLINE.COM,VIRALIMAYANPATTI,DINDIGUL,TAMIL NADU
TMBL0000080,Tamil Nadu Mercantile Bank,TMBL0000080,,PAVITHRAMPUTHUR,"2/128, RAJAVEETHI, PAVITHRAMPUDUR-637021 TAMILNADU",044-28131091/92  EMAIL- RTGS@TNMBONLINE.COM,PAVITHRAMPUDUR,NAMAKKAL,TAMIL NADU
TMBL0000081,Tamil Nadu Mercantile Bank,TMBL0000081,,POTTIREDDIPATTI,"7/278, PONNERI MAIN ROAD, POTTIREDDIPATTI-637013 TAMILNADU",044-28131091/92  EMAIL- RTGS@TNMBONLINE.COM,POTTIREDDIPATTI,NAMAKKAL,TAMIL NADU
TMBL0000082,Tamil Nadu Mercantile Bank,TMBL0000082,,VATTUR,"12-54/7, RAMAPURAM ROAD, MOREPALAYAM, PILLANATHAM PO. VATTUR-637205 TAMILNADU",044-28131091/92  EMAIL- RTGS@TNMBONLINE.COM,VATTUR,NAMAKKAL,TAMIL NADU
TMBL0000083,Tamil Nadu Mercantile Bank,TMBL0000083,700060002,KOLKATTA,"58-D, NETHAJI SUBAS ROAD, II FLOOR, KOLKATTA-700001 WEST BENGAL",044-28131091/92  EMAIL- RTGS@TNMBONLINE.COM,KOLKATA,KOLKATA,WEST BENGAL
TMBL0000084,Tamil Nadu Mercantile Bank,TMBL0000084,,CUDDALORE,"91/1, LAWRENCE ROAD, THIRUPPAPULIYUR, DURAI PLAZA, CUDDALORE-607002 TAMILNADU",044-28131091/92  EMAIL- RTGS@TNMBONLINE.COM,CUDDALORE,CUDDALORE,TAMIL NADU
TMBL0000085,Tamil Nadu Mercantile Bank,TMBL0000085,,GOVINDAKUDI,"2/52-B, BAZAR STREET, GOVINDAKUDI-612704 TAMILNADU",044-28131091/92  EMAIL- RTGS@TNMBONLINE.COM,GOVINDAKUDI,TIRUVARUR,TAMIL NADU
TMBL0000086,Tamil Nadu Mercantile Bank,TMBL0000086,,VENGADAMPATTI,"4/56-A, PAVOORCHATRAM ROAD, MYLAPPAPURAM, VENGADAMPATTI-627415",044-28131091/92  EMAIL- RTGS@TNMBONLINE.COM,VENGADAMPATTI,TIRUNELVELI,TAMIL NADU
TMBL0000087,Tamil Nadu Mercantile Bank,TMBL0000087,,KARUR,"60-A, NEW STREET, SUBRA TOWERS, KARUR-639001 TAMILNADU",044-28131091/92  EMAIL- RTGS@TNMBONLINE.COM,KARUR,KARUR,TAMIL NADU
TMBL0000088,Tamil Nadu Mercantile Bank,TMBL0000088,560060004,BANGALORE-CANTONMENT,"29-MAHATMA GANDHI ROAD, CANTONMENT, BANGALORE-560001 KARNATAKA",044-28131091/92  EMAIL- RTGS@TNMBONLINE.COM,BANGALORE,BANGALORE URBAN,KARNATAKA
TMBL0000089,Tamil Nadu Mercantile Bank,TMBL0000089,,PALANI,"1, SOOLAI METTU STREET, GANDHI ROAD, PALANI-624601 TAMILNADU",044-28131091/92  EMAIL- RTGS@TNMBONLINE.COM,PALANI,DINDIGUL,TAMIL NADU
TMBL0000090,Tamil Nadu Mercantile Bank,TMBL0000090,,POLLACHI,"1/18, CHELLAM TALKIES ROAD, POLLACHI-642001 TAMILNADU",044-28131091/92  EMAIL- RTGS@TNMBONLINE.COM,POLLACHI,COIMBOTORE,TAMIL NADU
TMBL0000091,Tamil Nadu Mercantile Bank,TMBL0000091,,PULIAMPATTI,"1/99-I, PALLADAM ROAD, PULIAMPATTI-642002 TAMILNADU",044-28131091/92  EMAIL- RTGS@TNMBONLINE.COM,PULIAMPATTI,COIMBOTORE,TAMIL NADU
TMBL0000092,Tamil Nadu Mercantile Bank,TMBL0000092,,EDALAKUDY,"846, CAPE ROAD, KOTTAR PO, EDALAKUDY, NAGERCOIL-629002 TAMILNADU",044-28131091/92  EMAIL- RTGS@TNMBONLINE.COM,NAGERCOIL,KANNIYAKUMARI,TAMIL NADU
TMBL0000093,Tamil Nadu Mercantile Bank,TMBL0000093,625060003,MADURAI-SIMMAKKAL,"38, NAICKER NEW STREET, SIMMAKKAL, MADURAI-625001 TAMILNADU",044-28131091/92  EMAIL- RTGS@TNMBONLINE.COM,MADURAI,MADURAI,TAMIL NADU
TMBL0000094,Tamil Nadu Mercantile Bank,TMBL0000094,,MAYILADUTHURAI,"7-A, DABEERKULAM RD,  AVAYAMBALPURAM, MAYILADUTHURAI-609001 TAMILNADU",044-28131091/92  EMAIL- RTGS@TNMBONLINE.COM,MAYURAM(MAYILADUTHURAI),NAGAPATTINAM,TAMIL NADU
TMBL0000095,Tamil Nadu Mercantile Bank,TMBL0000095,,KOLLAM,"ISWARYA LODGE BUILDING, MAIN ROAD, KOLLAM-691001 KERALA",044-28131091/92  EMAIL- RTGS@TNMBONLINE.COM,KOLLAM,KOLLAM,KERALA
TMBL0000096,Tamil Nadu Mercantile Bank,TMBL0000096,600060002,CHENNAI-MOUNT ROAD,"688-ANNA SALAI, SEETHAKATHI CHAMBERS, CHENNAI-600006",044-28131091/92  EMAIL- RTGS@TNMBONLINE.COM,CHENNAI,CHENNAI,TAMIL NADU
TMBL0000097,Tamil Nadu Mercantile Bank,TMBL0000097,520060001,VIJAYAWADA,"11-15-5, FIRST FLOOR, VINNAKOTTAVARI STREET, VIJAYAWADA-520001 ANDHRA PRADESH",044-28131091/92  EMAIL- RTGS@TNMBONLINE.COM,VIJAYAWADA,KRISHNA,ANDHRA PRADESH
TMBL0000098,Tamil Nadu Mercantile Bank,TMBL0000098,,PORALOOR,"1/46, 1/47, MAIN ROAD, ODDANCHATREM TALUK, PORALOOR-624616 TAMILNADU",044-28131091/92  EMAIL- RTGS@TNMBONLINE.COM,PORULOOR,DINDIGUL,TAMIL NADU
TMBL0000099,Tamil Nadu Mercantile Bank,TMBL0000099,,PADANTHALUMOODU,"1/17/17/44-13, TIRUVANDRUM MAIN ROAD, PADANTHALUMOODU-629194 TAMILNADU",044-28131091/92  EMAIL- RTGS@TNMBONLINE.COM,PADANTHALUMOODU,KANNIYAKUMARI,TAMIL NADU
TMBL0000100,Tamil Nadu Mercantile Bank,TMBL0000100,110060002,NEW DELHI,"384-390, LOKE BUILDING, CHANDNI CHOWK, DELHI-110006",044-28131091/92  EMAIL- RTGS@TNMBONLINE.COM,DELHI,NEW DELHI,DELHI
TMBL0000101,Tamil Nadu Mercantile Bank,TMBL0000101,575060002,MANGALORE,"20-2-237, PAVOOR COMPLEX, MISSION STREET, BUNDER, MANGALORE-575001 KARNATAKA",044-28131091/92  EMAIL- RTGS@TNMBONLINE.COM,MANGALORE,DAKSHINA KANNADA,KARNATAKA
TMBL0000102,Tamil Nadu Mercantile Bank,TMBL0000102,,MAYILADUMPARAI,"1-2/19, MAIN ROAD, MAYILADUMPARAI-625579 TAMILNADU",044-28131091/92  EMAIL- RTGS@TNMBONLINE.COM,MAYILADUMPARAI,THENI,TAMIL NADU
TMBL0000103,Tamil Nadu Mercantile Bank,TMBL0000103,,DEVATHANAPET,"51/52, MIDDLE STREET, DEVATHANAMPETTAI-604151 TAMILNADU",044-28131091/92  EMAIL- RTGS@TNMBONLINE.COM,DEVADHANAMPETTAI,VILLUPURAM,TAMIL NADU
TMBL0000104,Tamil Nadu Mercantile Bank,TMBL0000104,,KAPPUKADU,"13/61-B, MAIN ROAD, KAPPUKADU-629162 TAMILNADU",044-28131091/92  EMAIL- RTGS@TNMBONLINE.COM,KAPPIKADU,KANNIYAKUMARI,TAMIL NADU
TMBL0000105,Tamil Nadu Mercantile Bank,TMBL0000105,,KANCHEEPURAM,"52-ABC VALLAL PACHAIYAPPAN STREET, KANCHIPURAM-631501 TAMILNADU",044-28131091/92  EMAIL- RTGS@TNMBONLINE.COM,KANCHIPURAM,KANCHEEPURAM,TAMIL NADU
TMBL0000106,Tamil Nadu Mercantile Bank,TMBL0000106,,THOOTHUKUDI SOUTH BR,"283, W.G.C.ROAD, TUTICORIN-628002 TAMILNADU",044-28131091/92  EMAIL- RTGS@TNMBONLINE.COM,TUTICORIN,THOOTHKUDI,TAMIL NADU
TMBL0000107,Tamil Nadu Mercantile Bank,TMBL0000107,,NELLORE,"17/130, SRI RAJESHWARI TOWERS, NELLORE-524001 ANDHRA PRADESH",044-28131091/92  EMAIL- RTGS@TNMBONLINE.COM,NELLORE,NELLORE,ANDHRA PRADESH
TMBL0000108,Tamil Nadu Mercantile Bank,TMBL0000108,605060002,PONDICHERRY,"57, JAWAHARLAL NEHRU STREET, PONDICHERRY-605001",044-28131091/92  EMAIL- RTGS@TNMBONLINE.COM,PONDICHERRY,PONDICHERRY,PONDICHERRY
TMBL0000109,Tamil Nadu Mercantile Bank,TMBL0000109,,CHENGAVILAI,"2/78-A, CHOOZHAL, CHENGAVILAI, KOLLAMCODE PO, CHENGAVILAI-629160 TAMILNADU",044-28131091/92  EMAIL- RTGS@TNMBONLINE.COM,KOLLEMKODE,KANNIYAKUMARI,TAMIL NADU
TMBL0000110,Tamil Nadu Mercantile Bank,TMBL0000110,,VADAMALAIKURUCHI,"2/92, VADAMALAIKURICHI, VIRUDHUNAGAR (VIA), VADAMALAIKURICHI-626001 TAMILNADU",044-28131091/92  EMAIL- RTGS@TNMBONLINE.COM,VADAMALAIKURICHI,VIRUDHUNAGAR,TAMIL NADU
TMBL0000111,Tamil Nadu Mercantile Bank,TMBL0000111,,PANDARAVILAI,"5, KANDANGIAR STREET, PANNAIVILAI, PANDARAVILAI-628751 TAMILNADU",044-28131091/92  EMAIL- RTGS@TNMBONLINE.COM,ERAL,THOOTHKUDI,TAMIL NADU
TMBL0000112,Tamil Nadu Mercantile Bank,TMBL0000112,682060002,ERNAKULAM,"XL/4118, FLOWER JUNCTION, T.D.ROAD, ERNAKULAM-682035 KERALA",044-28131091/92  EMAIL- RTGS@TNMBONLINE.COM,KOCHI,ERNAKULAM,KERALA
TMBL0000113,Tamil Nadu Mercantile Bank,TMBL0000113,380060002,AHMEDABAD,"1-B, WALL STREET, ELLIS BRIDGE, AHMEDABAD-380006 GUJARAT",044-28131091/92  EMAIL- RTGS@TNMBONLINE.COM,AHMEDABAD,AHMEDABAD,GUJARAT
TMBL0000114,Tamil Nadu Mercantile Bank,TMBL0000114,,VARAGUR,"1/28, MARIAMMAN KOIL STREET, VARAGUR-637021 TAMILNADU",044-28131091/92  EMAIL- RTGS@TNMBONLINE.COM,VARAGUR,NAMAKKAL,TAMIL NADU
TMBL0000115,Tamil Nadu Mercantile Bank,TMBL0000115,,CHOCKALINGAPURAM,"W-IV/6B/92-A, MAIN ROAD, JAS BUILDING, CHOCKALINGAPURAM-625103 TAMILNADU",044-28131091/92  EMAIL- RTGS@TNMBONLINE.COM,CHOCKALINGAPURAM,MADURAI,TAMIL NADU
TMBL0000116,Tamil Nadu Mercantile Bank,TMBL0000116,,M.M.KOVILUR,"2/1E, WARD NO.1, M.M.KOVILUR-624005 TAMILNADU",044-28131091/92  EMAIL- RTGS@TNMBONLINE.COM,M.M.KOVILUR,DINDIGUL,TAMIL NADU
TMBL0000117,Tamil Nadu Mercantile Bank,TMBL0000117,400060003,VASHI - NAVI MUMBAI,"PLOT NO.179, BANKING COMPLEX BLDG. APMC MARKET, SECTOR 19 VASHI MUMBAI-400705",044-28131091/92  EMAIL- RTGS@TNMBONLINE.COM,MUMBAI,GREATER BOMBAY,MAHARASHTRA
TMBL0000118,Tamil Nadu Mercantile Bank,TMBL0000118,625060004,MADURAI-CHINTHAMANI,"74-75, KAMARAJAR SALAI, CHINTHAMANI, MADURAI-625009 TAMILNADU",044-28131091/92  EMAIL- RTGS@TNMBONLINE.COM,MADURAI,MADURAI,TAMIL NADU
TMBL0000119,Tamil Nadu Mercantile Bank,TMBL0000119,395060002,SURAT,"BOMBAY MARKET, OFFICE BUILDING COMPLEX, SURAT-395010 GUJARAT",044-28131091/92  EMAIL- RTGS@TNMBONLINE.COM,SURAT,SURAT,GUJARAT
TMBL0000120,Tamil Nadu Mercantile Bank,TMBL0000120,,RAJAMUNDRY,"33-1-10 TOWN HALL ROAD, RAJAHMUNDRY-533101 ANDHRA PRADESH",044-28131091/92  EMAIL- RTGS@TNMBONLINE.COM,RAJAHMUNDRY,EAST GODAVARI,ANDHRA PRADESH
TMBL0000121,Tamil Nadu Mercantile Bank,TMBL0000121,641060003,COIMBATORE-DR.N. ROAD,"364-DR.NANJAPPA ROAD, COIMBATORE-641018 TAMILNADU",044-28131091/92  EMAIL- RTGS@TNMBONLINE.COM,COIMBATORE,COIMBOTORE,TAMIL NADU
TMBL0000122,Tamil Nadu Mercantile Bank,TMBL0000122,673060002,KOZHIKODE,"6/1167, CHEROOTY ROAD, KOZHICODE-673032 KERALA",044-28131091/92  EMAIL- RTGS@TNMBONLINE.COM,CALICUT,KOZHIKODE,KERALA
TMBL0000123,Tamil Nadu Mercantile Bank,TMBL0000123,600060006,CHENNAI-TTK ROAD,"353.TTK ROAD, ROYAPETTAH, CHENNAI-600014 TAMILNADU",044-28131091/92  EMAIL- RTGS@TNMBONLINE.COM,CHENNAI,CHENNAI,TAMIL NADU
TMBL0000124,Tamil Nadu Mercantile Bank,TMBL0000124,,TADEPALLIGUDAM,"2-1-54, MAIN ROAD, TADEPALLIGUDAM-534101 ANDHRA PRADESH",044-28131091/92  EMAIL- RTGS@TNMBONLINE.COM,TADEPALLIGUDEM,WEST GODAVARI,ANDHRA PRADESH
TMBL0000125,Tamil Nadu Mercantile Bank,TMBL0000125,,UDUMALPET,"243-POLLACHI ROAD, UDUMALPET-642126 TAMILNADU",044-28131091/92  EMAIL- RTGS@TNMBONLINE.COM,UDUMALPET,COIMBOTORE,TAMIL NADU
TMBL0000126,Tamil Nadu Mercantile Bank,TMBL0000126,,TIRUCHENGODU,"10-SOUTH CAR STREET, TIRUCHENGODE-637211 TAMILNADU",044-28131091/92  EMAIL- RTGS@TNMBONLINE.COM,TIRUCHENGODU,NAMAKKAL,TAMIL NADU
TMBL0000127,Tamil Nadu Mercantile Bank,TMBL0000127,,KARAIKUDI,"1,KALLIKATTI EAST, KARAIKUDI-630001 TAMILNADU",044-28131091/92  EMAIL- RTGS@TNMBONLINE.COM,KARAIKUDI,SIVAGANGA,TAMIL NADU
TMBL0000128,Tamil Nadu Mercantile Bank,TMBL0000128,,PUDUKOTTAI,"2738, EAST MAIN ROAD, K.L.K.S.COMPLEX, PUTHUKOTTAI-622001, TAMILNADU",044-28131091/92  EMAIL- RTGS@TNMBONLINE.COM,PUDUKKOTTAI,PUDUKKOTTAI,TAMIL NADU
TMBL0000129,Tamil Nadu Mercantile Bank,TMBL0000129,,NAMAKKAL,"114, SALEM ROAD, K.K.P.COMPLEX, NAMAKKAL-637001 TAMILNADU",044-28131091/92  EMAIL- RTGS@TNMBONLINE.COM,NAMAKKAL,NAMAKKAL,TAMIL NADU
TMBL0000130,Tamil Nadu Mercantile Bank,TMBL0000130,,UNJHA,"6/12/35/21-24, MEENAKSHI BHAVAN, ZAVERIPARU, STATION ROAD, UNJHA-384170 GUJARAT",044-28131091/92  EMAIL- RTGS@TNMBONLINE.COM,UNJHA,PATAN,GUJARAT
TMBL0000131,Tamil Nadu Mercantile Bank,TMBL0000131,,RAMANATHAPURAM,"406/52, K.T.M.KASIM CENTRE, RAMANATHAPURAM-623501 TAMILNADU",044-28131091/92  EMAIL- RTGS@TNMBONLINE.COM,RAMANATHAPURAM,RAMANATHAPURAM,TAMIL NADU
TMBL0000132,Tamil Nadu Mercantile Bank,TMBL0000132,,SATTUR,"466-MAIN ROAD, SATTUR-626203 TAMILNADU",044-28131091/92  EMAIL- RTGS@TNMBONLINE.COM,SATTUR,VIRUDHUNAGAR,TAMIL NADU
TMBL0000133,Tamil Nadu Mercantile Bank,TMBL0000133,,CHANGANASSERY,"8/1131, DR.ALPHONZA ROAD, CHENGANACHERRY-686101 KERALA",044-28131091/92  EMAIL- RTGS@TNMBONLINE.COM,CHANGANASSERY,KOTTAYAM,KERALA
TMBL0000134,Tamil Nadu Mercantile Bank,TMBL0000134,,THIRUVANNAMALAI,"3, KRISHNAN STREET, THIRUVANNAMALAI-606601 TAMILNADU",044-28131091/92  EMAIL- RTGS@TNMBONLINE.COM,TIRUVANNAMALAI,TIRUVANNAMALAI,TAMIL NADU
TMBL0000135,Tamil Nadu Mercantile Bank,TMBL0000135,,NAGAPATTINAM,"6-NEELA SOUTH STREET, NAGAPATNAM-611001 TAMILNADU",044-28131091/92  EMAIL- RTGS@TNMBONLINE.COM,NAGAPATTINAM,NAGAPATTINAM,TAMIL NADU
TMBL0000136,Tamil Nadu Mercantile Bank,TMBL0000136,641060006,COIMBATORE-R.S.PURAM,"539-540, D.B.ROAD, R.S.PURAM, COIMBATORE-641002 TAMILNADU",044-28131091/92  EMAIL- RTGS@TNMBONLINE.COM,COIMBATORE,COIMBOTORE,TAMIL NADU
TMBL0000137,Tamil Nadu Mercantile Bank,TMBL0000137,,HASSAN,"102 TO 105, HARSHA MAHAL ROAD, HASSAN-573201 KARNATAKA",044-28131091/92  EMAIL- RTGS@TNMBONLINE.COM,HASSAN,HASSAN,KARNATAKA
TMBL0000138,Tamil Nadu Mercantile Bank,TMBL0000138,,DHARMAPURI,"61, ARUMUGA ACHARI STREET, DHARMAPURI-636701 TAMILNADU",044-28131091/92  EMAIL- RTGS@TNMBONLINE.COM,DHARMAPURI,DHARMAPURI,TAMIL NADU
TMBL0000139,Tamil Nadu Mercantile Bank,TMBL0000139,,SANKARANKOVIL,"9,SOUTH CAR STREET, SANKARANKOIL-627756 TAMILNADU",044-28131091/92  EMAIL- RTGS@TNMBONLINE.COM,SANKARANKOIL,TIRUNELVELI,TAMIL NADU
TMBL0000140,Tamil Nadu Mercantile Bank,TMBL0000140,,METTUPALAYAM,"6-1-218, OOTY MAIN ROAD, METTUPALAYAM-641301 TAMILNADU",044-28131091/92  EMAIL- RTGS@TNMBONLINE.COM,METTUPALAYAM,COIMBOTORE,TAMIL NADU
TMBL0000141,Tamil Nadu Mercantile Bank,TMBL0000141,500060003,SECUNDERABAD,"102,103&124, CHENOY TRADE CENTRE, PARK LANE, S.D.ROAD, SECUNDERABAD-500003 AP",044-28131091/92  EMAIL- RTGS@TNMBONLINE.COM,SECUNDERABAD CANTONMENT,HYDERABAD URBAN,ANDHRA PRADESH
TMBL0000142,Tamil Nadu Mercantile Bank,TMBL0000142,600060007,CHENNAI-AMINJIKARAI,"327-328, POONAMALLE HIGH ROAD, AMINJIKARAI, CHENNAI-600029 TAMILNADU",044-28131091/92  EMAIL- RTGS@TNMBONLINE.COM,CHENNAI,CHENNAI,TAMIL NADU
TMBL0000143,Tamil Nadu Mercantile Bank,TMBL0000143,,ICHALKARANJI,"122, NAVNALE GAL, NARAYAN PETH, ICHALKARANJI-416115 TAMILNADU",044-28131091/92  EMAIL- RTGS@TNMBONLINE.COM,ICHALKARNJI,KOLHAPUR,MAHARASHTRA
TMBL0000144,Tamil Nadu Mercantile Bank,TMBL0000144,,MARTHANDAM,"2/24-2, TRIVANDRUM MAIN ROAD, MARTHANDAM-629165 TAMILNADU",044-28131091/92  EMAIL- RTGS@TNMBONLINE.COM,MARTHANDAM,KANNIYAKUMARI,TAMIL NADU
TMBL0000145,Tamil Nadu Mercantile Bank,TMBL0000145,,HOSUR,"690/1, OLD BANGALORE ROAD, HOSUR-635109 TAMILNADU",044-28131091/92  EMAIL- RTGS@TNMBONLINE.COM,HOSUR,KRISHNAGIRI,TAMIL NADU
TMBL0000146,Tamil Nadu Mercantile Bank,TMBL0000146,600060008,CHENNAI-TAMBARAM,"17-SHANMUGAM STREET, TAMBARAM, CHENNAI-600045 TAMILNADU",044-28131091/92  EMAIL- RTGS@TNMBONLINE.COM,CHENNAI,CHENNAI,TAMIL NADU
TMBL0000147,Tamil Nadu Mercantile Bank,TMBL0000147,,KARAIKAL,"149, BHARATHIYAR SALAI, KARAIKAL-609602 PONDICHERRY",044-28131091/92  EMAIL- RTGS@TNMBONLINE.COM,KARAIKAL,PONDICHERRY,PONDICHERRY
TMBL0000148,Tamil Nadu Mercantile Bank,TMBL0000148,,VISAKHAPATNAM,"30-10-1, DABA GARDENS, VISAKHAPATNAM-530020 ANDHRA PRADESH",044-28131091/92  EMAIL- RTGS@TNMBONLINE.COM,VISAKHAPATNAM,VISHAKAPATNAM,ANDHRA PRADESH
TMBL0000149,Tamil Nadu Mercantile Bank,TMBL0000149,,KOTTAYAM,"9/439, BAKER JUNCTION CSI COMMERCIAL COMPLEX, KOTTAYAM-686001 KERALA",044-28131091/92  EMAIL- RTGS@TNMBONLINE.COM,KOTTAYAM,KOTTAYAM,KERALA
TMBL0000150,Tamil Nadu Mercantile Bank,TMBL0000150,390060002,VADODARA,"40-VISWAS COLONY, RC DUTT ROAD, ALKAPURI, VADODARA-390005 GUJARAT",044-28131091/92  EMAIL- RTGS@TNMBONLINE.COM,VADODARA,VADODARA,GUJARAT
TMBL0000151,Tamil Nadu Mercantile Bank,TMBL0000151,411060002,PUNE,"13, SHOLAPUR BAZAR ROAD, POLGATE, PUNE-411001 MAHARASHTRA",044-28131091/92  EMAIL- RTGS@TNMBONLINE.COM,PUNE,PUNE,MAHARASHTRA
TMBL0000152,Tamil Nadu Mercantile Bank,TMBL0000152,,PALAYAMKOTTAI,"WATER TANK ROAD, ST.JOHN'S COLLEGE CAMPUS, PALAYAMKOTTAI-627002 TAMILNADU",044-28131091/92  EMAIL- RTGS@TNMBONLINE.COM,PALAYAMKOTTAI,TIRUNELVELI,TAMIL NADU
TMBL0000153,Tamil Nadu Mercantile Bank,TMBL0000153,625060006,THIRUMANGALAM,"104, MADURAI ROAD, TIRUMANGALAM-625706 TAMILNADU",044-28131091/92  EMAIL- RTGS@TNMBONLINE.COM,TIRUMANGALAM,MADURAI,TAMIL NADU
TMBL0000154,Tamil Nadu Mercantile Bank,TMBL0000154,,SIVAGANGA,"74, NORTH RAJA STREET, SIVAGANGA-630561 TAMILNADU",044-28131091/92  EMAIL- RTGS@TNMBONLINE.COM,SIVAGANGA,SIVAGANGA,TAMIL NADU
TMBL0000155,Tamil Nadu Mercantile Bank,TMBL0000155,,CUMBUM,"293/16, ODAIKARAI STREET, CUMBUM-625516 TAMILNADU",044-28131091/92  EMAIL- RTGS@TNMBONLINE.COM,CUMBUM,THENI,TAMIL NADU
TMBL0000156,Tamil Nadu Mercantile Bank,TMBL0000156,,SIPCOT - THOOTHUKUDI,"97/H/30, PALAYAMKOTTAI ROAD, TUTICORIN-628008 TAMILNADU",044-28131091/92  EMAIL- RTGS@TNMBONLINE.COM,TUTICORIN,THOOTHKUDI,TAMIL NADU
TMBL0000157,Tamil Nadu Mercantile Bank,TMBL0000157,600060009,CHENNAI-PERAMBUR,"42, PAPER MILLS ROAD, PERAMBUR, CHENNAI-600011 TAMILNADU",044-28131091/92  EMAIL- RTGS@TNMBONLINE.COM,CHENNAI,CHENNAI,TAMIL NADU
TMBL0000158,Tamil Nadu Mercantile Bank,TMBL0000158,600060010,CHENNAI-TIRUVANMIYUR,"3, THIRUVALLUVAR SALAI, THIRUVANMIYUR, CHENNAI-600041",044-28131091/92  EMAIL- RTGS@TNMBONLINE.COM,CHENNAI,CHENNAI,TAMIL NADU
TMBL0000159,Tamil Nadu Mercantile Bank,TMBL0000159,,VALLIYOOR,"498-A, MAIN ROAD, VALLIYOOR-627117 TAMILNADU",044-28131091/92  EMAIL- RTGS@TNMBONLINE.COM,VALLIOOR,TIRUNELVELI,TAMIL NADU
TMBL0000160,Tamil Nadu Mercantile Bank,TMBL0000160,,CHENGALPATTU,"3,G.S.T.ROAD, CHENGALPATTU-603001 TAMILNADU",044-28131091/92  EMAIL- RTGS@TNMBONLINE.COM,CHENGALPATTU,KANCHEEPURAM,TAMIL NADU
TMBL0000161,Tamil Nadu Mercantile Bank,TMBL0000161,600060011,CHENNAI-ANNA NAGAR,"AC-16, II AVENUE, ANNA NAGAR WEST, CHENNAI-600040 TAMILNADU",044-28131091/92  EMAIL- RTGS@TNMBONLINE.COM,CHENNAI,CHENNAI,TAMIL NADU
TMBL0000162,Tamil Nadu Mercantile Bank,TMBL0000162,400060004,MUMBAI - ANDHERI,"UNIT NO.14, BLDG.NO.2, MITTAL INDUST. ESTATE, MAROL NAKA, ANDHERI(E), MUMBAI-400059 MH",044-28131091/92  EMAIL- RTGS@TNMBONLINE.COM,MUMBAI,GREATER BOMBAY,MAHARASHTRA
TMBL0000163,Tamil Nadu Mercantile Bank,TMBL0000163,625060007,MADURAI-TALLAKULAM,"RA-GEM PLAZA, 111-112, ALAGAR KOVIL STREET, TALLAKULAM, MADURAI-625002 TAMILNADU",044-28131091/92  EMAIL- RTGS@TNMBONLINE.COM,MADURAI,MADURAI,TAMIL NADU
TMBL0000164,Tamil Nadu Mercantile Bank,TMBL0000164,,GOBICHETTIPALAYAM,"19-A, CUTCHERI STREET, V.K.P.PLAZA, GOBICHETTIPALAYAM-638452 TAMILNADU",044-28131091/92  EMAIL- RTGS@TNMBONLINE.COM,GOBICHETTIPALAYAM,ERODE,TAMIL NADU
TMBL0000165,Tamil Nadu Mercantile Bank,TMBL0000165,600060012,CHENNAI-PURASAWALKAM,"80-93, PURASAWALKAM HIGH ROAD, PURASAWALKAM, CHENNAI-600007 TAMILNADU",044-28131091/92  EMAIL- RTGS@TNMBONLINE.COM,CHENNAI,CHENNAI,TAMIL NADU
TMBL0000166,Tamil Nadu Mercantile Bank,TMBL0000166,,THUCKALAY,"20/32-A, MAIN ROAD, THUCKALAY-629175 TAMILNADU",044-28131091/92  EMAIL- RTGS@TNMBONLINE.COM,THUCKALAI,KANNIYAKUMARI,TAMIL NADU
TMBL0000167,Tamil Nadu Mercantile Bank,TMBL0000167,,KAKINADA,"27-9-50/51, TEMPLE STREET, KAKINADA-533001 ANDHRA PRADESH",044-28131091/92  EMAIL- RTGS@TNMBONLINE.COM,KAKINADA,EAST GODAVARI,ANDHRA PRADESH
TMBL0000168,Tamil Nadu Mercantile Bank,TMBL0000168,400060005,MUMBAI - SION,"PLOT NO.43,VANDHANA SCHEME NO.6,ROAD.NO.25,SION CIRCLE(W) MUMBAI-400022 MH",044-28131091/92  EMAIL- RTGS@TNMBONLINE.COM,MUMBAI,GREATER BOMBAY,MAHARASHTRA
TMBL0000169,Tamil Nadu Mercantile Bank,TMBL0000169,,LUDHIANA,"B-XV-89, G.T.ROAD, MILLER GANJ, LUDHIANA-141003 PUNJAB",044-28131091/92  EMAIL- RTGS@TNMBONLINE.COM,LUDHIANA,LUDHIANA,PUNJAB
TMBL0000170,Tamil Nadu Mercantile Bank,TMBL0000170,,TIRUPATHI,"19-8-110, R.C.ROAD, TIRUPATHI-517501 TAMILNADU",044-28131091/92  EMAIL- RTGS@TNMBONLINE.COM,TIRUPATI,CHITTOR,ANDHRA PRADESH
TMBL0000171,Tamil Nadu Mercantile Bank,TMBL0000171,,KURNOOL,"67/86, OLD POST OFFICE ROAD, KURNOOL-518001 TAMILNADU",044-28131091/92  EMAIL- RTGS@TNMBONLINE.COM,KURNOOL,KURNOOL,ANDHRA PRADESH
TMBL0000172,Tamil Nadu Mercantile Bank,TMBL0000172,,CUTTACK,"68-69, MAIN BAZAR, BAROPATHAR, BUXI BAZAR, CUTTACK-753001 ORISSA",044-28131091/92  EMAIL- RTGS@TNMBONLINE.COM,CUTTACK,CUTTAK,ORISSA
TMBL0000173,Tamil Nadu Mercantile Bank,TMBL0000173,,GINGEE,"102-103, KRISHNA COMPLEX, VILLUPURAM ROAD, GINGEE-604202",044-28131091/92  EMAIL- RTGS@TNMBONLINE.COM,GINGEE,VILLUPURAM,TAMIL NADU
TMBL0000174,Tamil Nadu Mercantile Bank,TMBL0000174,,THOOTHUKUDI KAMARAJ COLLEGE,"KAMARAJAR COLLEGE CAMPUS TIRUCHENDUR ROAD, THOOTHUKUDI-628003 TAMILNADU",044-28131091/92  EMAIL- RTGS@TNMBONLINE.COM,TUTICORIN,THOOTHKUDI,TAMIL NADU
TMBL0000175,Tamil Nadu Mercantile Bank,TMBL0000175,,NADAR HR.SEC.SCHOOL CAMPUS,"PASUVANTHANAI ROAD, KOVILPATTI-628501 TAMILNADU",044-28131091/92  EMAIL- RTGS@TNMBONLINE.COM,KOVILPATTI,THOOTHKUDI,TAMIL NADU
TMBL0000176,Tamil Nadu Mercantile Bank,TMBL0000176,,VADAKKANKULAM,"NEHRU NATIONAL HR.SEC.SCHOOL, RAJENDRANAR ST, VADAKKANKULAM-627116",044-28131091/92  EMAIL- RTGS@TNMBONLINE.COM,RADHAPURAM,TIRUNELVELI,TAMIL NADU
TMBL0000177,Tamil Nadu Mercantile Bank,TMBL0000177,,AZHAGAPPAPURAM,"ST.ANTONY'S HR.SEC.SCHOOL, ALAGAPPAPURAM-629401",044-28131091/92  EMAIL- RTGS@TNMBONLINE.COM,AZHAGAPPAPURAM,KANNIYAKUMARI,TAMIL NADU
TMBL0000178,Tamil Nadu Mercantile Bank,TMBL0000178,,KULASEKARAM,"14-9C-1,V.P.M.HOSPITAL BLDG.PADANILAM, KULASEKARAM-629161",044-28131091/92  EMAIL- RTGS@TNMBONLINE.COM,KALKULAM,KANNIYAKUMARI,TAMIL NADU
TMBL0000179,Tamil Nadu Mercantile Bank,TMBL0000179,,PERUNDURAI,"VRV COMPLEX, 21, BHAVANI ROAD, PERUNDURAI-638052",044-28131091/92  EMAIL- RTGS@TNMBONLINE.COM,PERUNDURAI,ERODE,TAMIL NADU
TMBL0000180,Tamil Nadu Mercantile Bank,TMBL0000180,,BODINAYAKANUR,"22.PONNAMBALAM STREET, BODINAYAKANUR-625513",044-28131091/92  EMAIL- RTGS@TNMBONLINE.COM,BODINAYAKANUR,THENI,TAMIL NADU
TMBL0000181,Tamil Nadu Mercantile Bank,TMBL0000181,,PARAMAGUDI,"4/323,GANDHIJI ROAD, OPP.CO-OP MILK SOCIETY, PARAMAKUDI-623707",044-28131091/92  EMAIL- RTGS@TNMBONLINE.COM,PARAMAGUDI,RAMANATHAPURAM,TAMIL NADU
TMBL0000182,Tamil Nadu Mercantile Bank,TMBL0000182,,VRIDHACHALAM,"818,AKR COMPLEX, JUNCTION ROAD, VRIDHACHALAM-606001",044-28131091/92  EMAIL- RTGS@TNMBONLINE.COM,VRIDHACHALAM,CUDDALORE,TAMIL NADU
TMBL0000183,Tamil Nadu Mercantile Bank,TMBL0000183,,PILLAYARPURAM,"SIVANTHI ADITHANAR COLLEGE CAMPUS, MANIKATTI POTTAL (PO) PILLAYARPURAM, NAGERCOIL-629501.",044-28131091/92  EMAIL- RTGS@TNMBONLINE.COM,NAGERCOIL,KANNIYAKUMARI,TAMIL NADU
TMBL0000184,Tamil Nadu Mercantile Bank,TMBL0000184,,ARANTANGI,"32, R.H.COMPLEX, OLD HOSPITAL ROAD, ARANTHANGI-614616",044-28131091/92  EMAIL- RTGS@TNMBONLINE.COM,ARANTANGI,PUDUKKOTTAI,TAMIL NADU
TMBL0000185,Tamil Nadu Mercantile Bank,TMBL0000185,,SURANDAI,"KAMARAJAR SALAI, SURANDAI, TIRUNELVELI DIST.TAMILNADU-627859",044-28131091/92  EMAIL- RTGS@TNMBONLINE.COM,SURANDAI,TIRUNELVELI,TAMIL NADU
TMBL0000186,Tamil Nadu Mercantile Bank,TMBL0000186,311060002,BHILWARA,"PLOT NO.A1,J.S.BUILDING, PUR ROAD, BHILWARA, RAJASTHAN-311001",044-28131091/92  EMAIL- RTGS@TNMBONLINE.COM,BHILWARA,BHILWARA,RAJASTHAN
TMBL0000187,Tamil Nadu Mercantile Bank,TMBL0000187,,BHAVANI,"31-BAJANAI KOVIL STREET,BHAVANI-63830, ERODE DIST. TAMIL NADU",044-28131091/92  EMAIL- RTGS@TNMBONLINE.COM,BHAVANI,ERODE,TAMIL NADU
TMBL0000188,Tamil Nadu Mercantile Bank,TMBL0000188,,RANIPET,"35-M.P.T.ROAD, NAVALPUR,RANIPET-638024, VELLORE DIST. TAMIL NADU",044-28131091/92  EMAIL- RTGS@TNMBONLINE.COM,RANIPET,VELLORE,TAMIL NADU
TMBL0000189,Tamil Nadu Mercantile Bank,TMBL0000189,,TINDIVANAM,"28-RAJAJI STREET, TINDIVANAM-604001,VILLUPURAM DIST, TAMILNADU",044-28131091/92  EMAIL- RTGS@TNMBONLINE.COM,TINDIVANAM,VILLUPURAM,TAMIL NADU
TMBL0000190,Tamil Nadu Mercantile Bank,TMBL0000190,,NANDYAL,"RAM SAI ENCLAVE,TTD ROAD, SRINIVASA NAGAR, NANDYAL-518501, KURNOOL DIST.ANDHRA PRADESH",044-28131091/92  EMAIL- RTGS@TNMBONLINE.COM,NANDYAL,KURNOOL,ANDHRA PRADESH
TMBL0000191,Tamil Nadu Mercantile Bank,TMBL0000191,,KRISHNAGIRI,"190,BANGALORE ROAD, KRISHNAGIRI-635001, TAMILNADU",044-28131091/92  EMAIL- RTGS@TNMBONLINE.COM,KRISHNAGIRI,KRISHNAGIRI,TAMIL NADU
TMBL0000192,Tamil Nadu Mercantile Bank,TMBL0000192,395060003,SURAT RING ROAD,"ROCK FORD BUSINESS CENTRE, UDHNA DHRWAJA, RING ROAD, SURAT-395002",044-28131091/92  EMAIL- RTGS@TNMBONLINE.COM,SURAT,SURAT,GUJARAT
TMBL0000193,Tamil Nadu Mercantile Bank,TMBL0000193,,ARAKONAM,"SHOLINGUR ROAD, ARAKONAM-631001, VELLORE DIST, TAMILNADU",044-28131091/92  EMAIL- RTGS@TNMBONLINE.COM,VELLORE,VELLORE,TAMIL NADU
TMBL0000194,Tamil Nadu Mercantile Bank,TMBL0000194,,SIVAKASI A.J.COLLEGE,"A.J.COLLEGE, SRIVILLIPUTHUR MAIN ROAD, SIVAKASI-626124 TAMILNADU",044-28131091/92  EMAIL- RTGS@TNMBONLINE.COM,SIVAKASI,VIRUDHUNAGAR,TAMIL NADU
TMBL0000195,Tamil Nadu Mercantile Bank,TMBL0000195,,PANRUTI,"71,CHENNAI SALAI, PANRUTI-607106, CUDDALORE DIST. TAMILNADU",044-28131091/92  EMAIL- RTGS@TNMBONLINE.COM,PANRUTI,CUDDALORE,TAMIL NADU
TMBL0000196,Tamil Nadu Mercantile Bank,TMBL0000196,600060013,CHENNAI SHOLINGANALLUR,"125/1,IT HIGHWAY, OLD MAHABALIPURAM ROAD, SHOLINGANALLUR, KANCHEEPURAM DIST, TAMILNADU-600119",044-28131091/92  EMAIL- RTGS@TNMBONLINE.COM,SHOLINGANALLUR,KANCHEEPURAM,TAMIL NADU
TMBL0000197,Tamil Nadu Mercantile Bank,TMBL0000197,,SHENCOTTAH,"118/1,MADURAI-KOLLAM NH ROAD, PIRANOOR BORDER, SHENKOTTAI, TIRUNELVELI DIST. TAMILNADU-627809",044-28131091/92  EMAIL- RTGS@TNMBONLINE.COM,SHENCOTTAH,TIRUNELVELI,TAMIL NADU
TMBL0000198,Tamil Nadu Mercantile Bank,TMBL0000198,,PERUMANALLUR,"339.R.R.COMPLEX, KOVAI ROAD, PERUMANALLUR, COIMBATORE DIST.TAMIL NADU. PIN.641666",044-28131091/92  EMAIL- RTGS@TNMBONLINE.COM,PERUMANALLUR,COIMBOTORE,TAMIL NADU
TMBL0000199,Tamil Nadu Mercantile Bank,TMBL0000199,,RASIPURAM,"SRV LODGE BLDG., OLD BUS STAND, RASIPURAM-637408 NAMAKKAL DIST. TAMILNADU",044-28131091/92  EMAIL- RTGS@TNMBONLINE.COM,RASIPURAM,NAMAKKAL,TAMIL NADU
TMBL0000201,Tamil Nadu Mercantile Bank,TMBL0000201,,SATHYAMANGALAM,"COIMBATORE-MYSORE NH ROAD, OPP. PANCHYAT UNION OFFICE, SATHYAMANGALAM-638402 ERODE DIST. TAMILNADU",044-28131091/92  EMAIL- RTGS@TNMBONLINE.COM,SATHYAMANGALAM,ERODE,TAMIL NADU
TMBL0000202,Tamil Nadu Mercantile Bank,TMBL0000202,600060014,SRIPERUMBUDUR,"50,BANGALORE TRUNK ROAD,OPP.TO BUS STAND,KANCHEEPURAM DIST.602105",044-28131091/92  EMAIL- RTGS@TNMBONLINE.COM,SRIPERUMBUDUR,KANCHEEPURAM,TAMIL NADU
TMBL0000203,Tamil Nadu Mercantile Bank,TMBL0000203,,KUNNATHUR,"380/2-4,I-FLOOR, PERUNDURAI ROAD, KUNNATHUR, ERODE DIST.PIN-638103. TAMIL NADU",044-28131091/92  EMAIL- RTGS@TNMBONLINE.COM,KUNNATHUR,ERODE,TAMIL NADU
TMBL0000204,Tamil Nadu Mercantile Bank,TMBL0000204,600060017,POONAMALLE,"792, TRUNK ROAD, THIRUVALLUR DIST., POONAMALLEE, CHENNAI-600056",044-28131091/92  EMAIL- RTGS@TNMBONLINE.COM,POONAMALLE,TIRUVALLUR,TAMIL NADU
TMBL0000205,Tamil Nadu Mercantile Bank,TMBL0000205,600060021,VALASARAVAKKAM,"SREE PUSHPA COMPLEX, 91 KAMAKODI NAGAR, VALASARAVAKKAM, THIRUVALLUR DIST.CHENNAI-600087",044-28131091/92  EMAIL- RTGS@TNMBONLINE.COM,VALASARAVAKKAM,TIRUVALLUR,TAMIL NADU
TMBL0000206,Tamil Nadu Mercantile Bank,TMBL0000206,600060020,KOTTIVAKKAM,"1/1B, EAST COAST ROAD, KOTTIVAKKAM, CHENNAI-600041",044-28131091/92  EMAIL- RTGS@TNMBONLINE.COM,CHENNAI,CHENNAI,TAMIL NADU
TMBL0000207,Tamil Nadu Mercantile Bank,TMBL0000207,110060003,DELHI SHAHDARA,"26/22, STREET NO.12 MAIN, 60 FEET ROAD, VISHWAS NAGAR, SHAHDARA-EAST DELHI 110032",044-28131091/92  EMAIL- RTGS@TNMBONLINE.COM,DELHI,NEW DELHI,DELHI
TMBL0000208,Tamil Nadu Mercantile Bank,TMBL0000208,600060019,CHENNAI MADURAVAYAL,"SAI PRUTHVI ENCLAVE, 4/250 MMDA COLONY, FIRST STREET, THIRUVALLUR DIST, CHENNAI-600095",044-28131091/92  EMAIL- RTGS@TNMBONLINE.COM,MADURAVAYAL,TIRUVALLUR,TAMIL NADU
TMBL0000209,Tamil Nadu Mercantile Bank,TMBL0000209,600060018,THIRUVALLUR,"OLD NO.120, J.N.ROAD,THIRUVALLUR DIST CHENNAI-602001, TAMILNADU",044-28131091/92  EMAIL- RTGS@TNMBONLINE.COM,TIRUVALLUR,TIRUVALLUR,TAMIL NADU
TMBL0000210,Tamil Nadu Mercantile Bank,TMBL0000210,600060022,PALLAVARAM,"DOOR NO. 54, RAJENDRA PRASAD SALAI, CANTONMENT, PALLAVARAM, CHENNAI - 600043",044-28131091/92  EMAIL- RTGS@TNMBONLINE.COM,PALLAVARAM,KANCHEEPURAM,TAMIL NADU
TMBL0000211,Tamil Nadu Mercantile Bank,TMBL0000211,110060004,GHAZIABAD,"3N/19, NEHRU NAGAR, DR.AMBEDKAR ROAD, GHAZIABAD.UP-201001",044-28131091/92  EMAIL- RTGS@TNMBONLINE.COM,GHAZIABAD,GHAZIABAD,UTTAR PRADESH
TMBL0000212,Tamil Nadu Mercantile Bank,TMBL0000212,,GUDIYATHAM,"103-104, THALAYATHAM BAZAAR, SANTHAPET, GUDIYATHAM-632602, VELLORE DIST.",044-28131091/92  EMAIL- RTGS@TNMBONLINE.COM,GUDIYATHAM,VELLORE,TAMIL NADU
TMBL0000213,Tamil Nadu Mercantile Bank,TMBL0000213,500060004,HYDERABAD-RIKAB GUNJ,"21-7-802,803, III FLOOR, SILVER OAK PLAZA, OPP.HIGH COURT, RIKAB GUNJ, HYDERABAD-500002",044-28131091/92  EMAIL- RTGS@TNMBONLINE.COM,HYDERABAD,HYDERABAD URBAN,ANDHRA PRADESH
TMBL0000214,Tamil Nadu Mercantile Bank,TMBL0000214,400060006,MUMBAI ANDHERI (WEST),"LAXMI PLAZA, GALA NO.25-27, LAXMI INDUSTRIAL ESTATE, NEW LINK ROAD, ANDHERI (WEST), MUMBAI - 400053",044-28131091/92  EMAIL- RTGS@TNMBONLINE.COM,MUMBAI,GREATER BOMBAY,MAHARASHTRA
TMBL0000215,Tamil Nadu Mercantile Bank,TMBL0000215,600060023,CHENNAI-GUDUVANCHERI,"140, G.S.T ROAD, NEAR POST OFFICE, GUDUVANCHERI- 603202",044-28131091/92  EMAIL- RTGS@TNMBONLINE.COM,GUDUVANCHERI,KANCHEEPURAM,TAMIL NADU
TMBL0000216,Tamil Nadu Mercantile Bank,TMBL0000216,NON MICR,MELMARUVATHUR,"DOOR NO. 4, G.S.T ROAD, FIRST FLOOR, MELMARUVATHUR - 603319",044-28131091/92,MELMARUVATHUR,KANCHEEPURAM,TAMIL NADU
TMBL0000217,Tamil Nadu Mercantile Bank,TMBL0000217,400060007,SEWRI - MUMBAI,"SHEETAL APARTMENTS, GROUND FLOOR, 130, THAKARE UDAYAN ROAD, SEWRI, MUMBAI - 400015",044-28131091/92,MUMBAI,GREATER BOMBAY,MAHARASHTRA
TMBL0000218,Tamil Nadu Mercantile Bank,TMBL0000218,400060008,CHEMBUR-MUMBAI,"53,C.S.T.ROAD,SINDHI SOCIETY,OPP.BAKTHI BHAVAN,CHEMBUR,MUMBAI - 400071",044-28131091/92,MUMBAI,GREATER BOMBAY,MAHARASHTRA
TMBL0000219,Tamil Nadu Mercantile Bank,TMBL0000219,110060006,KAROLBAGH-DELHI,"1015-1017,FIRST FLOOR, UMANG PLAZA, ARYA SAMAJ ROAD, KAROL BAGH, DELHI-110005",044-28131091/92,DELHI,DELHI,DELHI
TMBL0000220,Tamil Nadu Mercantile Bank,TMBL0000220,625060011,ANDIPATTI,"D.NO.8-1-590,GROUND FLOOR,MADURAI THENI MAIN ROAD,ANDIPATTI,THENI DISTRICT",044-28131091/92,ANDIPATTI,THENI,TAMIL NADU
TMBL0000221,Tamil Nadu Mercantile Bank,TMBL0000221,625060010,PALAMEDU,"D.NO.11-23, GROUND FLOOR, PERIA KADAI VEETHI, NEAR VILAKKU THOON, PALAMEDU - 625 503",044-28131091/92,PALAMEDU,MADURAI,TAMIL NADU
TMBL0000222,Tamil Nadu Mercantile Bank,TMBL0000222,600060024,MARAIMALAI NAGAR,"D.NO.33-3 AND 4 SHEKILAR STREET,FIRST FLOOR,APPOLO COMPLEX,MARAIMALAI NAGAR - 603 209, CHENGALPUT TALUK",044-28131091/92,MARAIMALAI NAGAR,KANCHEEPURAM,TAMIL NADU
TMBL0000223,Tamil Nadu Mercantile Bank,TMBL0000223,396060111,SILVASSA,"PLOT NO.15-3-2, GROUND FLOOR,SHOP NO. 6 AND 7, MADHUBEN APARTMENT, OPP.PATEL PETROL PUMP,AMLI,SILVASSA - 396 230, DADRA AND NAGAR HAVELI (U.T)",044-28131091/92,SILVASA,DADRA&NAGAR HAVELI,DADRA & NAGAR HAVELI
TMBL0000224,Tamil Nadu Mercantile Bank,TMBL0000224,641060011,NEELAMBUR,"499 A AND B, PALANI ANDAVAR KOVIL STREET, NEELAMBUR, COIMBATORE - 641062",044-28131091/92,COIMBATORE,COIMBATORE,TAMIL NADU
TMBL0000225,Tamil Nadu Mercantile Bank,TMBL0000225,641060010,ANNUR,"50,SAKTHI ROAD, ANNUR,COIMBATORE - 641 653",044-28131091/92,ANNUR,COIMBATORE,TAMIL NADU
TMBL0000226,Tamil Nadu Mercantile Bank,TMBL0000226,604060502,VANDAVASI,"5,RAMAIYAR STREET,OPP. TO GANDHI STATUE,VANDAVASI,TIRUVANNAMALAI - 604 408",044-28131091/92,VANDAVASI,TIRUVANNAMALAI,TAMIL NADU
TMBL0000227,Tamil Nadu Mercantile Bank,TMBL0000227,600060027,MADIPAKKAM,"DHARSHAN COMPLEX,FIREST FLOOR, D.NO.1,VIGNESHWARA NAGAR,MADIPAKKAM-MEDAVAKKAM HIGH ROAD,CHENNAI-600091",044-28131091/92,CHENNAI,CHENNAI,TAMIL NADU
TMBL0000228,Tamil Nadu Mercantile Bank,TMBL0000228,600060026,NARAVARIKUPPAM,"D.NO.168, OLF NO.169, FIRST FLOOR, G.N.T.ROAD, NARAVARIKUPPAM, RED HILLS, CHENNAI-600052",044-28131091/92,CHENNAI,CHENNAI,TAMIL NADU
TMBL0000229,Tamil Nadu Mercantile Bank,TMBL0000229,600060025,PORUR,"DOOR NO:67, (OLD NO:63 A),KUNDRATHUR MAIN ROAD, NEAR E.B. OFFICE, CHENNAI - 600 116.",044-28131091/92,CHENNAI,CHENNAI,TAMIL NADU
TMBL0000230,Tamil Nadu Mercantile Bank,TMBL0000230,627060020,PETTAI RURAL,"D NO:446, 1ST MAIN ROAD, KODEESWARAN NAGAR, PETTAI, TIRUNELVELI",0462-2320262,PALAYAMKOTTAI,TIRUNELVALI,TAMIL NADU
TMBL0000231,Tamil Nadu Mercantile Bank,TMBL0000231,NONMICR,THIRUTHANGAL,"D.NO.488-4, RENUGA DEVI COMPLEX, GROUND FLOOR, SIVAKASI - VIRUDHUNAGAR MAIN ROAD, THIRUTHANGAL - 626 130",04562-231067,THIRUTTANGAL,VIRUDHUNAGAR,TAMIL NADU
TMBL0000232,Tamil Nadu Mercantile Bank,TMBL0000232,651060012,KAVUNDAMPALAYAM,"47, IST FLOOR, VELLAIKINARU PIRUVU, METTUPALAYAM MAIN ROAD, COIMBATORE 641029",0422-2642300 09095569000,KAVUNDAPALAYAM,COIMBATORE,TAMIL NADU
TMBL0000233,Tamil Nadu Mercantile Bank,TMBL0000233,400060009,DHARAVI MUMBAI,"PLOT NO.267-268 GROUND FLOOR, KAMARAJAR MATRICULATION SCHOOL, KAMARAJ CHOWK, 90 FEET ROAD, DHARAVI, MUMBAI 400017",022-24074499 09021444949,MUMBAI,GREATER BOMBAY,MAHARASHTRA
TMBL0000234,Tamil Nadu Mercantile Bank,TMBL0000234,600060029,CHITLAPAKKAM,"D.NO.7/25, FIRST FLOOR, 7TH STREET, VINOBAJI NAGAR, CHITLAPAKKAM, CHENNAI 600064",044 22231488 22231458 9578177700,CHENNAI,CHENNAI,TAMIL NADU
TMBL0000235,Tamil Nadu Mercantile Bank,TMBL0000235,600060028,MEDAVAKKAM,"2-3-A VELACHERY TAMBARAM MAIN ROADMEDAVAKKAM, CHENNAI – 600 100.",044-22773960,CHENNAI,CHENNAI,TAMIL NADU
TMBL0000236,Tamil Nadu Mercantile Bank,TMBL0000236,NONMICR,CHATRAPATTI,"D.NO.207-B, LABAVINAYAGAR KOVIL STREET,TN - 626102",04563-258113,CHATRAPATTI,VIRUDHUNAGAR,TAMIL NADU
TMBL0000237,Tamil Nadu Mercantile Bank,TMBL0000237,NONMICR,MELUR,"D.NO.329, ALAGARKOIL ROAD, OPP. TO GOVERNMNET HOSPITAL, MELUR -625 106",0452-2418000,MELUR,MADURAI,TAMIL NADU
TMBL0000238,Tamil Nadu Mercantile Bank,TMBL0000238,606060003,CHENGAM,"D.NO.48 F,OLD POLICE LINE STREET, CHENGAM, THIRUVANNAMALAI DIST - 606 701",04188-222900,CHENGAM,TIRUVANNAMALAI,TAMIL NADU
TMBL0000239,Tamil Nadu Mercantile Bank,TMBL0000239,641060013,SOMANUR,"314, KARUMATHAMPATTI ROAD,NEAR KONGU VELLAR ARAGAM,SOMANUR – 641668,COIMBATORE DIST",0421-2335543,SOMANUR,COIMBATORE,TAMIL NADU
TMBL0000240,Tamil Nadu Mercantile Bank,TMBL0000240,NONMICR,SANKARAPERI,"D.NO.4/1, GROUND FLOOR,T.N.HOUSING BOARD COLONY,ETTAYAPURAM ROAD,SANKARAPERI",9750926943,TUTICORIN,TOOTHUKUDI,TAMIL NADU
TMBL0000241,Tamil Nadu Mercantile Bank,TMBL0000241,NONMICR,NATHAM,"1/829/10, DINDIGUL MAIN ROAD, ANNA NAGAR,NATHAM - 624 401, DINDIGUL DIST.,",9578270555,NATHAM,DINDIGUL,TAMIL NADU
TMBL0000242,Tamil Nadu Mercantile Bank,TMBL0000242,NONMICR,THURAIYUR,"TRICHY ROAD, OPPOSITE TO ANNAI HOSPITAL, THURAIYUR - 621 010, TRICHY DISTRICT",9578229555,TURAIYUR,TIRUCHIRAPALLI,TAMIL NADU
TMBL0000243,Tamil Nadu Mercantile Bank,TMBL0000243,NONMICR,SATTANKULAM,"D.NO.84,NAZARETH ROAD, THOOTHUKUDI DISTRICT, SATTANKULAM-628704",4639266080,SATTANKULAM,TOOTHUKUDI,TAMIL NADU
TMBL0000244,Tamil Nadu Mercantile Bank,TMBL0000244,NONMICR,SANKARI,"S.F.NO.262 3 J(PART) GROUND FLOOR, KOVAI SALEM MAIN ROAD, SANKARI - 637 301",8883096888,SANKARI,SALEM,TAMIL NADU
TMBL0000245,Tamil Nadu Mercantile Bank,TMBL0000245,641060105,AVINASHI,"D.6 324 GROUND FLOOR, COIMBATORE MAIN ROAD, NH 47, AVINASHI - 614 654",9750926945,AVANASHI,COIMBATORE,TAMIL NADU
TMBL0000246,Tamil Nadu Mercantile Bank,TMBL0000246,NON-MICR,KAVERIPATNAM,"1347,G.K.S. COMPLEX,PANAGAL STREET(KOSAMEDU), KAVERIPATTINAM-635112, KRISHNAGIRI DISTRICT",,KAVERIPATTINAM,KRISHNAGIRI DISTRICT,TAMIL NADU
TMBL0000247,Tamil Nadu Mercantile Bank,TMBL0000247,NON-MICR,ELAMPILLAI,"S.NO.639 - 2-B, METTUR ROAD, NEAR BUS-STAND, ELAMPILLAI - 637502, SALEM DISTRICT",,ELAMPILLAI,SALEM,TAMIL NADU
TMBL0000248,Tamil Nadu Mercantile Bank,TMBL0000248,NONMICR,PANAGUDI,"27 - 13 MAIN ROAD, R.K.B TOWERS FIRST FLOOR, NEAR BUS-STAND, PANAGUDI - 627 109",8973677888,PANAGUDY,TIRUNELVALI,TAMIL NADU
TMBL0000249,Tamil Nadu Mercantile Bank,TMBL0000249,NONMICR,ARIYALUR,"36, VELLALAN STREET, RAGAVAN SHOPPING COMPLEX, ARIYALUR - 621 704.",4329222110,ARIYALUR,VILLUPURAM,TAMIL NADU
TMBL0000250,Tamil Nadu Mercantile Bank,TMBL0000250,NONMICR,PUNNAIYAPURAM,"442 - 6,TENKASI MAIN ROAD, KODESWARAN COMPLEX, CHOKKAMPATTI PANCHAYAT,PUNNAIYAPURAM-627855.",9688623378,CHOCKAMPATTI,TIRUNELVALI,TAMIL NADU
TMBL0000251,Tamil Nadu Mercantile Bank,TMBL0000251,NONMICR,ARCOT,"15 - 1,ARANI ROAD, KUMARAN COMPLEX,ARCOT-632503.",7502744000,ARCOT,VELLORE,TAMIL NADU
TMBL0000252,Tamil Nadu Mercantile Bank,TMBL0000252,NONMICR,AUTHOOR,"D.NO.10 - 4,PUNNAKAYAL ROAD, BIG STREET, NORTH AUTHOOR-628151.",8883234888,AUTHOOR,TOOTHUKUDI,TAMIL NADU
TMBL0000253,Tamil Nadu Mercantile Bank,TMBL0000253,NONMICR,BHIWADI,"C-4 AND C-2, RIICO CHOWK, BHIWADI-301019, ALWAR DISTRICT, RAJASTHAN",8003592287,BHIWADI,ALWAR,RAJASTHAN
TMBL0000254,Tamil Nadu Mercantile Bank,TMBL0000254,NONMICR,MANAPPARAI,"D.NO. 60-B, KOVILPATTI ROAD, MANAPPARAI - 621306.",9095122888,MANAPPARAI,TIRUCHIRAPALLI,TAMIL NADU
TMBL0000255,Tamil Nadu Mercantile Bank,TMBL0000255,NONMICR,UDANGUDI,"S.NO.261  3A, D.NO.6, SATHYAMOORTHY BAZAAR, UDANGUDI-628203.",8883363888,UDANGUDI,TOOTHUKUDI,TAMIL NADU
TMBL0000256,Tamil Nadu Mercantile Bank,TMBL0000256,NONMICR,BOISAR,"SHOP NO:2,3,4,5 HRISHIKESH APARTMENTS, PALGHAR ROAD, BOISER WEST - 401501",9890858109,BOISAR,THANE,MAHARASHTRA
TMBL0000257,Tamil Nadu Mercantile Bank,TMBL0000257,NONMICR,MUDHUKULATHUR,"S.NO.335-5B-23 PARAMAKUDI ROAD, MUDHUKULATHUR - 623 704",8883584888,MUDUKULATHUR,RAMANATHAPURAM,TAMIL NADU
TMBL0000258,Tamil Nadu Mercantile Bank,TMBL0000258,NONMICR,THIRUTHURAIPOONDI,"D.NO.2 V, 2 A, SANNATHI STREET, THIRUTHURAIPOONDI - 614 713",8973377888,TIRUTURAIPUNDI,THIRUVARUR,TAMIL NADU
TMBL0000259,Tamil Nadu Mercantile Bank,TMBL0000259,NONMICR,ANEKAL,"D.NO.50-46, HOSUR BAGILU ROAD, ANEKAL-562 106, BENGALURU DIST.,",9880485857,ANEKAL,BANGALORE URBAN,KARNATAKA
TMBL0000260,Tamil Nadu Mercantile Bank,TMBL0000260,NONMICR,NELAMANGALA,"WEAVERS COLONY BUS STOP, B.H.ROAD, NELAMANGALA - 562 123, BANGALURU DISTRICT",9880483657,NELAMANGALA,BANGALORE RURAL,KARNATAKA
TMBL0000261,Tamil Nadu Mercantile Bank,TMBL0000261,NONMICR,KUTHUKKALVALASAI,"D.NO.5-294, APS COMPLEX, FIRST FLOOR, KR COLONY, MADURAI ROAD, TIRUNELVELI DISTRICT, KUTHUKKAL VALASAI-627803",8883770888,TENKASI,TIRUNELVALI,TAMIL NADU
TMBL0000262,Tamil Nadu Mercantile Bank,TMBL0000262,NONMICR,POOVANTHI,"D.N.3-497, FIREST FLOOR, MADURAI-SIVAGANGAI MAIN ROAD, POOVANTHI - 630 611,SIVAGANGAI DISTRICT",9095031888,SIVAGANGA,SIVAGANGA,TAMIL NADU
TMBL0000263,Tamil Nadu Mercantile Bank,TMBL0000263,NONMICR,KATPADI,"D.NO.11-1-4TH EAST CROSS ROAD, AUXILIEM COLLEGE ROAD, GANDHI NAGAR, KATPADI - 632 006",8883874888,KATPADI,VELLORE,TAMIL NADU
TMBL0000264,Tamil Nadu Mercantile Bank,TMBL0000264,NONMICR,VEPPADAI,"D.NO.5-577,TIRUCHENGODE ROAD, VEPPADAI - 638 008, NAMAKKAL DISTRICT",9095040888,TIRUCHENGODU,NAMAKKAL,TAMIL NADU
TMBL0000265,Tamil Nadu Mercantile Bank,TMBL0000265,NONMICR,KOOLIPATTI,"GROUND FLOOR,D.NO.4-120,ANNA NAGAR,KOOLIPATTI,REDDIPATTI POST,THURAIYUR ROAD, NAMAKKAL DISTRICT-637 002",9095030888,NAMAKKAL,NAMAKKAL,TAMIL NADU
TMBL0000266,Tamil Nadu Mercantile Bank,TMBL0000266,NONMICR,GOLLAPUDI,"D.N.3-5, DATTA KALYANA MANDAPAM ROAD, GOLLAPUDI - 521 225",7702598383,GOLLAPUDI,KRISHNA,ANDHRA PRADESH
TMBL0000267,Tamil Nadu Mercantile Bank,TMBL0000267,NONMICR,BELLAIPALAYAM,"11-46, SAKTHI MAIN ROAD, BELLAIPALAYAM-641302. COIMBATORE DISTRICT.",04254-252222,METTUPALAYAM,COIMBATORE,TAMIL NADU
TMBL0000268,Tamil Nadu Mercantile Bank,TMBL0000268,NONMICR,OTHAKUTHURAI,"240, GOBI-ERODE MAIN ROAD, OTHAKUTHIRAI-638455. ERODE DISTRICT.",9095041888,GOBICHETTIPALAYAM,ERODE,TAMIL NADU
TMBL0000269,Tamil Nadu Mercantile Bank,TMBL0000269,NONMICR,THEREKALPUTHUR,"K 1BLOCK, 11 AND 12, APDA VANIKA VALAKAM,APDANAGAR NELLAI ROAD,THEREKALPUTHUR-629002.",9095051888,NAGERCOIL,KANYAKUMARI,TAMIL NADU
TMBL0000270,Tamil Nadu Mercantile Bank,TMBL0000270,NONMICR,KANYAKULAM,"GROUND FLOOR,DOOR NO:5 10,LAKSHMI NAGAR,PARVATHIPURAM,KANYAKULAM PANCHAYAT,VETTURNIMADAM-629003.",9095050888,NAGERCOIL,KANYAKUMARI,TAMIL NADU
TMBL0000271,Tamil Nadu Mercantile Bank,TMBL0000271,NONMICR,ODDANCHATRAM,"GOTHANDARAMA REDDIAR COMPLEX, DHARAPURAM MAIN ROAD, ODDANCHATRAM-624619.",8973277888,ODDANCHATRAM,DINDIGUL,TAMIL NADU
TMBL0000272,Tamil Nadu Mercantile Bank,TMBL0000272,NONMICR,KALLAKURICHI,"DOOR NO:40,F 10,RAJAMBAL NAGAR,SALEM MAIN ROAD,SRI BALAJI LODGE BUILDING, VILLUPURAM DISTRICT,KALLAKURICHI-606202.",04151-227038,KALLAKURICHI,VILLUPURAM,TAMIL NADU
TMBL0000273,Tamil Nadu Mercantile Bank,TMBL0000273,NONMICR,CHEBROLU,"D.NO.7 84, I ST FLOOR,GOGINANIVARI VEEDHI, CHEBROLU, GUNTUR DIST.",08644 253150,CHEBROLU,WEST GODAVARI,ANDHRA PRADESH
TMBL0000274,Tamil Nadu Mercantile Bank,TMBL0000274,NONMICR,KARIAPATTI,"DOOR NO : 13 1 180, I ST FLOOR, MADURAI MAIN ROAD,KARIAPATTI-626106,VIRUDHUNAGAR DISTRICT.",:9524040888,KARIAPATTI,VIRUDHUNAGAR,TAMIL NADU
TMBL0000275,Tamil Nadu Mercantile Bank,TMBL0000275,NONMICR,KULATHUR,"DOOR NO : 3 607 1, MAIN ROAD, NEAR BUS STAND,KULATHUR-628903,TUTICORIN DIST.",9524030888,KULATHUR,DINDIGUL,TAMIL NADU
TMBL0000276,Tamil Nadu Mercantile Bank,TMBL0000276,NONMICR,THIRU NAGAR,"SEETHALAKSHMI VILAGAM, I ST FLOOR, THIRUNAGAR 3 RD BUS STOP,THIRUNAGAR-624006,MADURAI DIST.",8883051888,TIRUNAGAR,MADURAI,TAMIL NADU
TMBL0000277,Tamil Nadu Mercantile Bank,TMBL0000277,NONMICR,HEBBAGODI,"NO:55, R.S.TOWER, HOSUR MAIN ROAD, HEBBAGODI, BENGALURU - 560 099.",9740091997,BOMMASANDRA,KARNATAKA,TAMIL NADU
TMBL0000278,Tamil Nadu Mercantile Bank,TMBL0000278,NONMICR,ASESHAM,"5 108,ANNAI MATHA COMPLEX,MAIN ROAD,ASESHAM-614001,THIRUVARUR DIST",9095252888,MANNARGUDI,THIRUVARUR,TAMIL NADU
TMBL0000279,Tamil Nadu Mercantile Bank,TMBL0000279,NONMICR,KALAKKAD,"K.M.COMPLEX,I ST FLOOR,CHERANMAHADEVI ROAD,KALAKKAD-627501,TIRUNELVELI DIST.",04635-260098,KALAKAD,TIRUNELVALI,TAMIL NADU
TMBL0000280,Tamil Nadu Mercantile Bank,TMBL0000280,NONMICR,CHEKKADU,"NO:3,T.XAVIER AND SONS COMPLEX,ANNANAGAR MAIN ROAD,RAJIV GANDHI NAGAR,CHEKKADU-600072,THIRUVALLUR DIST.",9524070888,AVADI,THIRUVALLUR,TAMIL NADU
TMBL0000281,Tamil Nadu Mercantile Bank,TMBL0000281,NONMICR,PERAMBALUR,"D.NO:2,I ST FLOOR,VENKATESAPURAM, PERAMBALUR-621212.",9524020888,PERAMBALUR,PERAMBALUR,TAMIL NADU
TMBL0000282,Tamil Nadu Mercantile Bank,TMBL0000282,NONMICR,ADAYALAMPATTU,"PLOT NO:6,SCHOOL ROAD, MILLENIUM TOWNSHIP II, NEAR VANAGARAM, ADAYALAMPATTU-600095,THIRUVALLUR DIST.",9524090888,MADURAVAYAL,THIRUVALLUR,TAMIL NADU
TMBL0000283,Tamil Nadu Mercantile Bank,TMBL0000283,NONMICR,CHINNALAPATTI,"D.NO 2 6 1H3,I ST FLOOR,BHARATHI NAGAR,POONCHOLAI, CHINNALAPATTU",0451 2451880,CHINNALAPATTI,DINDIGUL,TAMIL NADU
TMBL0000284,Tamil Nadu Mercantile Bank,TMBL0000284,NONMICR,PEDANANDIPADU,"D.NO:9 66,GROUND FLOOR, P.A.S.COLLEGE ROAD, ANDHRA PRADESH-522235.",9177707749,PEDANANDIPADU,GUNTUR,ANDHRA PRADESH
TMBL0000285,Tamil Nadu Mercantile Bank,TMBL0000285,NONMICR,PALLIPALAYAM,"NO:13 W 1, TIRUCHENGODU ROAD, LAKSHMIPURAM, PALLIPALAYAM - 638008.",04288-241241,PALLIPALAYAM,ERODE,TAMIL NADU
TMBL0000286,Tamil Nadu Mercantile Bank,TMBL0000286,NONMICR,DASANAICKENPATTI,"AMMAN COMPLEX,I ST FLOOR, PERIANNA THOTTAM,DASANAICKENPATTI-636201.",0427-2281288,SALEM,SALEM,TAMIL NADU
TMBL0000287,Tamil Nadu Mercantile Bank,TMBL0000287,NONMICR,PACHANAMPATTI,"PLOT NO:8,TVC NAGAR,THARAMANGALAM MAIN ROAD, NEAR MECHERI PIRIVU,PACHANAMPATTI-636455.",04290-221088,OMALUR,SALEM,TAMIL NADU
TMBL0000288,Tamil Nadu Mercantile Bank,TMBL0000288,N A,UCHIPULI,RAMANATHAPURAM,"D.NO.3-756-6, SETHUPATHY SALAI, NEAR BUS-STAND, UCHIPULI - 623 534, RAMANATHAPURAM DISTRICT",UCHIPULI,RAMANATHAPURAM,TAMIL NADU
TMBL0000951,Tamil Nadu Mercantile Bank,TMBL0000951,628060001,CPCTOOTHUKUDI,"56 AND 57 BEACH ROAD,TUTICORIN628001",044-28131091/92,TUTICORIN,TUTICORIN,TAMIL NADU
TMBL0000952,Tamil Nadu Mercantile Bank,TMBL0000952,629060001,CPCNAGERCOIL,"229A,CHARLES MILLER STREET,COLLEGE ROAD,NAGERCOIL629001",044-28131091/92,NAGERCOIL,NAGERCOIL,TAMIL NADU
TMBL0000953,Tamil Nadu Mercantile Bank,TMBL0000953,641060001,CPCCOIMBATORE,"364DRNANJAPPA ROAD,COIMBATORE641018",044-28131091/92,COIMBATORE,COIMBATORE,TAMIL NADU
TMBL0000954,Tamil Nadu Mercantile Bank,TMBL0000954,625060001,CPCMADURAI,"38,NAICKER NEW STREET,SIMMAKKAL,MADURAI625001",044-28131091/92,MADURAI,MADURAI,TAMIL NADU
TMBL0000955,Tamil Nadu Mercantile Bank,TMBL0000955,400060001,CPCMUMBAI,"104104 KAZI SYED STREET,GORADIA HOUSE,MUMBAI400003",044-28131091/92,MUMBAI,GREATER BOMBAY,MAHARASHTRA
TMBL0000956,Tamil Nadu Mercantile Bank,TMBL0000956,600060001,CPCCHENNAI,"194,ANNA PILLAI STREET,GEORGE TOWN,CHENNAI600001",044-28131091/92,CHENNAI,CHENNAI,TAMIL NADU
TMBL0000978,Tamil Nadu Mercantile Bank,TMBL0000978,,INTEGRATED TREASURY,"269/2-4,AVVAI SHANMUGAM SALAI, ROYAPETTAH, CHENNAI-600014 TAMILNADU",044-28131091/92  EMAIL- RTGS@TNMBONLINE.COM,CHENNAI,CHENNAI,TAMIL NADU
TMBL0000990,Tamil Nadu Mercantile Bank,TMBL0000990,NONMICR,INTERNATIONAL BANKING DIVISION,"D.NO.269-2-4, IIND FLOOR, AVVAI SHANMUGHAM ROAD, ROYAPETTAH, CHENNAI - 600 014",044-28131091/92,CHENNAI,CHENNAI,TAMIL NADU
TMBL0000991,Tamil Nadu Mercantile Bank,TMBL0000991,,RTGS CELL,"A-269/2-4, AVVAI SHANMUGAM SALAI, ROYAPETTAH, CHENNAI-600014 TAMIL NADU",044-28131091/92  EMAIL- RTGS@TNMBONLINE.COM,CHENNAI,CHENNAI,TAMIL NADU
TMBL0000290,Tamil Nadu Mercantile Bank,TMBL0000290,NONMICR,BIKSHANDARKOIL,"2206,om sakthi nagar, thiruvallur avenue,no:1 toll gate,thiruchirapalli-621216.",8883322800,BIKSHANDARKOIL,TIRUCHIRAPALLI,TAMIL NADU
TMBL0000303,Tamil Nadu Mercantile Bank,TMBL0000303,636060016,CHINNAPPAMPATTI,"4/392, SABI COMPLEX BUILDING,SANTHAI RAOD, OMALUR TALUK",04290-257325,CHINNAPPAMPATTI,DINDIGUL,TAMILNADU
TMBL0000304,Tamil Nadu Mercantile Bank,TMBL0000304,626060001,SOOLAKKARAI,"4/829A, SULAKKARAI MEDU",04562-252237,SOOLAKKARAI,VIRUDHUNAGAR,TAMILNADU
TMBL0000305,Tamil Nadu Mercantile Bank,TMBL0000305,643060102,COONOOR,"278,FIRST FLOOR, MOUNT ROAD,YMCA CORNER,",0423-2237888,COONOOR,NILGIRIS,TAMILNADU
TMBL0000306,Tamil Nadu Mercantile Bank,TMBL0000306,682060003,KALAMASSERY,"XXXIII/14(A), GROUND FLR, CHEMMENKUZHA BLDG,AKG ROAD,EDAPALLY TOLLGATE",0484-2544233,KALAMASSERY,ERNAKULAM,KERALA
TMBL0000309,Tamil Nadu Mercantile Bank,TMBL0000309,632060202,ARNI,"D.NO.53/1 IST FLOOR M.C.LODGING COMPLEX,THATCHUR ROAD",04173 - 226233,ARNI,THIRUVANAMALAI,TAMILNADU
TMBL0000310,Tamil Nadu Mercantile Bank,TMBL0000310,628040041,ARUMUGANERI,"D.NO.150, THIRUCHENDUR ROAD,",9095510888,ARUMUGANERI,THOOTHUKUDI,TAMILNADU
TMBL0000307,Tamil Nadu Mercantile Bank,TMBL0000307,NONMICR,PATTUKOTTAI,"72, SUNDARARAJ CHETTIAR COMPLEX, SOUTH KALIAMMAN KOVIL STREET, PATTUKOTTAI- 614601, THANJAVUR DIST, TAMILNADU",90952-70888/04373-255299,PATTUKOTTAI,THANJAVUR,TAMIL NADU
TMBL0000318,Tamil Nadu Mercantile Bank,TMBL0000318,627060318,KADAYANALLUR,"D.NO.37 F, FIRST FLOOR, THILAGAR STREET, KRISHNAPURAM, KADAYANALLUR- 627 751, TIRUNELVELI DISTRICT, TAMILNADU",9095310888/04633-240088,KADAYANALLUR,TIRUNELVALI,TAMIL NADU
TMBL0000319,Tamil Nadu Mercantile Bank,TMBL0000319,628060319,PASUVANTHANAI,"D.NO.244, GROUND FLOOR, KOVILPATTI MAIN ROAD, PASUVANTHANAI- 628 718, THOOTHUKUDI DISTRICT, TAMILNADU",9524710888,PASUVANTHANAI,TOOTHUKUDI,TAMIL NADU
TMBL0000320,Tamil Nadu Mercantile Bank,TMBL0000320,521060320,JAGGAYYAPET,"D.NO.7-40, GROUND FLOOR, OLD SBI ROAD, JAGGAYYAPET- 521 175, KRISHNA DISTRICT, ANDHRAPRADESH",9177740101/08654-223336,JAGGAYYAPET,KRISHNA,ANDHRA PRADESH
TMBL0000321,Tamil Nadu Mercantile Bank,TMBL0000321,638060321,KOMARAPALAYAM,"262, SALEM MAIN ROAD, KOMARAPALAYAM- 638 183, NAMAKKAL DISTRICT, TAMILNADU",9578210888/04288-265600,KOMARAPALAYAM,NAMAKKAL,TAMIL NADU
TMBL0000289,Tamil Nadu Mercantile Bank,TMBL0000289,625060022,CHEKKANURANI,"THIRUMANGALAM PKN URAVINMURAI VANIGA VALAGAM,MADURAI TO THENI ROAD,CHECKANURANI-624301.",9524550888,MADURAI,MADURAI,TAMIL NADU
TMBL0000291,Tamil Nadu Mercantile Bank,TMBL0000291,630060102,DEVAKOTTAI,"D.NO.3A,SILAMBANI SOUTH STREET,DEVAKOTTAI-630302,SIVAGANGAI DIST.",9524330888,DEVAKOTTAI,SIVAGANGA,TAMIL NADU
TMBL0000292,Tamil Nadu Mercantile Bank,TMBL0000292,636060015,THARAMANGALAM,"D.NO 1/1-18D; DEVI COMPLEX, OMALUR MAIN ROAD, GROUND FLOOR, N R PERIYANDICHI TEMPLE, THARAMANGALAM- 636502, SALEM DISTRICT",9524510888,TARAMANGALAM,SALEM,TAMIL NADU
TMBL0000293,Tamil Nadu Mercantile Bank,TMBL0000293,400060010,SUKAPUR,"GROUND FLOOR, SHAKTHI VEG OILS LTD PREMISES, PANVEL MATHERAN ROAD, SUKAPUR- 410 206, RAIGAD DISTRICT",9930662901,PANVEL,RAIGAD,MAHARASHTRA
TMBL0000294,Tamil Nadu Mercantile Bank,TMBL0000294,415060476,VITA,"F-3, VITA PLAZA, FIRST FLOOR, OPP.SANGLI DCC BANK, GANDHI CHOWK, KARAD ROAD, VITA- 415 311, MAHARASHTRA","7507959966, 02347-273116",VITA,SANGLI,MAHARASHTRA
TMBL0000295,Tamil Nadu Mercantile Bank,TMBL0000295,600060033,KILAMBI,"NO.10, GROUND FLOOR, MAIN ROAD, KRISHNAPURAM POST, KILAMBI- 631 551, KANCHEEPURAM, TAMILNADU",9524660888,KANCHIPURAM,KANCHEEPURAM,TAMIL NADU
TMBL0000296,Tamil Nadu Mercantile Bank,TMBL0000296,416060151,MADHAVNAGAR,"F-1FIRST FLOOR RAJARAM PLAZA,BUDHWARPETH CORNER , MAIN ROAD,SANGLI DISTRICT,MADHAVNAGAR,MAHARASHTRA-416406.",9730423232,MADHAVNAGAR,SANGLI,MAHARASHTRA
TMBL0000297,Tamil Nadu Mercantile Bank,TMBL0000297,638060302,DHARAPURAM,"D.NO. 66-67, CHURCH ROAD, BIG BAZAR STREET, DHARAPURAM- 638656, TIRUPUR DISTRICT, TAMILNADU",9524520888,DHARAPURAM,ERODE,TAMIL NADU
TMBL0000298,Tamil Nadu Mercantile Bank,TMBL0000298,636060104,HARUR,"10/26-1, THIRU V.K.NAGAR, HARUR- 636 906, DHARMAPURI DIST, TAMILNADU",9524630888/04346-222088,HARUR,DHARMAPURI,TAMIL NADU
TMBL0000299,Tamil Nadu Mercantile Bank,TMBL0000299,534060202,TANUKU,"D.NO.25-4-7, GROUND FLOOR, BACKSIDE OF MASSJID, SREE PLAZA, VELPUR ROAD, TANUKU-534211, ANDHRAPRADESH",09177787804/08819-226556,TANUKU,WEST GODAVARI,ANDHRA PRADESH
TMBL0000300,Tamil Nadu Mercantile Bank,TMBL0000300,625060024,SEVAGAMPATTI,"171, MADURAI ROAD, ANNA NAGAR, OPP TO BATLAGUDU CSI CHURCH,SEVAGAMPATTI- 624 202, DINDIGUL DIST, TAMILNADU",9524620888,BATLAGUNDU,DINDIGUL,TAMIL NADU
TMBL0000301,Tamil Nadu Mercantile Bank,TMBL0000301,625060023,CHIKKANDARCHAVADI,"2-4, LUCKY NAGAR, ATHALAI ROAD, KOILPAPPAKUDI VILLAGE, CHIKKANDARCHAVADI-625018, MADURAI DIST, TAMILNADU",9524530888,MADURAI,MADURAI,TAMIL NADU
TMBL0000302,Tamil Nadu Mercantile Bank,TMBL0000302,627060040,T.SAVERIYARPURAM,"11/6, MUNDAGASAMY KOVIL STREET, T.SAVERIYARPURAM, THOOTHUKUDI- 628 002, TAMILNADU",9524730888,TUTICORIN,TOOTHUKUDI,TAMIL NADU
TMBL0000308,Tamil Nadu Mercantile Bank,TMBL0000308,522060542,VINUKONDA,"FIRST FLOOR, D.NO.23-194, PALNADU ROAD, VINUKONDA - 522 647, GUNTUR DST, ANDHRAPRADESH ",9177285567/08646-273063,VINUKONDA,GUNTUR,ANDHRA PRADESH
TMBL0000311,Tamil Nadu Mercantile Bank,TMBL0000311,627060042,VEMBAR,"THEVANESAM ERUDHAYA AMMAL SHOPPING COMPLEX, GROUND FLOOR, D.NO.1/385, EAST COAST ROAD, VEMBAR, THOORHUKUDI DIST, TAMILNADU",95249 10888,VEMBAR,TOOTHUKUDI,TAMIL NADU
TMBL0000312,Tamil Nadu Mercantile Bank,TMBL0000312,605060008,CHIDAMBARAM,"D.NO.88/43, SOUTH CAR STREET, CHIDAMBRAM - 608 001, CUDDALORE DISTRICT, TAMILNADU",9524610888/04144-225142,CHIDAMBARAM,CUDDALORE,TAMIL NADU
TMBL0000313,Tamil Nadu Mercantile Bank,TMBL0000313,638060011,SENAPATHIPALAYAM,"S.F.NO.1195/A, GROUND FLOOR, MUTHUR ROAD, KINGU NAGAR, SENAPATHIPALAYAM - 638 111, TAMILNADU",9942377447/04257-262045,ERODE,ERODE,TAMIL NADU
TMBL0000314,Tamil Nadu Mercantile Bank,TMBL0000314,415060314,RATNAGIRI,"GALA NO.104, FIRST FLOOR, AMBASSADOR PLAZA, MAL NAKA, NEAR ADVAIT PETROL PUMP, RATNAGIRI- 415 612, MAHARASHTRA",9960777002,RATNAGIRI,RATNAGIRI,MAHARASHTRA
TMBL0000315,Tamil Nadu Mercantile Bank,TMBL0000315,416060315,JAYSINGPUR,"NO.675/9, 676/10, FIRST FLOOR, OPP.CENTRAL EXCISE QUARTERS, KODHAPUR ROAD, JAYSINGPUR- 416 101, MAHARASHTRA",9096526789,JAYSINGPUR,KOLHAPUR,MAHARASHTRA
TMBL0000316,Tamil Nadu Mercantile Bank,TMBL0000316,629060316,ARALVAIMOZHI,"D.NO.19/115, GROUND FLOOR, PERUMALPURAM STREET, ARALVAIMOZHI- 629 301, TAMILNADU",9095110888,NAGERCOIL,KANYAKUMARI,TAMIL NADU
TMBL0000317,Tamil Nadu Mercantile Bank,TMBL0000317,636060317,ATTUR,"D.NO.86/37, GANDHI NAGAR, ATTUR- 636 102, SALEM DISTRICT, TAMILNADU",04282-250366/9095410888,ATTUR,SALEM,TAMIL NADU
TMBL0000322,Tamil Nadu Mercantile Bank,TMBL0000322,454060322,PITHAMPUR,"SHOP NO.4, UPPER GROUND FLOOR, NEXT TO MALWA HOSPITAL, SUDHARSHAN COMPLEX, MHOW-NEEMUCH ROAD, SECTOR 1, PITHAMPUR- 454 775",07292-252121/9977616766,PITHAMPUR,DHAR,MADHYA PRADESH
TMBL0000323,Tamil Nadu Mercantile Bank,TMBL0000323,NONMICR,PORT BLAIR,"FIRST FLOOR, KALAIGNAR ARIVALAYAM, OPP TO DR.B.R.AMBEDKAR AUDITORIUM, MOHANPURA, PORT BLAIR- 744 101, ANDAMAN","03192-239444, 237222",PORT BLAIR,ANDAMAN,ANDAMAN & NICOBAR
TMBL0000324,Tamil Nadu Mercantile Bank,TMBL0000324,627060324,THIRUVENGADAM,"D.NO.320, KALUGUMALAI ROAD, THIRUVENGADAM- 627 719, TIRUNELVELI DIST, TAMILNADU",04636-264563/ 9865941515,THIRUVENGADAM,TIRUNELVALI,TAMIL NADU
TMBL0000325,Tamil Nadu Mercantile Bank,TMBL0000325,638060325,PALLAGOUNDENPALAYAM,"D.NO.5/154, MAIN ROAD, T.T.C.COMPLEX, PALLAGOUNDENPALAYAM - 638 056, TIRUPUR, TAMILNADU",04294-242388/9578310888,TIRUPUR,COIMBATORE,TAMIL NADU
TMBL0000326,Tamil Nadu Mercantile Bank,TMBL0000326,638060326,MADAMPALAYAM,"D.NO.2/58-13, MAIN ROAD, MADAMPALAYAM- 638 459, ERODE DISTRICT, TAMILNADU",04295-269838/9578410888,ERODE,ERODE,TAMIL NADU