ID,BANK,IFSC_CODE,MICR_CODE,BRANCH_NAME,ADDRESS,CONTACT,CITY,DISTRICT,STATE
SBMY0040001,State Bank of Mysore,SBMY0040001,400006002,MUMBAI MAIN,MITTAL COURT C WING 224 NARIMAN POINT MUMBAI -400021,022-22790505,MUMBAI,GREATER BOMBAY,MAHARASHTRA
SBMY0040002,State Bank of Mysore,SBMY0040002,NON-MICR,MADANAPALLE,MADANAPALLE - 517 325,08571-262017,MADANAPALLE,CHITTOR,ANDHRA PRADESH
SBMY0040003,State Bank of Mysore,SBMY0040003,NON-MICR,PUNGANURU,CAR STREET PUNGANURU - 517 247,08581-53040,PUNGANUR,CHITTOR,ANDHRA PRADESH
SBMY0040004,State Bank of Mysore,SBMY0040004,NON-MICR,KUPPAM,KUPPAM - 517 425 A.P.,08579-55039,KUPPAM,CHITTOR,ANDHRA PRADESH
SBMY0040005,State Bank of Mysore,SBMY0040005,NON-MICR,HINDUPUR,16-2-3 GANDHI CHOWK MAIN BAZAR-515201,08556-220860,HINDUPUR,ANANTPUR,ANDHRA PRADESH
SBMY0040006,State Bank of Mysore,SBMY0040006,560006061,"M.G.ROAD,BANGALORE","SHRUNGAR SHOPPING CENTRE,M.G.ROAD BANGALORE-1",080-25587463,BANGALORE,BANGALORE URBAN,KARNATAKA
SBMY0040007,State Bank of Mysore,SBMY0040007,560006002,BANGALORE,AVENUE ROAD BANGALORE-560009,080-2264561,BANGALORE,BANGALORE URBAN,KARNATAKA
SBMY0040008,State Bank of Mysore,SBMY0040008,560006003,BANASHANKARI,JAYANAGAR BANGALORE - 560 082,080-6343296,BANGALORE,BANGALORE URBAN,KARNATAKA
SBMY0040009,State Bank of Mysore,SBMY0040009,560006010,CHAMARAJPET,BANGALORE - 560018,080-6611704,BANGALORE,BANGALORE URBAN,KARNATAKA
SBMY0040010,State Bank of Mysore,SBMY0040010,560006011,CHICKPET,BANGALORE - 560 053,080-2871528,BANGALORE,BANGALORE URBAN,KARNATAKA
SBMY0040011,State Bank of Mysore,SBMY0040011,560006013,CLEVELAND TOWN,BANGALORE 560005,080-5554668,BANGALORE,BANGALORE URBAN,KARNATAKA
SBMY0040012,State Bank of Mysore,SBMY0040012,560006022,JAYANAGAR,3RD BLOCK JAYANAGAR B'LORE-560011,080-26653435,BANGALORE,BANGALORE URBAN,KARNATAKA
SBMY0040013,State Bank of Mysore,SBMY0040013,560006023,J C ROAD,BANGALORE - 560 002,080 - 2224675,BANGALORE,BANGALORE URBAN,KARNATAKA
SBMY0040014,State Bank of Mysore,SBMY0040014,560006006,BASAVANAGUDI,73 K R ROAD BANGALORE-560004,080-26609285,BANGALORE,BANGALORE URBAN,KARNATAKA
SBMY0040015,State Bank of Mysore,SBMY0040015,560006007,B. R. MARKET,BANGALORE-560 002,080-2211010,BANGALORE,BANGALORE URBAN,KARNATAKA
SBMY0040016,State Bank of Mysore,SBMY0040016,560006026,L C ROAD,2 L C RD BANGALORE - 560001,080-25591037,BANGALORE,BANGALORE URBAN,KARNATAKA
SBMY0040017,State Bank of Mysore,SBMY0040017,560006030,MALLESWARAM,"2ND CROSS,MALLESWARAM,B'LORE - 3",080-23443794,BANGALORE,BANGALORE URBAN,KARNATAKA
SBMY0040018,State Bank of Mysore,SBMY0040018,560006018,FORT,BANGALORE - 560 002,080-6701235,BANGALORE,BANGALORE URBAN,KARNATAKA
SBMY0040019,State Bank of Mysore,SBMY0040019,560006012,CITY,BANGALORE - 560 053,080-2871521,BANGALORE,BANGALORE URBAN,KARNATAKA
SBMY0040021,State Bank of Mysore,SBMY0040021,560006035,RICHMOND ROADBRANCH,BANGALORE-560027,080 - 2211975,BANGALORE,BANGALORE URBAN,KARNATAKA
SBMY0040022,State Bank of Mysore,SBMY0040022,560006062,DR.AMBEDKAR VEEDHI,VISVESWARAYA TOWER BANGALORE-1,080-22867663,BANGALORE,BANGALORE URBAN,KARNATAKA
SBMY0040023,State Bank of Mysore,SBMY0040023,560006048,WHITEFIELD,BANGALORE - 560 066,080-8452210,BANGALORE,BANGALORE URBAN,KARNATAKA
SBMY0040024,State Bank of Mysore,SBMY0040024,560006047,WILSON GARDENS BRANCH,BANGALORE - 560 027,080-2236889,BANGALORE,BANGALORE URBAN,KARNATAKA
SBMY0040025,State Bank of Mysore,SBMY0040025,NON-MICR,CHANNAPATNA,CHANNAPATNA - 571 501,08113-7251228,CHANNAPATNA,BANGALORE RURAL,KARNATAKA
SBMY0040026,State Bank of Mysore,SBMY0040026,560006110,DODDABALLAPUR,DODDABALLAPUR - 561 203,08119-7622072,DODDABALLAPUR,BANGALORE RURAL,KARNATAKA
SBMY0040027,State Bank of Mysore,SBMY0040027,NON-MICR,ANEKAL,ANEKAL - 562 106,080-7829236,ANEKAL,BANGALORE URBAN,KARNATAKA
SBMY0040028,State Bank of Mysore,SBMY0040028,560006049,HMT INDL ESTATE,BANGALORE - 560 031,080-8389311,BANGALORE,BANGALORE URBAN,KARNATAKA
SBMY0040029,State Bank of Mysore,SBMY0040029,562006017,KANAKAPURA,KANAKAPURA - 562 117,080-7522446,KANAKAPURA,BANGALORE RURAL,KARNATAKA
SBMY0040030,State Bank of Mysore,SBMY0040030,NON-MICR,MAGADI,MAGADI - 562 120,0811-7745232,MAGADI,BANGALORE RURAL,KARNATAKA
SBMY0040031,State Bank of Mysore,SBMY0040031,NON-MICR,RAMANAGARAM,RAMANAGARAM - 571 511,080-7271242,RAMANAGARAM,BANGALORE RURAL,KARNATAKA
SBMY0040032,State Bank of Mysore,SBMY0040032,560006112,DEVANAHALLI,DEVANAHALLI - 562 110,080-7682223,DEVANAHALLI,BANGALORE RURAL,KARNATAKA
SBMY0040033,State Bank of Mysore,SBMY0040033,560006108,HOSAKOTE,HOSAKOTE - 562 114,0811-7931272,HOSKOTE,BANGALORE RURAL,KARNATAKA
SBMY0040034,State Bank of Mysore,SBMY0040034,NON-MICR,KUDUR,KUDUR - 561 101,08118-7762232,KUDUR,BANGALORE RURAL,KARNATAKA
SBMY0040035,State Bank of Mysore,SBMY0040035,NON-MICR,MANDYA,MANDYA - 571 401,0823-220028,MANDYA,MANDYA,KARNATAKA
SBMY0040036,State Bank of Mysore,SBMY0040036,NON-MICR,MALAVALLI,MALAVALLI - 571 430,0823-342216,MALAVALLI,MANDYA,KARNATAKA
SBMY0040037,State Bank of Mysore,SBMY0040037,NON-MICR,SRIRANGAPATNA,SRIRANGAPATNA - 571 438,0823-652039,SRIRANGAPATNA,MANDYA,KARNATAKA
SBMY0040038,State Bank of Mysore,SBMY0040038,NON-MICR,BELAKAVADI,BELAKAVADI - 571 417,08231-340024,BELAKAVADI,MANDYA,KARNATAKA
SBMY0040039,State Bank of Mysore,SBMY0040039,NON-MICR,K R PET,KRISHNARAJAPET - 571 426,0823-762238,KRISHNARAJAPET,MANDYA,KARNATAKA
SBMY0040040,State Bank of Mysore,SBMY0040040,NON-MICR,KYATHANAHALLI,KYATHANAHALLI - 571 427,0823-654226,KYATHANAHALLI,MANDYA,KARNATAKA
SBMY0040041,State Bank of Mysore,SBMY0040041,NON-MICR,MADDUR,MADDUR - 571 428,0823-232582,MADDUR,MANDYA,KARNATAKA
SBMY0040042,State Bank of Mysore,SBMY0040042,NON-MICR,MELKOTE,MELKOTE - 571 431,08236-48745,MELKOTE,MANDYA,KARNATAKA
SBMY0040043,State Bank of Mysore,SBMY0040043,571006007,NAGAMANGALA,"M'SORE-B'LORE RD,NAGAM'LA-571432",08234-286037,NAGAMANGALA,MANDYA,KARNATAKA
SBMY0040044,State Bank of Mysore,SBMY0040044,NON-MICR,PANDAVAPURA,PANDAVAPURA - 571 434,08236-655162,PANDAVAPURA,MANDYA,KARNATAKA
SBMY0040045,State Bank of Mysore,SBMY0040045,NON-MICR,HASSAN,HASSAN - 573 201,08172-68407,HASSAN,HASSAN,KARNATAKA
SBMY0040046,State Bank of Mysore,SBMY0040046,NON-MICR,ARSIKERE,ARSIKERE - 573 103,0817-432202,ARSIKERE,HASSAN,KARNATAKA
SBMY0040047,State Bank of Mysore,SBMY0040047,NON-MICR,HOLENARASIPURA,HOLENARASIPUR - 573 211,0817-572402,HOLENARSIPUR,HASSAN,KARNATAKA
SBMY0040048,State Bank of Mysore,SBMY0040048,NON-MICR,SAKALESHPUR,SAKLESHPUR - 573 134,0817-344027,SAKLESHPUR,HASSAN,KARNATAKA
SBMY0040049,State Bank of Mysore,SBMY0040049,NON-MICR,ALUR,ALUR - 573 213,0817-328230,ALUR,HASSAN,KARNATAKA
SBMY0040050,State Bank of Mysore,SBMY0040050,NON-MICR,ARAKKALGUD,ARKALGUD - 573 102,08175-20230,ARKALGUD,HASSAN,KARNATAKA
SBMY0040051,State Bank of Mysore,SBMY0040051,NON-MICR,BELUR,BELUR - 573115,08177-22241,BELUR,HASSAN,KARNATAKA
SBMY0040052,State Bank of Mysore,SBMY0040052,NON-MICR,CHANNARAYAPATNA,CHANNARAYAPATNA - 573 116,0817-652228,CHANNARAYAPATNA,HASSAN,KARNATAKA
SBMY0040053,State Bank of Mysore,SBMY0040053,NON-MICR,KONANUR,KONANUR - 573 130,0817-526230,KONANUR,HASSAN,KARNATAKA
SBMY0040054,State Bank of Mysore,SBMY0040054,570006001,MYSORE,"61, ASHOKA RD,MYSORE - 570001",0821-2440973,MYSORE,MYSORE,KARNATAKA
SBMY0040055,State Bank of Mysore,SBMY0040055,570006003,C F T R I,MYSORE - 570 013,0821-414285,MYSORE,MYSORE,KARNATAKA
SBMY0040056,State Bank of Mysore,SBMY0040056,570006010,K.M.PURAM,MYSORE - 570 004,0821-332449,MYSORE,MYSORE,KARNATAKA
SBMY0040057,State Bank of Mysore,SBMY0040057,570006018,NEW SANTHEPET,MYSORE - 570 021,0821-491404,MYSORE,MYSORE,KARNATAKA
SBMY0040058,State Bank of Mysore,SBMY0040058,570006015,MARKET MYSORE,MYSORE - 570 001,0821-520671,MYSORE,MYSORE,KARNATAKA
SBMY0040059,State Bank of Mysore,SBMY0040059,570006027,UNIVERSITY CAMPUS,MYSORE - 570 005,0821-420197,MYSORE,MYSORE,KARNATAKA
SBMY0040060,State Bank of Mysore,SBMY0040060,570006028,VANI VILASA MARKET,MYSORE - 570 004,0821-521469,MYSORE,MYSORE,KARNATAKA
SBMY0040061,State Bank of Mysore,SBMY0040061,570006029,VIDYARANYAPURAM,MYSORE - 570 008,0821-481998,MYSORE,MYSORE,KARNATAKA
SBMY0040062,State Bank of Mysore,SBMY0040062,NON-MICR,CHAMARAJANAGAR,CHAMARAJANAGAR - 571 313,0821-722044,C.RAMASAMUDRA,CHAMRAJNAGAR,KARNATAKA
SBMY0040063,State Bank of Mysore,SBMY0040063,NON-MICR,GUNDLUPET,GUNDLUPET - 571 111,0821-622227,GUNDLUPET,CHAMRAJNAGAR,KARNATAKA
SBMY0040064,State Bank of Mysore,SBMY0040064,NON-MICR,HUNSUR,HUNSUR - 571 105,0821-652027,HUNSUR,MYSORE,KARNATAKA
SBMY0040065,State Bank of Mysore,SBMY0040065,NON-MICR,KOLLEGAL,KOLLEGAL - 571 440,0821-752052,KOLLEGAL,CHAMRAJNAGAR,KARNATAKA
SBMY0040066,State Bank of Mysore,SBMY0040066,NON-MICR,NANJANGUD,NANJANGUD - 571 301,0821-226686,NANJANGUD,MYSORE,KARNATAKA
SBMY0040067,State Bank of Mysore,SBMY0040067,NON-MICR,SALIGRAMA,SALIGRAMA - 571 604,0821-683325,SALIGRAMA,MYSORE,KARNATAKA
SBMY0040068,State Bank of Mysore,SBMY0040068,NON-MICR,HEGGADADEVANKOTE,HEGGADADEVANAKOTE 571114,0822-252322,HEGGADADEVANAKOTE,MYSORE,KARNATAKA
SBMY0040069,State Bank of Mysore,SBMY0040069,NON-MICR,KRISHNARAJANAGAR,K R NAGAR - 571 602,08223-62427,KRISHNARAJANAGAR,MYSORE,KARNATAKA
SBMY0040070,State Bank of Mysore,SBMY0040070,NON-MICR,KUDERU,KUDERU - 571 316,0822-734431,KUDERU,CHAMRAJNAGAR,KARNATAKA
SBMY0040071,State Bank of Mysore,SBMY0040071,NON-MICR,MIRLE,MIRLE - 571 603,0821-682221,MIRLE,MYSORE,KARNATAKA
SBMY0040072,State Bank of Mysore,SBMY0040072,NON-MICR,MUGUR,MUGUR - 571 169,0822-272229,MUGUR,MYSORE,KARNATAKA
SBMY0040073,State Bank of Mysore,SBMY0040073,NON-MICR,PERIYAPATNA,PERIYAPATNA - 571 107,0821-674265,PERIYAPATNA,MYSORE,KARNATAKA
SBMY0040074,State Bank of Mysore,SBMY0040074,NON-MICR,SARGUR,SAGAR  577  401,0818-326006,SARGUR,MYSORE,KARNATAKA
SBMY0040075,State Bank of Mysore,SBMY0040075,NON-MICR,M M HILLS,SRI M M HILLS - 571 490,0821-772125,SRI M.M.SWAMI HILLS,CHAMRAJNAGAR,KARNATAKA
SBMY0040076,State Bank of Mysore,SBMY0040076,NON-MICR,T.NARSIPUR,T.NARASIPURA 571124,0821-261243,TIRUMAKUDAL NARSIPUR,MYSORE,KARNATAKA
SBMY0040077,State Bank of Mysore,SBMY0040077,NON-MICR,TAGADUR,TAGADUR 571 119,0821-235025,THAGADOORU,MYSORE,KARNATAKA
SBMY0040078,State Bank of Mysore,SBMY0040078,NON-MICR,RAMAPURA,RAMAPURAM 571 444,0821-774321,RAMAPURAM,CHAMRAJNAGAR,KARNATAKA
SBMY0040079,State Bank of Mysore,SBMY0040079,NON-MICR,TERAKANAMBI,TERAKANAMBI 571 123,08229-632238,TERAKANAMBI,CHAMRAJNAGAR,KARNATAKA
SBMY0040080,State Bank of Mysore,SBMY0040080,NON-MICR,KOLAR,KOLAR 563 101,0815-222010,KOLAR,KOLAR,KARNATAKA
SBMY0040081,State Bank of Mysore,SBMY0040081,NON-MICR,BANGARPET,BANGARPET 563 114,08153-55256,KOLAR,KOLAR,KARNATAKA
SBMY0040082,State Bank of Mysore,SBMY0040082,NON-MICR,CHICKBALLAPUR,CHICKBALLAPUR 562 101,08156-672645,KOLAR,KOLAR,KARNATAKA
SBMY0040083,State Bank of Mysore,SBMY0040083,NON-MICR,CHINTAMANI,N R EXTNCHINTAMANI 563 125,08154-452145,CHINTAMANI,KOLAR,KARNATAKA
SBMY0040084,State Bank of Mysore,SBMY0040084,NON-MICR,MULBAGAL,MULBAGAL 563 131,08155-42059,KOLAR,KOLAR,KARNATAKA
SBMY0040085,State Bank of Mysore,SBMY0040085,NON-MICR,BAGEPALLI,BAGEPALLI 561 207,08157-82237,BAGEPALLI,KOLAR,KARNATAKA
SBMY0040086,State Bank of Mysore,SBMY0040086,NON-MICR,GAURIBIDANUR,GAURIBIDANUR 561 208,08155-86456,GAURIBIDANUR,KOLAR,KARNATAKA
SBMY0040087,State Bank of Mysore,SBMY0040087,NON-MICR,GUDIBANDA,GUDIBANDA 561 209,08156-61026,GUDIBANDA,KOLAR,KARNATAKA
SBMY0040088,State Bank of Mysore,SBMY0040088,NON-MICR,MALUR,MALUR 563 130,0815-332228,MALUR,KOLAR,KARNATAKA
SBMY0040089,State Bank of Mysore,SBMY0040089,NON-MICR,KGF,K G F 563 122,08153-60238,ROBERTSONPET K.G.F.,KOLAR,KARNATAKA
SBMY0040090,State Bank of Mysore,SBMY0040090,NON-MICR,SIDLAGHATTA,SIDLAGHATTA 562 105,08158-56266,SIDLAGHATTA,KOLAR,KARNATAKA
SBMY0040091,State Bank of Mysore,SBMY0040091,NON-MICR,SRINIVASAPUR,SRINIVASPUR 563 135,0815-746235,SRINIVASAPUR,KOLAR,KARNATAKA
SBMY0040092,State Bank of Mysore,SBMY0040092,NON-MICR,TUMKUR,97-1 BANK ROAD TUMKUR-572101,0816-2274200,TUMKUR,TUMKUR,KARNATAKA
SBMY0040093,State Bank of Mysore,SBMY0040093,NON-MICR,CHIKKANAYAKANHALLI,CHICKNAYAKANAHALLI 57221,0816-367238,CHIKNAYAKANAHALLI,TUMKUR,KARNATAKA
SBMY0040094,State Bank of Mysore,SBMY0040094,NON-MICR,KUNIGAL,KUNIGAL 572 130,0816-320222,KUNIGAL,TUMKUR,KARNATAKA
SBMY0040095,State Bank of Mysore,SBMY0040095,NON-MICR,MADHUGIRI,MADHUGIRI 572 132,0816-732329,MADHUGIRI,TUMKUR,KARNATAKA
SBMY0040096,State Bank of Mysore,SBMY0040096,NON-MICR,SIRA,SIRA 572 137,0816-725229,SIRA,TUMKUR,KARNATAKA
SBMY0040097,State Bank of Mysore,SBMY0040097,NON-MICR,TIPTUR,TIPTUR 572 201,0816-451032,TIPTUR,TUMKUR,KARNATAKA
SBMY0040098,State Bank of Mysore,SBMY0040098,NON-MICR,BUKKAPATNA,BUKKAPATNA 572 115,0816-754533,BUKKAPATNA(TEH.SIRA),TUMKUR,KARNATAKA
SBMY0040099,State Bank of Mysore,SBMY0040099,572006012,GUBBI,GUBBI 572 216,0816-422230,GUBBI,TUMKUR,KARNATAKA
SBMY0040100,State Bank of Mysore,SBMY0040100,NON-MICR,KADABA,KADABA 572 219,0813-431537,KADABA,TUMKUR,KARNATAKA
SBMY0040101,State Bank of Mysore,SBMY0040101,NON-MICR,KORATAGERE,KORATAGERE 572 129,0816-222145,KORATAGERE,TUMKUR,KARNATAKA
SBMY0040102,State Bank of Mysore,SBMY0040102,NON-MICR,MAYASANDRA,MAYASANDRA 572 221,08139-545226,MAYASANDRA,TUMKUR,KARNATAKA
SBMY0040103,State Bank of Mysore,SBMY0040103,NON-MICR,PAVAGADA,PAVAGADA 561 202,0816-624227,PAVAGADA,TUMKUR,KARNATAKA
SBMY0040104,State Bank of Mysore,SBMY0040104,NON-MICR,TURUVEKERE,TURUVEKERE 572 227,0816-527323,TURUVEKERE,TUMKUR,KARNATAKA
SBMY0040105,State Bank of Mysore,SBMY0040105,NON-MICR,BANASANDRA,BANASANDRA 572 212,0816-536823,BANASANDRA,TUMKUR,KARNATAKA
SBMY0040106,State Bank of Mysore,SBMY0040106,NON-MICR,HOLAVANAHALLI,HOLAVANAHALLI 572 121,0816-234030,HOLAVANAHALLI,TUMKUR,KARNATAKA
SBMY0040107,State Bank of Mysore,SBMY0040107,NON-MICR,SAMPIGE,SAMPIGE 572 225,0816-548628,SAMPIGE,TUMKUR,KARNATAKA
SBMY0040108,State Bank of Mysore,SBMY0040108,NON-MICR,DAVANAGERE,DAVANAGERE 577 001,0819-258898,DAVANGERE,DAVANAGARE,KARNATAKA
SBMY0040109,State Bank of Mysore,SBMY0040109,NON-MICR,CHITRADURGA,CHITRADURGA 571 455,0819-422471,CHITRADURGA,CHITRADURGA,KARNATAKA
SBMY0040110,State Bank of Mysore,SBMY0040110,NON-MICR,CHALLAKERE,CHALLAKERE 577 522,0819-522235,CHITRADURGA,CHITRADURGA,KARNATAKA
SBMY0040111,State Bank of Mysore,SBMY0040111,NON-MICR,HARIHAR,HARIHAR 577 601,0819-242261,HARIHAR,DAVANAGARE,KARNATAKA
SBMY0040112,State Bank of Mysore,SBMY0040112,NON-MICR,HIRIYUR,HIRIYUR 572 143,0819-327292,HIRIYUR,CHITRADURGA,KARNATAKA
SBMY0040113,State Bank of Mysore,SBMY0040113,NON-MICR,JAGALUR,JAGALUR 577 528,08196-27334,JAGALUR,DAVANAGARE,KARNATAKA
SBMY0040114,State Bank of Mysore,SBMY0040114,NON-MICR,MOLAKALAMURU,MOLKALMURU 577 535,08198-29222,MOLAKALMURU,CHITRADURGA,KARNATAKA
SBMY0040115,State Bank of Mysore,SBMY0040115,NON-MICR,BELLARY,BELLARY 583 101,08392-76444,BELLARY,BELLARY,KARNATAKA
SBMY0040116,State Bank of Mysore,SBMY0040116,NON-MICR,HOSPET,"TALUK OFFICE ROAD,HOSPET-583201",08394-224918,HOSPET,BELLARY,KARNATAKA
SBMY0040117,State Bank of Mysore,SBMY0040117,NON-MICR,HARAPANAHLLY,HARAPANAHLLY 583131,08398-20334,HARPANAHALLI,DAVANAGARE,KARNATAKA
SBMY0040118,State Bank of Mysore,SBMY0040118,NON-MICR,KAMPLI,KAMPLI 583 132,08394-50262,KAMPLI,BELLARY,KARNATAKA
SBMY0040119,State Bank of Mysore,SBMY0040119,NON-MICR,SIRUGUPPA,"KENCHANAGUDDA RD,SIRUGUPPA-583121",08396-220255,SIRUGUPPA,BELLARY,KARNATAKA
SBMY0040120,State Bank of Mysore,SBMY0040120,NON-MICR,"MAIN BAZAAR, HOSPET",HOSPET 583 201,08394-28238,HOSPET,BELLARY,KARNATAKA
SBMY0040121,State Bank of Mysore,SBMY0040121,NON-MICR,CHICKJOGIHALLI,CHICKJOGIHALLI 583 126,0839-363224,CHICKJOGIHALLI,BELLARY,KARNATAKA
SBMY0040122,State Bank of Mysore,SBMY0040122,NON-MICR,HUVINAHADAGALI,HUVINAHADAGALLI-583219,0839-840232,HUVINA HADGALLI,BELLARY,KARNATAKA
SBMY0040123,State Bank of Mysore,SBMY0040123,NON-MICR,KUDLIGI,KUDLIGI 583 135,0839-340228,KUDLIGI,BELLARY,KARNATAKA
SBMY0040124,State Bank of Mysore,SBMY0040124,NON-MICR,SANDUR,SANDUR 583 119,0839-560253,SANDUR,BELLARY,KARNATAKA
SBMY0040125,State Bank of Mysore,SBMY0040125,NON-MICR,KURUGODU,KURUGODU 583 116,08393-23422,KURUGODU,BELLARY,KARNATAKA
SBMY0040126,State Bank of Mysore,SBMY0040126,NON-MICR,BYADGI,BYADGI 581 106,0836-829026,BYADGI,HAVERI,KARNATAKA
SBMY0040127,State Bank of Mysore,SBMY0040127,NON-MICR,HAVERI,HAVERI 581 110,08375-832464,HAVERI,HAVERI,KARNATAKA
SBMY0040128,State Bank of Mysore,SBMY0040128,NON-MICR,HOLEALUR,HOLE ALUR 582 203,0836-516045,HOLE ALUR,GADAK,KARNATAKA
SBMY0040129,State Bank of Mysore,SBMY0040129,NON-MICR,RAMDURG,RAMDURG 591 123,0833-542090,RAMDURG,BELGAUM,KARNATAKA
SBMY0040130,State Bank of Mysore,SBMY0040130,NON-MICR,DANDELI,DANDELI 581 325,0828-331263,DANDELI,UTTARA KANNADA,KARNATAKA
SBMY0040131,State Bank of Mysore,SBMY0040131,NON-MICR,SIDDAPUR,SIDDAPUR 581 355,0838-322158,SIDDAPUR,UTTARA KANNADA,KARNATAKA
SBMY0040132,State Bank of Mysore,SBMY0040132,NON-MICR,SHIMOGA MAIN,SHIMOGA 577 201,0818-222307,SHIMOGA,SHIMOGA,KARNATAKA
SBMY0040133,State Bank of Mysore,SBMY0040133,NON-MICR,"BAZAAR, SHIMOGA",SHIMOGA 577 202,08182-22438,SHIMOGA,SHIMOGA,KARNATAKA
SBMY0040134,State Bank of Mysore,SBMY0040134,NON-MICR,BHADRAVATHI,BHADRAVATHI - 577301,0818-666237,BHADRAVATI,SHIMOGA,KARNATAKA
SBMY0040135,State Bank of Mysore,SBMY0040135,NON-MICR,O T AREA BHADRAVATHI,BHADRAVATHI 577 301,0818-666237,SHIMOGA,SHIMOGA,KARNATAKA
SBMY0040136,State Bank of Mysore,SBMY0040136,NON-MICR,SAGAR,SAGAR  577  401,0818-326006,SAGAR,SHIMOGA,KARNATAKA
SBMY0040137,State Bank of Mysore,SBMY0040137,NON-MICR,SHIKARIPUR,SHIKARIPUR 577 427,0818-722224,SHIMOGA,SHIMOGA,KARNATAKA
SBMY0040138,State Bank of Mysore,SBMY0040138,NON-MICR,ANANDAPURAM,ANANDAPURAM 577 412,08183-62425,SHIMOGA,SHIMOGA,KARNATAKA
SBMY0040139,State Bank of Mysore,SBMY0040139,NON-MICR,CHANNAGIRI,CHANNAGIRI 577 213,08189-29955,CHANNAGIRI,DAVANAGARE,KARNATAKA
SBMY0040140,State Bank of Mysore,SBMY0040140,NON-MICR,MEGARAVALLI,MEGARAVALLI 577 424,0818-797629,MEGARAVALLI,SHIMOGA,KARNATAKA
SBMY0040141,State Bank of Mysore,SBMY0040141,NON-MICR,SORABA,SORAB 577 429,0818-422838,SORAB,SHIMOGA,KARNATAKA
SBMY0040142,State Bank of Mysore,SBMY0040142,NON-MICR,THIRTHAHALLI,THIRTHAHALLY 577 432,0818-708247,TIRTHAHALLI,SHIMOGA,KARNATAKA
SBMY0040143,State Bank of Mysore,SBMY0040143,NON-MICR,CHICKMAGALUR,CHICKMAGALUR 577 101,0826-235423,CHIKMAGALUR,CHICKMAGALUR,KARNATAKA
SBMY0040144,State Bank of Mysore,SBMY0040144,NON-MICR,KADUR,KADUR 577 548,08267-21216,KADUR,CHICKMAGALUR,KARNATAKA
SBMY0040145,State Bank of Mysore,SBMY0040145,NON-MICR,TARIKERE,TARIKERE 577 228,0826-422231,TARIKERE,CHICKMAGALUR,KARNATAKA
SBMY0040146,State Bank of Mysore,SBMY0040146,NON-MICR,KOPPA,KOPPA 577 126,08265-21965,KOPPA,CHICKMAGALUR,KARNATAKA
SBMY0040147,State Bank of Mysore,SBMY0040147,NON-MICR,MUDIGERE,MUDIGERE 577 139,08263-2O247,MUDIGERE,CHICKMAGALUR,KARNATAKA
SBMY0040148,State Bank of Mysore,SBMY0040148,NON-MICR,N R PURA,NARASIMHARAJAPURA 577 134,08266-20123,NARASIMHARAJAPURA,CHICKMAGALUR,KARNATAKA
SBMY0040149,State Bank of Mysore,SBMY0040149,575006002,MANGALORE,GHS RD MANGALORE - 575001,0824-2423414,MANGALORE,DAKSHINA KANNADA,KARNATAKA
SBMY0040150,State Bank of Mysore,SBMY0040150,NON-MICR,KUNDAPURA,KUNDAPURA 576 201,08254-20315,COONDAPUR,UDUPI,KARNATAKA
SBMY0040151,State Bank of Mysore,SBMY0040151,NON-MICR,KARKALA,KARKALA 574 104,0825-730206,KARKALA,UDUPI,KARNATAKA
SBMY0040152,State Bank of Mysore,SBMY0040152,NON-MICR,PUTTUR,PUTTUR 574 201,0825-620367,PUTTUR,DAKSHINA KANNADA,KARNATAKA
SBMY0040153,State Bank of Mysore,SBMY0040153,NON-MICR,SOMWARPET,SOMWARPET 571 236,0827-682031,SOMWARPET,MADIKERI,KARNATAKA
SBMY0040154,State Bank of Mysore,SBMY0040154,600006005,CHENNAI MAIN,"231,NSC BOSE ROAD,PARRY,S CORNER,CHENNAI-600001",044-25342438,CHENNAI,CHENNAI,TAMIL NADU
SBMY0040155,State Bank of Mysore,SBMY0040155,NON-MICR,HOSUR,"149,RAJAJI RD.,HOSUR - 635109",04344-242631,HOSUR,KRISHNAGIRI,TAMIL NADU
SBMY0040156,State Bank of Mysore,SBMY0040156,641006002,COIMBATORE,COIMBATORE-641001,0422-2395401,COIMBATORE,COIMBOTORE,TAMIL NADU
SBMY0040157,State Bank of Mysore,SBMY0040157,682006003,KOCHI,"5/695,NEW RD.KOCHI - 682002",0484-2224736,KOCHI,ERNAKULAM,KERALA
SBMY0040158,State Bank of Mysore,SBMY0040158,570006017,N R MOHALLA,MYSORE 570 007,0821-493481,MYSORE,MYSORE,KARNATAKA
SBMY0040159,State Bank of Mysore,SBMY0040159,560006020,HANUMANTHANAGAR,BANGALORE 560 019,080-6673756,BANGALORE,BANGALORE URBAN,KARNATAKA
SBMY0040160,State Bank of Mysore,SBMY0040160,NON-MICR,HULIYURDURGA,HULIYURDURGA 572 123,0816-332336,HULIYURDURGA,TUMKUR,KARNATAKA
SBMY0040161,State Bank of Mysore,SBMY0040161,NON-MICR,MUNIRABAD,MUNIRABAD 583 234,08539-70247,MUNIRABAD,KOPPAL,KARNATAKA
SBMY0040162,State Bank of Mysore,SBMY0040162,NON-MICR,BIRUR,BIRUR 577 116,08267-55646,BIRUR,CHICKMAGALUR,KARNATAKA
SBMY0040163,State Bank of Mysore,SBMY0040163,560006045,VAYALIKAVAL,BANGALORE 560 003,080-3442803,BANGALORE,BANGALORE URBAN,KARNATAKA
SBMY0040164,State Bank of Mysore,SBMY0040164,NON-MICR,V C FARM,V C FARM 571 405,O823-277134,GANADALU,MANDYA,KARNATAKA
SBMY0040166,State Bank of Mysore,SBMY0040166,570006013,MANASAGANGOTRI,MYSORE 570 006,0821-510516,MYSORE,MYSORE,KARNATAKA
SBMY0040167,State Bank of Mysore,SBMY0040167,NON-MICR,TORANAGALLU,TORANAGALLU 583 123,08395-50622,TORANAGALLU,BELLARY,KARNATAKA
SBMY0040168,State Bank of Mysore,SBMY0040168,NON-MICR,BEML NAGAR,KOLAR GOLD FIELDS 563 115,08153-63100,KOLAR GOLD FIELDS,KOLAR,KARNATAKA
SBMY0040169,State Bank of Mysore,SBMY0040169,600006009,T NAGAR,MADRAS 600 017,044-8340121,CHENNAI,CHENNAI,TAMIL NADU
SBMY0040170,State Bank of Mysore,SBMY0040170,NON-MICR,KUMARAPATNAM,"PUNE-B'LORE RD.,KUMARPATNA-581123",08373-242252,KUMARAPATNAM,HAVERI,KARNATAKA
SBMY0040171,State Bank of Mysore,SBMY0040171,NON-MICR,KIKKERI,KIKKERI 571 423,0823-764422,KIKKERI,MANDYA,KARNATAKA
SBMY0040172,State Bank of Mysore,SBMY0040172,NON-MICR,KOTHATHI,KOTHATHI 571 471,0823-276070,KOTHATHI,MANDYA,KARNATAKA
SBMY0040173,State Bank of Mysore,SBMY0040173,NON-MICR,SINGATAGERE,SINGATAGERE 577 138,0826-735527,SINGATAGERE,CHICKMAGALUR,KARNATAKA
SBMY0040174,State Bank of Mysore,SBMY0040174,NON-MICR,CHELUR,CHELUR 572 117,0816-434227,CHELUR,TUMKUR,KARNATAKA
SBMY0040175,State Bank of Mysore,SBMY0040175,NON-MICR,BADAVANAHALLI,BADAVANAHALLI 572 112,0816-738029,BADAVANAHALLY,TUMKUR,KARNATAKA
SBMY0040176,State Bank of Mysore,SBMY0040176,NON-MICR,ADB DAVANAGER,DAVANAGERE 577 002,0819-258001,DAVANGERE,DAVANAGARE,KARNATAKA
SBMY0040177,State Bank of Mysore,SBMY0040177,NON-MICR,AMMASANDRA,AMMASANDRA 572 211,0816-568330,AMMASANDRA,TUMKUR,KARNATAKA
SBMY0040178,State Bank of Mysore,SBMY0040178,NON-MICR,YELDUR,YELDUR 563 138,08157-741025,YELDUR,KOLAR,KARNATAKA
SBMY0040179,State Bank of Mysore,SBMY0040179,NON-MICR,TALAKAD,TALAKAD 571 122,08227-273327,TALKAD,MYSORE,KARNATAKA
SBMY0040180,State Bank of Mysore,SBMY0040180,NON-MICR,NANGLI,NANGLI 563132,0815-548128,NANGALI,KOLAR,KARNATAKA
SBMY0040181,State Bank of Mysore,SBMY0040181,NON-MICR,VATADAHOSAHALLI,VATADAHOSAHALLI 561 228,08155-87422,VATADAHOSAHALLI,KOLAR,KARNATAKA
SBMY0040182,State Bank of Mysore,SBMY0040182,NON-MICR,KAMAGERI,KAMAGERE 571 443,0821-763324,KAMAGERE,CHAMRAJNAGAR,KARNATAKA
SBMY0040183,State Bank of Mysore,SBMY0040183,NON-MICR,THIMMANAHALLI,THIMMANAHALLI 572 228,0816-346028,TIMMANAHALLI,TUMKUR,KARNATAKA
SBMY0040184,State Bank of Mysore,SBMY0040184,NON-MICR,DONIMALAI T S,DONIMALAI TOWNSHIP 583118,0839-574632,DONIMALAI,BELLARY,KARNATAKA
SBMY0040185,State Bank of Mysore,SBMY0040185,NON-MICR,BINDIGANAVILE,BINDIGANAVILE 571 802,08234-61226,BINDIGANAVALE,MANDYA,KARNATAKA
SBMY0040186,State Bank of Mysore,SBMY0040186,NON-MICR,HIRISAVE,HIRISAVE 573 124,08176-26033,HIRESAVE,HASSAN,KARNATAKA
SBMY0040187,State Bank of Mysore,SBMY0040187,NON-MICR,SHANTIGRAMA,SHANTHIGRAMA 573 220,0817-258821,SHANTIGRAMA,HASSAN,KARNATAKA
SBMY0040188,State Bank of Mysore,SBMY0040188,NON-MICR,GANDASI,GANDASI 573 119,08174-20622,GHANDSI,HASSAN,KARNATAKA
SBMY0040189,State Bank of Mysore,SBMY0040189,NON-MICR,HALLY MYSORE,HALLYMYSORE 573 210,08175-60632,HALLI MYSORE,HASSAN,KARNATAKA
SBMY0040190,State Bank of Mysore,SBMY0040190,560006014,COOKE TOWN,BANGALORE 560 084,080-5476062,BANGALORE,BANGALORE URBAN,KARNATAKA
SBMY0040191,State Bank of Mysore,SBMY0040191,560006050,YESWANTPUR,BANGALORE 560 022,080-3371233,BANGALORE,BANGALORE URBAN,KARNATAKA
SBMY0040192,State Bank of Mysore,SBMY0040192,NON-MICR,BILIGIRE,BILIGERE 572 114,0816-462022,BILIGERE,TUMKUR,KARNATAKA
SBMY0040193,State Bank of Mysore,SBMY0040193,NON-MICR,JADIGENAHALLI,JADIGENAHALLI 562 114,08111-21230,JADIGENAHALLI,BANGALORE RURAL,KARNATAKA
SBMY0040194,State Bank of Mysore,SBMY0040194,NON-MICR,KALLUR,KALLUR 572 220,0816-443525,KALLUR,TUMKUR,KARNATAKA
SBMY0040195,State Bank of Mysore,SBMY0040195,560006038,SHANKARAPURAM,BANGALORE-560004,080-6610669,BANGALORE,BANGALORE URBAN,KARNATAKA
SBMY0040196,State Bank of Mysore,SBMY0040196,560006028,MADHAVANAGAR,CRESCENT TOWERS BANGALORE-560001,080-22268907,BANGALORE,BANGALORE URBAN,KARNATAKA
SBMY0040197,State Bank of Mysore,SBMY0040197,560006032,RAJAJINAGAR,BANGALORE 560 010,080-3320440,BANGALORE,BANGALORE URBAN,KARNATAKA
SBMY0040198,State Bank of Mysore,SBMY0040198,NON-MICR,ADB HUNSUR,HUNSUR 571 105,0821-652060,HUNSUR,MYSORE,KARNATAKA
SBMY0040199,State Bank of Mysore,SBMY0040199,560006042,TATA SILK FARM,BANGALORE 560 004,080-6760290,BANGALORE,BANGALORE URBAN,KARNATAKA
SBMY0040200,State Bank of Mysore,SBMY0040200,NON-MICR,ADB HASSAN,HASSAN 573 201,0817-268653,HASSAN,HASSAN,KARNATAKA
SBMY0040201,State Bank of Mysore,SBMY0040201,NON-MICR,ADB KORATAGERE,KORATAGERE 572 129,0816-222130,KORATAGERE,TUMKUR,KARNATAKA
SBMY0040202,State Bank of Mysore,SBMY0040202,580006002,HUBLI,USA TOWERS COEN RD HUBLI-580020,0836-2367367,HUBLI-DHARWAD,DHARWAD,KARNATAKA
SBMY0040203,State Bank of Mysore,SBMY0040203,600006002,ABHIRAMAPURAM,67 RAMASWAMY RD CHENNAI-600018,044-24988599,CHENNAI,CHENNAI,TAMIL NADU
SBMY0040204,State Bank of Mysore,SBMY0040204,NON-MICR,ADB SANDUR,SANDUR 583 119,0839-560279,SANDUR,BELLARY,KARNATAKA
SBMY0040205,State Bank of Mysore,SBMY0040205,NON-MICR,ADB KOLLEGAL,KOLLEGAL 571 440,0821-752173,KOLLEGAL,CHAMRAJNAGAR,KARNATAKA
SBMY0040206,State Bank of Mysore,SBMY0040206,NON-MICR,ADB SANTHEMARAHALLI,SANTHEMARAHALLI 571 115,0821-740046,SANTHEMARAHALLI,CHAMRAJNAGAR,KARNATAKA
SBMY0040207,State Bank of Mysore,SBMY0040207,NON-MICR,GURUPURA,GURUPURA 571 188,0821-646001,GURUPURA,MYSORE,KARNATAKA
SBMY0040208,State Bank of Mysore,SBMY0040208,641006004,TATABAD,COIMBATORE 641 012,0422-498783,COIMBATORE,COIMBOTORE,TAMIL NADU
SBMY0040209,State Bank of Mysore,SBMY0040209,NON-MICR,BELGAUM,"779 RAVIVARPET,BELGAUM-590002",0831-2460062,BELGAUM,BELGAUM,KARNATAKA
SBMY0040210,State Bank of Mysore,SBMY0040210,413006002,SOLAPUR," KANNA CHOWK,SOLAPUR - 413005",0217-2623900,SOLAPUR,SHOLAPUR,MAHARASHTRA
SBMY0040211,State Bank of Mysore,SBMY0040211,560006052,NAGARABHAVI,BANGALORE 560 056,080-3215056,BANGALORE,BANGALORE URBAN,KARNATAKA
SBMY0040212,State Bank of Mysore,SBMY0040212,NON-MICR,AJJAMPURA,AJJAMPURA 577 547,0826-445123,AJJAMPURA,CHICKMAGALUR,KARNATAKA
SBMY0040213,State Bank of Mysore,SBMY0040213,NON-MICR,H HOSAHALLI,H HOSAHALLI 583 120,0839-655626,H.HOSAHALLI,BELLARY,KARNATAKA
SBMY0040215,State Bank of Mysore,SBMY0040215,560006025,KANAKAPURA ROAD,BANGALORE 560 082,O80-6347382,BANGALORE,BANGALORE URBAN,KARNATAKA
SBMY0040216,State Bank of Mysore,SBMY0040216,110006004,KAROLBAGH,62/2191 GURUDWARA RD KAROL BAGH,011-25719353,DELHI,NEW DELHI,DELHI
SBMY0040217,State Bank of Mysore,SBMY0040217,560006009,CBAB COMPLEX,CAUVERY BHAVAN BANGALORE-560009,080-22211083,BANGALORE,BANGALORE URBAN,KARNATAKA
SBMY0040218,State Bank of Mysore,SBMY0040218,403006003,KHANDEPAR,103 LAKHSMI KUNJ KHANDEPAR-403401,0832-2345226,PONDA,NORTH GOA,GOA
SBMY0040219,State Bank of Mysore,SBMY0040219,560006051,YELAHANKA,BANGALORE 560 064,080-8460044,BANGALORE,BANGALORE URBAN,KARNATAKA
SBMY0040220,State Bank of Mysore,SBMY0040220,NON-MICR,GADAG,SIDDALINGESWAR COMPLEX STATION RD GADAG,08372-538545,GADAG,GADAK,KARNATAKA
SBMY0040221,State Bank of Mysore,SBMY0040221,NON-MICR,HOLALU (BELLARY),HOLALU-583217,0839-854417,HOLALU,BELLARY,KARNATAKA
SBMY0040222,State Bank of Mysore,SBMY0040222,NON-MICR,"COWL BAZAR, BELLARY",BELLARY 583 102,0839-240992,BELLARY,BELLARY,KARNATAKA
SBMY0040223,State Bank of Mysore,SBMY0040223,560006053,NGEF,BANGALORE 560 038,080-5244165,BANGALORE,BANGALORE URBAN,KARNATAKA
SBMY0040224,State Bank of Mysore,SBMY0040224,NON-MICR,JOG FALLS,JOGFALLS 577 435,08186-44731,SHIMOGA,SHIMOGA,KARNATAKA
SBMY0040225,State Bank of Mysore,SBMY0040225,NON-MICR,SULLIA,SULLIA 574 239,08257-600385,SULLIA,DAKSHINA KANNADA,KARNATAKA
SBMY0040226,State Bank of Mysore,SBMY0040226,600006011,WHITES ROAD,CHENNAI-600014,044-28551573,CHENNAI,CHENNAI,TAMIL NADU
SBMY0040227,State Bank of Mysore,SBMY0040227,500006003,SECUNDERABAD,"1-7-265-274 SARAGAN RD.,SEC'BAD - 3.",040-27840732,SECUNDERABAD CANTONMENT,HYDERABAD URBAN,ANDHRA PRADESH
SBMY0040228,State Bank of Mysore,SBMY0040228,NON-MICR,THONDEBHAVI,THONDEBHAVI 561 213,08155-88826,THONDEBHAVI,KOLAR,KARNATAKA
SBMY0040229,State Bank of Mysore,SBMY0040229,700006003,RASHBEHARI AVENUE,180 RASH BEHARI AVENUE KOLKATA-700028,033-24640844,KOLKATA,KOLKATA,WEST BENGAL
SBMY0040230,State Bank of Mysore,SBMY0040230,NON-MICR,KM DODDI,K.M.DODDI 571422,0823-235023,KALAMUDDANADODDI,MANDYA,KARNATAKA
SBMY0040231,State Bank of Mysore,SBMY0040231,560006044,VIJAYA NAGAR,BANGALORE 560 040,080-3351339,BANGALORE,BANGALORE URBAN,KARNATAKA
SBMY0040232,State Bank of Mysore,SBMY0040232,570006014,MANDI MOHALLA,MYSORE 570 021,0821-443504,MYSORE,MYSORE,KARNATAKA
SBMY0040233,State Bank of Mysore,SBMY0040233,NON-MICR,YEDIYUR,YEDEYUR 572 142,08132-336227,YEDIYUR,TUMKUR,KARNATAKA
SBMY0040234,State Bank of Mysore,SBMY0040234,600006007,SHASTRINAGAR,CHENNAI- 600 020,044-4911176,CHENNAI,CHENNAI,TAMIL NADU
SBMY0040236,State Bank of Mysore,SBMY0040236,600006006,SANTHOME,MADRAS 600 004,044-4984655,CHENNAI,CHENNAI,TAMIL NADU
SBMY0040237,State Bank of Mysore,SBMY0040237,NON-MICR,RABKAVI,RABKAVI 587 314,0835-330244,RABKAVI BANHATTI,BAGALKOT,KARNATAKA
SBMY0040238,State Bank of Mysore,SBMY0040238,NON-MICR,HONNUDIKE,HONNUDIKE 572 122,0816-266323,HONNUDIKE,TUMKUR,KARNATAKA
SBMY0040239,State Bank of Mysore,SBMY0040239,560006109,MADHAVARA,MADAVARA-562123,080-3715255,MADAVARA,BANGALORE URBAN,KARNATAKA
SBMY0040240,State Bank of Mysore,SBMY0040240,NON-MICR,HARIGE,HARIGE 577 222,0818-240259,SHIMOGA,SHIMOGA,KARNATAKA
SBMY0040241,State Bank of Mysore,SBMY0040241,NON-MICR,PAPERTOWN,BHADRAVATHI 577 302,0818-670342,SHIMOGA,SHIMOGA,KARNATAKA
SBMY0040242,State Bank of Mysore,SBMY0040242,NON-MICR,KANAKATTE,KANAKATTE 573 144,0817-465940,KANAKATTE,HASSAN,KARNATAKA
SBMY0040243,State Bank of Mysore,SBMY0040243,400006008,MATUNGA,NAYAK SHANTINATH BHAVAN DR.AMBEDKAR RD MATUNGA-400019,022-24021570,MUMBAI,GREATER BOMBAY,MAHARASHTRA
SBMY0040244,State Bank of Mysore,SBMY0040244,560006016,COX TOWN,BANGALORE 560 005,080-5484392,BANGALORE,BANGALORE URBAN,KARNATAKA
SBMY0040245,State Bank of Mysore,SBMY0040245,400006003,CHEMBUR,BALA BHAVAN CENTRAL AVENUE RD CHEMBUR MUMBAI-400071,022-25210834,MUMBAI,GREATER BOMBAY,MAHARASHTRA
SBMY0040246,State Bank of Mysore,SBMY0040246,NON-MICR,BANGURNAGAR,DANDELI 581 325,0838-331339,DANDELI,UTTARA KANNADA,KARNATAKA
SBMY0040247,State Bank of Mysore,SBMY0040247,NON-MICR,BELAGULA,BELAGULA 571 606,08236-57263,BELAGOLA,MANDYA,KARNATAKA
SBMY0040248,State Bank of Mysore,SBMY0040248,570006031,VONTIKOPPAL,MYSORE 570 002,0821-513468,MYSORE,MYSORE,KARNATAKA
SBMY0040249,State Bank of Mysore,SBMY0040249,570006007,J S S COLLEGE,MYSORE 570 004,0821-521461,MYSORE,MYSORE,KARNATAKA
SBMY0040250,State Bank of Mysore,SBMY0040250,600006008,ST.THOMAS MOUNT,CHENNAI-600016,044-2342668,CHENNAI,CHENNAI,TAMIL NADU
SBMY0040251,State Bank of Mysore,SBMY0040251,400006006,MAHIM,6/7 KARMABHUMI MORI RD MAHIM(WEST),022-24464273,MUMBAI,GREATER BOMBAY,MAHARASHTRA
SBMY0040252,State Bank of Mysore,SBMY0040252,560006041,SUDHAMANAGAR,BANGALORE 560 027,080-2220198,BANGALORE,BANGALORE URBAN,KARNATAKA
SBMY0040253,State Bank of Mysore,SBMY0040253,NON-MICR,GANDHI NAGAR,BELLARY 583 101,08392-56378,BELLARY,BELLARY,KARNATAKA
SBMY0040254,State Bank of Mysore,SBMY0040254,NON-MICR,KOTTUR,KOTTUR 583 134,0839-356230,KOTTURU,BELLARY,KARNATAKA
SBMY0040255,State Bank of Mysore,SBMY0040255,NON-MICR,VISL (BHADRA),BHADRAVATHI 577 301,0818-671564,BHADRAVATI,SHIMOGA,KARNATAKA
SBMY0040256,State Bank of Mysore,SBMY0040256,NON-MICR,BAGALKOT,MELLIGIRI COMPLEX KALADGI RD,08354-420206,BAGALKOT,BAGALKOT,KARNATAKA
SBMY0040257,State Bank of Mysore,SBMY0040257,560006029,MAHALAKSHMI LAYOUT,BANGALORE 560 086,080-3490909,BANGALORE,BANGALORE URBAN,KARNATAKA
SBMY0040258,State Bank of Mysore,SBMY0040258,570006005,MCC,MYSORE 570 024,0821-520578,MYSORE,MYSORE,KARNATAKA
SBMY0040259,State Bank of Mysore,SBMY0040259,700006002,BENTINCK STREET,"1ST FLOOR TOBACCO HOUSE, BRABOURNE RD KOLKOTTA-700001",033-22200991,KOLKATA,KOLKATA,WEST BENGAL
SBMY0040260,State Bank of Mysore,SBMY0040260,560006015,COTTONPET,BANGALORE 560 053,O80-2875116,BANGALORE,BANGALORE URBAN,KARNATAKA
SBMY0040261,State Bank of Mysore,SBMY0040261,NON-MICR,BR PROJECT,B R PROJECT 577 115,0818-656242,BHADRA PROJECT AREA,SHIMOGA,KARNATAKA
SBMY0040262,State Bank of Mysore,SBMY0040262,NON-MICR,ADIVALA,ADIVALA 577 511,0819-350131,ADIVALA,CHITRADURGA,KARNATAKA
SBMY0040263,State Bank of Mysore,SBMY0040263,560006037,SESHADRIPURAM,BANGALORE 560 020,080-3444391,BANGALORE,BANGALORE URBAN,KARNATAKA
SBMY0040264,State Bank of Mysore,SBMY0040264,NON-MICR,NYAMATHI,NYAMATHI 577 223,08188-415364,NYAMATI,DAVANAGARE,KARNATAKA
SBMY0040266,State Bank of Mysore,SBMY0040266,NON-MICR,HALEYUR,HALEYUR 571 672,0821-681129,HALEYUR,MYSORE,KARNATAKA
SBMY0040267,State Bank of Mysore,SBMY0040267,560006031,"P.U.B. BRANCH, BANGALORE",BANGALORE 560 001,080-5587653,BANGALORE,BANGALORE URBAN,KARNATAKA
SBMY0040268,State Bank of Mysore,SBMY0040268,NON-MICR,BANNUR,BANNUR 571 101,0821-275682,BANNUR,MYSORE,KARNATAKA
SBMY0040269,State Bank of Mysore,SBMY0040269,560006039,"S.M.C. BRANCH,JAYANAGAR",BANGALORE 560 011,080-6632210,BANGALORE,BANGALORE URBAN,KARNATAKA
SBMY0040270,State Bank of Mysore,SBMY0040270,NON-MICR,RAVINDRANAGAR EXTN,SHIMOGA 577 201,0818-220185,SHIMOGA,SHIMOGA,KARNATAKA
SBMY0040271,State Bank of Mysore,SBMY0040271,NON-MICR,HAGARIBOMMANAHALLI,HAGARIBOMMANAHALLI 583212,08397-432065,HAGARIBOMMANAHALLI,BELLARY,KARNATAKA
SBMY0040272,State Bank of Mysore,SBMY0040272,570006032,YADAVAGIRI,MYSORE 570 020,0821-514036,MYSORE,MYSORE,KARNATAKA
SBMY0040273,State Bank of Mysore,SBMY0040273,570006023,SIDDARTHANAGAR,MYSORE 570 011,0821-472052,MYSORE,MYSORE,KARNATAKA
SBMY0040274,State Bank of Mysore,SBMY0040274,570006002,BRINDAVAN EXTN,MYSORE-570020,0821-513570,MYSORE,MYSORE,KARNATAKA
SBMY0040275,State Bank of Mysore,SBMY0040275,NON-MICR,GUDEMARANAHALLI,GUDEMARANAHALLI 562 127,080-7757202,GUDEMARNAHALLI,BANGALORE RURAL,KARNATAKA
SBMY0040276,State Bank of Mysore,SBMY0040276,560006054,GANGENAHALLI,BANGALORE 560 032,080-3330075,BANGALORE,BANGALORE URBAN,KARNATAKA
SBMY0040277,State Bank of Mysore,SBMY0040277,560006043,VIDHANA SOUDHA,BANGALORE 560 001,080-2254718,BANGALORE,BANGALORE URBAN,KARNATAKA
SBMY0040278,State Bank of Mysore,SBMY0040278,110006002,CONNAUGHT PLACE,2 K.G.MARG  ANTHRIX BHAVAN NEWDELHI-110001,011-23723761,DELHI,NEW DELHI,DELHI
SBMY0040279,State Bank of Mysore,SBMY0040279,NON-MICR,KUKKUWADA,KUKKUWADA 577 525,0819-201634,KUKKUWADA,DAVANAGARE,KARNATAKA
SBMY0040280,State Bank of Mysore,SBMY0040280,560006046,WEST OF CHORD ROAD,BANGALORE 560 086,080-3222193,BANGALORE,BANGALORE URBAN,KARNATAKA
SBMY0040281,State Bank of Mysore,SBMY0040281,NON-MICR,SADALI,SADALI 562 104,08158-59645,SADALI,KOLAR,KARNATAKA
SBMY0040282,State Bank of Mysore,SBMY0040282,NON-MICR,VINAYAKANAGAR EXTN,TUMKUR 572 101,0816-278137,TUMKUR,TUMKUR,KARNATAKA
SBMY0040283,State Bank of Mysore,SBMY0040283,560006055,LINGARAJAPURAM,"5/56 HENNUR MAIN RD.,B'LORE - 560084",080-25473255,BANGALORE,BANGALORE URBAN,KARNATAKA
SBMY0040284,State Bank of Mysore,SBMY0040284,560006056,SSI PEENYA IND ESTATE,120 100 FT RD INDUSTRIAL ESTATE III PHASE PEENY,080-28370410,BANGALORE,BANGALORE URBAN,KARNATAKA
SBMY0040285,State Bank of Mysore,SBMY0040285,560006068,KAVAL BYRASANDRA,BANGALORE-560032,080-3332843,BANGALORE,BANGALORE URBAN,KARNATAKA
SBMY0040286,State Bank of Mysore,SBMY0040286,NON-MICR,GANESHGUDI,GANESHGUDI 581 365,08383-46543,GANESHGUDI,UTTARA KANNADA,KARNATAKA
SBMY0040287,State Bank of Mysore,SBMY0040287,NON-MICR,KARWAR,458 CIVIL COURT RD KARWAR-581301,08382-226242,KARWAR,UTTARA KANNADA,KARNATAKA
SBMY0040288,State Bank of Mysore,SBMY0040288,411006002,PUNE,"PURNIMA TOWERS NEAR ST GARAGE SHANKARSHET RD, PUNE-411037",020-24442484,PUNE,PUNE,MAHARASHTRA
SBMY0040289,State Bank of Mysore,SBMY0040289,570006009,JAYANAGAR,MYSORE 570 014,0821-567190,MYSORE,MYSORE,KARNATAKA
SBMY0040290,State Bank of Mysore,SBMY0040290,NON-MICR,SRINGERI,SRINGERI 577 139,0826-550149,SRINGERI,CHICKMAGALUR,KARNATAKA
SBMY0040291,State Bank of Mysore,SBMY0040291,682006002,ERNAKULAM,38/1119 M G ROAD ERNAKULAM-682011,0484-2355126,KOCHI,ERNAKULAM,KERALA
SBMY0040292,State Bank of Mysore,SBMY0040292,560006005,VISWESWARAPURAM,BANGALORE 560 004,080-6618289,BANGALORE,BANGALORE URBAN,KARNATAKA
SBMY0040293,State Bank of Mysore,SBMY0040293,500006002,ABIDS,4-14978 ABIDS ROAD HYDERABAD,040-23387712,HYDERABAD,HYDERABAD URBAN,ANDHRA PRADESH
SBMY0040294,State Bank of Mysore,SBMY0040294,560006040,SUBEDARCHATRAM ROAD,BANGALORE 560 020,080-3441188,BANGALORE,BANGALORE URBAN,KARNATAKA
SBMY0040295,State Bank of Mysore,SBMY0040295,NON-MICR,HETHUR,HETHUR 573 123,0817-366247,HETHUR,HASSAN,KARNATAKA
SBMY0040296,State Bank of Mysore,SBMY0040296,NON-MICR,YELANDUR,YELANDUR 571 441,0822-740049,YELANDUR,CHAMRAJNAGAR,KARNATAKA
SBMY0040297,State Bank of Mysore,SBMY0040297,600006003,KILPAUK,CHENNAI-600010,044-6411801,CHENNAI,CHENNAI,TAMIL NADU
SBMY0040298,State Bank of Mysore,SBMY0040298,411006003,GOKHALENAGAR,390 CHANDRALOK APARTMENT GOKHALENAGAR,020-25652975,PUNE,PUNE,MAHARASHTRA
SBMY0040299,State Bank of Mysore,SBMY0040299,560006024,JAYANAGAR 9TH BLOCK,BANGALORE 560 041,080-6340790,BANGALORE,BANGALORE URBAN,KARNATAKA
SBMY0040300,State Bank of Mysore,SBMY0040300,NON-MICR,BIJAPUR,BIJAPUR 586 101,0835-250515,BIJAPUR,BIJAPUR,KARNATAKA
SBMY0040301,State Bank of Mysore,SBMY0040301,520006102,GUNTUR,5/1 ARUNDALPET IV LANE -522002,0863-2233092,GUNTUR,GUNTUR,ANDHRA PRADESH
SBMY0040302,State Bank of Mysore,SBMY0040302,NON-MICR,HUKKERI,HUKKERI 591 309,08333-365046,HUKKERI,BELGAUM,KARNATAKA
SBMY0040303,State Bank of Mysore,SBMY0040303,NON-MICR,BATLAHALLI,BATLAHALLI 563 123,08154-47331,BATLAHALLI,KOLAR,KARNATAKA
SBMY0040304,State Bank of Mysore,SBMY0040304,NON-MICR,GULUR(KOLAR),GULUR 561 218,08150-788544,GULUR,KOLAR,KARNATAKA
SBMY0040305,State Bank of Mysore,SBMY0040305,NON-MICR,HOLALKERE,HOLALKERE 577 526,0819-675224,HOLALKERE,CHITRADURGA,KARNATAKA
SBMY0040306,State Bank of Mysore,SBMY0040306,NON-MICR,HOSADURGA,HOSADURGA 577 527,0819-330232,HOSADURGA,CHITRADURGA,KARNATAKA
SBMY0040307,State Bank of Mysore,SBMY0040307,NON-MICR,HOSANAGAR,HOSANAGAR 577 418,08185-21201,HOSANAGARA,SHIMOGA,KARNATAKA
SBMY0040308,State Bank of Mysore,SBMY0040308,NON-MICR,HONNALI,HONNALI 577 217,08188-21258,HONNALI,DAVANAGARE,KARNATAKA
SBMY0040309,State Bank of Mysore,SBMY0040309,NON-MICR,GULUR,GULUR 572 118,0816-246032,GULUR,TUMKUR,KARNATAKA
SBMY0040310,State Bank of Mysore,SBMY0040310,NON-MICR,HOSAKERE,HOSAKERE 572 132,0816-735024,HOSAKERE,TUMKUR,KARNATAKA
SBMY0040311,State Bank of Mysore,SBMY0040311,NON-MICR,KADAGATHUR,KADAGATHUR 572 149,0816-741609,KADAGATHUR,TUMKUR,KARNATAKA
SBMY0040312,State Bank of Mysore,SBMY0040312,NON-MICR,ILKAL,KSRTC BUS STAND ILKAL - 587125,08351-270208,ILKAL,BAGALKOT,KARNATAKA
SBMY0040313,State Bank of Mysore,SBMY0040313,NON-MICR,TALLIKOTE,TALIKOTE 586 214,0835-666309,TALIKOTI,BIJAPUR,KARNATAKA
SBMY0040315,State Bank of Mysore,SBMY0040315,NON-MICR,J C PURA,JAYACHAMARAJAPURA 573 126,0817-451627,JAYACHAMARAJAPURA,TUMKUR,KARNATAKA
SBMY0040316,State Bank of Mysore,SBMY0040316,NON-MICR,SHIVASAMUDRAM,SHIVASAMUDRAM 571 437,0823-347025,SIVASAMUDRAM,MANDYA,KARNATAKA
SBMY0040317,State Bank of Mysore,SBMY0040317,NON-MICR,KALKUNI,KALKUNI 571 424,0823-349437,KALKUNI,MANDYA,KARNATAKA
SBMY0040318,State Bank of Mysore,SBMY0040318,620006002,TIRUCHIRAPAAI,TIRUCHIRAPALLI 620 002,0431-703347,TIRUCHIRAPPALLI,TIRUCHIORAPPALLI,TAMIL NADU
SBMY0040319,State Bank of Mysore,SBMY0040319,NON-MICR,NALLUDIKOTTALA,NALLUDIKOTTALA 583 113,0839-450254,NALLUDI,BELLARY,KARNATAKA
SBMY0040320,State Bank of Mysore,SBMY0040320,NON-MICR,PONNAMPET,PONNAMPET 571 216,08274-49025,PONNAMPET,MADIKERI,KARNATAKA
SBMY0040321,State Bank of Mysore,SBMY0040321,110006005,NAYABAZAR,"NO.4101-4157 NAYABAZAR,NEWDELHI-110006",011-23950129,DELHI,NEW DELHI,DELHI
SBMY0040322,State Bank of Mysore,SBMY0040322,NON-MICR,HONGAHALLI,HONGAHALLY 571 607,0823-657272,HONGAHALLY,MANDYA,KARNATAKA
SBMY0040323,State Bank of Mysore,SBMY0040323,560006033,4TH BLOCK RAJAJINAGAR,BANGALORE 560 010,080-3352480,BANGALORE,BANGALORE URBAN,KARNATAKA
SBMY0040324,State Bank of Mysore,SBMY0040324,570006021,SHIVARAMPET,MYSORE 570 001,0821-421274,MYSORE,MYSORE,KARNATAKA
SBMY0040325,State Bank of Mysore,SBMY0040325,NON-MICR,NIDAGHATTA,NIDAGHATTA 577 135,08267-32003,NIDAGHATTA,CHICKMAGALUR,KARNATAKA
SBMY0040326,State Bank of Mysore,SBMY0040326,NON-MICR,HOLALU,HOLALU-583217,0839-854417,HOLALU,BELLARY,KARNATAKA
SBMY0040327,State Bank of Mysore,SBMY0040327,NON-MICR,BAGALUR,BAGALUR 635103,04344-554129,BAGALUR,KRISHNAGIRI,TAMIL NADU
SBMY0040328,State Bank of Mysore,SBMY0040328,NON-MICR,MASTIKATTE,MASTIKATTE 577 448,08185-65224,MASTHIKATTE,SHIMOGA,KARNATAKA
SBMY0040329,State Bank of Mysore,SBMY0040329,NON-MICR,MADIKERI,ANUSHREE COMPLEX MADIKERI-571201,08272-228636,MADIKERI,MADIKERI,KARNATAKA
SBMY0040330,State Bank of Mysore,SBMY0040330,NON-MICR,MATHIGIRI,HOSUR CATTLE FARM 635 110,04344 -562551,MATHIGIRI,KRISHNAGIRI,TAMIL NADU
SBMY0040331,State Bank of Mysore,SBMY0040331,560006114,NELAMANGALA,NELAMANGALA 562 123,080-7722140,NELAMANGALA,BANGALORE RURAL,KARNATAKA
SBMY0040332,State Bank of Mysore,SBMY0040332,NON-MICR,NAGASAMUDRA,NAGASAMUDRA  577 572,0819-864008,NAGASAMUDRA,CHITRADURGA,KARNATAKA
SBMY0040333,State Bank of Mysore,SBMY0040333,NON-MICR,C S PURA,CHANDRASHEKARAPURA 572213,0816-447024,CHANDRASEKHARAPURA,TUMKUR,KARNATAKA
SBMY0040334,State Bank of Mysore,SBMY0040334,NON-MICR,SIDDAGANGA EXTN,TUMKUR 572 102,0816-278843,TUMKUR,TUMKUR,KARNATAKA
SBMY0040335,State Bank of Mysore,SBMY0040335,NON-MICR,SRIRAMPURA,SRIRAMPURA 577 542,0819-342632,SRIRAMPURA,CHITRADURGA,KARNATAKA
SBMY0040336,State Bank of Mysore,SBMY0040336,NON-MICR,BUDIKOTE,BUDIKOTE 563 147,0815-356838,BUDIKOTE,KOLAR,KARNATAKA
SBMY0040337,State Bank of Mysore,SBMY0040337,NON-MICR,YIDAGUR,YIDAGUR 561 208,0815-581231,IDAGUR,KOLAR,KARNATAKA
SBMY0040338,State Bank of Mysore,SBMY0040338,NON-MICR,BHANUVALLI,BHANUVALLI 577 516,0819-286021,BHANUVALLI,DAVANAGARE,KARNATAKA
SBMY0040339,State Bank of Mysore,SBMY0040339,NON-MICR,SETTIKERE,SETTIKERE 572 226,0816-345523,SETTIKERE,TUMKUR,KARNATAKA
SBMY0040340,State Bank of Mysore,SBMY0040340,NON-MICR,KEREBILCHI,KEREBILICHI 577 218,0818-487531,KEREBILACHI,DAVANAGARE,KARNATAKA
SBMY0040341,State Bank of Mysore,SBMY0040341,NON-MICR,SUNDAKERE,SUNDEKERE 573 115,0817-358248,SUNDEKERE,HASSAN,KARNATAKA
SBMY0040342,State Bank of Mysore,SBMY0040342,NON-MICR,DARINAYAKANAPALYA,DARINAYAKANAPALYA 561206,08155-87840,DARINAYAKANAPALYA,KOLAR,KARNATAKA
SBMY0040343,State Bank of Mysore,SBMY0040343,700006004,SHAKESPEARE SARANI,24A PARIJAT SHAKESPEARE SARANI KOLKOTTA-700017,033-22401218,KOLKATA,KOLKATA,WEST BENGAL
SBMY0040344,State Bank of Mysore,SBMY0040344,673006002,KOZHIKODE,CHIRAKKAL COMP. CALICUT-673001,0495-2700965,CALICUT,KOZHIKODE,KERALA
SBMY0040345,State Bank of Mysore,SBMY0040345,560006021,INDIRANAGAR (HAL II STAGE),BANGALORE 560 038,080-5583525,BANGALORE,BANGALORE URBAN,KARNATAKA
SBMY0040346,State Bank of Mysore,SBMY0040346,NON-MICR,NAGOONAHALLI,NAGOONAHALLI 571 805,0823-652048,NAGOONAHALLI,MANDYA,KARNATAKA
SBMY0040347,State Bank of Mysore,SBMY0040347,NON-MICR,KONDAJJI,KONDAJJI 577 589,08192-281833,KONDAJI,DAVANAGARE,KARNATAKA
SBMY0040348,State Bank of Mysore,SBMY0040348,636006002,SALEM,SALEM-636001,0427-2267265,SALEM,SALEM,TAMIL NADU
SBMY0040349,State Bank of Mysore,SBMY0040349,NON-MICR,ADB ABBUR,PERIYAPATNA 571 107,0821-674107,PERIYAPATNA,MYSORE,KARNATAKA
SBMY0040350,State Bank of Mysore,SBMY0040350,NON-MICR,HONGANUR,HONGANOOR 562 138,080-7253301,HONGAUR,BANGALORE RURAL,KARNATAKA
SBMY0040351,State Bank of Mysore,SBMY0040351,NON-MICR,DOMMASANDRA,DOMMASANDRA 562 148,080-7822046,DOMMASANDRA,BANGALORE URBAN,KARNATAKA
SBMY0040352,State Bank of Mysore,SBMY0040352,580006302,DHARWAD,DHARWAD 580 001,0836-447926,HUBLI-DHARWAD,DHARWAD,KARNATAKA
SBMY0040353,State Bank of Mysore,SBMY0040353,560006017,CUNNINGHAM ROAD,11 CUNNINGHAM RD BANGALORE-560052,080-22267103,BANGALORE,BANGALORE URBAN,KARNATAKA
SBMY0040354,State Bank of Mysore,SBMY0040354,NON-MICR,ADB MARANAGERE,TIPTUR 572202,0816-451286,TIPTUR,TUMKUR,KARNATAKA
SBMY0040355,State Bank of Mysore,SBMY0040355,560006057,SARAKKI,BANGALORE 560 078,080-6342386,BANGALORE,BANGALORE URBAN,KARNATAKA
SBMY0040356,State Bank of Mysore,SBMY0040356,641006003,R S PURAM,COIMBATORE 641 002,0422-472783,COIMBATORE,COIMBOTORE,TAMIL NADU
SBMY0040357,State Bank of Mysore,SBMY0040357,NON-MICR,SABAGERI EXTN,YELLAPUR 581350,0838-411549,YELLAPUR,UTTARA KANNADA,KARNATAKA
SBMY0040358,State Bank of Mysore,SBMY0040358,NON-MICR,KUMBARWADA,KUMBARWADA 581 187,0838-248017,KUMBARAWADA,UTTARA KANNADA,KARNATAKA
SBMY0040359,State Bank of Mysore,SBMY0040359,520006001,VIJAYAWADA,"N R P RD.,VIJAYAWADA - 520003",0866-2576783,VIJAYAWADA,KRISHNA,ANDHRA PRADESH
SBMY0040360,State Bank of Mysore,SBMY0040360,403006004,MARGAO,"MARGAO , GOA - 403601",0832-2731708,MARGAO,SOUTH GOA,GOA
SBMY0040361,State Bank of Mysore,SBMY0040361,NON-MICR,P.J.EXTENSION,DAVANAGERE 577 004,0819-221206,DAVANGERE,DAVANAGARE,KARNATAKA
SBMY0040362,State Bank of Mysore,SBMY0040362,416006002,KOLHAPUR,659 C E WARD 2ND LANE SHAHPURI KOLHAPUR-416001,0231-2657978,KOLHAPUR,KOLHAPUR,MAHARASHTRA
SBMY0040363,State Bank of Mysore,SBMY0040363,NON-MICR,HINDWADI,HINDWADI 590 011,0831-467385,BELGAUM,BELGAUM,KARNATAKA
SBMY0040364,State Bank of Mysore,SBMY0040364,NON-MICR,INDIRAGANDHI ROAD,CHICKMAGALUR 577 101,0826-235785,CHIKMAGALUR,CHICKMAGALUR,KARNATAKA
SBMY0040365,State Bank of Mysore,SBMY0040365,625006002,MADURAI,NORTH VELI STREET MADURAI-625001,0452-2340473,MADURAI,MADURAI,TAMIL NADU
SBMY0040366,State Bank of Mysore,SBMY0040366,NON-MICR,AKKUR,AKKUR 562 124,08113-7263228,AKKUR,BANGALORE RURAL,KARNATAKA
SBMY0040367,State Bank of Mysore,SBMY0040367,560006019,GAYATHRI NAGAR,BANGALORE 560 021,080-3320594,BANGALORE,BANGALORE URBAN,KARNATAKA
SBMY0040368,State Bank of Mysore,SBMY0040368,400006005,KHAR,199 SYBIL MANSION S V RD SANTA CRUZ,022-26462145,MUMBAI,GREATER BOMBAY,MAHARASHTRA
SBMY0040369,State Bank of Mysore,SBMY0040369,NON-MICR,SHRAVANABELAGOLA,SHRAVANABELAGOLA 573 135,0817-657256,SRAVANABELGOLA,HASSAN,KARNATAKA
SBMY0040370,State Bank of Mysore,SBMY0040370,NON-MICR,ADB MANDYA,MANDYA 571401,08232-20583,MANDYA,MANDYA,KARNATAKA
SBMY0040371,State Bank of Mysore,SBMY0040371,560006008,BENSON TOWN,BANGALORE-560046,080-3332145,BANGALORE,BANGALORE URBAN,KARNATAKA
SBMY0040372,State Bank of Mysore,SBMY0040372,NON-MICR,D P HALLI,DODDAPONNADAHALLI-563129,08153-212167,DODDAPONNANDAHALLI,KOLAR,KARNATAKA
SBMY0040373,State Bank of Mysore,SBMY0040373,NON-MICR,KOTAGUDDA,KOTAGUDDA 561 215,08136-643027,KOTAGUDDA,TUMKUR,KARNATAKA
SBMY0040374,State Bank of Mysore,SBMY0040374,560006027,LANGFORD TOWN BRANCH,BANGALORE 560 025,080-2235923,BANGALORE,BANGALORE URBAN,KARNATAKA
SBMY0040375,State Bank of Mysore,SBMY0040375,517006002,TIRUPATI,564/C IST D BALAJI COLONY THIRUPATHI-517501,0877-2260754,TIRUPATI,CHITTOR,ANDHRA PRADESH
SBMY0040376,State Bank of Mysore,SBMY0040376,560006036,SAMPANGIRAMNAGAR,BANGALORE 560 027,080-2220412,BANGALORE,BANGALORE URBAN,KARNATAKA
SBMY0040377,State Bank of Mysore,SBMY0040377,638006002,ERODE,ERODE - 638001,0424-2214403,ERODE,ERODE,TAMIL NADU
SBMY0040378,State Bank of Mysore,SBMY0040378,570006030,VISWESHWAR NAGAR,MYSORE 570 008,0821-485752,MYSORE,MYSORE,KARNATAKA
SBMY0040379,State Bank of Mysore,SBMY0040379,NON-MICR,HARALAHALLY,HARALAHALLY 573 201,08172-45216,HARALAHALLY,HASSAN,KARNATAKA
SBMY0040380,State Bank of Mysore,SBMY0040380,NON-MICR,HAGALWADI,HAGALWADI 572 239,0816-432225,HAGALWADI,TUMKUR,KARNATAKA
SBMY0040381,State Bank of Mysore,SBMY0040381,NON-MICR,PEARLITE INDL ESTATE,SHIMOGA 577 201,08182-223485,SHIMOGA,SHIMOGA,KARNATAKA
SBMY0040382,State Bank of Mysore,SBMY0040382,NON-MICR,RAICHUR,11-1-90/1&3 BRESTHEWARPET RAICHUR-584101,08532-231620,RAICHUR,RAICHUR,KARNATAKA
SBMY0040383,State Bank of Mysore,SBMY0040383,NON-MICR,GULBARGA,SUPER MARKET COMPLEX RD SPC ROAD,08472-421502,GULBARGA,GULBERGA,KARNATAKA
SBMY0040384,State Bank of Mysore,SBMY0040384,570006008,JAYALAKSHMIPURAM,3RD BLOCK  MYSORE 570 012,0821-511462,MYSORE,MYSORE,KARNATAKA
SBMY0040385,State Bank of Mysore,SBMY0040385,NON-MICR,CHINNAKURALI,CHINAKURALI 571 455  MANDYA DIST,08236-68331,CHINAKURALI,MANDYA,KARNATAKA
SBMY0040386,State Bank of Mysore,SBMY0040386,NON-MICR,BEVINAHALLI,BEVINAHALLY 572 135 TUMKUR DIST,0876-764148,BEVINAHALLY,TUMKUR,KARNATAKA
SBMY0040387,State Bank of Mysore,SBMY0040387,NON-MICR,I D HALLY,I D HALLY 572 124 TUMKUR DIST,0813-744511,I.D.HALLY,TUMKUR,KARNATAKA
SBMY0040388,State Bank of Mysore,SBMY0040388,NON-MICR,KUSHALNAGAR,KUSHALNAGAR 571 234  KODAGU DIST,08276-672271,KUSHALNAGAR,MADIKERI,KARNATAKA
SBMY0040389,State Bank of Mysore,SBMY0040389,NON-MICR,DODDAGUNI,DODDAGUNI 572211,0816-448223,GUBBI,TUMKUR,KARNATAKA
SBMY0040390,State Bank of Mysore,SBMY0040390,NON-MICR,JALAMANGALA,JALAMANGALA 571 511,0811-7247028,JALAMANGALA,BANGALORE RURAL,KARNATAKA
SBMY0040391,State Bank of Mysore,SBMY0040391,560006069,HOODY,BANGALORE 560 048,080-8410176,BANGALORE,BANGALORE URBAN,KARNATAKA
SBMY0040392,State Bank of Mysore,SBMY0040392,NON-MICR,BELLAVI,BELLAVI 572 107,0816-240030,BELLAVI,TUMKUR,KARNATAKA
SBMY0040393,State Bank of Mysore,SBMY0040393,NON-MICR,HIREHALLY,HIREHALLY 572 168,0816-243101,HIREHALLI,TUMKUR,KARNATAKA
SBMY0040394,State Bank of Mysore,SBMY0040394,NON-MICR,BIDAR,BIDAR 585 401,08482-26294,BIDAR,BIDAR,KARNATAKA
SBMY0040395,State Bank of Mysore,SBMY0040395,400006007,MALAD,657 S V RD SAHAKAR APTMTS MALAD(WEST),022-28826712,MUMBAI,GREATER BOMBAY,MAHARASHTRA
SBMY0040396,State Bank of Mysore,SBMY0040396,NON-MICR,SUNDARAPALYA,SUNDARAPALYA 563 122,08153-68340,SUNDARAPALYA,KOLAR,KARNATAKA
SBMY0040397,State Bank of Mysore,SBMY0040397,NON-MICR,MUDAGERE,MUDAGERE 571 501,08113-726228,MUDIGERE,BANGALORE RURAL,KARNATAKA
SBMY0040398,State Bank of Mysore,SBMY0040398,NON-MICR,ANCHETTY,ANCHETTY 635 102,04347-30206,ANCHETTY,KRISHNAGIRI,TAMIL NADU
SBMY0040399,State Bank of Mysore,SBMY0040399,NON-MICR,MALLAPPANAHALLY,MALLAPPANAHALLY 577 554,0819-387543,MALLAPPANAHALLY,CHITRADURGA,KARNATAKA
SBMY0040400,State Bank of Mysore,SBMY0040400,NON-MICR,LOKKANAHALLY,LOKKANAHALLY 571 479,0821-766021,LOKKANAHALLY,CHAMRAJNAGAR,KARNATAKA
SBMY0040401,State Bank of Mysore,SBMY0040401,NON-MICR,PURAVARA,PURAWARA 572 175,0816-737034,PURUVARA,TUMKUR,KARNATAKA
SBMY0040402,State Bank of Mysore,SBMY0040402,NON-MICR,"BAZAAR BR., BELLARY",BELLARY 583 101,08392-73703,BELLARY,BELLARY,KARNATAKA
SBMY0040403,State Bank of Mysore,SBMY0040403,560006034,RAJMAHAL VILAS EXTN.,BANGALORE 560080,080-3610045,BANGALORE,BANGALORE URBAN,KARNATAKA
SBMY0040404,State Bank of Mysore,SBMY0040404,NON-MICR,PALAHALLY,PALAHALLY 571 438,0823-652107,PALAHALLI,MANDYA,KARNATAKA
SBMY0040405,State Bank of Mysore,SBMY0040405,NON-MICR,NITTUR,NITTUR 572 223,0816-430226,NITTUR,TUMKUR,KARNATAKA
SBMY0040406,State Bank of Mysore,SBMY0040406,560006113,KAGGALIPURA,KAGGALIPURA 560 062,080-8432222,KAGGALIPURA,BANGALORE URBAN,KARNATAKA
SBMY0040407,State Bank of Mysore,SBMY0040407,NON-MICR,GUTHALU,MANDYA  571403,0823-220916,MANDYA,MANDYA,KARNATAKA
SBMY0040408,State Bank of Mysore,SBMY0040408,NON-MICR,HADLI,HADLI 571 430,0823-346031,HADLI,MANDYA,KARNATAKA
SBMY0040409,State Bank of Mysore,SBMY0040409,NON-MICR,KULAGERI CROSS,KULAGERI CROSS 587 155,0835-736028,KULAGERI CROSS,BAGALKOT,KARNATAKA
SBMY0040410,State Bank of Mysore,SBMY0040410,580006003,ADARSH NAGAR,HUBLI 580 032,0836-352207,HUBLI-DHARWAD,DHARWAD,KARNATAKA
SBMY0040411,State Bank of Mysore,SBMY0040411,600006004,K K NAGAR,CHENNAI-600078,044-4724821,CHENNAI,CHENNAI,TAMIL NADU
SBMY0040412,State Bank of Mysore,SBMY0040412,NON-MICR,DABBEGHATTA,DABBEGHATTA 572 227,0816-534225,DABBEGHATTA,TUMKUR,KARNATAKA
SBMY0040413,State Bank of Mysore,SBMY0040413,NON-MICR,KULAMBI,KULAMBI 577 239,08180-473835,KULAMBI,DAVANAGARE,KARNATAKA
SBMY0040414,State Bank of Mysore,SBMY0040414,NON-MICR,APMC C'BALLAPUR,CHICKBALLAPUR 562 101,08156-72629,CHIKBALLAPUR,KOLAR,KARNATAKA
SBMY0040415,State Bank of Mysore,SBMY0040415,110006006,CAB NEW DELHI,"DDA BLDGS 3,4 &5 NEHRU PLACE NEW DELHI-110006",011-2641823,DELHI,NEW DELHI,DELHI
SBMY0040416,State Bank of Mysore,SBMY0040416,560006058,BILEKAHALLY,BANGALORE 560 076,080-6686317,BANGALORE,BANGALORE URBAN,KARNATAKA
SBMY0040417,State Bank of Mysore,SBMY0040417,NON-MICR,TAVAREKERE,TAVAREKERE - 577213,0818-693435,TAVAREKERE,DAVANAGARE,KARNATAKA
SBMY0040418,State Bank of Mysore,SBMY0040418,NON-MICR,SIRAGATE,SIRA 572106,0816-72377,TUMKUR,TUMKUR,KARNATAKA
SBMY0040419,State Bank of Mysore,SBMY0040419,NON-MICR,MALAMARUTHI EXTN,BELGAUM 590 016,0831-453587,BELGAUM,BELGAUM,KARNATAKA
SBMY0040420,State Bank of Mysore,SBMY0040420,NON-MICR,SHRAVANDAHALLI,SHRAVANDANAHALLY 572 127,0816-748006,SHRAVANDANAHALLY,TUMKUR,KARNATAKA
SBMY0040421,State Bank of Mysore,SBMY0040421,380006001,AHMEDABAD,"SHITY RATNA BLDG, PANCHAVATI CIRCLE OFF CG RD AMBAWADI AHMEDABAD-380006",079-26400455,AHMEDABAD,AHMEDABAD,GUJARAT
SBMY0040422,State Bank of Mysore,SBMY0040422,570006006,ITTIGEGUD,MYSORE 570 010,0821-520377,MYSORE,MYSORE,KARNATAKA
SBMY0040423,State Bank of Mysore,SBMY0040423,NON-MICR,MACHENAHALLI,MACHENAHALLI 577 222,0818-246117,MACHENAHALLY,SHIMOGA,KARNATAKA
SBMY0040424,State Bank of Mysore,SBMY0040424,NON-MICR,KUDRIGE,SAMSI - 581334,0838-765442,KUDRIGE,UTTARA KANNADA,KARNATAKA
SBMY0040426,State Bank of Mysore,SBMY0040426,NON-MICR,SAULANGA,SAULANGA 577 225,08188-444723,SOWLANGA,DAVANAGARE,KARNATAKA
SBMY0040427,State Bank of Mysore,SBMY0040427,NON-MICR,KANNAPURA,MUDIGERE 577 132,08263-368836,MUDIGERE,CHICKMAGALUR,KARNATAKA
SBMY0040428,State Bank of Mysore,SBMY0040428,NON-MICR,BELAVANAKODIGE,UTTAMESHWARA 577 126,08265-35036,BELAVINAKODIGE,CHICKMAGALUR,KARNATAKA
SBMY0040429,State Bank of Mysore,SBMY0040429,632006001,VELLORE,CSI COM COMPLEX BLDG OFFICER'S LINE VELLORE-632001,0416-2223435,VELLORE,VELLORE,TAMIL NADU
SBMY0040431,State Bank of Mysore,SBMY0040431,NON-MICR,KADABALLI,MANDYA 571 418,0823-489229,MANDYA,MANDYA,KARNATAKA
SBMY0040432,State Bank of Mysore,SBMY0040432,560006000,BANGALORE ZONAL OFFICE-BZ-1,BKG COMPLEX AVENUE ROAD BANGALORE - 560254,"PHONE-080-22352569, FAX-080-22352568",BANGALORE,BANGALORE URBAN,KARNATAKA
SBMY0040433,State Bank of Mysore,SBMY0040433,400006004,DALAL STREET,"24/26 DALAL ST,FORT MUMBAI-400023",022-22654943,MUMBAI,GREATER BOMBAY,MAHARASHTRA
SBMY0040434,State Bank of Mysore,SBMY0040434,110006003,JANAKPURI,JANAK CINEMA COMP. NEWDELHI-110058,011-25554581,DELHI,NEW DELHI,DELHI
SBMY0040435,State Bank of Mysore,SBMY0040435,NON-MICR,AGHALAYA,AGHALAYA 571 436,0823-767512,AGHALAYA,MANDYA,KARNATAKA
SBMY0040436,State Bank of Mysore,SBMY0040436,560006059,KORAMANGALA,BANGALORE 560 034,080-5531788,BANGALORE,BANGALORE URBAN,KARNATAKA
SBMY0040437,State Bank of Mysore,SBMY0040437,NON-MICR,KUNCHEBYLU,KUNCHEBYLU 577 139,0826-555034,KUNCHEBYLU,CHICKMAGALUR,KARNATAKA
SBMY0040438,State Bank of Mysore,SBMY0040438,NON-MICR,ATHIMUGAM,ATHIMUGAM 635 105,04344-553528,ATHIMUGAM,KRISHNAGIRI,TAMIL NADU
SBMY0040439,State Bank of Mysore,SBMY0040439,NON-MICR,PATTADUR,BILLUR KADIDAL 577 132,0826-330657,PATTADUR,CHICKMAGALUR,KARNATAKA
SBMY0040440,State Bank of Mysore,SBMY0040440,NON-MICR,GONIMARUR,GONIMARUR 571 236,08276-85557,GONIMARUR,MADIKERI,KARNATAKA
SBMY0040441,State Bank of Mysore,SBMY0040441,570006011,KUVEMPUNAGAR,MYSORE- 570009,0821-543427,MYSORE,MYSORE,KARNATAKA
SBMY0040442,State Bank of Mysore,SBMY0040442,560006008,UNKAL,HUBLI 580 031,0836-372207,HUBLI-DHARWAD,DHARWAD,KARNATAKA
SBMY0040444,State Bank of Mysore,SBMY0040444,NON-MICR,VINOBANAGARA,SHIMOGA 577 201,08182-55693,SHIMOGA,SHIMOGA,KARNATAKA
SBMY0040445,State Bank of Mysore,SBMY0040445,NON-MICR,BELLALE,BELLALE 571 434,08236-651790,BELLALE,MANDYA,KARNATAKA
SBMY0040446,State Bank of Mysore,SBMY0040446,NON-MICR,VADAGAON,BELGAUM 590 005,0831-496189,BELGAUM,BELGAUM,KARNATAKA
SBMY0040447,State Bank of Mysore,SBMY0040447,NON-MICR,RAGHAVENDRA COLONY,BELLARY 583 101,0839-272340,BELLARY,BELLARY,KARNATAKA
SBMY0040449,State Bank of Mysore,SBMY0040449,600006010,THIRUVANMIYUR,CHENNAI 600041,044-4418017,CHENNAI,CHENNAI,TAMIL NADU
SBMY0040450,State Bank of Mysore,SBMY0040450,440006002,NAGPUR,"WARDHA RD.,NAGPUR - 440012",0712-2530832,NAGPUR,NAGPUR,MAHARASHTRA
SBMY0040452,State Bank of Mysore,SBMY0040452,NON-MICR,SHAKTI NAGAR,SHAKTHINAGAR 584 170,0853-246159,RAICHUR,RAICHUR,KARNATAKA
SBMY0040453,State Bank of Mysore,SBMY0040453,695006002,THIRUVANANTHAPURAM,TRIVANDRUM,0471-246998,THIRUVANANTHAPURAM,TRIVANDRUM,KERALA
SBMY0040454,State Bank of Mysore,SBMY0040454,NON-MICR,HALLAGERE,HALLEGERE 571 446,0823-273207,HALLEGERE,MANDYA,KARNATAKA
SBMY0040455,State Bank of Mysore,SBMY0040455,NON-MICR,"RAJAHMUNDRY, RAJAHMUNDRY",MAIN RD JETTY COMPLEX D NO.8-24-154 RAJAHMUNDRY-533101,0883-2498703,RAJAHMUNDRY,EAST GODAVARI,ANDHRA PRADESH
SBMY0040456,State Bank of Mysore,SBMY0040456,NON-MICR,CANTONMENT BELLARY,BELLARY 583102,0839-240784,BELLARY,BELLARY,KARNATAKA
SBMY0040457,State Bank of Mysore,SBMY0040457,560006060,MALLATHAHALLY,BANGALORE 560 072,080-3215106,BANGALORE,BANGALORE URBAN,KARNATAKA
SBMY0040458,State Bank of Mysore,SBMY0040458,NON-MICR,BOOKINAKERE,BOOKINAKERE 571 812,08237-66348,BUKINKERE,MANDYA,KARNATAKA
SBMY0040459,State Bank of Mysore,SBMY0040459,NON-MICR,KADRA,KADRA 581 396,0838-256328,KADRA,UTTARA KANNADA,KARNATAKA
SBMY0040460,State Bank of Mysore,SBMY0040460,NON-MICR,HARITA,SUNDARAM CLAYTON LTD HARITA-635109,04344-276920,HARITA,KRISHNAGIRI,TAMIL NADU
SBMY0040461,State Bank of Mysore,SBMY0040461,NON-MICR,ADONI,467 GHOSHA HOSPITAL RD ADONI-518301,0851-2252903,ADONI,KURNOOL,ANDHRA PRADESH
SBMY0040462,State Bank of Mysore,SBMY0040462,500006004,MAHENDRA HILLS,BALARAMRAJ HSG.SOC.SEC'BAD-500026,040-27732472,SECUNDERABAD CANTONMENT,HYDERABAD URBAN,ANDHRA PRADESH
SBMY0040463,State Bank of Mysore,SBMY0040463,560006004,B.S.K 2ND STAGE,BANGALORE 560 070,080-6718759,BANGALORE,BANGALORE URBAN,KARNATAKA
SBMY0040464,State Bank of Mysore,SBMY0040464,560006001,SERVICE BRANCH B'LORE,BANGALORE 560001,080-5591748,BANGALORE,BANGALORE URBAN,KARNATAKA
SBMY0040465,State Bank of Mysore,SBMY0040465,570006020,SERVICE BR MYSORE,MYSORE 570 021,0821-441573,MYSORE,MYSORE,KARNATAKA
SBMY0040466,State Bank of Mysore,SBMY0040466,NON-MICR,MALEBENNUR,MALEBENNUR 577 530,0891-298764,MALEBENNUR,DAVANAGARE,KARNATAKA
SBMY0040467,State Bank of Mysore,SBMY0040467,NON-MICR,SHEDBAL,SHEDBAL - 591315,08339-264646,SHEDBAL,BELGAUM,KARNATAKA
SBMY0040468,State Bank of Mysore,SBMY0040468,NON-MICR,KUMBANAD,KUMBANAD 682 547,0473-664361,KADAMBANAD,PATHANAMTHITTA,KERALA
SBMY0040470,State Bank of Mysore,SBMY0040470,NON-MICR,CHENAGANNUR,CHENGANUR 689 121,0479-452803,CHENGANNUR,ALAPUZZHA,KERALA
SBMY0040471,State Bank of Mysore,SBMY0040471,NON-MICR,BALA,KATIPALLA 574 149,0825-270505,BALA,DAKSHINA KANNADA,KARNATAKA
SBMY0040472,State Bank of Mysore,SBMY0040472,400006009,ANDHERI (EAST),MAHAKALI CAVES RD ANDHERI (E) MUMBAI -400093,022-28363743,MUMBAI,GREATER BOMBAY,MAHARASHTRA
SBMY0040473,State Bank of Mysore,SBMY0040473,600006001,SERVICE BR CHENNAI,CHENNAI 600002,044-8523470,CHENNAI,CHENNAI,TAMIL NADU
SBMY0040474,State Bank of Mysore,SBMY0040474,NON-MICR,NAVILUR,GANAGANUR POST - 571124,0821-274432,NAVILUR,CHAMRAJNAGAR,KARNATAKA
SBMY0040475,State Bank of Mysore,SBMY0040475,NON-MICR,KAIMARA,KAIMARA 577 424,0818-787326,UNTOORKATTE,SHIMOGA,KARNATAKA
SBMY0040476,State Bank of Mysore,SBMY0040476,NON-MICR,THIPPASANDRA,THIPPASANDRA-562131,08118-65235,THIPPASANDRA,BANGALORE RURAL,KARNATAKA
SBMY0040477,State Bank of Mysore,SBMY0040477,NON-MICR,RANJOULIKHENI,RANJOLKHENI 585 329,08483-63609,RANJOLKHENI,BIDAR,KARNATAKA
SBMY0040478,State Bank of Mysore,SBMY0040478,110006007,NAJAFGARH,NEW ANAJMANDI BAHADURGARH RD NAJAFGARH,011-25017202,DELHI,NEW DELHI,DELHI
SBMY0040479,State Bank of Mysore,SBMY0040479,500006005,"BANJARA HILLS, HYDERABAD",PLOT NO.8A RD NO.5 JUBILEE HILLS CO.OP SCTY BANJARA HILLS HYDERABAD-500033,040-23548559,HYDERABAD,HYDERABAD URBAN,ANDHRA PRADESH
SBMY0040480,State Bank of Mysore,SBMY0040480,400006001,SERVICE BRANCH MUMBAI,MUMBAI 400 021,022-2042836,MUMBAI,GREATER BOMBAY,MAHARASHTRA
SBMY0040481,State Bank of Mysore,SBMY0040481,NON-MICR,HONGADAHALLA,ATTIHALLI POST   - 573123,0817-348008,HONGADAHALLA,HASSAN,KARNATAKA
SBMY0040482,State Bank of Mysore,SBMY0040482,NON-MICR,CHAGACHAGERE,CHAGACHAGERE 573 164,0817-420623,ARSIKERE,HASSAN,KARNATAKA
SBMY0040483,State Bank of Mysore,SBMY0040483,NON-MICR,SADAHALLI,BANGALORE DIST,8467238 (080),SADAHALLY,BANGALORE RURAL,KARNATAKA
SBMY0040484,State Bank of Mysore,SBMY0040484,NON-MICR,AGRAHARA GATE,BEECHANAHALLY 573 211,08175-558233,AGRAHARA,HASSAN,KARNATAKA
SBMY0040485,State Bank of Mysore,SBMY0040485,NON-MICR,K HONNAMACHANAHALLI,K HONNAMACHANAHALLY-592111,08132-35250,K.HONNAMACHANAHALLI,TUMKUR,KARNATAKA
SBMY0040486,State Bank of Mysore,SBMY0040486,NON-MICR,NIMBALAGERE,NIMBALAGERE 583 136,0839-350844,NIMBALAGERI,BELLARY,KARNATAKA
SBMY0040487,State Bank of Mysore,SBMY0040487,NON-MICR,NAGATHIBASAPURA,NAGATHIBASAPURA 583 219,08399-849621,NAGATHI BASAPURA,BELLARY,KARNATAKA
SBMY0040488,State Bank of Mysore,SBMY0040488,570006019,RAJENDRA NAGAR,MYSORE 570 007,0821-491203,MYSORE,MYSORE,KARNATAKA
SBMY0040489,State Bank of Mysore,SBMY0040489,NON-MICR,YELERAMAPURA,TUMKUR DIST,0816-235547,TUMKUR,TUMKUR,KARNATAKA
SBMY0040490,State Bank of Mysore,SBMY0040490,NON-MICR,KOPPARISIKOPPA,KOPPARASIKOPPA- 581104,0836-872233,KOPPARSHIKOPPA,HAVERI,KARNATAKA
SBMY0040491,State Bank of Mysore,SBMY0040491,NON-MICR,BALUVANERALU,BALUVANERALU- 572217,08134-264700,BALUVANERALU,TUMKUR,KARNATAKA
SBMY0040492,State Bank of Mysore,SBMY0040492,110006001,SERVICE BR DELHI,NEW DELHI 110 001,011-3341798,DELHI,NEW DELHI,DELHI
SBMY0040493,State Bank of Mysore,SBMY0040493,580006004,DESHPANDE NAGAR,HUBLI 580 029,0836-352578,HUBLI-DHARWAD,DHARWAD,KARNATAKA
SBMY0040495,State Bank of Mysore,SBMY0040495,NON-MICR,SEEGEHALLY,SEEGEHALLI-572213,0816-447273,SEEGEHALLI,TUMKUR,KARNATAKA
SBMY0040496,State Bank of Mysore,SBMY0040496,NON-MICR,THIMMAMPALLY,THIMMAMPALLI-561207,0815-786839,THIMMAMPALLY,KOLAR,KARNATAKA
SBMY0040497,State Bank of Mysore,SBMY0040497,NON-MICR,KANATHUR,KANATHUR-573213,08172-28208,KANATHUR,HASSAN,KARNATAKA
SBMY0040498,State Bank of Mysore,SBMY0040498,NON-MICR,DODDAHALLI,DODDAHALLI - 573210,0817-576654,DODDAHALLI,HASSAN,KARNATAKA
SBMY0040499,State Bank of Mysore,SBMY0040499,NON-MICR,GUJAMAGADI,GUJAMAGADI 582 102,,GUJAMAGADI,GADAK,KARNATAKA
SBMY0040502,State Bank of Mysore,SBMY0040502,NON-MICR,HANDANAKERE,HANDANAKERE 572 119,0816-344552,HANDANAKERE,TUMKUR,KARNATAKA
SBMY0040503,State Bank of Mysore,SBMY0040503,NON-MICR,THAMMENAHALLI,CHITRADURGA DIST 577540,,THAMMENAHALLI,CHITRADURGA,KARNATAKA
SBMY0040504,State Bank of Mysore,SBMY0040504,NON-MICR,KANCHIPURA,KANCHIPURA - 577533,08199-382225,KANCHIPURA,CHITRADURGA,KARNATAKA
SBMY0040505,State Bank of Mysore,SBMY0040505,NON-MICR,SUDAMBI,SUDAMBI-581120,08375-88446,SUDAMBI,HAVERI,KARNATAKA
SBMY0040506,State Bank of Mysore,SBMY0040506,110006008,PASCHIM ENCLAVE,NEW DELHI-87,011-5572618,DELHI,NEW DELHI,DELHI
SBMY0040507,State Bank of Mysore,SBMY0040507,NON-MICR,CHALLAHALLI,CHALLAHALLI - 571103,0822-40390,CHELLAHALLI,MYSORE,KARNATAKA
SBMY0040509,State Bank of Mysore,SBMY0040509,NON-MICR,H S GUTTI,HIRESINGANAGUTTI 587 154,0835-783003,HIRESINGANAGUTTI,BAGALKOT,KARNATAKA
SBMY0040510,State Bank of Mysore,SBMY0040510,NON-MICR,BHAKTARAHALLI,BHAKTHARAHALLI 572 120,0816-320327,BHAKTARAHALLY,TUMKUR,KARNATAKA
SBMY0040511,State Bank of Mysore,SBMY0040511,NON-MICR,ATTIKOLLA,DHARWAD 580 007,0836-440743,HUBLI-DHARWAD,DHARWAD,KARNATAKA
SBMY0040512,State Bank of Mysore,SBMY0040512,NON-MICR,ANKASANDRA,ANKASANDRA - 572117,08131-242622,ANKASANDRA,TUMKUR,KARNATAKA
SBMY0040513,State Bank of Mysore,SBMY0040513,560006067,NANDINI LAYOUT,BANGALORE 560 096,080-3497281,BANGALORE,BANGALORE URBAN,KARNATAKA
SBMY0040514,State Bank of Mysore,SBMY0040514,NON-MICR,SULIKUNTE,KOLAR DIST,08153-58097,SULIKUNTE,KOLAR,KARNATAKA
SBMY0040515,State Bank of Mysore,SBMY0040515,NON-MICR,KURIGEPALLI,KURIGEPALLI-563134,08157-47363,KURGEPALLY,KOLAR,KARNATAKA
SBMY0040516,State Bank of Mysore,SBMY0040516,NON-MICR,HULIKAL,HULIKAL - 561101,0811-7762283,HULIKAL,BANGALORE RURAL,KARNATAKA
SBMY0040518,State Bank of Mysore,SBMY0040518,NON-MICR,BYATHARAHOSAHALLI,BYTHARAHOSAHALLY 572 221,0816-545507,TUMKUR,TUMKUR,KARNATAKA
SBMY0040519,State Bank of Mysore,SBMY0040519,NON-MICR,NARASANDRA,NARASANDRA 562 127,080-7763038,NARASANDRA,BANGALORE RURAL,KARNATAKA
SBMY0040520,State Bank of Mysore,SBMY0040520,NON-MICR,N.T.P.C.PROJECT AREA ROAD,PADUBIDRI-574111,0825-555482,YELLUR,UDUPI,KARNATAKA
SBMY0040521,State Bank of Mysore,SBMY0040521,570006016,METAGALLI BRANCH,MYSORE 570 016,0821-582779,MYSORE,MYSORE,KARNATAKA
SBMY0040522,State Bank of Mysore,SBMY0040522,560006063,IFB BANGALORE,"RAMANSHREE ARCADE NO.18,M.G.ROAD,BANGALORE-5600001",080-25580062,BANGALORE,BANGALORE URBAN,KARNATAKA
SBMY0040523,State Bank of Mysore,SBMY0040523,NON-MICR,HULIBELE,HULIBELE 563 114,08153-55958,HULIBELE,KOLAR,KARNATAKA
SBMY0040524,State Bank of Mysore,SBMY0040524,400006010,BELAPUR,"BELAPUR BHAVAN SECTOR 11 OFFICE NO.3 CBD BELAPUR NAVI
MUMBAI-400614",022-27574506,NEW BOMBAY,THANE,MAHARASHTRA
SBMY0040526,State Bank of Mysore,SBMY0040526,560006065,M S BLDGS,BANGALORE 560 001,080-2264338,BANGALORE,BANGALORE URBAN,KARNATAKA
SBMY0040527,State Bank of Mysore,SBMY0040527,NON-MICR,DHONDELING TS,KOLLEGAL TALUK 571457,0821-773206,KOLLEGAL,CHAMRAJNAGAR,KARNATAKA
SBMY0040528,State Bank of Mysore,SBMY0040528,641006102,TIRUPUR,TIRUPUR 641607,0421-220855,TIRUPUR,COIMBOTORE,TAMIL NADU
SBMY0040529,State Bank of Mysore,SBMY0040529,560006066,MYSORE ROAD BRANCH(BHEL),BANGALORE 560 026,080-6742724,BANGALORE,BANGALORE URBAN,KARNATAKA
SBMY0040530,State Bank of Mysore,SBMY0040530,NON-MICR,BHOPAL,NIRMAL TOWERS BHOPAL-462023,0755-2582657,BHOPAL,BHOPAL,MADHYA PRADESH
SBMY0040531,State Bank of Mysore,SBMY0040531,NON-MICR,KAKINADA,21-50/1 HOSPITAL COMPLEX BAHANUGUDI CENTRE,0884-2378769,KAKINADA,EAST GODAVARI,ANDHRA PRADESH
SBMY0040532,State Bank of Mysore,SBMY0040532,576006602,UDUPI,REHMAN COMM COMPLEX NETHAJI CROSS RD UDUPI-576101,08252-2524251,UDUPI,UDUPI,KARNATAKA
SBMY0040533,State Bank of Mysore,SBMY0040533,560006064,"MES COLLEGE, MALLESWARAM",BANGALORE 560 003,080-3342217,BANGALORE,BANGALORE URBAN,KARNATAKA
SBMY0040534,State Bank of Mysore,SBMY0040534,403006002,PANAJI,LAR COMMERCIAL  PANAJI - 403001,0832-2224846,PANAJI,NORTH GOA,GOA
SBMY0040535,State Bank of Mysore,SBMY0040535,751006002,BHUBANESWAR,BHUBANESWAR-751009,0674-2533865,BHUBANESWAR,KHURDA,ORISSA
SBMY0040536,State Bank of Mysore,SBMY0040536,390006002,SURAT," ASHWINIKUMAR RD, SURAT - 395009",0261-2562946,SURAT,SURAT,GUJARAT
SBMY0040537,State Bank of Mysore,SBMY0040537,390006002,VADODARA,"VIMALNATH COMP.PLAZA ,VADODARA - 7",0265-2391029,VADODARA,VADODARA,GUJARAT
SBMY0040538,State Bank of Mysore,SBMY0040538,110006009,PUNJABI BAGH,"BLOCK I,SECTOR IV MKT,NORTHWEST AVENUE,PUNJABI BAGH,(WEST) NEW DELHI-110026",011-25223986,DELHI,NEW DELHI,DELHI
SBMY0040539,State Bank of Mysore,SBMY0040539,700006005,"SALT LAKE CITY, KOLKOTTA",C1 25-26 SECTOR II SALT LAKE CITY KARUNAMOYEE KOLOKOTTA-700091,033-22472528,BIDHANNAGAR,NORTH 24 PARGANAS,WEST BENGAL
SBMY0040540,State Bank of Mysore,SBMY0040540,678006002,SULTANPET-PALAKKAD,PALAKKAD 678 001,0491-538167,PALAKKAD,PALAKKAD,KERALA
SBMY0040541,State Bank of Mysore,SBMY0040541,641006005,VELANDIPALAYAM,COIMBATORE 641 038,0422-433091,COIMBATORE,COIMBOTORE,TAMIL NADU
SBMY0040542,State Bank of Mysore,SBMY0040542,NON-MICR,BAZAAR ARSIKERE,ARSIKERE 573103,08172-432977,ARSIKERE,HASSAN,KARNATAKA
SBMY0040543,State Bank of Mysore,SBMY0040543,570006025,SSI-MYSORE,MYSORE 570 021,0821-446036,MYSORE,MYSORE,KARNATAKA
SBMY0040544,State Bank of Mysore,SBMY0040544,NON-MICR,SIRSI,OPP.LOKDHAWANI OFFICE YELLAPUR RD,08384-437655,SIRSI,UTTARA KANNADA,KARNATAKA
SBMY0040545,State Bank of Mysore,SBMY0040545,NON-MICR,L.S.T.S.,BYLAKUPPE P.O - 571104,0821-694760,BYLAKUPPE,MYSORE,KARNATAKA
SBMY0040546,State Bank of Mysore,SBMY0040546,530006001,VISAKHAPATNAM,"M V P COLONY, VISAKHAPATNAM - 530117",0891-2526633,VISAKHAPATNAM,VISHAKAPATNAM,ANDHRA PRADESH
SBMY0040547,State Bank of Mysore,SBMY0040547,570006022,SHIVARATHRESWARA NAGAR,MYSORE 570 015,0821-490876,MYSORE,MYSORE,KARNATAKA
SBMY0040548,State Bank of Mysore,SBMY0040548,302006002,JAIPUR,TAMBI TOWERS S C ROAD JAIPUR 302001,0141-2362482,JAIPUR,JAIPUR,RAJASTHAN
SBMY0040549,State Bank of Mysore,SBMY0040549,NON-MICR,MOODABIDRI,MOODABIDRI 574 227,0825-736989,MOODABIDRI,DAKSHINA KANNADA,KARNATAKA
SBMY0040550,State Bank of Mysore,SBMY0040550,NON-MICR,BRAMHAVARA,BRAHMAVARA 596123,0825-561989,BRAHMAVARA,UDUPI,KARNATAKA
SBMY0040551,State Bank of Mysore,SBMY0040551,NON-MICR,AVINASHI,"POST OFFICE MAIN RD, AVINASHI-641654",04296-2703343,AVANASHI,COIMBOTORE,TAMIL NADU
SBMY0040552,State Bank of Mysore,SBMY0040552,560006072,SSI SINGASANDRA,BANGALORE 560 068,080-5721635,BANGALORE,BANGALORE URBAN,KARNATAKA
SBMY0040553,State Bank of Mysore,SBMY0040553,560006070,PBB MALLESWARAM,BANGALORE 560 003,080-3310248,BANGALORE,BANGALORE URBAN,KARNATAKA
SBMY0040554,State Bank of Mysore,SBMY0040554,452006002,INDORE,SUNRISE TOWERS 579 M G ROAD INDORE-452001,0731-2435660,INDORE,INDORE,MADHYA PRADESH
SBMY0040555,State Bank of Mysore,SBMY0040555,NON-MICR,SSI -BELGAUM,BELGAUM 590 008,0831-441312,BELGAUM,BELGAUM,KARNATAKA
SBMY0040557,State Bank of Mysore,SBMY0040557,NON-MICR,SSI - TUMKUR,TUMKUR - 572101,0816-75028,TUMKUR,TUMKUR,KARNATAKA
SBMY0040558,State Bank of Mysore,SBMY0040558,NON-MICR,JVSL COMPLEX,JVSL PROJ.SITE TORANAGALLU - 583123,08395-250764,TORANAGALLU,BELLARY,KARNATAKA
SBMY0040559,State Bank of Mysore,SBMY0040559,600006012,IFB CHENNAI,"576, 2ND FLOOR,M O H BLDGS ANNA SALAI TEYNAMPET CHENNAI-600006",044-23347235,CHENNAI,CHENNAI,TAMIL NADU
SBMY0040560,State Bank of Mysore,SBMY0040560,NON-MICR,HONNAVAR,MAHALE COMPLEX PRABHAT CROSS RD M NH 17 HONNAVAR-581334,08387-720042,HONAVAR,UTTARA KANNADA,KARNATAKA
SBMY0040561,State Bank of Mysore,SBMY0040561,NON-MICR,KUMTA,SHANTHERI KAMAKSHI ARCADE SUBHASH RD,08386-623199,KUMTA,UTTARA KANNADA,KARNATAKA
SBMY0040563,State Bank of Mysore,SBMY0040563,500006006,IFB HYDERABAD,"2ND FLOOR, MYHOMEJUPALLY COMPLEX AMEERPET MAIN RD HYDERABAD",040-23401909,HYDERABAD,HYDERABAD URBAN,ANDHRA PRADESH
SBMY0040565,State Bank of Mysore,SBMY0040565,691006001,KOLLAM,"ANDAMUKKAM,-691001",0474-745875,KOLLAM,KOLLAM,KERALA
SBMY0040566,State Bank of Mysore,SBMY0040566,NON-MICR,KOTTAYAM,KOTTAYAM 686004,0481-573826,KOTTAYAM,KOTTAYAM,KERALA
SBMY0040567,State Bank of Mysore,SBMY0040567,NON-MICR,KANKANADY,MANGALORE-575002,0824-439935,MANGALORE,DAKSHINA KANNADA,KARNATAKA
SBMY0040568,State Bank of Mysore,SBMY0040568,NON-MICR,SHIRVA,SHIRVA - 574116,0825-554001,SHIRVA,UDUPI,KARNATAKA
SBMY0040569,State Bank of Mysore,SBMY0040569,560006073,MARKET YARD YESHWANTHPUR,BANGALORE 560022,080-3378174,BANGALORE,BANGALORE URBAN,KARNATAKA
SBMY0040570,State Bank of Mysore,SBMY0040570,500006001,SERVICE BR HYDERABAD,HYDERABAD - 500 001,040-3203059,HYDERABAD,HYDERABAD URBAN,ANDHRA PRADESH
SBMY0040571,State Bank of Mysore,SBMY0040571,700006001,"SERVICE BRANCH, KOLKATA","TOBACO HOUSE, 1&2 OLD COURT HOUSE CORNER",033-2102270,KOLKATA,KOLKATA,WEST BENGAL
SBMY0040572,State Bank of Mysore,SBMY0040572,NON-MICR,SUTTUR,SUTTUR 571 159,08221-232331,DHONDENLING,MYSORE,KARNATAKA
SBMY0040573,State Bank of Mysore,SBMY0040573,560006074,R P C LAYOUT,BANGALORE  560 040,080-3400839,BANGALORE,BANGALORE URBAN,KARNATAKA
SBMY0040574,State Bank of Mysore,SBMY0040574,NON-MICR,RAGHAVENDRA NAGAR,TUMKUR - 572 102,0816-291173,TUMKUR,TUMKUR,KARNATAKA
SBMY0040575,State Bank of Mysore,SBMY0040575,560006075,SBM COLONY,BANGALORE - 560050,080-6690054,BANGALORE,BANGALORE URBAN,KARNATAKA
SBMY0040576,State Bank of Mysore,SBMY0040576,580006304,BELUR INDL. AREA,DHARWAD - 580001,0836-486688,HUBLI-DHARWAD,DHARWAD,KARNATAKA
SBMY0040577,State Bank of Mysore,SBMY0040577,560006079,RMV II STAGE,BANGALORE-560094,080-3416597,BANGALORE,BANGALORE URBAN,KARNATAKA
SBMY0040578,State Bank of Mysore,SBMY0040578,560006076,J P NAGAR,BANGALORE - 560041,080-6597950,BANGALORE,BANGALORE URBAN,KARNATAKA
SBMY0040579,State Bank of Mysore,SBMY0040579,110006010,IFB N DELHI,23/1 REGAL BLDG.CONNAUGHT PLACE NEW DELHI-110001,011-23347231,DELHI,NEW DELHI,DELHI
SBMY0040580,State Bank of Mysore,SBMY0040580,NON-MICR,APMC YARD,SHIMOGA 577201,0818-250152,SHIMOGA,SHIMOGA,KARNATAKA
SBMY0040581,State Bank of Mysore,SBMY0040581,400006011,LOKHANDWALA COMPLEX,"B-12, UTW BLDG,VEERA IND. ESTATE, OFF LINK ROAD, ANDHERI (W), MUMBAI-400 053",022-26733199,MUMBAI,GREATER BOMBAY,MAHARASHTRA
SBMY0040582,State Bank of Mysore,SBMY0040582,560006078,CGO COMPLEX,BANGALORE - 560068,080-5534891,BANGALORE,BANGALORE URBAN,KARNATAKA
SBMY0040583,State Bank of Mysore,SBMY0040583,560006077,BTM LAYOUT,BANGALORE - 560 076,080-6686731,BANGALORE,BANGALORE URBAN,KARNATAKA
SBMY0040584,State Bank of Mysore,SBMY0040584,560006082,R K LAYOUT,BANGALORE - 560070,080-6663388,BANGALORE,BANGALORE URBAN,KARNATAKA
SBMY0040585,State Bank of Mysore,SBMY0040585,400006012,NERUL,"GREAT EASTERN GALLERIA,I FLOO PLOT 20, SECTOR 4,"" DIST. THANE NAVI MUMBAI - 400706",022-27689396,NEW BOMBAY,THANE,MAHARASHTRA
SBMY0040586,State Bank of Mysore,SBMY0040586,560006080,HRBR LAYOUT,BANGALORE - 560043,080-5459749,BANGALORE,BANGALORE URBAN,KARNATAKA
SBMY0040605,State Bank of Mysore,SBMY0040605,560006081,MATHIKERE,BANGALORE - 560054,080-3470808,BANGALORE,BANGALORE URBAN,KARNATAKA
SBMY0040606,State Bank of Mysore,SBMY0040606,580006005,GOKUL ROAD,HUBLI - 580030,0836-333152,HUBLI-DHARWAD,DHARWAD,KARNATAKA
SBMY0040607,State Bank of Mysore,SBMY0040607,NON-MICR,KOTARACHOWKI,MANGALORE - 575006,0824-453074,MANGALORE,DAKSHINA KANNADA,KARNATAKA
SBMY0040608,State Bank of Mysore,SBMY0040608,NON-MICR,"PONDICHERRY, PONDICHERRY",NO.23 CHINNA SUBBARAYA PILLAI ST PONDICHERRY-605001,0413-2343800,PONDICHERRY,PONDICHERRY,PONDICHERRY
SBMY0040609,State Bank of Mysore,SBMY0040609,570006013,"M BLOCK, MYSORE",MYSORE - 570023,0821-462600,MYSORE,MYSORE,KARNATAKA
SBMY0040610,State Bank of Mysore,SBMY0040610,570006004,GOKULAM,MYSORE-570002,0821-500250,MYSORE,MYSORE,KARNATAKA
SBMY0040611,State Bank of Mysore,SBMY0040611,NON-MICR,KASARGOD,SRI VV CENTENARY COMPLEX KARANDAKKKAD KASARGOD-671121,0499-224410,KASARAGOD,KASARAGOD,KERALA
SBMY0040612,State Bank of Mysore,SBMY0040612,NON-MICR,HOLEHONNUR ROAD,BHADRAVATHI - 577301,0818-662140,BHADRAVATI,SHIMOGA,KARNATAKA
SBMY0040613,State Bank of Mysore,SBMY0040613,NON-MICR,MUNDGOD,MUNDGOD - 581349,0838-520080,MUNDGOD,UTTARA KANNADA,KARNATAKA
SBMY0040614,State Bank of Mysore,SBMY0040614,570006026,TKG LAYOUT -MYSORE,MYSORE - 570009,0821-540204,MYSORE,MYSORE,KARNATAKA
SBMY0040615,State Bank of Mysore,SBMY0040615,NON-MICR,GANGAVATHI,KOPPAL RD GANGAVATHI-583227,08533-273670,GANGAVATHI,KOPPAL,KARNATAKA
SBMY0040616,State Bank of Mysore,SBMY0040616,110006011,NOIDA,"RUPCHAND & SONS MKT,DODRI MAIN RD SEVTOR 27 ATTA MKT NOIDA-201301",0120-2536614,NOIDA,GAUTAM BODDA NAGAR,UTTAR PRADESH
SBMY0040617,State Bank of Mysore,SBMY0040617,560006083,R T NAGAR,BANGALORE - 560032,080-3337414,BANGALORE,BANGALORE URBAN,KARNATAKA
SBMY0040618,State Bank of Mysore,SBMY0040618,560006084,KATHRIGUPPE,BANGALORE - 560070,080-6723411,BANGALORE,BANGALORE URBAN,KARNATAKA
SBMY0040619,State Bank of Mysore,SBMY0040619,560006088,PBB INDIRANAGAR,BANGALORE - 560038,080-5214933,BANGALORE,BANGALORE URBAN,KARNATAKA
SBMY0040620,State Bank of Mysore,SBMY0040620,560006085,RAMAMURTY NAGAR,BANGALORE - 560 016,080-5654968,BANGALORE,BANGALORE URBAN,KARNATAKA
SBMY0040621,State Bank of Mysore,SBMY0040621,560006086,UTTARAHALLI,BANGALORE - 560 061,080-6392175,BANGALORE,BANGALORE URBAN,KARNATAKA
SBMY0040622,State Bank of Mysore,SBMY0040622,560006087,PUTTENAHALLI,BANGALORE - 560078,080-6344418,BANGALORE,BANGALORE URBAN,KARNATAKA
SBMY0040623,State Bank of Mysore,SBMY0040623,NON-MICR,BYNDOOR,BYNDOOR 576214,08254-751800,BYNDOOR,UDUPI,KARNATAKA
SBMY0040624,State Bank of Mysore,SBMY0040624,560006089,BASAVESWARANAGAR,BANGALORE - 560079,080-3233373,BANGALORE,BANGALORE URBAN,KARNATAKA
SBMY0040625,State Bank of Mysore,SBMY0040625,600006013,PBB ANNANAGAR,ANNANAGAR CHENNAI-600040,044-6209726,CHENNAI,CHENNAI,TAMIL NADU
SBMY0040626,State Bank of Mysore,SBMY0040626,560006091,PBB GANDHINAGAR,BANGALORE-560009,080-5214933,BANGALORE,BANGALORE URBAN,KARNATAKA
SBMY0040627,State Bank of Mysore,SBMY0040627,560006090,RAJARAJESHWARI NAGAR,BANGALORE - 560039,080-8601818,BANGALORE,BANGALORE URBAN,KARNATAKA
SBMY0040628,State Bank of Mysore,SBMY0040628,NON-MICR,JAMKHANDI,JAMAKHAMDI- 587301,0835-322493,JAMKHANDI,BAGALKOT,KARNATAKA
SBMY0040629,State Bank of Mysore,SBMY0040629,400006013,BORIVLI(WEST),"WEST PARK GROUND FLOOR I C COLONY,BORIVLI(W) MUMBAI-400103",022-28943847,MUMBAI,GREATER BOMBAY,MAHARASHTRA
SBMY0040630,State Bank of Mysore,SBMY0040630,NON-MICR,KARATAGI,KANAKACHALA COMP.KARATAGI - 583229,08533-274170,KARATGI,KOPPAL,KARNATAKA
SBMY0040631,State Bank of Mysore,SBMY0040631,NON-MICR,VIRAJPET,VIRAJPET 571 218,0827-457884,VIRAJPET,MADIKERI,KARNATAKA
SBMY0040632,State Bank of Mysore,SBMY0040632,110006012,GANDHI NAGAR DELHI,NEW DELHI- 110031,011- 2079770,DELHI,NEW DELHI,DELHI
SBMY0040633,State Bank of Mysore,SBMY0040633,560006093,VIKRAMNAGAR,BANGALORE 78,080-6667859,BANGALORE,BANGALORE URBAN,KARNATAKA
SBMY0040634,State Bank of Mysore,SBMY0040634,560006092,SAHAKARANAGAR,BANGALORE-560092,080-3636888,BANGALORE,BANGALORE URBAN,KARNATAKA
SBMY0040635,State Bank of Mysore,SBMY0040635,NON-MICR,JCR EXTENSION,CHITRADURGA 571455,08194-30364,CHITRADURGA,CHITRADURGA,KARNATAKA
SBMY0040636,State Bank of Mysore,SBMY0040636,NON-MICR,ATTUR,ATTUR  636102,04282-53911,ATTUR,SALEM,TAMIL NADU
SBMY0040637,State Bank of Mysore,SBMY0040637,636006003,FIVE ROADS SALEM,SALEM 636004,0427-335235,SALEM,SALEM,TAMIL NADU
SBMY0040638,State Bank of Mysore,SBMY0040638,600006014,VELACHERRY,CHENNAI 600042,044-2433436,CHENNAI,CHENNAI,TAMIL NADU
SBMY0040639,State Bank of Mysore,SBMY0040639,NON-MICR,SINDHANUR,"GANGAVATHI RD.,SINDHANUR - 584128",08535-221327,SINDHANOOR,RAICHUR,KARNATAKA
SBMY0040640,State Bank of Mysore,SBMY0040640,700006006,"RUBY PARK, KOLKOTA","P-27, PHASE I KASBA IND ESTATE EM BYPASS(EAST) KOLKOTTA_",033-24430948,KOLKATA,KOLKATA,WEST BENGAL
SBMY0040641,State Bank of Mysore,SBMY0040641,580006006,KESHAVAPUR,HUBLI 580 023,0836- 368458,HUBLI-DHARWAD,DHARWAD,KARNATAKA
SBMY0040642,State Bank of Mysore,SBMY0040642,NON-MICR,MAHALINGAPUR,MAHALINGAPUR 587312,08350-270200,MAHALINGPUR,BAGALKOT,KARNATAKA
SBMY0040643,State Bank of Mysore,SBMY0040643,700006007,GOLF GREEN KOLKOTTA,"DT 12 A, UDAYASHANKAR SARANI KOLKATTA -95",033-24225020,KOLKATA,KOLKATA,WEST BENGAL
SBMY0040644,State Bank of Mysore,SBMY0040644,560006094,HSR LAYOUT,HSR LAYOUT BANGALORE,080-25723516,BANGALORE,BANGALORE URBAN,KARNATAKA
SBMY0040645,State Bank of Mysore,SBMY0040645,570006024,TREASURY MYSORE,MYSORE 570001,0821-2439645,MYSORE,MYSORE,KARNATAKA
SBMY0040646,State Bank of Mysore,SBMY0040646,570006033,VIJAYANAGAR,MYSORE 570017,0821-2303488,MYSORE,MYSORE,KARNATAKA
SBMY0040647,State Bank of Mysore,SBMY0040647,500006007,KUKKATPALLY,"DHARMAREDDY COL,HYDERABAD-500072",040-23055384,HYDERABAD,HYDERABAD URBAN,ANDHRA PRADESH
SBMY0040648,State Bank of Mysore,SBMY0040648,500006008,"CHAITANYAPURI, HYDERABAD",CHAITANYAPURI BESIDE FOODWORLD HYDERABAD-500060,040-24058030,HYDERABAD,HYDERABAD URBAN,ANDHRA PRADESH
SBMY0040649,State Bank of Mysore,SBMY0040649,NON-MICR,VTU CAMPUS-MATCHE,MACHE 590014,0831-2412300,BELGAUM,BELGAUM,KARNATAKA
SBMY0040650,State Bank of Mysore,SBMY0040650,580006007,SHIRUR PARK,HUBLI 580031,0836-2376207,HUBLI-DHARWAD,DHARWAD,KARNATAKA
SBMY0040651,State Bank of Mysore,SBMY0040651,226006002,"VIPULKHAND, LUCKNOW",1/49 GOMTI NAGAR VIPULKHAND LUCKNOW-226010,0522-2397960,LUCKNOW,LUCKNOW,UTTAR PRADESH
SBMY0040652,State Bank of Mysore,SBMY0040652,560006095,HBR LAYOUT,BANGALORE-560043,080-25431879,BANGALORE,BANGALORE URBAN,KARNATAKA
SBMY0040653,State Bank of Mysore,SBMY0040653,560006096,DODDAKALLASANDRA,BANGALORE 560062,080-28425292,BANGALORE,BANGALORE URBAN,KARNATAKA
SBMY0040654,State Bank of Mysore,SBMY0040654,NON-MICR,NITTUVALLI,NITTUVALLI MAIN RD DAVANGERE,08192-264329,DAVANGERE,DAVANAGARE,KARNATAKA
SBMY0040655,State Bank of Mysore,SBMY0040655,560006097,NAGARABHAVI 2ND STAGE,BANGALORE 560056,080-23215056,BANGALORE,BANGALORE URBAN,KARNATAKA
SBMY0040656,State Bank of Mysore,SBMY0040656,600006015,KOYAMBEDU,CHENNAI 600107,,CHENNAI,CHENNAI,TAMIL NADU
SBMY0040657,State Bank of Mysore,SBMY0040657,560006098,SUNKADAKATTE,BANGALORE 560091,080-23584928,BANGALORE,BANGALORE URBAN,KARNATAKA
SBMY0040658,State Bank of Mysore,SBMY0040658,560006099,TREASURY BANGALORE,2 LC RD SHIVAJINAGAR BNGALORE-560001,080-25326112,BANGALORE,BANGALORE URBAN,KARNATAKA
SBMY0040659,State Bank of Mysore,SBMY0040659,560006100,VIDYARNYAPURA,BANGALOR 560097,080-23646144,BANGALORE,BANGALORE URBAN,KARNATAKA
SBMY0040660,State Bank of Mysore,SBMY0040660,560006101,HULIMAVU,BANGALORE 560076,080-26494463,BANGALORE,BANGALORE URBAN,KARNATAKA
SBMY0040661,State Bank of Mysore,SBMY0040661,110006013,"SUSHANTHLOK, GURGAON",CENTRE POINT A BLOCK SUSHANTLOK PHASE I GURGAON-122002,0124-5049356,GURGAON,GURGAON,HARYANA
SBMY0040662,State Bank of Mysore,SBMY0040662,700006008,SECTOR III SALT LAKE,"IB-20 SECTOR III, SALT LAKE CITY KOLKATA-700106",033-23351483,KOLKATA,KOLKATA,WEST BENGAL
SBMY0040663,State Bank of Mysore,SBMY0040663,560006102,HSR LAYOUT 6TH SECTOR,9TH MAIN HSR LAYOUT BANGALORE,080-25729332,BANGALORE,BANGALORE URBAN,KARNATAKA
SBMY0040664,State Bank of Mysore,SBMY0040664,NON-MICR,GOPALAGOWDA EXTN,SHIMOGA 577204,08182-223400,SHIMOGA,SHIMOGA,KARNATAKA
SBMY0040665,State Bank of Mysore,SBMY0040665,NON-MICR,B C ROAD,BANTWAL TALUK D K DIST.,08255-233880,BANTVAL,DAKSHINA KANNADA,KARNATAKA
SBMY0040666,State Bank of Mysore,SBMY0040666,NON-MICR,KADRI SHIVABAGH,MANGALORE 575003,0824-2225166,MANGALORE,DAKSHINA KANNADA,KARNATAKA
SBMY0040667,State Bank of Mysore,SBMY0040667,560006103,KORAMANGALA 6TH BLOCK,BANGALORE 560095,080-25701243,BANGALORE,BANGALORE URBAN,KARNATAKA
SBMY0040668,State Bank of Mysore,SBMY0040668,NON-MICR,PC EXTN.(KOLAR),KOLAR,,KOLAR,KOLAR,KARNATAKA
SBMY0040670,State Bank of Mysore,SBMY0040670,400006014,KAPURBAWDI,I ANAND PLAZA LBS MARG NEAR CASTLE MILL NAKA THANE(W),022-25476522,THANE,THANE,MAHARASHTRA
SBMY0040671,State Bank of Mysore,SBMY0040671,NON-MICR,DAM ROAD,HOSPET 583 203,08394-231755,HOSPET,BELLARY,KARNATAKA
SBMY0040672,State Bank of Mysore,SBMY0040672,NON-MICR,APMC YARD BELLARY,BANGALORE RD BELLARY,08392-250439,BELLARY,BELLARY,KARNATAKA
SBMY0040674,State Bank of Mysore,SBMY0040674,NON-MICR,KOPPAL,HOTEL MALLIKA COMP.KOPPAL - 583231,08539-221766,KOPPAL,KOPPAL,KARNATAKA
SBMY0040675,State Bank of Mysore,SBMY0040675,560006105,NIMHANS,BANGALORE  560029,080-26753944,BANGALORE,BANGALORE URBAN,KARNATAKA
SBMY0040676,State Bank of Mysore,SBMY0040676,560006111,BIDADI,BANGALORE MYSORE RD,,BANGALORE,BANGALORE URBAN,KARNATAKA
SBMY0040678,State Bank of Mysore,SBMY0040678,560006104,COFFEE BOARD LAYOUT,BANGALORE,,BANGALORE,BANGALORE URBAN,KARNATAKA
SBMY0040680,State Bank of Mysore,SBMY0040680,570006034,VIJAYANAGAR IIIRD STAGE,BANGALORE,,BANGALORE,BANGALORE URBAN,KARNATAKA
SBMY0040681,State Bank of Mysore,SBMY0040681,560006124,G-SEVA BANGALORE,NO.2 LADY CURZON ROAD SHIVAJI NAGAR BANGALORE - 560001,080-25559483,BANGALORE,BANGALORE URBAN,KARNATAKA
SBMY0040682,State Bank of Mysore,SBMY0040682,600006016,MADIPAKKAM,"29,MANIKANDAN ST, AYYAPPANAGAR",044-22472151,CHENNAI,CHENNAI,TAMIL NADU
SBMY0040683,State Bank of Mysore,SBMY0040683,NON-MICR,TREASURY BELLARY,SBM BUILDINGS STATION ROAD,08392-274665,BELLARY,BELLARY,KARNATAKA
SBMY0040685,State Bank of Mysore,SBMY0040685,560006106,MARTHAHALLI,BANGALORE - 560037,080-25227721,BANGALORE,BANGALORE URBAN,KARNATAKA
SBMY0040686,State Bank of Mysore,SBMY0040686,NON-MICR,SADASHIVANAGAR,TUMKUR - 572102,08160-2200799,TUMKUR,TUMKUR,KARNATAKA
SBMY0040699,State Bank of Mysore,SBMY0040699,NON MICR,KURNOOL,MAYURI HEIGHTS GROUND FLOOR KING MARKET KURNOOL 518001,08518-245530,KURNOOL,KURNOOL,ANDHRA PRADESH
SBMY0040700,State Bank of Mysore,SBMY0040700,NON-MICR,"DISTRICT OFFICE COMPLEX , CHAMARAJANAGAR","DOUBLE ROAD, CHAMARAJANAGAR - 571313",08226-222461,C.RAMASAMUDRA,CHAMRAJNAGAR,KARNATAKA
SBMY0040701,State Bank of Mysore,SBMY0040701,500006009,"BARKATPURA, HYDERABAD.","2-1-340/16, NEAR NALLAKUNTA BARKATPURA HYDERABAD 500027",040-27650371/72,HYDERABAD,HYDERABAD URBAN,ANDHRA PRADESH
SBMY0040702,State Bank of Mysore,SBMY0040702,585006002,"RAMAMANDIR ROAD, GULBARGA.","RAMMANDIR RD, DARSHAN APRTMENTS, P&T QRTS, GULBARGA",08472-271535,GULBARGA,GULBERGA,KARNATAKA
SBMY0040704,State Bank of Mysore,SBMY0040704,500006010,KONDAPUR,"PLOTNO.2&3, WHITEFIELDS, KONDAPUR HYDERABAD",040-40206233,HYDERABAD,HYDERABAD URBAN,ANDHRA PRADESH
SBMY0040705,State Bank of Mysore,SBMY0040705,400006015,VASAI,"SHOP NO.1,2,3 RICHMOND TOWN PHASELL, BLDG NO 4 BHABOLA",0250-2382644/633,VASAI,THANE,MAHARASHTRA
SBMY0040706,State Bank of Mysore,SBMY0040706,400006016,KHARGHAR,SHREE TOWER PLOT NO.16 SECTOR-20 KHARGHAR NAVI MUMBAI 410210,022-22919332,PANVEL,RAIGAD,MAHARASHTRA
SBMY0040707,State Bank of Mysore,SBMY0040707,400006017,MULUND,3 SAMRIDDI OFF LBS MARG NEAR MULUND TELEPHONE EXCHANGE,022-259128731/729,MUMBAI,GREATER BOMBAY,MAHARASHTRA
SBMY0040708,State Bank of Mysore,SBMY0040708,700006009,BEHALA CHOWRASTHA,"7A, SOURIN ROY ROAD, BEHALA, KOLKATA-700034.",033-24989873,KOLKATA,KOLKATA,WEST BENGAL
SBMY0040711,State Bank of Mysore,SBMY0040711,700006010,RAJARHAT,"G 4 & 6 GROUND FLOOR, BLOCK GANGA, VIP RD , AIRPORT KILKOTTA 700052",033-25250257,KOLKATA,KOLKATA,WEST BENGAL
SBMY0040712,State Bank of Mysore,SBMY0040712,560006115,CHANDRA LAYOUT,1575 3RD MAIN IST CROSS BANGALORE- 560040,080-23396487,BANGALORE,BANGALORE URBAN,KARNATAKA
SBMY0040720,State Bank of Mysore,SBMY0040720,NON-MICR,TFCPC CHENNAI,231 3RD FLOOR NSC BOSE RD CHENNAI 600001,044-25330247,CHENNAI,CHENNAI,TAMIL NADU
SBMY0040722,State Bank of Mysore,SBMY0040722,NON MICR,IFB BELLARY,SUDHA CIRCLE BELLARY 583104,08392-295005,BELLARY,BELLARY,KARNATAKA
SBMY0040723,State Bank of Mysore,SBMY0040723,110006014,"PITAMPURA, NEW DELHI",VARDHMAN PLAZA NEW DELHI 110034,011-27026607,NEW DELHI,NEW DELHI,DELHI
SBMY0040729,State Bank of Mysore,SBMY0040729,NON MICR,OAD HEAD OFFICE,K G ROAD BANGALORE 560009,080-22353901,BANGALORE,BANGALORE URBAN,KARNATAKA
SBMY0040730,State Bank of Mysore,SBMY0040730,NON MICR,HAROHALLI,R R COMPLEX BIDADI ROAD HAROHALLI 562112,080-27563454,HAROHALLI,BANGALORE RURAL,KARNATAKA
SBMY0040731,State Bank of Mysore,SBMY0040731,NON MICR,DOBBESPET,UDDENESWAR COMPLEX SERVICE ROAD DOBBESPET 562111,080-27735382,NELAMANGALA,BANGALORE RURAL,KARNATAKA
SBMY0040732,State Bank of Mysore,SBMY0040732,NON MICR,VIJAYAPURA,NEAR TMC OFFICE MELUR ROAD VIJAYAPURA 562135,080-27666466,VIJAYAPURA,BANGALORE RURAL,KARNATAKA
SBMY0040733,State Bank of Mysore,SBMY0040733,NON MICR,CHOKKAHALLI,CHOKKAHALLI INDUSTRIAL AREA GATE CHINTAMANI ROAD HOSKOTE TALUK 562114,080-27971197,HOSKOTE,BANGALORE RURAL,KARNATAKA
SBMY0040734,State Bank of Mysore,SBMY0040734,560006118,SHETTIGERE,"NO26,27 CVA COMPLEX DODDAJALA BANGALORE 562157",080-28467144,BANGALORE,BANGALORE URBAN,KARNATAKA
SBMY0040735,State Bank of Mysore,SBMY0040735,560006117,KENGERI SATELLITE TOWN,NO18 MIRLE MANSION KENGERI SATELLITE TOWN BANGALORE 560060,080-28484686,KENGERI,BANGALORE URBAN,KARNATAKA
SBMY0040736,State Bank of Mysore,SBMY0040736,600006017,SRIPERUMBUDUR,NO35 BY 1 GANDHI ROAD SRIPERUMBUDUR 602105,044-23620088,SRIPERUMBUDUR,KANCHEEPURAM,TAMIL NADU
SBMY0040737,State Bank of Mysore,SBMY0040737,NON MICR,KARUR,NO45 WEST PRADHAKSHANAM ROAD KARUR 639001,04324-233083,KARUR,KARUR,TAMIL NADU
SBMY0040738,State Bank of Mysore,SBMY0040738,NON MICR,RANEBENNUR,NEAR INSPECTION BANGALOW RANEBENNUR 581115,08373-266172,RANEBENNUR,HAVERI,KARNATAKA
SBMY0040739,State Bank of Mysore,SBMY0040739,575006011,THOKKOTTU,NH 17 HIGH LAND COMPLEX THOKKOTTU MANGALORE 575017,0824-2462222,MANGALORE,DAKSHIN KANNAD,KARNATAKA
SBMY0040740,State Bank of Mysore,SBMY0040740,575006012,BEJAI KAPIKAD,BEJAI KAPIKAD ROAD MANGALORE 575004,0824-2225774,MANGALORE,DAKSHIN KANNAD,KARNATAKA
SBMY0040741,State Bank of Mysore,SBMY0040741,NON MICR,BELTHANGADY,"1ST FLOOR PRAJWAL HOTEL COMPLEX,SANTHEKATTE MAIN ROAD BELTHANGADY 574214",08256-232741,BELTHANGADY,DAKSHIN KANNAD,KARNATAKA
SBMY0040744,State Bank of Mysore,SBMY0040744,560006121,KRISHNARAJA PURAM,K R PURAM BANGALORE 560036,080-25612744,BANGALORE,BANGALORE URBAN,KARNATAKA
SBMY0040745,State Bank of Mysore,SBMY0040745,560006122,THANISANDRA,NANDA GOKULA LAYOUT THANISANDRA MAIN ROAD BANGALORE 560045,080-25435151,BANGALORE,BANGALORE URBAN,KARNATAKA
SBMY0040746,State Bank of Mysore,SBMY0040746,NON MICR,HANUR,NO.390 JAYALAXMI COMPLEX HANUR 571439,08824-268999,HANUR,CHAMARAJANAGAR,KARNATAKA
SBMY0040752,State Bank of Mysore,SBMY0040752,400006018,DOMBIVLI EAST,NO1 PATKAR BUILDING OPPOSITE KDMC DOMBIVLI EAST 421201,0251-2443316,DOMBIVLI,THANE,MAHARASHTRA
SBMY0040753,State Bank of Mysore,SBMY0040753,570006035,HOOTAGALLI,"K H B COLONY,HOOTAGALLI,MYSORE 570018",0821-2402160,MYSORE,MYSORE,KARNATAKA
SBMY0040754,State Bank of Mysore,SBMY0040754,NON MICR,KUSHTAGI,"KANAKADASA CIRCLE,PANCHAM COMPLEX,KUSHTAGI 584121",08536-267660,KUSHTAGI,KOPPAL,KARNATAKA
SBMY0040755,State Bank of Mysore,SBMY0040755,NON MICR,SIRWAR,R K KAMALAMMA COMPLEX SIRWAR 584129,08538-270291,SIRWAR,RAICHUR,KARNATAKA
SBMY0040756,State Bank of Mysore,SBMY0040756,NON MICR,DEODURG,"NAGARGUNDA CROSS,DEVADURGA 584111",08531-260066,DEVADURGA,RAICHUR,KARNATAKA
SBMY0040758,State Bank of Mysore,SBMY0040758,560006120,CHANDAPURA,NO. 350 BY 361 ANEKAL ROAD BANGALORE 560088,080-27835511,BANGALORE,BANGALORE URBAN,KARNATAKA
SBMY0040759,State Bank of Mysore,SBMY0040759,NON MICR,JNANASAHYADRI,KUVEMPU UNIVERSITY SHAKARAGHATTA 577451 SHIMOGA DISTRICT,08282-257259,SHANKARGHATTA,SHIMOGA,KARNATAKA
SBMY0040760,State Bank of Mysore,SBMY0040760,560006123,YELAHANKA NEW TOWN,16TH B CROSS YELAHANKA NEW TOWN BANGALORE 560106,080-28461515,BANGALORE,BANGALORE URBAN,KARNATAKA
SBMY0040761,State Bank of Mysore,SBMY0040761,110006015,ROHINI,A 1 BY 20 SECTOR 14 PRASHANT VIHAR DELHI 110085,011-47527196,DELHI,DELHI,DELHI
SBMY0040763,State Bank of Mysore,SBMY0040763,NON MICR,SHAMSHABAD,RALLAGUDA ROAD MADHURA NAGAR SHAMSHABAD 501218,08413-222224,SHAMSHABAD,RANGAREDDY,ANDHRA PRADESH
SBMY0040764,State Bank of Mysore,SBMY0040764,NON MICR,HARADANAHALLI,NEAR VENKATAINA CHATRA HARADANA HALLY 571127,08226-238333,VENKATAIAHNACHATRA,CHAMARAJANAGAR,KARNATAKA
SBMY0040765,State Bank of Mysore,SBMY0040765,570006037,BANDIPALYA,NO.3 A B BLOCK APMC YARD BANDIPALYA MYSORE 570025,0821-2483888,MYSORE,MYSORE,KARNATAKA
SBMY0040766,State Bank of Mysore,SBMY0040766,380006003,RAMDEVNAGAR,NO.7 BY 8 ISKON PARK OPP OM TOWER SATELLITE ROAD AHMEDABAD 380015,,AHMEDABAD,AHMADABAD,GUJARAT
SBMY0040767,State Bank of Mysore,SBMY0040767,110006016,DWARKA,B-299-300 SECTOR 7 DWARKA NEW DELHI 110045,011-25073899,DELHI,DELHI,DELHI
SBMY0040768,State Bank of Mysore,SBMY0040768,411006004,BANER,SAI HERITAGE BANER MAIN ROAD PUNE - 400045,9867935769,PUNE,PUNE,MAHARASHTRA
SBMY0040769,State Bank of Mysore,SBMY0040769,395006003,RING ROAD,M 1 EMPIRE STATE BUILDING RING ROAD SURAT - 395002,0261-2363644,SURAT,SURAT,GUJARAT
SBMY0040770,State Bank of Mysore,SBMY0040770,560006125,GOTTIGERE,NO.12/5234 JAYA VIJAY BANNERGHATTA ROAD BANGALORE 560083,080 - 25780667,BANGALORE,BANGALORE URBAN,KARNATAKA
SBMY0040771,State Bank of Mysore,SBMY0040771,500006012,MEHDIPATNAM,"D NO.12-2-826/A/25, GROUND FLOOR, BUS DEPOT ROAD,LIC COLONY, MEHDIPATNAM HYDERABAD, AP",040-23522989,HYDERABAD,HYDERABAD,ANDHRA PRADESH
SBMY0040776,State Bank of Mysore,SBMY0040776,NON MICR,MUDDENAHALLI,SIR M VISVESVARAYA MUSEUM COMPLEX MUDDENAHALLI 562101,08156 - 250333,CHIKBALLAPUR,KOLAR,KARNATAKA
SBMY0040777,State Bank of Mysore,SBMY0040777,NON MICR,NAVANAGAR,"PLOT NO. 69, SECTOR NO. 63, NAVANAGAR, BAGALKOT, KARNATAKA-587103",08354 - 235114,BAGALKOT,BAGALKOTE,KARNATAKA
SBMY0040779,State Bank of Mysore,SBMY0040779,575006013,KAIKAMBA,"SERRAO COMPLEX, MAIN ROAD, KAIKAMBA, KINNIKAMBLA P.O.-574151, MANGALORE TALUK, DAKSHINA KANNADA ","0824-2259647, 2259847",KAIKAMBA,DAKSHIN KANNAD,KARNATAKA
SBMY0040780,State Bank of Mysore,SBMY0040780,560006132,PRASHANTH NAGAR,"NO. 32, 9TH MAIN, BINNY LAYOUT, 2ND STAGE, VIJAYNAGAR, BANGALORE, KARNATAKA-560040",080-23502457,BANGALORE,BANGALORE URBAN,KARNATAKA
SBMY0040781,State Bank of Mysore,SBMY0040781,560006128,TAVAREKERE,"KEMPEGOWDA COMPLEX, MAGADI MAIN ROAD, TAVAREKERE-562130, BANGALORE SOUTH TALUK",080 - 28430919,TAVAREKERE,BANGALORE RURAL,KARNATAKA
SBMY0040783,State Bank of Mysore,SBMY0040783,NON - MICR,ASHRAM ROAD,"PLOT NO. 8, SADGURU SRI SIDHARUDH COMPLEX, OPP:BLEDA HOSPITAL, BASWESHWAR NAGAR, ASHRAM ROAD, BIJAPUR - 586101","08352-260094, 260095",BIJAPUR,BIJAPUR,KARNATAKA
SBMY0040784,State Bank of Mysore,SBMY0040784,560006131,A.E.C.S. LAYOUT,"#589, 60 FT. MAIN ROAD, 'C' BLOCK, AECS LAYOUT, KUNDALAHALLY, BANGALORE - 560037","080-28543033, 28543034",BANGALORE,BANGALORE URBAN,KARNATAKA
SBMY0040785,State Bank of Mysore,SBMY0040785,560006129,BEGUR CROSS,"NO.8/1,BOMMANAHALLI ROAD, DEVARACHIKKANAHALLI, BILEKAHALLI POST,BANGALORE - 560076","080 - 25745724,25745725",BANGALORE,BANGALORE URBAN,KARNATAKA
SBMY0040786,State Bank of Mysore,SBMY0040786,590006008,HANUMAN NAGAR,"PLOT NO.-336, CTS NO.-3208,SCHEME 40, BEHIND HIDALGA GANESH TEMPLE,HANUMAN NAGAR BELGAUM - 591108",0831-2447122,BELGAUM,BELGAUM,KARNATAKA
SBMY0040787,State Bank of Mysore,SBMY0040787,560006135,BAGALUR,"NO. 486, BAGALUR MAIN ROAD, BANGALORE NORTH TALUK BAGALUR - 562149","080-28469616, 28469617",BAGALUR,BANGALORE URBAN,KARNATAKA
SBMY0040788,State Bank of Mysore,SBMY0040788,580006009,NAVANAGAR,"PLOT NO.-02,RS NO.-10,BLOCK 2,CHIKKENKOPPA SRI CHANNAVEERA SHARANARA ANDHARA 
KALYANA ASHRAM COMPLEX, MAIN ROAD, NAVANAGAR, HUBLI-580025",0836-2220045,HUBLI-DHARWAD,DHARWAD,KARNATAKA
SBMY0040789,State Bank of Mysore,SBMY0040789,NON-MICR,HEBBUR,"SRI RENUKAMBA RICE MILL UPSTAIRS, HEBBUR, TUMKUR, KARNATAKA - 572120",0816-2241088,HEBBUR,TUMKUR,KARNATAKA
SBMY0040790,State Bank of Mysore,SBMY0040790,560006136,VINAYAKA LAYOUT,"NO. 31, SLV RESIDENCY, 1ST MAIN ROAD, VINAYAKA LAYOUT, 3RD STAGE, VIJAYANAGAR, 
BANGALORE URBAN, KARNATAKA 560040",,BANGALORE,BANGALORE URBAN,KARNATAKA
SBMY0040791,State Bank of Mysore,SBMY0040791,560006137,BYATARAYANAPURA,"NO. 492, AMRUTHAHALLI MAIN ROAD, TALA CAUVERY LAYOUT, BANGALORE - 560092","080- 23627677, FAX - 23627688",BANGALORE,BANGALORE URBAN,KARNATAKA
SBMY0040792,State Bank of Mysore,SBMY0040792,577006006,SRI NIJALINGAPPA LAYOUT,"PLOT NO. 331, BESIDE ""MORE SHOP"" , SRI NIJALINGAPPA LAYOUT, DAVANGERE - 577004","08192 - 225341, FAX - 225351",DAVANGERE,DAVANGERE,KARNATAKA
SBMY0040793,State Bank of Mysore,SBMY0040793,572006569,YELLAPURA,"NO. - 19/3, TUMKUR-MADHUGIRI MAIN ROAD, YELLAPURA - 572106, ARAKERE POST, TUMKUR TALUK",0816 - 2211151,TUMKUR,TUMKUR,KARNATAKA
SBMY0040794,State Bank of Mysore,SBMY0040794,575006015,MAHAVEERA CIRCLE,"SATHYAM ARCADE, BANGALORE MANGALORE ROAD, PUMP WELL, MANAGALORE-575002",0824-2430044 FAX-2430074,MANGALORE,DAKSHIN KANNAD,KARNATAKA
SBMY0040795,State Bank of Mysore,SBMY0040795,560006138,VIKASA SOUDHA,"SAMRUDHI , BUDIGERE ROAD , DEVANAHALLI - 562110",080 - 22371512 FAX - 27681795,DEVANAHALLI,BANGALORE RURAL,KARNATAKA
SBMY0040796,State Bank of Mysore,SBMY0040796,571006553,VIDYA NAGAR,"OPP: KANDAYA BHAVANA, BANGALORE-MYSORE ROAD, RAMANAGARAM - 571511",080-27272514 FAX - 27272515,RAMANAGARAM,BANGALORE RURAL,KARNATAKA
SBMY0040797,State Bank of Mysore,SBMY0040797,635006302,AMBUR,"BETHESDA HOSPITAL COMPLEX, P.B. NO.-56, MISSION COMPOUND, AMBUR 635802",PHONE-04174-245611,AMBUR,VELLORE,TAMIL NADU
SBMY0040798,State Bank of Mysore,SBMY0040798,110006017,KALKAJI,"K - 135 , KALKAJI , NEW DELHI - 110019",,DELHI,DELHI,DELHI
SBMY0040799,State Bank of Mysore,SBMY0040799,570006039,DATTAGALLI,"#3400, RING ROAD, NEAR NETAJI CIRCLE, DATTAGALLI 3RD STAGE,MYSORE 570022",PHONE-0821-2347129,MYSORE,MYSORE,KARNATAKA
SBMY0040800,State Bank of Mysore,SBMY0040800,NA,BALEHONNUR,"V.S.S.N. BUILDING,OPP.GRAM PANCHAYATH OFFICE ,NEAR JAYEE CIRCLE,BALEHONNUR-577112",08226-250555,BALEHONNUR,CHIKMAGALUR,KARNATAKA
SBMY0040801,State Bank of Mysore,SBMY0040801,600006020,THANIKACHALAM ROAD,"THANIKACHALAM ROAD BRANCH, NO. 13(6), PLOT NO. 31, THANIKACHALAM ROAD,T, NAGAR,CHENNAI  600 017.","044 - 24362636, 24322484",CHENNAI,CHENNAI,TAMIL NADU
SBMY0040803,State Bank of Mysore,SBMY0040803,560006140,IIM CAMPUS,"IIM CAMPUS, BANNERGHATTA ROAD, BANGALORE 560076",PHONE-080-26483131,BANGALORE,BANGALORE URBAN,KARNATAKA
SBMY0040806,State Bank of Mysore,SBMY0040806,627 006 002,THOOTHUKUDI,"#20,VICTORIA EXTENTION ROAD ,OPP.TO HOLY CROSS CONVENT,THOOTHUKUDI-628002,TAMIL NADU.",PHONE-0461-2323050; FAX      -0461-2323051,TUTICORIN,THOOTHUKUDI,TAMIL NADU
SBMY0040807,State Bank of Mysore,SBMY0040807,560 006 141,HORAMAVU,"NO 21 & 22,OPPSYCON APARTMENTS,HORAMAVU MAINROAD,HORAMAVU,BENGALURU-560043","PHONE-080-25457291, FAX - 25457292",BANGALORE,BANGALORE,KARNATAKA
SBMY0040808,State Bank of Mysore,SBMY0040808,N. A.,MANGALWARPET,"NO. 635/6 & 635/6A, MANGALWARPET, BANGAOLRE - MYSORE ROAD, CHIKKAMALUR, CHANNAPATNA - 562160","PHONE-080-27252555, FAX-27252556",CHANNAPATNA,BANGALORE RURAL,KARNATAKA
SBMY0040810,State Bank of Mysore,SBMY0040810,560006143,SPECIALISED SME PEENYA II STAGE,"1ST FLOOR, VISVESVARAYA INDUSTRIAL TRADE CENTRE, EXPORT BHAVAN, PLOT NO-488/B, 14TH CROSS 4TH PHASE, PEENYA 2ND STAGE, BANGALORE - 560058","PH - 080 - 28362878, FAX - 080 - 28362868",BANGALORE,BANGALORE URBAN,KARNATAKA
SBMY0040812,State Bank of Mysore,SBMY0040812,N. A.,GOKAK,"CTS NO. 3412/A, DALAWAI BUILDING, FIRST FLOOR, BATNA CHOWK, HOSPET GALLI, GOKAK - 591307","PHONE-08332-227812, FAX-08332-227812",GOKAK,BELGAUM,KARNATAKA
SBMY0040813,State Bank of Mysore,SBMY0040813,N. A.,BAILHONGAL,"METGUD COMPLEX, BAGWAN CHAWL, BELGAUM ROAD, BAILHONGAL - 591102",9449629873,BAILHONGAL,BELGAUM,KARNATAKA
SBMY0040815,State Bank of Mysore,SBMY0040815,APPLIED FOR,BILGI,"GUDUR COMPLEX,  JAMAKHANDI ROAD, BILGI, BAGALKOT, PIN - 587116",9741663070,BILGI,BAGALKOTE,KARNATAKA
SBMY0040816,State Bank of Mysore,SBMY0040816,APPLIED FOR,BADAMI,"CTS 2843B/5B, OPP: KABBALGERI CROSS, STATION ROAD, BADAMI, BAGALKOT, PIN - 587201",9448829557,BADAMI,BAGALKOTE,KARNATAKA
SBMY0040817,State Bank of Mysore,SBMY0040817,590006502,SAUNDATTI,"PLOT NO 2030/4, KARADGI BUILDING,APMC YARD , NEAR OLD BUSTAND,SAUNDATTI, BELGAUM - 591126",PHONE-9986839173,SAUNDATTI,BELGAUM,KARNATAKA
SBMY0040825,State Bank of Mysore,SBMY0040825,N. A.,MUNDARGI,DR Y S METI BUILDING OPP J A COLLEGE MAIN ROAD MUNDARGI -582 118,"PHONE-08371-262250, FAX-08371-262250",MUNDARGI,GADAG,KARNATAKA
SBMY0040826,State Bank of Mysore,SBMY0040826,N. A.,KALGHATGI,NEAR APMC HUBLI KARWAR ROAD KALAGHATAGI 581 204,"PHONE-08370-284255, FAX-08370-284255",KALAGHATAGI,DHARWAD,KARNATAKA
SBMY0040827,State Bank of Mysore,SBMY0040827,N. A.,RON,MULLANBHAVI CROSS  GADAG MAIN ROAD  RON   582 209,"PHONE-08381-267134, FAX-08381-267134",RON,GADAG,KARNATAKA
SBMY0040828,State Bank of Mysore,SBMY0040828,N. A.,NAVALGUND,GANESH COMPLEX NEAR BUS STAND NAVALGUND -582 208,"PHONE-08380-220123, FAX-08380-220123",NAVALGUND,DHARWAD,KARNATAKA
SBMY0040829,State Bank of Mysore,SBMY0040829,576006503,SIDDAPURA,"DURGA KRUPA COMPLEX, MAIN ROAD, SIDDAPURA-576229, KUNDAPUR TALUK, UDUPI DISTRICT",PHONE-08259-284484,SIDDAPUR,UDIPI,KARNATAKA
SBMY0040831,State Bank of Mysore,SBMY0040831,580006503,KUNDGOL,DHARWAD SHETTAR ONI NEAR BUS STAND KUNDAGOL,N.A.,KUNDGOL,DHARWAD,KARNATAKA
SBMY0040833,State Bank of Mysore,SBMY0040833,582006506,SHIRAHATTI,DR BURBURE BLDG CHABBI ROAD NEAR BUS STAND SHIRAHATTI,N.A.,SHIRAHATTI,GADAG,KARNATAKA
SBMY0040835,State Bank of Mysore,SBMY0040835,APPLIED FOR,MOKA,OPP TO NEW KSRTC BUS STAND MAIN ROAD MOKA - 583117,08392-293303,MOKA,BELLARY,KARNATAKA
SBMY0040836,State Bank of Mysore,SBMY0040836,APPLIED FOR,MANVI,"ARUNODAYA COMPLEX MAIN ROAD, RAICHUR GANIGERA STATE HIGHWAY MANVI - 584123",08538-220635,MANVI,RAICHUR,KARNATAKA
SBMY0040837,State Bank of Mysore,SBMY0040837,APPLIED FOR,LINGASUGUR,"ADINAL COMPLEX , NO.2-12-116, LINGASUGUR - 584122",08537-257336,LINGSUGUR,RAICHUR,KARNATAKA
SBMY0040838,State Bank of Mysore,SBMY0040838,APPLIED FOR,YELBURGA,"PLOT NO 7, NEAR BUS STAND, YELBURGA - 583236",08534-220201,YELBARGA,KOPPAL,KARNATAKA
SBMY0040840,State Bank of Mysore,SBMY0040840,560006135,AMRUTHUR,AMRUTHUR KUNIGAL TALUK TUMKUR DISTRICT PIN - 572111,PHONE-0813-2225022,AMRUTHUR,TUMKUR,KARNATAKA
SBMY0040841,State Bank of Mysore,SBMY0040841,581006532,HANAGAL,"GOWRAMMA MAHARAJPET BUILDING,(OLD SBI BUILDING), NEAR NEW BUS STAND,CHIDAMBARNAGAR,HANGAL  581104 HAVERI (DIST.)",08379-262123,HANGAL,HAVERI,KARNATAKA
SBMY0040842,State Bank of Mysore,SBMY0040842,581006533,SAVANUR,"A.P.M.C BUILDING,NEAR BUS STAND,SAVANUR  581118  HAVERI (DIST.)",08378-241668,SAVANUR,HAVERI,KARNATAKA
SBMY0040844,State Bank of Mysore,SBMY0040844,560006145,KUMBALGODU,"264, SY NO. 63/1,RANGANATHA COMPLEX,ANCHEPALYA,KUMBALGODU VILLAGE,BANGALORE  MYSORE ROAD,BANGALORE URBAN  560 060",PHONE-080 - 28437622,KUMBALAGODU,BANGALORE URBAN,KARNATAKA
SBMY0040845,State Bank of Mysore,SBMY0040845,560006144,ATTIBELE,"NO 169/1,2,3, J. P. COMPLEX, BAZAAR STREET, ATTIBELE TOWN, ANEKAL TALUK, BANGALORE URBAN - 562017","PHONE-080-27844944, 27844922",ATTIBELE,BANGALORE URBAN,KARNATAKA
SBMY0RRCKGB,State Bank of Mysore,SBMY0RRCKGB,N. A.,CAUVERI KALPATARU GRAMEENA BANK (RRB),"CA 20, VIJAYNAGAR 2ND STAGE MYSORE - 570017",PHONE - 0821-2469515 FAX - 0821-2469516,MYSORE,MYSORE,KARNATAKA
SBMY0040809,State Bank of Mysore,SBMY0040809,APPLIED FOR,GNDEC CAMPUS BIDAR,"GURUNANAK DEV ENGINEERING COLLEGE CAMPUS, MAILOOR ROAD BIDAR",9481294123,BIDAR,BIDAR,KARNATAKA
SBMY0040823,State Bank of Mysore,SBMY0040823,APPLIED FOR,YADGIR,"MALHAR COMPLEX OPPOSITE TO DC OFFICE,  YADGIR, 585202",9886437635,YADGIRI,GULBARGA,KARNATAKA
SBMY0040832,State Bank of Mysore,SBMY0040832,582006505,NARAGUND,"STATE BANK OF MYSORE,NARAGUND BRANCH,CTS NO.2115/2116,TMC ROAD,MARKET,NARAGUND - 582207,GADAG DIST.",08377-244779/244780,NARGUND,GADAG,KARNATAKA
SBMY0040847,State Bank of Mysore,SBMY0040847,560006146,JIGANI,"JIGANI MAIN ROAD , OPP 'V' INN HOTEL & GOVT HOSPITAL, ANEKAL TALUK, JIGANI, BANGALORE URBAN",9483535359,JIGANI,BANGALORE URBAN,KARNATAKA
SBMY0040852,State Bank of Mysore,SBMY0040852,577006214,PESITM CAMPUS SHIMOGA,"GUDDADA AREKERE SAGARA ROAD , SHIMOGA SHIMOGA SHIMOGA 577204",08182-293166,SHIMOGA,SHIMOGA,KARNATAKA
SBMY0040856,State Bank of Mysore,SBMY0040856,581006534,SHIGGAON,"STATE BANK OF MYSORE,SHIGGAON BRANCH,RAIKAR BUILDING,NEAR OLD BUS- STAND,SHIGGAON  581250,HAVERI (DIST)",08378-255035,SHIGGAON,HAVERI,KARNATAKA
SBMY0040690,State Bank of Mysore,SBMY0040690,NA,RACPC,NO73 SHANTHARAM BESTOWAL I ST FLOOR LALBAGH ROAD SUDHAMANAGAR BANGALORE 560027,8022114022,BANGALORE,BANGALORE URBAN,KARNATAKA
SBMY0040846,State Bank of Mysore,SBMY0040846,571006588,KOPPA,"SARVODAYA VIDYAVARDAKA TRUST BUILDING, KOPPA-KOWDLE ROAD, KOPPA - 571425 MADDUR TALUK",8232248044,KOPPA,MANDYA,KARNATAKA
SBMY0040851,State Bank of Mysore,SBMY0040851,APPLIED FOR,VEMAGAL,SETTHI ROAD VEMAGAL VILLAGE&POST KOLAR TALUK,8152246088,VEMGAL,KOLAR,KARNATAKA
SBMY0040849,State Bank of Mysore,SBMY0040849,560006147,RAJANUKUNTE,KOKOLU MAIN ROAD RAJANUKUNTE VILLAGE BANGALORE NORTH TALUK BANGALORE URBAN DIT,8028468088,RAJANAKUNTE,BANGALORE URBAN,KARNATAKA
SBMY0040854,State Bank of Mysore,SBMY0040854,583006525,KUREKUPPA,MAIN ROAD KUREKUPPA 583123 SANDUR TALUK BELLARY DIST,9686454767,SANDUR,BELLARY,KARNATAKA
SBMY0040818,State Bank of Mysore,SBMY0040818,591006525,RAIBAG,TPC NO 2746 SHREE SADHAN SRINAGAR STATION ROAD DR AMDEDKAR CIRCLE RAIBAG 591317 BELGAUM,8331224222,RAIBAG,BELGAUM,KARNATAKA
SBMY0040848,State Bank of Mysore,SBMY0040848,591006524,KHANAPUR,TPC 1558 WAZ BUILDING BELGAUM GOA ROAD OPP MINI VIDHANASOUDHA KHANAPUR 591302 BELGUAM DIST,8336223802,KHANAPUR,BELGAUM,KARNATAKA
SBMY0040850,State Bank of Mysore,SBMY0040850,572006009,TUMKUR UNIVERSITY CAMPUS,GOVT SCIENCE COLLEGE PREMISES TUMKUR UNIVERSITY CAMPUS BH ROAD TUMKUR 572102,8162251252,TUMKUR,TUMKUR,KARNATAKA
SBMY0040425,State Bank of Mysore,SBMY0040425,NON MICR,MYSORE ZONE,"MYSORE ZONE ,P.B. NO. 19,SAHUKAR CHENNIAH ROAD,KUVEMPUNAGAR, MYSORE - 570 023.     ",0821-2544946,MYSORE,MYSORE,KARNATAKA
SBMY0040430,State Bank of Mysore,SBMY0040430,NON MICR,HUBLI ZONE,"STATE BANK OF MYSORE,ZONAL OFFICE, HUBLI,NO. 26, SIDDAPPA KAMBLI ROAD, SHWETHA COMPLEX,P.B. NO. 134,HUBLI-580 020,KARNATAKA STATE",0836-2366646,HUBLI-DHARWAD,DHARWAD,KARNATAKA
SBMY0040448,State Bank of Mysore,SBMY0040448,NON MICR,CENTRAL ZONE,"STATE BANK OF MYSORE BUILDG.CENTRAL ZONE, CHENNAI, 3RD FLOOR,NO. 231, NSC BOSE ROAD,CHENNAI-600001",044-25332532,CHENNAI,CHENNAI,KARNATAKA
SBMY0040587,State Bank of Mysore,SBMY0040587,NON MICR,"REGION -I,","BANGALORE ZONE -I,B K G COMPLEX, AVENUE ROAD,BANGALORE- 560009",080-22352564,BANGALORE,BANGALORE URBAN,KARNATAKA
SBMY0040588,State Bank of Mysore,SBMY0040588,NON MICR,"REGION -II,","BANGALORE ZONE -I,B K G COMPLEX, AVENUE ROAD,BANGALORE- 560009",080-22371123,BANGALORE,BANGALORE URBAN,KARNATAKA
SBMY0040589,State Bank of Mysore,SBMY0040589,NON MICR,REGION III BZ 1,"BANGALORE ZONE -I,B K G COMPLEX, AVENUE ROAD,BANGALORE- 560009",080-22352562,BANGALORE,BANGALORE URBAN,KARNATAKA
SBMY0040590,State Bank of Mysore,SBMY0040590,NON MICR,REGION IV BZ 1,"BANGALORE ZONE -I,B K G COMPLEX, AVENUE ROAD,BANGALORE- 560009",080-22372679,BANGALORE,BANGALORE URBAN,KARNATAKA
SBMY0040591,State Bank of Mysore,SBMY0040591,NON MICR,REGION III BZ 2,"STATE BANK OF MYSORE REGIONAL OFFICE III,BANGALORE ZONE II,1ST FLOOR, TUMKUR MAIN BRANCH, CHURCH SQUARE,TUMKUR-572101",0816-2276598,TUMKUR,TUMKUR,KARNATAKA
SBMY0040592,State Bank of Mysore,SBMY0040592,NON MICR,REGION I MZ,"REGION I MZ,P. B. NO. 17,SAHUKAR CHENNIAH ROAD,T.K.G.LAYOUT,KUVEMPUNAGAR,MYSORE - 570 009 ",0821-2341686,MYSORE,MYSORE,KARNATAKA
SBMY0040593,State Bank of Mysore,SBMY0040593,NON MICR,REGION II MZ,"STATE BANK OF MYSORE REGION II MYSORE ZONE REGIONAL OFFICE,949 1A SAMPIGE ROAD,HASSAN 573 201",08172-269397,HASSAN,HASSAN,KARNATAKA
SBMY0040594,State Bank of Mysore,SBMY0040594,NON MICR,REGION III MZ,"STATE BANK OF MYSORE ,REGION-III ,MYSORE ZONE ,REGIONAL OFFICE, 'BELUVE' APARTMENTS,VALENCIA,MANGALORE  575002",0824-2432274,MANGALORE,DAKSHIN KANNAD,KARNATAKA
SBMY0040595,State Bank of Mysore,SBMY0040595,NON MICR,REGION IV MZ,"STATE BANK OF MYSORE,REGION-IV,MYSORE ZONE,REGIONAL OFFICE, PB NO.1, VISVESHWARAIAH ROAD,MANDYA",08232-231166,MANDYA,MANDYA,KARNATAKA
SBMY0040596,State Bank of Mysore,SBMY0040596,NON MICR,REGION I HZ,"STATE BANK OF MYSORE, REGIONAL OFFICE, REGION-I ,HUBLI ZONE,II ND FLOOR, GRADUATES CO-OPERATIVE SOCIETY BUILDING, KUVEMPU ROAD, SHIMOGA - 577 201 ",08182-225021,SHIMOGA,SHIMOGA,KARNATAKA
SBMY0040597,State Bank of Mysore,SBMY0040597,NON MICR,REGION II HZ,"STATE BANK OF MYSORE, HUBLI ZONE, NO. 26, SIDDAPPA KAMBLI ROAD,P.B. NO. 134,HUBLI - 580 020",0832-2366641,HUBLI-DHARWAD,DHARWAD,KARNATAKA
SBMY0040598,State Bank of Mysore,SBMY0040598,NON MICR,REGION III HZ,"STATE BANK OF MYSORE, HUBLI ZONE, DAVANAGERE REGION,6-119   MANDIPET,DAVANAGAERE- 577001",08192-258381,DAVANGERE,DAVANGERE,KARNATAKA
SBMY0040599,State Bank of Mysore,SBMY0040599,NON MICR,REGION IV HZ,"STATE BANK OF MYSORE,HUBLI ZONE ,REGIONAL OFFICE,SBM BUILDING (UPSTAIRS), STATION ROAD,BELLARY - 583 101",0839-2279367,BELLARY,BELLARY,KARNATAKA
SBMY0040600,State Bank of Mysore,SBMY0040600,NON MICR,MUMBAI REGION,"STATE BANK OF MYSORE,REGIONAL OFFICE , DHARMAKSHETRA,MAHAKALI CAVES ROAD.ANDHERI(E),MUMBAI 400093",022-28218195,MUMBAI,GREATER BOMBAY,KARNATAKA
SBMY0040601,State Bank of Mysore,SBMY0040601,NON MICR,DELHI REGION,"STATE BANK OF MYSORE,DELHI REGION,101 B, IST FLOOR,APRA PLAZA,PLOT NO. 28, ROAD NO. 44,COMMUNITY CENTRE,PITAMPURA, DELHI-110 034",011-27020931,DELHI,DELHI,KARNATAKA
SBMY0040602,State Bank of Mysore,SBMY0040602,NON MICR,REGION III CZ,"REGION III CZ,(HYDERABAD REGION,NO. 6-3-865, IIND FLOOR,MY HOME. JUPALLY COMPLEX,AMEERPET,HYDERABAD-500016.",040-66824971,HYDERABAD,HYDERABAD,KARNATAKA
SBMY0040603,State Bank of Mysore,SBMY0040603,NON MICR,REGION II BZ 2,"STATE BANK OF MYSORE REGIONAL OFFICE II,NEAR DOOM LIGHT CIRCLE,NEW EXTENSION,KOLAR-563 101",08152-221128,KOLAR,KOLAR,KARNATAKA
SBMY0040604,State Bank of Mysore,SBMY0040604,NON MICR,REGION I CZ,"REGION-I, CENTRAL ZONE,(CHENNAI REGION),4TH FLOOR, MYSORE BANK BULDG, 231, N.S.C. BOSE ROAD,CHENNAI - 600 001.  ",044-25350918,CHENNAI,CHENNAI,KARNATAKA
SBMY0040677,State Bank of Mysore,SBMY0040677,NON MICR,REGION IV BZ 2,"STATE BANK OF MYSORE, REGION IV,BANGALORE ZONE II,1ST FLOOR, TUMKUR MAIN BRANCH, CHURCH SQUARE,TUMKUR-572101",0816-2274848,TUMKUR,TUMKUR,KARNATAKA
SBMY0040724,State Bank of Mysore,SBMY0040724,NON MICR,REGION II CZ,"REGION-II ,  CENTRAL ZONE,(COIMBATORE REGION),75-76, IST FLOOR,OPPANKARA STREET,COIMBATORE-641 001",0422-2397402,COIMBATORE,COIMBATORE,KARNATAKA
SBMY0040726,State Bank of Mysore,SBMY0040726,NON MICR,BANGALORE ZONE 2,"BANGALORE ZONE-II, BKG COMPLEX, A BLOCK,A BLOCK, 2ND FLOOR,AVENUE ROAD,BANGALORE - 560 009",080-22202859,BANGALORE,BANGALORE URBAN,KARNATAKA
SBMY0040727,State Bank of Mysore,SBMY0040727,NON MICR,REGION I BZ 2,"STATE BANK OF MYSORE REGIONAL OFFICE-I, BANGALORE ZONE II,BKG COMPLEX, A BLOCK,AVENUE ROAD,BANGALORE - 560 009.",080-22354873,BANGALORE,BANGALORE URBAN,KARNATAKA
SBMY0040802,State Bank of Mysore,SBMY0040802,NON MICR,REGION V HZ,"STATE BANK OF MYSORE,REGION-V, HUBLI ZONE,CTS NO.5645, OPP.MARATHA MANGAL KARAYALA, NEAR RAILWAY OVER BRIDGE, KHANAPUR ROAD,BELGAUM-590011",0831-2421019,BELGAUM,BELGAUM,KARNATAKA
SBMY0040822,State Bank of Mysore,SBMY0040822,APPLIED FOR,SHAHPUR,"P NO60 BASAVESHWAR GUNJ,UADGIR ROAD, SHAHPUR 585223 YADGIR DIST KARNATAKA",8479240402,SHAHAPUR,GULBARGA,KARNATAKA
SBMY0040853,State Bank of Mysore,SBMY0040853,APPLIED FOR,AFZALPUR,P NO04 MAKKIKARJUNA CHOWK 4 ROAD JUNCTION AFZALPUR GULBARGA DIST KARNATAKA,8470282999,AFZALPUR,GULBARGA,KARNATAKA
SBMY0040866,State Bank of Mysore,SBMY0040866,581006552,HALIYAL,OPPOSITE KSRTC BUS STAND HALIYAL UTTARA KANNADA DIST 581329,8284220008,HALIYAL,UTTAR KANNAD,KARNATAKA
SBMY0040867,State Bank of Mysore,SBMY0040867,581006302,ANKOLA,ABOVE SHENVI ENTERPRISES KARWAR ROAD ANKOLA 581314,8388230217,ANKOLA,UTTAR KANNAD,KARNATAKA
SBMY0040821,State Bank of Mysore,SBMY0040821,APPLIED FOR,"THE ART OF LIVING BRANCH, UDAYAPURA","THE ART OF LIVING BRANCH, THE ART OF LIVING INTERNATIONAL CENTRE VED VIGNAN MAHA VIDYA PEETH 21 ST KM, KANAKAPURA MAIN ROAD UDAYAPURA, BANGALORE 560 082",9740929449,BANGALORE,BANGALORE URBAN,KARNATAKA
SBMY0040871,State Bank of Mysore,SBMY0040871,APPLIED FOR,"THE ART OF LIVING BRANCH, UDAYAPURA","THE ART OF LIVING BRANCH, THE ART OF LIVING INTERNATIONAL CENTRE VED VIGNAN MAHA VIDYA PEETH 21 ST KM, KANAKAPURA MAIN ROAD UDAYAPURA, BANGALORE 560 082",9740929449,BANGALORE,BANGALORE URBAN,KARNATAKA
SBMY0040843,State Bank of Mysore,SBMY0040843,571006589,GONIKOPPAL,HARIDARSHAN ARCADE MAIN ROAD GONIKOPPAL VIRAJPET TALUK 571213 KARNATAKA,9448363609,GONIKOPPAL,KODAGU,KARNATAKA
SBMY0040855,State Bank of Mysore,SBMY0040855,NA,CCPC MANGAORE,"#4-8-793/9 DIVYA ENCLAVE, OPP CANARA COLLEGE M G ROAD MANGALORE 575003",8242495333,MANGALORE,DAKSHIN KANNAD,KARNATAKA
SBMY0040869,State Bank of Mysore,SBMY0040869,577006578,DAVANAGERE UNIVERSITY CAMPUS,SHIVAGANGOTHRI THOLAHUNSE 577002 DAVANAGERE,8192208088,DAVANGERE,DAVANGERE,KARNATAKA
SBMY0040870,State Bank of Mysore,SBMY0040870,580006305,HIGH COURT CIRCUIT BENCH,HIGH COURT CIRCUIT BENCH BRANCH HIGH COURT BELUR DHARWARD 580011,0836-2486300,HUBLI-DHARWAD,DHARWAD,KARNATAKA
SBMY0040877,State Bank of Mysore,SBMY0040877,APPLIED FOR,SARJAPURA,HNR COMPLEX BANGALORE ROAD SARJAPURA 562125 BANGALORE DIST,,SARJAPURA,BANGALORE URBAN,KARNATAKA
SBMY0040879,State Bank of Mysore,SBMY0040879,APPLIED FOR,BOMMASANDRA,"SY NO 114 KHATA NO 775, 778 KACHANAYAKANAHALLY BOMMASANDRA JIGANI HOBLI ANEKAL TALUK 560105 BANGALORE URBAN KARNATAKA",,BOMMASANDRA,BANGALORE URBAN,KARNATAKA
SBMY0040880,State Bank of Mysore,SBMY0040880,APPLIED FOR,CHIKKABANAVARA,SITE NO 1&2 SY NO 53/2 HESARAGHATTA MAIN ROAD CHIKKABANAVARA BANGALORE 560090,9971993074,HESARAGHATTA,BANGALORE URBAN,KARNATAKA
SBMY0040868,State Bank of Mysore,SBMY0040868,560006148,SPB SARJAPUR ROAD BRANCH,"#40, KHAMESHWARI KAIKONDRAHALLI SARJAPUR ROAD CARMELRAM POST BANGALORE 560035 KARNATAKA",080-25746551,SARJAPURA,BANGALORE URBAN,KARNATAKA
SBMY0040875,State Bank of Mysore,SBMY0040875,APPLIED FOR,MYSORE MEDICAL COLLEGE BRANCH,"MEDICAL COLLEGE BUILDING, RAILWAYSTATIONROAD, MYSORE 570001 KARNATAKA",0821-2448941,MYSORE,MYSORE,KARNATAKA
SBMY0040872,State Bank of Mysore,SBMY0040872,573006305,DAIRY CIRCLE,STATE BANK OF MYSORE DAIRY CIRCLE BRANCH GOVT ENGINEERING COLLEGE CAMPUS DAIRY CIRCLE BM ROAD HASSAN 573201 KARNATKA,8172241722,HASSAN,HASSAN,KARNATAKA
SBMY0040873,State Bank of Mysore,SBMY0040873,573006502,BANAVARA,STATE BANK OF MYSORE MAHAVARA COMPLEX OPP KSRTC BUS STAND BH ROAD NH 206 BANAVARA 573112 ARSIKERE TALUK HASSAN DIST KARNATAKA,8174235117,BANAVAR,HASSAN,KARNATAKA
SBMY0040874,State Bank of Mysore,SBMY0040874,APPLIED FOR,JAVAGAL,STATE BANK OF MYSORE P N COMPLEX OPPOSITE POLICE STATION JAVAGAL 573125,8174271117,JAVAGAL,HASSAN,KARNATAKA
SBMY0040878,State Bank of Mysore,SBMY0040878,560006150,BASHETTIHALLI,"#444, SVB COMPLEX, DODDABALLAPUR MAIN ROAD BESHETTIHALLI 561203 ",9480701462,DODDABALLAPUR,BANGALORE RURAL,KARNATAKA