ID,BANK,IFSC_CODE,MICR_CODE,BRANCH_NAME,ADDRESS,CONTACT,CITY,DISTRICT,STATE
SVCB0000001,The Shamrao Vithal Cooperative Bank Ltd,SVCB0000001,NA,CORPORATE & ADMINISTRATIVE OFFICE,"SVC TOWER,NEHRU ROAD,SANTACRUZ,MUMBAI-400 055.",66999858,MUMBAI,GREATER BOMBAY,MAHARASHTRA
SVCB0000002,The Shamrao Vithal Cooperative Bank Ltd,SVCB0000002,400089002,CUFFE PARDE,MAKER TOWERS-E  CUFFE PARADE  MUMBAI,91222189101/2183423,MUMBAI,GREATER BOMBAY,MAHARASHTRA
SVCB0000003,The Shamrao Vithal Cooperative Bank Ltd,SVCB0000003,400089003,BANDRA,"C, CHITRAPUR CO-OPERATIVE SOCIET  27TH ROAD, TPS III  BANDRA (WEST) MUMBAI",26428562/26426280,MUMBAI,GREATER BOMBAY,MAHARASHTRA
SVCB0000004,The Shamrao Vithal Cooperative Bank Ltd,SVCB0000004,400089004,BORIVALI BRANCH,"BAL VATSALAYA BLDG,KASTURBA CROSS RD NO-1,BORIVALI,MUMBAI-400 066",28058425 / 28086749,MUMBAI,GREATER BOMBAY,MAHARASHTRA
SVCB0000005,The Shamrao Vithal Cooperative Bank Ltd,SVCB0000005,400089005,MATUNGA,"5, KANARA HOUSE, MOGUL LANE, MAHIM, MUMBAI  MOGUL LANE  MAHIM , MUMBAI",912224379927/4316813,MUMBAI,GREATER BOMBAY,MAHARASHTRA
SVCB0000006,The Shamrao Vithal Cooperative Bank Ltd,SVCB0000006,400089006,S V MARG,"H/2,ANANDASHRAM,SHAMRAO VITHAL MARG,MUMBAI - 4000007",(022)23867924 / (022)23894564,MUMBAI,GREATER BOMBAY,MAHARASHTRA
SVCB0000007,The Shamrao Vithal Cooperative Bank Ltd,SVCB0000007,400089007,SAKI NAKA,"YAMUNA SADAN,SAKIVIHAR ROAD  SAKINAKA,ANDHERI(EAST)  MUMBAI",912228522508/8520708,MUMBAI,GREATER BOMBAY,MAHARASHTRA
SVCB0000008,The Shamrao Vithal Cooperative Bank Ltd,SVCB0000008,400089008,SANTACRUZ (W),"8/1, SARASWAT COLONY  TALMAKI ROAD  SANTACRUZ WEST, MUMBAI",26600584 / 26608726,MUMBAI,GREATER BOMBAY,MAHARASHTRA
SVCB0000009,The Shamrao Vithal Cooperative Bank Ltd,SVCB0000009,400089009,SLEATER ROAD,"A/2,3,4 & 5  GANESH PRASAD  NAUSHIR BHARUCHA MARG, MUMBAI",912223811541/912223813571,MUMBAI,GREATER BOMBAY,MAHARASHTRA
SVCB0000010,The Shamrao Vithal Cooperative Bank Ltd,SVCB0000010,400089010,VILE PARLE,"GEETANJALI, NEHRU ROAD,  VILE PARLE (EAST)  DIST. MUMBAI",912226133210/912226191507,MUMBAI,GREATER BOMBAY,MAHARASHTRA
SVCB0000011,The Shamrao Vithal Cooperative Bank Ltd,SVCB0000011,400089011,GOREGAON,"12, UDYOG NAGAR, TIMESTAR BUILDI  NEAR KAMAT CLUB, S V ROAD  GOREGAON (WEST) MUMBAI",912228740578/912228754174,MUMBAI,GREATER BOMBAY,MAHARASHTRA
SVCB0000012,The Shamrao Vithal Cooperative Bank Ltd,SVCB0000012,400089012,MANDVI,"82/84, ANAND BUILDING   KAZI SYED STREET, MANDVI   MUMBAI",23446206 /23420933,MUMBAI,GREATER BOMBAY,MAHARASHTRA
SVCB0000013,The Shamrao Vithal Cooperative Bank Ltd,SVCB0000013,400089013,VERSOVA,7 SARKAR CORNER  J P ROAD  ANDHERI(WEST) MUMBAI,26251045 / 26234137,MUMBAI,GREATER BOMBAY,MAHARASHTRA
SVCB0000015,The Shamrao Vithal Cooperative Bank Ltd,SVCB0000015,400089015,KALYAN,SAI VIHAR CHHATRAPATI SHIVAJI  PATH SHIVAJI CHOWK  KALYAN (WEST),95251 313479    / 211381,MUMBAI,GREATER BOMBAY,MAHARASHTRA
SVCB0000016,The Shamrao Vithal Cooperative Bank Ltd,SVCB0000016,400089016,MULUND,"G-1,6,7,8  GANESH KRIPA R.H.B ROAD  MULUND (WEST), MUMBAI",25917840 / 25605735,MUMBAI,GREATER BOMBAY,MAHARASHTRA
SVCB0000017,The Shamrao Vithal Cooperative Bank Ltd,SVCB0000017,400089017,MAHAKALI,SANSKRITI PARK  OPP.CANOSSA HIGH SCHOOL  ANDHERI(EAST) MUMBAI,28370781/ 28389556,MUMBAI,GREATER BOMBAY,MAHARASHTRA
SVCB0000018,The Shamrao Vithal Cooperative Bank Ltd,SVCB0000018,400089018,GHATKOPAR,JAYANT ARCADE  JUNCTION OF M G RD&RAJAWADI NAKA  GHATKOPAR(EAST) MUMBAI,5153308/5165373,MUMBAI,GREATER BOMBAY,MAHARASHTRA
SVCB0000019,The Shamrao Vithal Cooperative Bank Ltd,SVCB0000019,400089019,KANDIVALI (W),"NO. 6, GROUND FLOOR, MANEK NAGAR, M.G.ROAD, KANDIVLI (W), MUMBAI - 400067",28634490/28634975,MUMBAI,GREATER BOMBAY,MAHARASHTRA
SVCB0000020,The Shamrao Vithal Cooperative Bank Ltd,SVCB0000020,400089020,CHEMBUR,"913,NATASHA PLAZA, OPP. MALHAR  HOTEL, STATION AVENUE ROAD,  D.K.SANDU MARG,CHEMBUR(E).MUMBAI",5235389/5244671,MUMBAI,GREATER BOMBAY,MAHARASHTRA
SVCB0000021,The Shamrao Vithal Cooperative Bank Ltd,SVCB0000021,400089021,MALAD,"47/A, S.M.HOUSE LOURDES COLONY  ORLEM,MALAD WEST  MUMBAI",28069163/ 28638893,MUMBAI,GREATER BOMBAY,MAHARASHTRA
SVCB0000022,The Shamrao Vithal Cooperative Bank Ltd,SVCB0000022,400089022,MIRA ROAD BRANCH,"ROYAL CHALLENGE BLDG,MIRA-BHAYENDER RD,DIST- THANE",28122372 / 28122373,NCC/THANE,THANE,MAHARASHTRA
SVCB0000023,The Shamrao Vithal Cooperative Bank Ltd,SVCB0000023,400089023,THANE,"11/12,SITA VIHAR,DAMANI ESTATE  L.B.S MARG,NAUPADA  THANE(WEST)",25338715 / 25338706,MUMBAI,GREATER BOMBAY,MAHARASHTRA
SVCB0000024,The Shamrao Vithal Cooperative Bank Ltd,SVCB0000024,400089024,VASHI,"JAYMANGAL OIL COMPLEX, APMC II  SECTOR 19-A, OPP. DANA BUNDER  VASHI TURBHE NAVI MUMBAI",27657651/7800682,MUMBAI,GREATER BOMBAY,MAHARASHTRA
SVCB0000025,The Shamrao Vithal Cooperative Bank Ltd,SVCB0000025,400089025,KHAR BRANCH,"VANVARIA APPT,2ND ROAD CORNER,S V RD,KHAR(W),MUMBAI-400 052",26465991 / 26465992,MUMBAI,GREATER BOMBAY,MAHARASHTRA
SVCB0000026,The Shamrao Vithal Cooperative Bank Ltd,SVCB0000026,400089026,VAKOLA BRANCH,"SVC TOWER,NEHRU ROAD,SANTACRUZ,MUMBAI-400 055.",56999702/703,MUMBAI,GREATER BOMBAY,MAHARASHTRA
SVCB0000027,The Shamrao Vithal Cooperative Bank Ltd,SVCB0000027,400089027,GAMDEVI,"B/2, SARASWAT CO-OP., HSG. SOC., DR. KASHIBAI NAVRANGE MARG,OPP. GAMDEVI POLICE STATION, NEAR TELEPHONE EXCHANGE, MUMBAI -",23885013 / 56021501,MUMBAI,GREATER BOMBAY,MAHARASHTRA
SVCB0000030,The Shamrao Vithal Cooperative Bank Ltd,SVCB0000030,400089030,KANDIVALI (E),"NIRMALA MEMORIAL FOUNDATION COLLEGE OF COMMERCE AND SCIENCE, ASHANAGAR, THAKUR COMPLEX, KANDIVILI(EAST), MUMBAI",26756531/26756536,MUMBAI,GREATER BOMBAY,MAHARASHTRA
SVCB0000031,The Shamrao Vithal Cooperative Bank Ltd,SVCB0000031,400089031,DADAR BRANCH,"GROUND FLOOR, LAXMI NARAYAN NIVAS (KANE BUILDING),RANADE ROAD, DADAR,MUMBAI – 400 028",(022) 24320791/24320795,MUMBAI,GREATER BOMBAY,MAHARASHTRA
SVCB0000032,The Shamrao Vithal Cooperative Bank Ltd,SVCB0000032,400089032,DAHISAR (E),"GROUND FLOOR,SHIVAI SANKUL,VIDAYBHUSAN SHIKSHAN SANSTHA,SHIV VALLABH CROSS ROAD,ASHOK VAN,DAHISAR(E) MUMBAI - 400068",(022) 28965761/28966797,MUMBAI,GREATER BOMBAY,MAHARASHTRA
SVCB0000033 ,The Shamrao Vithal Cooperative Bank Ltd,SVCB0000033 ,400089033,BANGUR NAGAR - GOREGAON W,"SHOPS NO 31-34,34A & 34 B,HEERAMANI RATAN CHS,BANGUR NAGAR,GOREGAON(W),MUMBAI - 400090",(022) 28712690/28712989,MUMBAI,GREATER BOMBAY,MAHARASHTRA
SVCB0000034,The Shamrao Vithal Cooperative Bank Ltd,SVCB0000034,400089034,SANPADA,"SHOP NO. 1 BHUMIRAJ MANOR CHS LTD, PLOT NO. 3 SECTOR 14 SANPADA EAST AVI MUMBAI 400705",022-27811791/  27811792,MUMBAI,THANE,MAHARASHTRA
"SVCB0000035
",The Shamrao Vithal Cooperative Bank Ltd,"SVCB0000035
",400 089 035,SAIBABA NAGAR,"SHOP NO.9,10,11&12 , GR FLOOR ,BLDG. NO. D, BASANTU CHS LTD., SAIBABA NAGAR, BORIVALI(W),MUMBAI-400092",022-286209999/286140000,MUMBAI,MUMBAI,MAHARASHTRA
SVCB0000036,The Shamrao Vithal Cooperative Bank Ltd,SVCB0000036,400089036,KAMOTHE,"SHOP NO 15, 16 & 17, GROUND FLOOR, BLUE HEAVEN,PLOT NO 8 A,SECTOR NO 35,KAMOTHE , 
NAVI MUMBAI - 410206",64562200/64562201,MUMBAI,GREATER BOMBAY,MAHARASHTRA
SVCB0000037,The Shamrao Vithal Cooperative Bank Ltd,SVCB0000037,400 089 037,BHANDUP(W),"SHOP NO. 2,3,4,5 VAKRATUNDA PALACE, OFF. LBS MARG, TANK ROAD, BHANDUP(W), MUMBAI-400078",022-2596 2444,MUMBAI,THANE,MAHARASHTRA
SVCB0000038,The Shamrao Vithal Cooperative Bank Ltd,SVCB0000038,400089038,KOPARKHAIRANE BRANCH,"PLOT NO 19 & 19 A, SHOP NOS 5A TO 9A, SECTOR 11,",27550151/27550152,MUMBAI,MUMBAI,MAHARASHTRA
SVCB0000039,The Shamrao Vithal Cooperative Bank Ltd,SVCB0000039,400089039,BHAYANDER,"SHOP NO. 2-7 &  9-12, GOVIND BUILDING,SALASAR BRIJI BHOOMI , 150 FEET ROAD,BHAYANDAR (WEST) 401-101 ",28193055/ 28193066,MUMBAI,MUMBAI,MAHARASHTRA
SVCB0000040,The Shamrao Vithal Cooperative Bank Ltd,SVCB0000040,400 089 040,MULUND (EAST),"SHAGUN SADHANA, GV SCHEME, ROAD NO.2,NEAR B.M.C. SCHOOL, MULUND (E),MUMBAI -400 081",,MUMBAI,THANE,MAHARASHTRA
SVCB0000041,The Shamrao Vithal Cooperative Bank Ltd,SVCB0000041,400089041,VASAI,"GURUKRIPA BUILDING,STATION ROAD,NEAR VASAI ROAD POST OFFICE,OPP.MANIKPUR CRICKET GROUND,VASAI WEST - 401 202","MR,MORRIS V.GEORGE 9326473516",MUMBAI,THANE,MAHARASHTRA
SVCB0000042,The Shamrao Vithal Cooperative Bank Ltd,SVCB0000042,400089042,VIRAR,"  BUILDING NO 10,M  BARIA UNIQUE ,TRIRUPATI  NAGAR PHASE 2 UNITECH WESTTEN ROAD VIRAR (W) -401303 ",0250-2512696/697,MUMBAI,THANE,MAHARASHTRA
SVCB0000043,The Shamrao Vithal Cooperative Bank Ltd,SVCB0000043,400089043,MALAD EAST,"KARISHMA PLAZA,PUSHPA PARK ,ROAD NO.1,NEAR ASHA HOSPITAL,MALAD EAST,MUMBAI -400097",,MUMBAI,THANE,MAHARASHTRA
SVCB0000044,The Shamrao Vithal Cooperative Bank Ltd,SVCB0000044,400089044,"KHOPAT,THANE","SHOP NO 3,4,5 &101,BEAUTY ARCADE,KOLBAD CROSS ROAD,KHOPAT,THANE WEST- 400 602",(022) 25472587/25471987,MUMBAI,MUMBAI,MAHARASHTRA
SVCB0000045,The Shamrao Vithal Cooperative Bank Ltd,SVCB0000045,400089045,KURLA EAST,"GALA NO.06,BLDG NO.42,NEHRU NAGAR KRANTI CHS LTD. NEHRU NAGAR,KURLA (EAST),MUMBAI – 400 024",,MUMBAI,MUMBAI,MAHARASHTRA
SVCB0000046,The Shamrao Vithal Cooperative Bank Ltd,SVCB0000046,400089046,WADALA (WEST),"VIJAY NIWAS, PLOT NO :193 STATION ROAD,WADALA (WEST) MUMBAI -400031",,MUMBAI,,MAHARASHTRA
SVCB0000047,The Shamrao Vithal Cooperative Bank Ltd,SVCB0000047,400 089 047,LALBAUG,"SHOP NO - 09,10,11,GROUND FLOOR, HILLA TOWER CHS LTD,DR. S S ROAD.MUMBAI-12.",24700800/24700801,MUMBAI,GREATER BOMBAY,MAHARASHTRA
SVCB0000048,The Shamrao Vithal Cooperative Bank Ltd,SVCB0000048,400089048,DOMBIVALI EAST,"4A-C, GAJANAN KRUPA, SANT NAMDEO PATH,OFF. MANPADA ROAD,DOMBIVALI (EAST) – 421201.",0251- 2426578 / 79,MUMBAI,MUMBAI,MAHARASHTRA
SVCB0000049,The Shamrao Vithal Cooperative Bank Ltd,SVCB0000049,400089049,DAHISAR EAST(ANANDNAGAR),"SHOP NOS. 8C,13-15, SHIVAM CHS LTD.,CHHATRAPATI SHIVAJI RD. NO.5,DAHISAR (E),MUMBAI -400 068",022-66999999,MUMBAI,MUMBAI,MAHARASHTRA
SVCB0000050,The Shamrao Vithal Cooperative Bank Ltd,SVCB0000050,411089002,PUNE D G,"PUNE D. G. BRANCH  NANDITA, JANGLI MAHARAJ ROAD  DECCAN GYMKHANA,",020-5532460 / 020 -5532519,UNION BANK / PUNE,PUNE,MAHARASHTRA
SVCB0000051,The Shamrao Vithal Cooperative Bank Ltd,SVCB0000051,411089003,PUNE SATARA ROAD,"SHOP NO 9TO 14,  CHAPHALKAR CENTRE,MARKET YARD,  PUNE",020-4215075/ 020-4215076,UNION BANK / PUNE,PUNE,MAHARASHTRA
SVCB0000052,The Shamrao Vithal Cooperative Bank Ltd,SVCB0000052,411089004,PIMPRI CHINCHWAD,"PLOT NO.63, SECTOR 27A, TILAK RD  OPP. ROPVATIKA, PIMPRI-CHINCHWAD  VILLAGE AKURDI, NIGIDI PUNE",020-7659285 / 020-7654676,UNION BANK / PUNE,PUNE,MAHARASHTRA
SVCB0000053,The Shamrao Vithal Cooperative Bank Ltd,SVCB0000053,400089053,GHATKOPAR WEST,"DELITE PALACE CHS LTD. PLOT NO. 71/7, M. G. ROAD, GHATKOPAR(W), MUMBAI-400086",022-66999999,MUMBAI,MUMBAI,MAHARASHTRA
SVCB0000054,The Shamrao Vithal Cooperative Bank Ltd,SVCB0000054,400089051,KHADAKPADA,"SHOP NO.3/B, NIRAJ PARK, WAYLE NAGAR, KHADAKPADA, KALYAN (W)-421301",0251-2305544,MUMBAI,MUMBAI,MAHARASHTRA
SVCB0000055,The Shamrao Vithal Cooperative Bank Ltd,SVCB0000055,APPLIED FOR,CHARKOP BRANCH,"KESAR RESIDENCY, SECTOR -3 ,NEXT TO BHAGWATI RESTAURANT ,CHARKOP , KANDIVADI(W), MUMBAI-400067",022-66999999,MUMBAI,MUMBAI,MAHARASHTRA
SVCB0000056,The Shamrao Vithal Cooperative Bank Ltd,SVCB0000056,APPLIED FOR,BADLAPUR,"""AAI"", VYANKATESHPARK, SANEWADI,KULGAON,BADLAPUR",022-66999999,BADLAPUR,THANE,MAHARASHTRA
SVCB0000057,The Shamrao Vithal Cooperative Bank Ltd,SVCB0000057,400 089 054,VIRAR-EAST,"GROUND FLOOR,VARU ENCLAVE BUILDING,HARI GOVIND NAGAR,PHULPADA ROAD,VIRAR EAST,THANE-401303",022-66999999,MUMBAI,THANE,MAHARASHTRA
SVCB0000058,The Shamrao Vithal Cooperative Bank Ltd,SVCB0000058,400 089 055,LOUISWADI THANE,"UNIT NO. 05,SUN MAGNETICA,LOUISWADI,THANE(W)-400604",022 2580 0051/52,THANE,THANE,MAHARASHTRA
SVCB0000059,The Shamrao Vithal Cooperative Bank Ltd,SVCB0000059,400 089 056,VELEPARLE WEST BRANCH,"SHOP NO.01,SAROJ BUILDING,10,VALLABHBHAI PATEL ROAD,VILE PARLE (W),MUMBAI – 400056",26124028/ 29,MUMBAI,MUMBAI,MAHARASHTRA
SVCB0000060,The Shamrao Vithal Cooperative Bank Ltd,SVCB0000060,560089002,MALLESHWARAM,49/1  5TH CROSS ROAD  MALLESHWARAM  BANGALORE,080-3447875 / 080-3441629,CANARA BANK / BANGLORE,BANGALORE URBAN,KARNATAKA
SVCB0000061,The Shamrao Vithal Cooperative Bank Ltd,SVCB0000061,560089003,PEENYA,"5TH CROSS STAGE 1,  KSSIDC MULTI STOREYED BLDG.,  PEENYA INDL. ESTATE, BANGALORE.",080-8399355 / 080-8399354,CANARA BANK / BANGLORE,BANGALORE URBAN,KARNATAKA
SVCB0000062,The Shamrao Vithal Cooperative Bank Ltd,SVCB0000062,560089004,RAJAJI NAGAR,815/23 17TH E MAIN ROAD  5TH BLOCK RAJAJI NAGAR  BANGALORE,080-3403271/ 080-3403276,CANARA BANK / BANGLORE,BANGALORE URBAN,KARNATAKA
SVCB0000063,The Shamrao Vithal Cooperative Bank Ltd,SVCB0000063,560089005,KORAMANGALA,"M/S ANSUL MARKETING,NO.72/51& 52,80 FEET ROAD,4TH BLOCK,KORAMANGALA,B-34",080-25503861 / 080-25503862,CANARA BANK / BANGLORE,BANGALORE URBAN,KARNATAKA
SVCB0000064,The Shamrao Vithal Cooperative Bank Ltd,SVCB0000064,400 089 057,SION BRANCH,"UNIT NO.G-02,GROUND FLOOR,VALUE ENCLAVE,AMBEDKAR ROAD, SION,MUMBAI - 400022",022-66999999,MUMBAI,MUMBAI,MAHARASHTRA
SVCB0000065,The Shamrao Vithal Cooperative Bank Ltd,SVCB0000065,400089058,VIJAYNAGAR ANDHERI(E),"SHOP NOS.1, 1A & 2, GROUND FLOOR, BUILDING NO.F-2, VIJAY NAGAR, NITYANAND MARG, ANDHERI (E), MUMBAI -400 069.","022-26832611, 022-26832612",MUMBAI,GREATER BOMBAY,MAHARASHTRA
SVCB0000066,The Shamrao Vithal Cooperative Bank Ltd,SVCB0000066,400 089 059,VIKHROLI (WEST) BRANCH,"SHOP NOS. 1, 2 & 3,GROUND FLOOR,KAILASH COMMERCIAL COMPLEX,NEAR EVEREST FACTORY, L. B. S. MARG,VIKHROLI (W),MUMBA-400 083.",(022)25778022 \(022)25778322,MUMBAI,MUMBAI,MAHARASHTRA
SVCB0000067,The Shamrao Vithal Cooperative Bank Ltd,SVCB0000067,400 089 060,"FOUR BUNGALOWS, MUMBAI ANDHERI","GROUND FLOOR,SHOP NOS 3,4 & 5, SHREE SAGVAN CHS LTD., RTO LANE, FOUR BUNGALOWS, ANDHERI(W) MUMBAI-400053",022 26311037 / 1049,MUMBAI,MUMBAI,MAHARASHTRA
SVCB0000069,The Shamrao Vithal Cooperative Bank Ltd,SVCB0000069,400 089 062,KHARGHAR BRANCH,"SHOP NOS. 5, 6, 7 & 8,GROUND FLOOR,SHUBHARAMBH COMPLEX,SECTOR 20, KHARGHAR,NAVI MUMBAI.",(022)65307070 \(022)65333030,MUMBAI,MUMBAI,MAHARASHTRA
SVCB0000070,The Shamrao Vithal Cooperative Bank Ltd,SVCB0000070,575089002,MANGALORE,"G-07, CRSYTAL ARC,  BALMATTA ROAD,  MANGALORE",0824 441263 / 0824 44158,CORPORATION BANK/MANGALORE,DAKSHINA KANNADA,KARNATAKA
SVCB0000071,The Shamrao Vithal Cooperative Bank Ltd,SVCB0000071,NON-MICR,CHITRAPUR SHIRALI,"BLDG NO 8/3,S NO 426/B  WARD NO 5,SHIRALI  TALUKA BHATKAL,UTTAR KANNADA",0838558570   / 08385 58569,STATE BANK OF INDIA / BHATKAL,UTTARA KANNADA,KARNATAKA
SVCB0000080,The Shamrao Vithal Cooperative Bank Ltd,SVCB0000080,403089002,PANJIM,"OPP : CINE EL DORADO, PANJIM ",95832-2432552 / 95832-2432553,STATE BANK OF INDIA / PANJIM,NORTH GOA,GOA
SVCB0000087,The Shamrao Vithal Cooperative Bank Ltd,SVCB0000087,570 089 002,"SARASWATHIPURAM, MYSORE","UNIT NO.103, MYTHRI ARCADE,KANTHARAJE URS ROAD,SARASWATIPURAM,MYSORE-570009",66999999,MYSORE,MYSORE,KARNATAKA
SVCB0000088,The Shamrao Vithal Cooperative Bank Ltd,SVCB0000088,580 089 003,DHARWAD,"THEJA MAHAL, CTS NO.150/A, MARKET FORT, OPP. REGAL TALKIES, VIJAYARD, NEAR CBT,DHARWAD-580 001",0836-2447373,DHARWAD,DHARWAD,KARNATAKA
SVCB0000090,The Shamrao Vithal Cooperative Bank Ltd,SVCB0000090,580089002,HUBLI,"SATELLITE SPACE AGE COMPLEX  KOPPIKAR ROAD,  HUBLI.",0836-2366973 / 0836-2366973,STATE BANK OF INDIA / HUBLI,DHARWAD,KARNATAKA
SVCB0000091,The Shamrao Vithal Cooperative Bank Ltd,SVCB0000091,590089002,BELGAUM,UPPER GROUND FLOOR AASHRAYA EMPIRE BUILDING RPD CORNER KHANAPUR ROAD TILAKWADI BELGAUM 590006,022-66999999,BELGAUM,BELGAUM,KARNATAKA
SVCB0000092,The Shamrao Vithal Cooperative Bank Ltd,SVCB0000092,411089007,WANOVARI EXTN COUNTER,"THE ROSARY HIGH SCHOOL, S.V.ROAD, WANOWRIE",9520-26833949,UNION BANK / PUNE,PUNE,MAHARASHTRA
SVCB0000093,The Shamrao Vithal Cooperative Bank Ltd,SVCB0000093,560089006,VIJAY NAGAR EXTN COUNTER,"KVV ENGLISH SCHOOL, 3/1-SUBANNA GARDEN, BEHIND BTS GARAGE, CHANDRA LAYOUT, VIJAYANAGAR, ",080-23218189,CANARA BANK / BANGLORE,BANGALORE URBAN,KARNATAKA
SVCB0000094,The Shamrao Vithal Cooperative Bank Ltd,SVCB0000094,422089002,NASHIK ROAD EXTN COUNTER,"BLOCK BO2,  SWARNITA APARTMENT,  SHIKHAREWADI,NASIK ROAD",95253-2452959,UNION BANK / PUNE,PUNE,MAHARASHTRA
SVCB0000095,The Shamrao Vithal Cooperative Bank Ltd,SVCB0000095,400089029,BANDRA EAST,"65/2836 M H B COLONY.  GANDHI  NAGAR,  BANDRA ( EAST)  MUMBAI",022-26510442,MUMBAI,GREATER BOMBAY,MAHARASHTRA
SVCB0000096,The Shamrao Vithal Cooperative Bank Ltd,SVCB0000096,575089003,GANAPATHY HIGH SCHOOL ROAD BRANCH,"GANAPATI P U COLLEGE CAMPUS, GHS ROAD, ",0824-2420139/0824-2420382,CORPORATION BANK/MANGALORE,DAKSHINA KANNADA,KARNATAKA
SVCB0000097,The Shamrao Vithal Cooperative Bank Ltd,SVCB0000097,560089007,HESSARGHATTA ROAD BRANCH,"TRIVENI MEMORIAL EDUCATIONAL TRUST, 28/29 HESSARGARA GHATTA MAIN ROAD, MALLA SANDRA",(080)28393699,CANARA BANK / BANGLORE,BANGALORE URBAN,KARNATAKA
SVCB0000098,The Shamrao Vithal Cooperative Bank Ltd,SVCB0000098,560089008,11TH CROSS MALLESHWARAM BRANCH,SRI.VIDYA MANDIR EXTN COUNTER  11TH CROSS ROAD 6TH MAIN ROAD  MALLESHWARAM,(080)23316709,CANARA BANK / BANGLORE,UTTARA KANNADA,KARNATAKA
SVCB0000099,The Shamrao Vithal Cooperative Bank Ltd,SVCB0000099,400089028,EKSAR ROAD BRANCH,"BIMA NAGAR EDUCATION SOCIETY NEW  CTS 1377,NEAR SHANTI ASHRAM,  JEEVAN BIMA NAGAR, BORIVLI(W), M",(022)894 3626,MUMBAI,GREATER BOMBAY,MAHARASHTRA
SVCB0000100,The Shamrao Vithal Cooperative Bank Ltd,SVCB0000100,422089002,NASHIK,"UTILITY CENTRE  OPP. RAJIV GANDHI BHAVAN  N.M.C. SHARANPUR ROAD, NASIK",311619 /311618,STATE BANK OF INDIA / NASHIK,NASHIK,MAHARASHTRA
SVCB0000101,The Shamrao Vithal Cooperative Bank Ltd,SVCB0000101,411089005,CAMP EXTN COUNTER,"S.NO.14/3, DR AMBEDKAR ROAD,PUNE -41104",(022)26052659,UNION BANK / PUNE,PUNE,MAHARASHTRA
SVCB0000102,The Shamrao Vithal Cooperative Bank Ltd,SVCB0000102,411089006,VIMAN NAGAR EXTN COUNTER,"S.NO.206/3, PLOT NO.12, LOHGAON,PUNE - 41104",(020)26630855,UNION BANK / PUNE,PUNE,MAHARASHTRA
SVCB0000103,The Shamrao Vithal Cooperative Bank Ltd,SVCB0000103,411089008,AUNDH - PUNE,"GROUND FLOOR,VIDHATE TOWER,SURVEY NO 249,D.P.ROAD,NEAR DAV SCHOOL,AUNDH,PUNE - 411007",(020)27299110/120,UNION BANK / PUNE,PUNE,MAHARASHTRA
SVCB0000104,The Shamrao Vithal Cooperative Bank Ltd,SVCB0000104,KTR 411 089 009,KOTHRUD BRANCH,"SURVEY NO 61,NARMADA HEIGHTS,D.P. ROAD,SHOP NO 2/3/4,KOTHRUD- 411 038",,PUNE,PUNE,MAHARASHTRA
SVCB0000105,The Shamrao Vithal Cooperative Bank Ltd,SVCB0000105,411089010,BHOSARI,"SNEH VISHWA PALACE, SECTOR – 1 ,INDRAYANI NAGAR,NASHIK-PUNE HIGHWAY,BHOSARI,PUNE : 411 026.",27230222/221  ,PUNE,PUNE,MAHARASHTRA
SVCB0000106,The Shamrao Vithal Cooperative Bank Ltd,SVCB0000106,411089011,BIBWEWADI,"GR.FLOOR,635/1B,NEW GAJRA SOCIETY,BIBWEWADI,PUNE 411037 ",022-66999999,PUNE,PUNE,MAHARASHTRA
SVCB0000107,The Shamrao Vithal Cooperative Bank Ltd,SVCB0000107,411089012,CHINCHWAD GAON BRANCH,"DREAM CORNER BLDG, KESHAV NAGAR, CHINCHWAD PUNE -411033",020-27615454/27615454,PUNE,PUNE,MAHARASHTRA
SVCB0000108,The Shamrao Vithal Cooperative Bank Ltd,SVCB0000108,411 089 013,SINHAGAD ROAD BRANCH,"VADGAON BUDRUK,MANIK BAUG, PUNE -411 041",020 -24355004/5005,PUNE,PUNE,MAHARASHTRA
SVCB0000109,The Shamrao Vithal Cooperative Bank Ltd,SVCB0000109,411 089 014,HADAPSAR,"84/4/5,TUPE COMPLEX,GROUND FLOOR,PUNE-SOLAPUR ROAD,NEAR VAIBHAV TALKIES,HADAPSAR,PUNE-411028",022-66999999,PUNE,PUNE,MAHARASHTRA
SVCB0000110,The Shamrao Vithal Cooperative Bank Ltd,SVCB0000110,431089003,AURANGABAD,"PLOT NO.1, RAJENDRA BHAVAN,  NEAR L I C OFFICE,  ADALAT ROAD, AURANGABAD.",(0240)23244929 / (0240)23244930,STATE BANK OF HYDERABAD / AURANGABAD,AURANGABAD,MAHARASHTRA
SVCB0000111,The Shamrao Vithal Cooperative Bank Ltd,SVCB0000111,414089002,AHMEDNAGAR,"SHOP NO.1,MARK HOUSE,OPP.SHRI DATTA MANDIR,NAGAR-MANMADROAD,SAVEDI AHMEDNAGAR-414002.",022-66999999,AHMEDNAGAR,AHMEDNAGAR,MAHARASHTRA
SVCB0000112,The Shamrao Vithal Cooperative Bank Ltd,SVCB0000112,400089112,LATUR,"24/3-28,OPP.BASAVESHWAR MANGAL KARYALAYA,UKKA MARG,CHANDRA NAGAR,LATUR",022-66999999,LATUR,LATUR,MAHARASHTRA
SVCB0000113,The Shamrao Vithal Cooperative Bank Ltd,SVCB0000113,413 089 052,JALNA BRANCH,"GROUND FLOOR,PLOT NO.27,BHOKARDAN ROAD,JALNA – 431203",022-66999999,JALNA,JALNA,MAHARASHTRA
SVCB0000120,The Shamrao Vithal Cooperative Bank Ltd,SVCB0000120,440013252,NAGPUR,"39-VRINDA KUNJ, MATA MANDIR ROAD,
DHARAMPETH, DISTRICT  NAGPUR -440012,
",0712-2522195/0712-2542195,NAGPUR,NAGPUR,MAHARASHTRA
SVCB0000121,The Shamrao Vithal Cooperative Bank Ltd,SVCB0000121,440089003,"GANDHI BAGH,NAGPUR(E)","SURAJ SADAN, PLOT NO. 10,C. A. ROAD, OPP. SOUTH GATE,GANDHI BAGH,NAGPUR (E) - 440 008",66999999,MUMBAI,MUMBAI,MAHARASHTRA
SVCB0000130,The Shamrao Vithal Cooperative Bank Ltd,SVCB0000130,411 089 015,SADASHIV PETH,"LAXMAN HEIGHTS,CTS NO.833,SADASHIV PETH,PUNE – 411 030",66999999,MUMBAI,MUMBAI,MAHARASHTRA
SVCB0000149,The Shamrao Vithal Cooperative Bank Ltd,SVCB0000149,395 089 002,SURAT,"40/41 ,HIGHER GROUND FLOOR,RAGHUNANDAN TEXTILE MARKET  ,RING ROAD ,SALABATPURA ,SURAT -395 002",,SURAT,,GUJARAT
SVCB0000150,The Shamrao Vithal Cooperative Bank Ltd,SVCB0000150,390 089 002,VADODARA,"SHREE COMPLEX, SHRENIK PARK CROSS ROAD,PRODUCTIVITY ROAD AKOTA,VADODARA-390 020",0265-2351370,VADODARA,,GUJARAT
SVCB0000151,The Shamrao Vithal Cooperative Bank Ltd,SVCB0000151,560089009,CHAMRAJPET,"1, CENTRAL BANK ROAD CHAMRAJPET BANGALORE - 560018 KARNATAKA",(080)26678718,CANARA BANK / BANGLORE,BANGALORE URBAN,KARNATAKA
SVCB0000152,The Shamrao Vithal Cooperative Bank Ltd,SVCB0000152,560089010,HANUMANTH NAGAR,"27, MOUNT JOY ROAD HANUMANTNAGAR BANGLORE 560 019",(080)26603990,CANARA BANK / BANGLORE,BANGALORE URBAN,KARNATAKA
SVCB0000153,The Shamrao Vithal Cooperative Bank Ltd,SVCB0000153,560089018,JAYA NAGAR,"921/66, 28TH MAIN ROAD, 9TH BLOCK BANGLORE 560 069",(080)26542043,CANARA BANK / BANGLORE,BANGALORE URBAN,KARNATAKA
SVCB0000154,The Shamrao Vithal Cooperative Bank Ltd,SVCB0000154,560089012,BANASHANKARI,"292, 7TH BLOCK 4TH PHASE 3RD STAGE 100 FEET ROAD BANASHANKARI BANGLORE 560085",(080)26791859,CANARA BANK / BANGLORE,BANGALORE URBAN,KARNATAKA
SVCB0000155,The Shamrao Vithal Cooperative Bank Ltd,SVCB0000155,560089014,NAGARABHAVI,"6,80 FEET ROAD,CHANDRA LAYOUT MARUTHI NAGAR,BANGLORE- 560 072",(080)23392930,CANARA BANK / BANGLORE,BANGALORE URBAN,KARNATAKA
SVCB0000156,The Shamrao Vithal Cooperative Bank Ltd,SVCB0000156,560089017,MYSORE ROAD,"342/18, BYATRAYANAPURA MYSORE ROAD BANGLORE 560072",(080)26753482,CANARA BANK / BANGLORE,BANGALORE URBAN,KARNATAKA
SVCB0000157,The Shamrao Vithal Cooperative Bank Ltd,SVCB0000157,560089016,R.T.NAGAR,"18/3(OLD NO. 19,20), NEAR GANDHI NAGAR BUS STAND R.T.NAGAR POST BANGLORE 560032",(080)23639789,CANARA BANK / BANGLORE,BANGALORE URBAN,KARNATAKA
SVCB0000158,The Shamrao Vithal Cooperative Bank Ltd,SVCB0000158,560089015,INDIRA NAGAR,"153, 9TH ROAD, 1ST STAGE,INDIRANAGAR BANGLORE 560 038",(080)25251853,CANARA BANK / BANGLORE,BANGALORE URBAN,KARNATAKA
SVCB0000159,The Shamrao Vithal Cooperative Bank Ltd,SVCB0000159,560089013,YESHWANTHPUR,"451/21 TRIVENI ROAD,5 TH MAIN ROAD 6TH CROSS YESHWANTHPUR BANGLORE 560022",(080)23571244,CANARA BANK / BANGLORE,BANGALORE URBAN,KARNATAKA
SVCB0000160,The Shamrao Vithal Cooperative Bank Ltd,SVCB0000160,560089011,BASAVESHWARA NAGAR,"GIRIYAPPA COMPLEX,80 FEET ROAD, 38 F.V,BASAVESHWARANAGAR, BANGLORE 560 079",(080)23287380,CANARA BANK / BANGLORE,BANGALORE URBAN,KARNATAKA
SVCB0000163,The Shamrao Vithal Cooperative Bank Ltd,SVCB0000163,422089002,NASHIK-PANCHAVATI,"MAHATMA GANDHI HOTEL MANAGEMENT & CATERING COLLEGE MUMBAI-AGRA ROAD , PANCHAVATI NASHIK - 422003",95253-2510619 / 95253 -2510620,STATE BANK OF INDIA / NASHIK,NASHIK,MAHARASHTRA
SVCB0000164,The Shamrao Vithal Cooperative Bank Ltd,SVCB0000164,422089003,AMBAD,"PARSHWANATH CO-OP. HSG. SOCIETY, NEAR SYMBIOSIS COLLEGE N.H. SHRAWAN SECTOR, AMBAD CIDCO NASHIK - 422009",6611 693-699 / 6611 692,STATE BANK OF INDIA / NASHIK,NASHIK,MAHARASHTRA
SVCB0000165,The Shamrao Vithal Cooperative Bank Ltd,SVCB0000165,425 089 002,JALGAON BRANCH,"GROUND FLOOR,F.P.43/1 OF T.P.II,VISANJI NAGAR,OFF BANK STREET,JALGAON – 425001",0257 2236 540/541,JALGAON,JALGAON,MAHARASHTRA
SVCB0000166,The Shamrao Vithal Cooperative Bank Ltd,SVCB0000166,444 089 002,AKOLA,"GROUND FLOOR,NAKSHATRA COMPLEX,NAZUL PLOT NO 5,JATHAR PETH,AKOLA-444005",0724)2490348 \(0724)2490349,MUMBAI,MUMBAI,MAHARASHTRA
SVCB0000175,The Shamrao Vithal Cooperative Bank Ltd,SVCB0000175,600089002,CHENNAI,"OLD NO. 1,NEW NO.15, 'C' BLOCK, 6TH STREET, NEAR CHINTAMANI SIGNAL, ANNANAGAR -EAST, CHENNAI -600 102.",044-26208998,ANNANAGAR,CHENNAI,TAMIL NADU
SVCB0000176,The Shamrao Vithal Cooperative Bank Ltd,SVCB0000176,600 089 003,NUNGAMBAKKAM,"GROUND FLOOR,MOOTHA CENTRE,KADAMBAKKAM HIGH ROAD,NUNGAMBAKKAM,CHENNAI - TAMIL NADU",66999999,CHENNAI,CHENNAI,TAMIL NADU
SVCB0000200,The Shamrao Vithal Cooperative Bank Ltd,SVCB0000200,,KARAD,"STATION ROAD, BUDHWAR PETH,
DR. KANTAK HOSPITAL BUILDING, KARAD 415110",02164-226623/02164-226624,KARAD,SATARA,MAHARASHTRA
SVCB0000201,The Shamrao Vithal Cooperative Bank Ltd,SVCB0000201,416 089 201,ICHALKARANJI,"DAIMA BHAVAN, ICHALKARANJI, TALUKA HATKANANGLE, DIST. KOLHAPUR, 416 115.",0230-2424126,ICHALKARANJI,KOLHAPUR,MAHARASHTRA
SVCB0000202,The Shamrao Vithal Cooperative Bank Ltd,SVCB0000202,416089003,MIRAJKAR TIKTI,"NEAR CHINTAMANI SIGNAL,",(0231)2642195,STATE BANK OF INDIA / KOLHAPUR,KOLHAPUR,MAHARASHTRA
SVCB0000203,The Shamrao Vithal Cooperative Bank Ltd,SVCB0000203,416089002,SHAHUPURI,ANNA NAGAR(EAST),(95231)2667938,STATE BANK OF INDIA / KOLHAPUR,KOLHAPUR,MAHARASHTRA
SVCB0000204,The Shamrao Vithal Cooperative Bank Ltd,SVCB0000204,NON-MICR,JAYSINGPUR,CHENNAI - 600102,(02322)225245,STATE BANK OF INDIA / KOLHAPUR,KOLHAPUR,MAHARASHTRA
SVCB0000205,The Shamrao Vithal Cooperative Bank Ltd,SVCB0000205,NON-MICR,SANGLI,TAMIL NADU,(0233)2623779,STATE BANK OF INDIA / SANGLI,SANGLI,MAHARASHTRA
SVCB0000250,The Shamrao Vithal Cooperative Bank Ltd,SVCB0000250,110089002,DELHI,"G/4,GURU AMARDAS BHAVAN,78-NEHRU PLACE,NEW DELHI - 110019",(011) 26411127/28,NEW DELHI,NEW DELHI,DELHI
SVCB0000251,The Shamrao Vithal Cooperative Bank Ltd,SVCB0000251,110 089 003,EAST PATEL NAGAR,"25/36, GROUND FLOOR, EAST PATEL NAGAR, NEW DELHI-110008",011-25753864/25753656,NEW DELHI,NEW DELHI,DELHI
SVCB0000301,The Shamrao Vithal Cooperative Bank Ltd,SVCB0000301,500089002,HYDERABAD,"NO:172,SAI TEMPLE ST. DWARAKAPURI COLONY,PUNJAGUTTA,HYDERABAD.-500 082",040-23352057/59,HYDERABAD,HYDERABAD,ANDHRA PRADESH
SVCB0002001,The Shamrao Vithal Cooperative Bank Ltd,SVCB0002001,560234251,GUARDIAN BANK -INFANTRY ROAD,"NO.139, INFANTRY ROAD, BANGALORE -560 001",080-25582341 /25580972 /973,BANGALORE,BANGALORE,KARNATAKA
SVCB0002002,The Shamrao Vithal Cooperative Bank Ltd,SVCB0002002,560234252,GUARDIAN BANK -BEGUR BRANCH,"NO.1625,  AMALODBAVA NAGAR,OPP-ST.FRANCIS SCHOOL, BEGUR MAIN ROAD,BEGUR,BANGALORE-560068",080-25742233,BANGALORE,BANGALORE,KARNATAKA
SVCB0002003,The Shamrao Vithal Cooperative Bank Ltd,SVCB0002003,560234254,GUARDIAN BANK -GEDDALAHALLI BRANCH,"NO.38, BIRDS CAMPUS,GEDDALAHALLI, KOTHANUR POST,BANGALORE -560077",080-28443982,BANGALORE,BANGALORE,KARNATAKA
SVCB0000075,The Shamrao Vithal Cooperative Bank Ltd,SVCB0000075,400089063,NALLASOPARA EAST,"KRISHNA RETAIL SPACE, OPP. KMPD SCHOOL, TULINJ ROAD, NALLASOPARA (E),DIST: THANE -401 209","0250-2435722, 2435723",MUMBAI,THANE,MAHARASHTRA
SVCB0000076,The Shamrao Vithal Cooperative Bank Ltd,SVCB0000076,400089064,GIRGAON,"SUNRISE VENETIA, J. S. S. ROAD,BELOW AMBEWADI POST OFFICE,GIRGAON, MUMBAI -400 004","022 23811125,23811126",MUMBAI,MUMBAI,MAHARASHTRA
SVCB0003002,The Shamrao Vithal Cooperative Bank Ltd,SVCB0003002,411171002,VIDYA BANK-LAXMI ROAD,"561, SADASHIV PETH, SARASWATI GANESH BUILDING, LAXMI ROAD, PUNE - 411 030",020-24454936/24491672,PUNE,PUNE,MAHARASHTRA
SVCB0003003,The Shamrao Vithal Cooperative Bank Ltd,SVCB0003003,411171003,VIDYA BANK-SAHAKAR NAGAR,"MUKTANGAN, SARANG SOCIETY, SAHAKAR NAGAR, PUNE - 411 009",020-24222294/24222114,PUNE,PUNE,MAHARASHTRA
SVCB0003004,The Shamrao Vithal Cooperative Bank Ltd,SVCB0003004,411171004,VIDYA BANK-SENAPATI BAPAT ROAD,"S NO 968, PLOT NO 1, SENAPATI BAPAT ROAD, PUNE - 411 016",020-25656311/25673968,PUNE,PUNE,MAHARASHTRA
SVCB0003005,The Shamrao Vithal Cooperative Bank Ltd,SVCB0003005,411171005,VIDYA BANK-KOTHRUD,"ANUPAM TERRECE, NEAR KARVE PUTALA, KOTHRUD, PUNE - 411 029",020-25435836/25449611,PUNE,PUNE,MAHARASHTRA
SVCB0003006,The Shamrao Vithal Cooperative Bank Ltd,SVCB0003006,411171006,VIDYA BANK-BIBWEWADI,"S NO 682/A, PLOT NO 53, CHHATRAPATI RAJARAM HSG SOC, BIBWEWADI, PUNE - 411 037",020-24219108/24213351,PUNE,PUNE,MAHARASHTRA
SVCB0003007,The Shamrao Vithal Cooperative Bank Ltd,SVCB0003007,411171007,VIDYA BANK-PIRANGUT,"GAT NO 78, MOUJE PIRANGUT, TAL MULASHI, DIST PUNE",020-20291265,MULSHI,PUNE,MAHARASHTRA
SVCB0003008,The Shamrao Vithal Cooperative Bank Ltd,SVCB0003008,411171008,VIDYA BANK-PAUD ROAD,"PLOT NO 3, PRASHANT HSG SOC. NEAR KRISHNA HOSPITAL, PAUD ROAD,KOTHRUD, PUNE - 411 029",020-25432234/25469039,PUNE,PUNE,MAHARASHTRA
SVCB0003009,The Shamrao Vithal Cooperative Bank Ltd,SVCB0003009,411171009,VIDYA BANK-BANER ROAD,"S NO 127, HISSA NO 2, PLOT NO 2 NEAR HOTEL SARJA, AUNDH, PUNE - 411 007",020-25887299/25885399,PUNE,PUNE,MAHARASHTRA
SVCB0003010,The Shamrao Vithal Cooperative Bank Ltd,SVCB0003010,411171010,VIDYA BANK-BHOSARI,"S NO 681, HISSA NO 1/16 CITY, S NO 3403, SHOP NO 1, SAIDHAM BUILDING, BHOSARI,PUNE - 411 026",020-27111749/27111750,PUNE,PUNE,MAHARASHTRA
SVCB0003011,The Shamrao Vithal Cooperative Bank Ltd,SVCB0003011,411171011,VIDYA BANK-GULTEKDI,"ALANKAR, PLOT NO 25, MUKUNDNAGAR, GULTEKDI, PUNE - 411 037",020-24273658/24273659,PUNE,PUNE,MAHARASHTRA
SVCB0003012,The Shamrao Vithal Cooperative Bank Ltd,SVCB0003012,411171012,VIDYA BANK-BHAVANI PETH,"S NO 1234, SUMATI BUILDING,PALAKHI CHOWK, BHAWANI PETH, PUNE - 411 042",020-26384791,PUNE,PUNE,MAHARASHTRA
SVCB0003013,The Shamrao Vithal Cooperative Bank Ltd,SVCB0003013,411171013,VIDYA BANK-NAVI PETH,"722, CHINTAMANI, LAXMI PARK, LBS ROAD, NAVI PETH, PUNE - 411 030",020-24534530/24534531,PUNE,PUNE,MAHARASHTRA
SVCB0004002,The Shamrao Vithal Cooperative Bank Ltd,SVCB0004002,411174351,DHARMAVIR SAMBHAJI BK-KASARWADI,"251, VISHWAKIRAN BUILDING, MUMBAI-PUNE ROAD, KASARWADI, PUNE - 411 034",020-27119500,PUNE,PUNE,MAHARASHTRA
SVCB0004003,The Shamrao Vithal Cooperative Bank Ltd,SVCB0004003,411174404,DHARMAVIR SAMBHAJI BK-SANGVI,"38, SHIVDARSHAN, VINAYAK NAGAR, NEW SANGVI, PUNE - 411 061",020-27280389,PUNE,PUNE,MAHARASHTRA
SVCB0004004,The Shamrao Vithal Cooperative Bank Ltd,SVCB0004004,411174417,DHARMAVIR SAMBHAJI BK-HINJEWADI,"SURYANARAYAN, S. NO. 39/3, WAKAD-HINJEWADI ROAD, HINJEWADI, PUNE - 411 057",020-22932500,PUNE,PUNE,MAHARASHTRA
SVCB0004005,The Shamrao Vithal Cooperative Bank Ltd,SVCB0004005,411174436,DHARMAVIR SAMBHAJI BK-VISHRANTWADI,"DEEP APPARTMENT, KASTURBA HSC. SOC., OPP. SHOPPER'S ORBIT, VISHRANTWADI, PUNE - 411 015",020-26615440,PUNE,PUNE,MAHARASHTRA
SVCB0005002,The Shamrao Vithal Cooperative Bank Ltd,SVCB0005002,411307002,PUNE URBAN BANK-PHULE MARKET,25 SHUKRAWAR PETH PUNE 411002,020-24453741/24451582/65200319,PUNE,PUNE,MAHARASHTRA
SVCB0005003,The Shamrao Vithal Cooperative Bank Ltd,SVCB0005003,411307003,PUNE URBAN BANK-UTTAM NAGAR,KRUSHI UTPANNA BAJAR SANKUL UTTAMNAGAR  PUNE 411023,020-25290685/25290555/65200321,PUNE,PUNE,MAHARASHTRA
SVCB0005004,The Shamrao Vithal Cooperative Bank Ltd,SVCB0005004,411307004,PUNE URBAN BANK-YERAWADA,J J CHAMBERS YERAWADA PUNE 411006,020-26695691/26614275/65200322,PUNE,PUNE,MAHARASHTRA
SVCB0005005,The Shamrao Vithal Cooperative Bank Ltd,SVCB0005005,411307005,PUNE URBAN BANK-WANAWADI,MIHIR APPT. SHOLAPUR ROAD WANAWADI PUNE 411040,020-26872110/26822795/65200323,PUNE,PUNE,MAHARASHTRA
SVCB0005006,The Shamrao Vithal Cooperative Bank Ltd,SVCB0005006,411307006,PUNE URBAN BANK-PHADKE HAUD,24 KASBA PETH LOMBAR BLD PUNE 411011,020-24574088/24572933/65200324,PUNE,PUNE,MAHARASHTRA
SVCB0005007,The Shamrao Vithal Cooperative Bank Ltd,SVCB0005007,411307007,PUNE URBAN BANK-GANESHNAGAR,KEDAR EMPIRE 42 ERANDAWANA KARVE RD PUNE 411004,020-25463649/25462723/65200325,PUNE,PUNE,MAHARASHTRA
SVCB0005008,The Shamrao Vithal Cooperative Bank Ltd,SVCB0005008,411307008,PUNE URBAN BANK-MARKET YARD,PLOT NO BC 2 MARKET YARD GULTEKDI PUNE 411037,020-24262031/24268398/65200320,PUNE,PUNE,MAHARASHTRA
SVCB0005009,The Shamrao Vithal Cooperative Bank Ltd,SVCB0005009,411307009,PUNE URBAN BANK-KATRAJ DHANKAWADI,DATTANAGAR AMBEGAON PUNE 411046,020-24319693/24317282/65200326,PUNE,PUNE,MAHARASHTRA
SVCB0005010,The Shamrao Vithal Cooperative Bank Ltd,SVCB0005010,411307011,PUNE URBAN BANK-MANJARI PHATA,MANJARI PHATA SHOLAPUR ROAD PUNE 411028,020-26990297/26993411/65200327,PUNE,PUNE,MAHARASHTRA
SVCB0005012,The Shamrao Vithal Cooperative Bank Ltd,SVCB0005012,411307012,PUNE URBAN BANK-NANDED PHATA,NANDED PHATA SINHAGAD RD PUNE 411041,020-24391610/24391611/65200328,PUNE,PUNE,MAHARASHTRA
SVCB0005013,The Shamrao Vithal Cooperative Bank Ltd,SVCB0005013,411307013,PUNE URBAN BANK-SANGVI THERGAON,S NO 47/1/2 RAHATANI KALEWADI RD PUNE 411033,020-27271737/65200329,PUNE,PUNE,MAHARASHTRA
SVCB0000148,The Shamrao Vithal Cooperative Bank Ltd,SVCB0000148,380089002,Ahmedabad,"ASHOKA COMPLEX, NEAR SARDAR PATEL STATUE, STADIUM ROAD,NAVRANGPURA,AHMEDABAD-380014",079-26460614/26460615,AHMEDABAD,AHMEDABAD,GUJARAT
SVCB0006002,The Shamrao Vithal Cooperative Bank Ltd,SVCB0006002,415810201,CHIPLUN URBAN BANK-MAIN BR.CHIPLUN,"BAZARPETH, MAIN ROAD, CHIPLUN,PIN CODE-415605 ",02355- 261273/261018,CHIPLUN,RATNAGIRI,MAHARASHTRA
SVCB0006003,The Shamrao Vithal Cooperative Bank Ltd,SVCB0006003,NON MRCR,CHIPLUN URBAN BANK-GUHAGAR,"NEAR GUHAGAR PANCHAYAT SAMITI,  GUHAGAR PIN CODE NO.415703",02359-240222,GUHAGAR,RATNAGIRI,MAHARASHTRA
SVCB0006004,The Shamrao Vithal Cooperative Bank Ltd,SVCB0006004,NON MRCR,CHIPLUN URBAN BANK-SHRUNGARTALI,"BAZARPETH, SHRUNGARTALI, PIN CODE NO.415724",02359-244531,GUHAGAR,RATNAGIRI,MAHARASHTRA
SVCB0006005,The Shamrao Vithal Cooperative Bank Ltd,SVCB0006005,NON MRCR,CHIPLUN URBAN BANK-SHRIGAON,"KUTAREKAR BUILDING,A/P.SHRIGAON PIN CODE NO.415602",02355-230118,CHIPLUN,RATNAGIRI,MAHARASHTRA
SVCB0006006,The Shamrao Vithal Cooperative Bank Ltd,SVCB0006006,415810202,CHIPLUN URBAN BANK-UPNAGAR KHERDI,"SHUBHAM APR. KARAD ROAD, A/P KHERDI PIN CODE-415604",02355-256837,CHIPLUN,RATNAGIRI,MAHARASHTRA
SVCB0006007,The Shamrao Vithal Cooperative Bank Ltd,SVCB0006007,NON MRCR,CHIPLUN URBAN BANK-SAWARDE,"JAYASHRI PLAZA,1ST FLOOR,ABC MUMBAI-GOA HIGHWAY,OPP. SAWARDE BUS STOP,SAWARDE PIN CODE NO.415606",02355-264294,CHIPLUN,RATNAGIRI,MAHARASHTRA
SVCB0006008,The Shamrao Vithal Cooperative Bank Ltd,SVCB0006008,NON MRCR,CHIPLUN URBAN BANK-DEORUKH,"VANKAR BUILDING,BAZARPETH,A/P.DEVRUKH PIN CODE NO. 415804",02354-240892,SANGMESHWAR,RATNAGIRI,MAHARASHTRA
SVCB0006009,The Shamrao Vithal Cooperative Bank Ltd,SVCB0006009,NON MRCR,CHIPLUN URBAN BANK-LOTE,"DR.AMBRE BUILDING, NEAR HOTEL PAIGODA,MUMBAI-GOA HIGHWAY A/P.LOTE, PIN CODE NO. 415722",02356-272943,KHED,RATNAGIRI,MAHARASHTRA
SVCB0006010,The Shamrao Vithal Cooperative Bank Ltd,SVCB0006010,NON MRCR,CHIPLUN URBAN BANK-ABLOLI,"BAIT COMPLEX,BAZARPETH, A/P.ABLOLI, PIN CODE NO.415726",02359-245092,GUHAGAR,RATNAGIRI,MAHARASHTRA
SVCB0006011,The Shamrao Vithal Cooperative Bank Ltd,SVCB0006011,NON MRCR,CHIPLUN URBAN BANK-SANGMESHWAR,"BHINGARDE COMPLEX, BAZARPETH, A/P/TAL.SANGMESHWAR PIN CODE NO. 415611",02354-253229,SANGMESHWAR,RATNAGIRI,MAHARASHTRA
SVCB0006012,The Shamrao Vithal Cooperative Bank Ltd,SVCB0006012,400235251,CHIPLUN URBAN BANK-PANVEL,"YASHASHRI  BUILIDNG,CSPNO.1553 SHIVAJI CHOWK,PANVEL - 410 206",022-27450617,PANVEL,RAIGAD,MAHARASHTRA
SVCB0006013,The Shamrao Vithal Cooperative Bank Ltd,SVCB0006013,415810051,CHIPLUN URBAN BANK-RATNAGIRI,"JAVKAR PLAZA, BLOCK NO.12&13,NEAR JAYSTAMBH, RATNAGIRI - 415 612",02352-220633,RATNAGIRI,RATNAGIRI,MAHARASHTRA
SVCB0006014,The Shamrao Vithal Cooperative Bank Ltd,SVCB0006014,NON MRCR,CHIPLUN URBAN BANK-MARGTAMHANE,"SALVI HOUSE NO.61, NEAR DR.NATU HOSPITAL,A/P.MARGTAMHANE- 415 702",02355- 261273/261018,CHIPLUN,RATNAGIRI,MAHARASHTRA
SVCB0001002,The Shamrao Vithal Cooperative Bank Ltd,SVCB0001002,400801002,HINDUSTAN COOP BK-LOKHAND BAZAR ,"205, SANT TUKARAM ROAD,  LOKHAND BAZAR, MASJID (EAST), MUMBAI-400 009.",23480131,MUMBAI,MUMBAI,MAHARASHTRA
SVCB0001003,The Shamrao Vithal Cooperative Bank Ltd,SVCB0001003,400801004,HINDUSTAN COOPBK-SHIVAJI NAGAR,"PITCH NO.3068 TO 3069 A, GAJANAN COLONY, SHIVAJI NAGAR, GOVANDI, MUMBAI-400 043.",32191650,MUMBAI,MUMBAI,MAHARASHTRA
SVCB0001004,The Shamrao Vithal Cooperative Bank Ltd,SVCB0001004,400801005,HINDUSTAN COOP BK-DHARAVI ,"LOKSEVA CO-OP. HOUSING SOCIETY, FIRST FLOOR, GARIB NAGAR, 90 FEET ROAD, DHARAVI, MUMBAI-400 017.",24078040,MUMBAI,MUMBAI,MAHARASHTRA
SVCB0001005,The Shamrao Vithal Cooperative Bank Ltd,SVCB0001005,400801006,"HINDUSTAN COOPBK-PRATAPNGR,BHANDUP","JIJAMATA VIDYALAYA BUILDING, PRATAP NAGAR ROAD NAKA, BHANDUP (W), MUMBAI 400 078.",25944662,MUMBAI,MUMBAI,MAHARASHTRA
SVCB0001006,The Shamrao Vithal Cooperative Bank Ltd,SVCB0001006,400801007,HINDUSTAN COOP BK-KALAMBOLI ,"HINDUSTHAN BANK BHAVAN, SECTOR NO.8, PLOT NO.11, OPP. M.G.M. HOSPITAL, KALAMBOLI, NAVI MUMBAI 410 218.",27420003,MUMBAI,MUMBAI,MAHARASHTRA
SVCB0001007,The Shamrao Vithal Cooperative Bank Ltd,SVCB0001007,400801008,"HINDUSTAN COOP BK-KOLSEWADI,KLY(E)","DEVI DAYAL TOWER, OPP. KOLSEWADI POLICE STATION, KOLSEWADI, KALYAN (E), DIST. THANE.",0251-2363354,MUMBAI,MUMBAI,MAHARASHTRA
SVCB0001008,The Shamrao Vithal Cooperative Bank Ltd,SVCB0001008,400801014,"HINDUSTAN COOPBK-NEHRU NGR,KURLA-E","BABA VIHAR, ANGULIMAL CO-OP. HSG. SOCIETY, IST FLOOR, B/101, S.G. BARVE MARG, NEHRU NAGAR, KURLA (E), MUMBAI 400 024.",25260809,MUMBAI,MUMBAI,MAHARASHTRA
SVCB0001009,The Shamrao Vithal Cooperative Bank Ltd,SVCB0001009,400801003,HINDUSTAN COOP BK-TROMBAY ,"AMAR NAGAR CO-OP. HOUSING SOCIETY, DHOBIGHAT, CHEETA CAMP, TROMBAY, MUMBAI-400 088.",25511090,MUMBAI,MUMBAI,MAHARASHTRA
SVCB0001010,The Shamrao Vithal Cooperative Bank Ltd,SVCB0001010,400801010,HINDUSTAN COOP BK-DOMBIVALI (W),"MAHALAXMI VIHAR, MAHATMA PHULE ROAD, DOMBIVALI (W), DIST. THANE.",0251-2495573,MUMBAI,MUMBAI,MAHARASHTRA
SVCB0001011,The Shamrao Vithal Cooperative Bank Ltd,SVCB0001011,400801011,"HINDUSTAN COOP BK-MHADA CLY, MULUND ","MULUND MUKTI TOWER, MHADA COLONY, MULUND (E), MUMBAI 400 081.",25634002,MUMBAI,MUMBAI,MAHARASHTRA
SVCB0001012,The Shamrao Vithal Cooperative Bank Ltd,SVCB0001012,400801012,"HINDUSTAN COOPBK-PMGP CLY,MANKHURD","SHOP NO.392, MOHITE PATIL NAGAR, J.B. BHOSALE ROAD, MANKHURD PANVEL LINK ROAD, MANKHURD, MUMBAI 400 043.",25481159,MUMBAI,MUMBAI,MAHARASHTRA
SVCB0001013,The Shamrao Vithal Cooperative Bank Ltd,SVCB0001013,400801009,"HINDUSTAN COOPBK-LOKMANYANGR,THANE","AMIT CO-OP. HOUSING SOCIETY LTD., LOKMANYA NAGAR, NEAR YASHODHAN BUS STOP, THANE 410 606.",25881535,MUMBAI,MUMBAI,MAHARASHTRA
SVCB0001014,The Shamrao Vithal Cooperative Bank Ltd,SVCB0001014,400801013,"HINDUSTAN COOPBK-KHADAKPADA,KLY(W)","PUSHPAKDHAM, NEAR SWAMI SAMARTH MANDIR, KHADAKPADA, BARAVE ROAD, KALYAN (W) 421 301.",0251-2301208,MUMBAI,MUMBAI,MAHARASHTRA
SVCB0001015,The Shamrao Vithal Cooperative Bank Ltd,SVCB0001015,400801015,HINDUSTAN COOP BK-KAMOTHE,"SHRI YOGESHWAR COMPLEX, VIMUM TOWER, BUILDING NO.1, FIRST FLOOR, SECTOR 12, PLOT NO.1, KAMOTHE, NAVI MUMBAI",22943264,MUMBAI,MUMBAI,MAHARASHTRA
SVCB0001016,The Shamrao Vithal Cooperative Bank Ltd,SVCB0001016,400801016,HINDUSTAN COOP BK-SEAWOOD DARAVE,"SHRI RAMKRISHNA NIWAS, PLOT NO.46/47, SECTOR 42, SHOP NO.13/14, SEAWOOD DARAVE, NERUL, NAVI MUMBAI",27720003,MUMBAI,MUMBAI,MAHARASHTRA
SVCB0000077,The Shamrao Vithal Cooperative Bank Ltd,SVCB0000077,400089065,"FILM CITY ROAD, GOREGAON (E) ","SATELLITE GARDEN, PHASE-2, WING-D2, FILM CITY ROAD, GOREGAON EAST, MUMBAI-400063",022-28404800/ 28404900,MUMBAI,MUMBAI,MAHARASHTRA
SVCB0000114,The Shamrao Vithal Cooperative Bank Ltd,SVCB0000114,452089002,INDORE,"GROUND FLOOR, ADITYA ENCLAVE,  C-1,  HIG COLONY, HIG MAIN ROAD, KHAJRANI, INDORE – 452 001",0731-2539222/ 2539223/ 2539224,INDORE,INDORE,MADHYA PRADESH
SVCB0000131,The Shamrao Vithal Cooperative Bank Ltd,SVCB0000131,411089016,KARVE NAGAR,"SHWETA APARTMENTS, BLDG. NO.2, HINGANE, KARVE NAGAR,PUNE-411 052",020-65004020/020-65004021,PUNE,PUNE,MAHARASHTRA
SVCB0000199,The Shamrao Vithal Cooperative Bank Ltd,SVCB0000199,415089002,SATARA,"GROUND FLOOR, SHOP NO.G-3 &4,CTS NO.501/4,SADAR BAZAR, BEHIND S.T.STAND, SATARA – 415 001",02162 -  226868 \ 69 \  70,SATARA,SATARA,MAHARASHTRA
SVCB0007002,The Shamrao Vithal Cooperative Bank Ltd,SVCB0007002,400345002,ABHINAV SAHKARI BK-DOMBIVALI WEST,"MAITRI KESHAV RAM STY,1ST FLOOR,SUBHASH ROAD,DOMBIVALI WEST-421202",0251 2482918,THANE,THANE,MAHARASHTRA
SVCB0007003,The Shamrao Vithal Cooperative Bank Ltd,SVCB0007003,400345003,ABHINAV SAHKARI BK-DOMBIVALI EAST,"ANUPAM APTS, N.C.KELKAR ROAD, DOMBIVALI EAST -421201",0251 2861648,THANE,THANE,MAHARASHTRA
SVCB0007004,The Shamrao Vithal Cooperative Bank Ltd,SVCB0007004,400345004,ABHINAV SAHKARI BK-DOMBIVALI MIDC,"P-48, NEAR USMA PETROL PUMP, MIDC RESIDENTIAL ZONE, MIDC DOMBIVALI EAST-421203",0251 2432810,THANE,THANE,MAHARASHTRA
SVCB0007005,The Shamrao Vithal Cooperative Bank Ltd,SVCB0007005,400345005,ABHINAV SAHKARI BK-ULHASNAGAR W,"GREEN LAND APTS, 1ST FLOOR, NEAR SADHU WASWANI GARDEN, GOL MAIDAN,ULHASNAGAR WEST-421002",0251 2734365,THANE,THANE,MAHARASHTRA
SVCB0007006,The Shamrao Vithal Cooperative Bank Ltd,SVCB0007006,400345006,ABHINAV SAHKARI BK-MUMBRA,"NEW SULTAN MANZIL , MARKET ROAD, MUMBRA EAST-400612",022 25465507,THANE,THANE,MAHARASHTRA
SVCB0007007,The Shamrao Vithal Cooperative Bank Ltd,SVCB0007007,400345007,ABHINAV SAHKARI BK-BADLAPUR E,"SHREE APTS, GANDHI CHOWK, KULGAON, BADLAPUR EAST-421503",0251 2690245,THANE,THANE,MAHARASHTRA
SVCB0007008,The Shamrao Vithal Cooperative Bank Ltd,SVCB0007008,400345008,ABHINAV SAHKARI BK-KALYAN EAST,"KAMLAKAR BLDG, MARATHA KOLSEWADI, KALYAN EAST-421306",0251 2361359,THANE,THANE,MAHARASHTRA
SVCB0007009,The Shamrao Vithal Cooperative Bank Ltd,SVCB0007009,400345009,ABHINAV SAHKARI BK-KALYAN WEST,"BHAGWANDAS MENSION, SHIVAJI CHOWK, KALYAN WEST-421301",0251 2304258,THANE,THANE,MAHARASHTRA
SVCB0007010,The Shamrao Vithal Cooperative Bank Ltd,SVCB0007010,400345010,ABHINAV SAHKARI BK-AYRE EXTN,"B R MADHAV HIGHSCHOOL, AYRE ROAD, DOMBIVALI EAST-421201",0251 2454299,THANE,THANE,MAHARASHTRA
SVCB0007011,The Shamrao Vithal Cooperative Bank Ltd,SVCB0007011,400345011,ABHINAV SAHKARI BK-NILJE,"CHANDRESH AVENUE,1ST FLOOR, LODHA HEAVEN, NILJE , TAL KALYAN-421204",0251 2831989,THANE,THANE,MAHARASHTRA
SVCB0007012,The Shamrao Vithal Cooperative Bank Ltd,SVCB0007012,400345012,ABHINAV SAHKARI BK-THANE W,"PRANAV BLDG, 1ST FLOOR, GAODEVI CROSS MAIDAN, SHIVAJI PATH, THANE WEST-400601",022 25403648,THANE,THANE,MAHARASHTRA
SVCB0007013,The Shamrao Vithal Cooperative Bank Ltd,SVCB0007013,400345013,ABHINAV SAHKARI BK-AMBARNATH,"115, SWANAND SHOPPING CENTRE, 1ST FLOOR, B-CABIN ROAD, AMBARNATH EAST-421501",0251 2609699,THANE,THANE,MAHARASHTRA
SVCB0000129,The Shamrao Vithal Cooperative Bank Ltd,SVCB0000129,411089017,SAHAKARNAGAR – PUNE,"GROUND & FIRST FLOOR, RAMCHANDRA APARTMENTS, TAWRE COLONY, 47/31 C, ARANYESHWAR, SAHAKAR NAGAR, PUNE – 411009",020-2422 2552 / 24222553,PUNE,PUNE,MAHARASHTRA
SVCB0000177,The Shamrao Vithal Cooperative Bank Ltd,SVCB0000177,641089002,COIMBATORE,"GROUND FLOOR,PLOT NO.1176,TRICHY ROAD, SUNGAM CIRCLE, RAMNATHPURAM, COIMBATORE – 641045",0422 -232 2217 / 2322218,COIMBATORE,COIMBATORE,TAMIL NADU
SVCB0000072,The Shamrao Vithal Cooperative Bank Ltd,SVCB0000072,400089066,NERUL,"GROUND FLOOR,SHOP NOS.G-09 H,HAWARE CENTURIAN,PLOT NO.88-91,SECTOR 19,NERUL EAST, NAVI MUMBAI – 400 706",91-9324498603,NAVI MUMBAI,NAVI MUMBAI,MAHARASHTRA
SVCB0000073,The Shamrao Vithal Cooperative Bank Ltd,SVCB0000073,400 089 067,KALWA,"GROUND FLOOR,KISHORE PLAZA,OLD MUMBAI – PUNE ROAD, KALWA,THANE – 400 605",919930240858,THANE,THANE,MAHARASHTRA
SVCB0000078,The Shamrao Vithal Cooperative Bank Ltd,SVCB0000078,400089069,AIROLI,"GROUND FLOOR,SUTAR TOWER,PLOT NO.D4,SECTOR 20,AIROLI, NAVI MUMBAI – 400 708",91-8879019419,NAVI MUMBAI,NAVI MUMBAI,MAHARASHTRA
SVCB0000147,The Shamrao Vithal Cooperative Bank Ltd,SVCB0000147,396 089 031,VAPI,"GROUND FLOOR, SHANTI COMPLEX, PLOT NO.P-50/1,GUNJEN MAIN ROAD, GIDC, VAPI – 396 195",919825600898,VAPI,VALSAD,GUJRAT
SVCB0008002,The Shamrao Vithal Cooperative Bank Ltd,SVCB0008002,414802002,AHMEDNAGAR SHAHAR S BK-SAVEDI,"“KRUTARTH”, NEAR HOTEL PREMDAN, SAVEDI ROAD, SERVE NO. 176/1, PLOT NO. 43, AHMEDNAGAR 414003.","0241-2430502, 2417202, 9822352527",AHMADNAGAR,AHMADNAGAR,MAHARASHTRA
SVCB0008003,The Shamrao Vithal Cooperative Bank Ltd,SVCB0008003,414802003,AHMEDNAGAR SHAHAR S BK-MALIWADA,"“KRUPARTH”, MALIWADA WES CHOWK, WADIA PARK ROAD, AHMEDNAGAR- 414001.","0241-2343439, 2417203, 9689631516",AHMADNAGAR,AHMADNAGAR,MAHARASHTRA
SVCB0008004,The Shamrao Vithal Cooperative Bank Ltd,SVCB0008004,414802004,AHMEDNAGAR SHAHAR S BK-ZENDIGATE,"2177-A, BANSI MAHARAJ MITHAIWALA BUILDING, ADATE BAZAR CORNER, TAPKIR LANE, RAMCHANDRA KHUNT, AHMEDNAGAR- 414001.","0241-2341849, 2417204, 9881465305",AHMADNAGAR,AHMADNAGAR,MAHARASHTRA
SVCB0008005,The Shamrao Vithal Cooperative Bank Ltd,SVCB0008005,414802005,AHMEDNAGAR SHAHAR S BK-MARKET YARD,"“SHUBHARTH”, KORPE BUILDING, MAHATMA FULE CHOWK, AHMEDNAGAR- 414001.","0241-2452268, 2417205, 9326621971",AHMADNAGAR,AHMADNAGAR,MAHARASHTRA
SVCB0008006,The Shamrao Vithal Cooperative Bank Ltd,SVCB0008006,414802006,AHMEDNAGAR SHAHAR S BK-GULMOHAR RD,"GULMOHAR ROAD, PARIJAT CORNER, AHMEDNAGAR- 414003.","0241-2424061, 2417206, 9860909128",AHMADNAGAR,AHMADNAGAR,MAHARASHTRA
SVCB0008007,The Shamrao Vithal Cooperative Bank Ltd,SVCB0008007,414802007,AHMEDNAGAR SHAHAR S BK-M.I.D.C.,"“ARTHKAM”, THE PLACE SHOP NO. 1 TO 7, OPP. NAGAPUR PETROL PUMP, NAGAR-MANMAD ROAD, NAGAPUR, AHMEDNAGAR- 414027.","0241-2778280, 2417207, 9422726908",NAGAPUR,AHMADNAGAR,MAHARASHTRA
SVCB0008008,The Shamrao Vithal Cooperative Bank Ltd,SVCB0008008,414802008,AHMEDNAGAR SHAHAR S BK-MANMAD RD,"“SAPTSHRUNG”, NEAR SHUBHAM MANGAL KARYALAYA, SVEDI ROAD, AHMEDNAGAR- 414003.","0241-2426174, 2417208, 9822577340",AHMADNAGAR,AHMADNAGAR,MAHARASHTRA
SVCB0008009,The Shamrao Vithal Cooperative Bank Ltd,SVCB0008009,414802010,AHMEDNAGAR SHAHAR S BK-SUPA MIDC,"“UDYAM”, YENARE COMPLEX, WALWANE ROAD, SUPA, TAL-PARNER, DIST. AHMEDNAGAR.","02488-243683, 9881662760, 9096893161",SUPA,AHMADNAGAR,MAHARASHTRA
SVCB0008010,The Shamrao Vithal Cooperative Bank Ltd,SVCB0008010,414802009,AHMEDNAGAR SHAHAR S BK-SUKKAR CHWK,"LUNIYA-MUNOT COMPLEX, ANANDHRUSHIJI MARG, STATION ROAD, AHMEDNAGAR- 414001.","0241-2321188,2417209, 7276001619",AHMADNAGAR,AHMADNAGAR,MAHARASHTRA
SVCB0008011,The Shamrao Vithal Cooperative Bank Ltd,SVCB0008011,414802001,AHMEDNAGAR SHAHAR S BK-NAVIPETH,"“SARVARTH”, NAVIPETH, AHMEDNAGAR- 414001.","0241-2346217, 2343357, 9561941844",AHMADNAGAR,AHMADNAGAR,MAHARASHTRA
SVCB0008012,The Shamrao Vithal Cooperative Bank Ltd,SVCB0008012,411485251,AHMEDNAGAR SHAHAR S BK-KOTHRUD,"“VIJAYSHRI”, ANUSAGAR BUILDING, SERVE NO. 52/40, OPP. SHRUSHTI COMPLEX, 100 D.P. ROAD, KOTHRUD, PUNE- 38.","020-25386394, 9822910058",PUNE,PUNE,MAHARASHTRA
SVCB0008013,The Shamrao Vithal Cooperative Bank Ltd,SVCB0008013,411485252,AHMEDNAGAR SHAHAR S BK-PIMPRI,"“SATSANG”, SERVE NO. 103(P) TO 108(P), NEAR AJAMERA, UDYAM NAGAR, NEHARU NAGAR ROAD, PIMPRI, PUNE- 18.","020-27432744, 9890917683",PIMPRI BK,PUNE,MAHARASHTRA
SVCB0008014,The Shamrao Vithal Cooperative Bank Ltd,SVCB0008014,411485254,AHMEDNAGAR SHAHAR S BK-SINHGAD RD,"“YASHWANTI”, SUN PARADISE, SHOP NO. 1,2,3 SUN CITY ROAD, ANANDNAGAR, SINHGAD ROAD, PUNE- 51.","020-24354041, 9422987225",PUNE,PUNE,MAHARASHTRA
SVCB0008015,The Shamrao Vithal Cooperative Bank Ltd,SVCB0008015,414802011,AHMEDNAGAR SHAHAR S BK-NEPTI APMC,"KRUSHI UTPANNA BAZAR SAMITI, NEPTI UPBAZAR AWAR, SHOP NO. 317,318,319 NEPTI, TAL & DIST AHMEDNAGAR.",9850047957,AHMADNAGAR,AHMADNAGAR,MAHARASHTRA
SVCB0008016,The Shamrao Vithal Cooperative Bank Ltd,SVCB0008016,414802012,AHMEDNAGAR SHAHAR S BK-TARAKPUR,"SHOP NO. 7 TO 14, PRERANA ARKED, WINGS 'C', TARAKPUR, AHMEDNAGAR.","0241-2320553, 2320554, 9225730311",AHMADNAGAR,AHMADNAGAR,MAHARASHTRA
SVCB0008017,The Shamrao Vithal Cooperative Bank Ltd,SVCB0008017,411485257,AHMEDNAGAR SHAHAR S BK-NARAYANPETH,"“NARAYANI”, SAVITRI SADAN, OPP. NARAYANPETH  POLICE STATION, NARAYANPETH, PUNE.","020-24443232, 9405852401",PUNE,PUNE,MAHARASHTRA
SVCB0000115,The Shamrao Vithal Cooperative Bank Ltd,SVCB0000115,431089004,WALUJ,"GROUND FLOOR, PLOT NO. P- 102,MEENATAI THAKRE MARKET, BAJAJ NAGAR,MAHARANA PRATAP CHOWK, M.I.D.C. WALUJ, AURANGABAD  - 431 136",9180870 55995,WALUJ,AURANGABAD,MAHARASHTRA
SVCB0004006,The Shamrao Vithal Cooperative Bank Ltd,SVCB0004006,411174458,DHARMAVIR SAMBHAJI BK-PIRANGUT,"SAI SHRADHA, 1258/4,5,6 1ST FLOOR, S NO. 1149, PIRANGUT, TAL MULSHI, DIST. PUNE - 412 115",020-22923030,PIRANGUT,PUNE,MAHARASHTRA
SVCB0009002,The Shamrao Vithal Cooperative Bank Ltd,SVCB0009002,431801402,PEOPLES BK HINGOLI-HINGOLI,"MAIN ROAD, HINGOLI - 431513.","(02456) 220518,222205",HINGOLI,HINGOLI,MAHARASHTRA
SVCB0009003,The Shamrao Vithal Cooperative Bank Ltd,SVCB0009003,431801501,PEOPLES BK HINGOLI-AKHADABALAPUR,"MAIN ROAD, AKHADA BALUPER -431707 DISTHINGOLI",(02455) 242408,AKHADABALAPUR,HINGOLI,MAHARASHTRA
SVCB0009004,The Shamrao Vithal Cooperative Bank Ltd,SVCB0009004,431801202,PEOPLES BK HINGOLI-PARBHANI,"KACCHI BAZAR, PARBHANI-431401 DISTPARBHANI",(02452) 222767/ 223086,PARBHANI,PARBHANI,MAHARASHTRA
SVCB0009005,The Shamrao Vithal Cooperative Bank Ltd,SVCB0009005,431801502,PEOPLES BK HINGOLI-SENGAON,"AT POST TALUKA SENGAON, SENGAON-431542,  DISTHINGOLI",(02456) 250261,SENGAON,HINGOLI,MAHARASHTRA
SVCB0009006,The Shamrao Vithal Cooperative Bank Ltd,SVCB0009006,431801503,PEOPLES BK HINGOLI-JAWALA BAZAR,"AT POST JAWALA BAZAR-431705  TALUKA   AUNDHA NAGNATH, DIST HINGOLI",(02454) 240049,AUNDHA NAGNATH,HINGOLI,MAHARASHTRA
SVCB0009007,The Shamrao Vithal Cooperative Bank Ltd,SVCB0009007,431801504,PEOPLES BK HINGOLI-JINTUR,"AT POST JINTUR-431609, TALUKA  JINTUR, DIST  PARBHANI  ",(02457) 220249,JINTUR,PARBHANI,MAHARASHTRA
SVCB0009008,The Shamrao Vithal Cooperative Bank Ltd,SVCB0009008,431805501,PEOPLES BK HINGOLI-DEAULGOAN RAJA,"TAMBATKAR GALLI,  AT POST TALUKA DEAULGOAN RAJA-443204  DIST BULDHANA",(07261) 232403,DEAULGOAN RAJA,BULDHANA,MAHARASHTRA
SVCB0009009,The Shamrao Vithal Cooperative Bank Ltd,SVCB0009009,431805502,PEOPLES BK HINGOLI-MANTHA,"AT POST TALUKA MANTHA-431504, MAIN ROAD DIST  JALNA ",(02484) 270106,MANTHA,JALNA,MAHARASHTRA
SVCB0009010,The Shamrao Vithal Cooperative Bank Ltd,SVCB0009010,431805052,PEOPLES BK HINGOLI-JALNA,"CHATRAPATI SHIVAJI MAHARAJ VYAPARI SANKUL, JALNA, DIST JALNA -431023",(02482) 238535 / 234823,JALNA,JALNA,MAHARASHTRA
SVCB0009011,The Shamrao Vithal Cooperative Bank Ltd,SVCB0009011,431809101,PEOPLES BK HINGOLI-NANDED,"JETEWAD COMPLEX, VIP ROAD, NEW MONDHA - NANDED","(02462) 236069,233780",NANDED,NANDED,MAHARASHTRA
SVCB0009012,The Shamrao Vithal Cooperative Bank Ltd,SVCB0009012,444801002,PEOPLES BK HINGOLI-AKOLA,"JUNA KAPDA BAZAR,AKOLA-444001  DIST AKOLA",(0724 )2439782/2425601,AKOLA,AKOLA,MAHARASHTRA
SVCB0009013,The Shamrao Vithal Cooperative Bank Ltd,SVCB0009013,431569002,PEOPLES BK HINGOLI-AURANGABAD,"DEVPRIYA APPT.BANSILAL NAGAR,RAILWAY STATION ROAD, AURANGABAD DIST. - AURANGABAD - 431001","(0240) 2347531,2347523",AURANGABAD,AURANGABAD,MAHARASHTRA
SVCB0009014,The Shamrao Vithal Cooperative Bank Ltd,SVCB0009014,445801501,PEOPLES BK HINGOLI-PANDHARKAWADA,"SURANA COMPLEX, MAIN ROAD  PANDHARKAWADA TQ.KELAPUR PANDHARKAWADA-445302  DISTYAVATMAL",(07235) 227817,PANDHARKAWADA,YAVATMAL,MAHARASHTRA
SVCB0009015,The Shamrao Vithal Cooperative Bank Ltd,SVCB0009015,445801002,PEOPLES BK HINGOLI-YAVATMAL,"VASUNDHARA CHAMBERS, NEAR SHAM TAIKES TAL & DIST YAVATMAL, YAVATMAL-445001 ",(07232) 241451,YAVATMAL,YAVATMAL,MAHARASHTRA
SVCB0009016,The Shamrao Vithal Cooperative Bank Ltd,SVCB0009016,431809502,PEOPLES BK HINGOLI-DHARMABAD,"MARKET YARD MONDHA, TAL DHARMABAD, DIST NANDED, DHARMABAD-431809",(02465) 244559,DHARMABAD,NANDED,MAHARASHTRA
SVCB0009017,The Shamrao Vithal Cooperative Bank Ltd,SVCB0009017,431801505,PEOPLES BK HINGOLI-SELU,"KRANTI CHOWK,NEAR NITIN TALKIES TAL SELU, DIST PARBHANI, SELU-431503 ",(02451) 223147,SAILU,PARBHANI,MAHARASHTRA
SVCB0009018,The Shamrao Vithal Cooperative Bank Ltd,SVCB0009018,431801506,PEOPLES BK HINGOLI-BORI,"BORI-431508 ,TAL JINTUR,DISTPARBHANI",(02457) 242691,JINTUR,PARBHANI,MAHARASHTRA
SVCB0009019,The Shamrao Vithal Cooperative Bank Ltd,SVCB0009019,431801452,PEOPLES BK HINGOLI-DEGLUR,"NEW MONDHA,DEGLOOR-431717 TAL DEGLOOR, DIST NANDED ",(02463) 256741/256745,DEGLUR,NANDED,MAHARASHTRA
SVCB0009020,The Shamrao Vithal Cooperative Bank Ltd,SVCB0009020,431809503,PEOPLES BK HINGOLI-HADGOAN,"MAIN ROAD,HADGOAN-431712,TAL HADGOAN, DISTNANDED ",(02468) 222719/222357,HADGAON,NANDED,MAHARASHTRA
SVCB0009021,The Shamrao Vithal Cooperative Bank Ltd,SVCB0009021,569002PAB,PEOPLES BK HINGOLI-ADILABAD,"NATIONAL HIGHWAY RAOD NO.7,NEAR PETROL PUMP,DHANLAXMI COMPLEX,ADILABAD-504001(ANDHRA PRADESH)","(08732) 232455,232167",ADILABAD,ADILABAD,ANDHRA PRADESH
SVCB0009022,The Shamrao Vithal Cooperative Bank Ltd,SVCB0009022,,PEOPLES BK HINGOLI-BHAISA,"MARKET YARD, GANDHI GANJ, BHAISA DIST. ADILABAD - 504103(ANDHRA PRADESH)","(08752) 231651,232651",BHAISA,ADILABAD,ANDHRA PRADESH
SVCB0009023,The Shamrao Vithal Cooperative Bank Ltd,SVCB0009023,440183251,PEOPLES BK HINGOLI-NAGPUR,"CHAPUR NAGAR CHOWK, 13,GANDHI GRAIN MARKET, NAGPUR TALUKA & DIST  NAGPUR",(0712) 2733661 / 2733664,NAGPUR,NAGPUR,MAHARASHTRA
SVCB0009024,The Shamrao Vithal Cooperative Bank Ltd,SVCB0009024,442801001,PEOPLES BK HINGOLI-WARDHA,"NEAR HOTEL RAMKRISHNA,WARDHA, DIST  WARDHA",(07152) 231003 / 231004,WARDHA,WARDHA,MAHARASHTRA
SVCB0009025,The Shamrao Vithal Cooperative Bank Ltd,SVCB0009025,425809501,PEOPLES BK HINGOLI-CHOPDA,"KAMAL HOSPITAL BUILDING, GROUND FLOOR, NARAYANWADI ROAD, CHOPDA TQ. CHOPDA DIST. JALGAON",02586-221021,CHOPDA,JALGAON,MAHARASHTRA
SVCB0009026,The Shamrao Vithal Cooperative Bank Ltd,SVCB0009026,411240257,PEOPLES BK HINGOLI-PUNE,"M.G.ROAD 5,TEZ HOUSE, CAMP, PUNE",9423142654,PUNE,PUNE,MAHARASHTRA
SVCB0009027,The Shamrao Vithal Cooperative Bank Ltd,SVCB0009027,431809501,PEOPLES BK HINGOLI-BHOKAR,"NEW MONDHA,BHOKAR- TAL BHOKAR, DIST NANDED ",02467-222210,BHOKAR,NANDED,MAHARASHTRA
SVCB0010002,The Shamrao Vithal Cooperative Bank Ltd,SVCB0010002,411355003,BHARATI SAHAKARI BANK-BHAVAN(MAIN),"BHARATI VIDYAPEETH BHAVAN, GROUND FLOOR, SHASTRI ROAD, PUNE – 411 030.","(020) 24333423,(020) 20242051",PUNE,PUNE,MAHARASHTRA
SVCB0010003,The Shamrao Vithal Cooperative Bank Ltd,SVCB0010003,411355004,BHARATI SAHAKARI BANK-AKURDI,"SECTOR NO.28, PLOT NO.93, AKURDI PRADHIKARAN, PUNE – 411 044",(020) 27657844,PUNE,PUNE,MAHARASHTRA
SVCB0010004,The Shamrao Vithal Cooperative Bank Ltd,SVCB0010004,411355006,BHARATI SAHAKARI BK-VADGAON.DHAIRY,"SINHGAD ROAD, VADGAON-DHAIRY, PUNE – 411 041.",(020) 24392190,PUNE,PUNE,MAHARASHTRA
SVCB0010005,The Shamrao Vithal Cooperative Bank Ltd,SVCB0010005,411355005,BHARATI SAHAKARI BANK-DHANKWADI,"BHARATI VIDYAPEETH EDUCATIONAL COMPLEX, PUNE – 411 043.","(020) 24372875, 24364750, 24374775",PUNE,PUNE,MAHARASHTRA
SVCB0010006,The Shamrao Vithal Cooperative Bank Ltd,SVCB0010006,416355151,BHARATI SAHAKARI BANK-SANGLI CITY,"BHARATI VIDYAPEETH BHAVAN, RAJWADA CHOWK, SANGLI – 416 416.","(0233) 2323750, 2381650, 2322506",SANGLI,SANGLI,MAHARASHTRA
SVCB0010007,The Shamrao Vithal Cooperative Bank Ltd,SVCB0010007,,BHARATI SAHAKARI BANK-KADEGAON,"KADEGAON, TAL. KADEGAON, DIST. SANGLI, PIN - 415 304.",(02347) 242109,KADEGAON,SANGLI,MAHARASHTRA
SVCB0010008,The Shamrao Vithal Cooperative Bank Ltd,SVCB0010008,400068313,BHARATI SAHAKARI BANK-NAVI MUMBAI,"BHARATI VIDYAPEETH EDUCATIONAL COMPLEX, SECTOR NO.8, C.B.D., BELAPUR, NAVI MUMBAI – 400 614.",(022) 27577286,NEW BOMBAY,NAVI MUMBAI,MAHARASHTRA
SVCB0010009,The Shamrao Vithal Cooperative Bank Ltd,SVCB0010009,413589251,BHARATI SAHAKARI BANK-SOLAPUR,"BHARATI VIDYAPEETH EDUCATIONAL COMPLEX, VIJAPUR ROAD, SOLAPUR - 413 001.",(0217) 2343420,SOLAPUR,SOLAPUR,MAHARASHTRA
SVCB0010010,The Shamrao Vithal Cooperative Bank Ltd,SVCB0010010,416355002,BHARATI SAHAKARI BANK-KOLHAPUR,"BHARATI VIDYAPEETH BHAVAN KADAMWADI, KOLHAPUR - 416 001.",(0231) 2666759,KOLHAPUR,KOLHAPUR,MAHARASHTRA
SVCB0010011,The Shamrao Vithal Cooperative Bank Ltd,SVCB0010011,415355476,BHARATI SAHAKARI BANK-VITA,"BABAJI COMPLEX, OPP. S. T. STAND, VITA, TAL. KHANAPUR, DIST. SANGLI, PIN - 415 311.",(02347) 272079,VITA,SANGLI,MAHARASHTRA
SVCB0010012,The Shamrao Vithal Cooperative Bank Ltd,SVCB0010012,,BHARATI SAHAKARI BANK-PANCHGANI,"SOMNATH COMPLEX, HANUMAN MANDIR ROAD, PANCHGANI, DIST. SATARA, PIN - 412 805.",(02168) 240601,PANCHGANI,SATARA,MAHARASHTRA
SVCB0010013,The Shamrao Vithal Cooperative Bank Ltd,SVCB0010013,,BHARATI SAHAKARI BANK-AMBAK,"SONHIRA SAHAKARI SAKHAR KARKHANA COMPLEX, AMBAK, TAL. KADEGAON, DIST.SANGLI, PIN - 415 303.",(02347) 235672,KADEGAON,SANGLI,MAHARASHTRA
SVCB0010014,The Shamrao Vithal Cooperative Bank Ltd,SVCB0010014,415355352,BHARATI SAHAKARI BK-MALKAPUR KARAD,"240 A, JAIHIND PRIDE, NEAR SUYASH MANGAL KARYALAYA, SHASTRINAGAR, MALKAPUR, KARAD, TAL. KARAD, DIST. SARATA, PIN - 415 539.",(02164) 228885,KARAD,SATARA,MAHARASHTRA
SVCB0010015,The Shamrao Vithal Cooperative Bank Ltd,SVCB0010015,110094282,BHARATI SAHAKARI BANK-NEW DELHI,"A-4, ROHTAK ROAD, HIGH-WAY 10, PASCHIM VIHAR, NEW DELHI - 110 063.","(011) 25257230, 25257231",DELHI,NEW DELHI,DELHI
SVCB0010016,The Shamrao Vithal Cooperative Bank Ltd,SVCB0010016,,BHARATI SAHAKARI BANK-PALUS,"HIRA COMPLEX, KARAD ROAD, NEAR PAWAR HOSPITAL, A/P PALUS, TAL. PALUS, DIST. SANGLI",(02346) 223235,PALUS,SANGLI,MAHARASHTRA
SVCB0010017,The Shamrao Vithal Cooperative Bank Ltd,SVCB0010017,,BHARATI SAHAKARI BANK-BHILWADI,"AGRAWAL COMPLEX, A/P BHILWADI, TAL. PALUS, DIST. SANGLI - 416 303.",(02346) 238099,PALUS,SANGLI,MAHARASHTRA
SVCB0010018,The Shamrao Vithal Cooperative Bank Ltd,SVCB0010018,,BHARATI SAHAKARI BANK-ISLAMPUR,"S. NO.39/88 B, SHRI. KARANDE BLDG. ISLAMPUR, TAL. WALWA, DIST. SANGLI - 415 409",(02342) 222555,ISLAMPUR,SANGLI,MAHARASHTRA
SVCB0010019,The Shamrao Vithal Cooperative Bank Ltd,SVCB0010019,,BHARATI SAHAKARI BANK-TASGAON,"LAXMI-KRISHNA BLDG., JOSHI LANE, HOUSE NO.1376, TASGAON, DIST. SANGLI - 416 312",(02346) 240230,TASGAON,SANGLI,MAHARASHTRA
SVCB0010020,The Shamrao Vithal Cooperative Bank Ltd,SVCB0010020,411355007,BHARATI SHKRI BK-ERANDWANE EXTNCTR,"BHARATI VIDYAPEETH EDUCATIONAL COMPLEX, ERANDWANE, PUNE – 411 038",(020) 25448502,PUNE,PUNE,MAHARASHTRA
SVCB0000079,The Shamrao Vithal Cooperative Bank Ltd,SVCB0000079,400089070,VASHI SECTOR 15,"GROUND FLOOR, SHOP NOS.1-3, LAND VIEW CHS LTD., OPP.MARATHA BHAVAN, SECTOR 15, VASHI, NAVI MUMBAI –400705",022-27880561/ 27880562,NEW BOMBAY,THANE,MAHARASHTRA
SVCB0000146,The Shamrao Vithal Cooperative Bank Ltd,SVCB0000146,360089002,RAJKOT,"MANGAL TIRTH, 31, YOGINIKETAN PLOT, NIRMALA CONVENT SCHOOL ROAD, KALAVAD ROAD, RAJKOT -360007",0281-6554141/ 9375933779,RAJKOT,RAJKOT,GUJARAT
SVCB0008018,The Shamrao Vithal Cooperative Bank Ltd,SVCB0008018,431485084,AHMEDNAGAR SHAHAR S BK-GARKHEDA,"PLOT NO 8,SHIVNERI NAGAR,OPP JAWAHAR NAGAR POLICE STATION,GARKHEDA PARISAR,AURANGABAD 431005","02402344636, 9890153007",AURANGABAD,AURANGABAD,MAHARASHTRA
SVCB0011002,The Shamrao Vithal Cooperative Bank Ltd,SVCB0011002,411164290,JAIHIND COOPBKWAKAD-PMPRI CHINCHWD,"KUNAL MARKET, 1ST FLOOR, CHAPEKAR CHOWK, CHINCHWAD PUNE 411033 ",020-27614522 ,PUNE,PUNE,MAHARASHTRA
SVCB0012002,The Shamrao Vithal Cooperative Bank Ltd,SVCB0012002,591851502,SHREE MAHALAXMI COOP CRD BK-GOKAK,"CTS NO.3838A, GURUWARPETH GOKAK,  DIST BELGAUM,  KARNATAKA -591307",08332-226530,GOKAK,BELGAUM,KARNATAKA
SVCB0013002,The Shamrao Vithal Cooperative Bank Ltd,SVCB0013002,400087002,SAHYADRI SAHAKARI BANK-CHIRA BAZAR,"5/7, VIJAY WADI, DR. N. N. SHAHA MARG, CHIRA BAZAR, MUMBAI -400 002",22054671,MUMBAI,GREATER BOMBAY,MAHARASHTRA
SVCB0013003,The Shamrao Vithal Cooperative Bank Ltd,SVCB0013003,400087003,SAHYADRI SAHAKARI BANK-VITHALWADI,"94/96, BHAGWAN KALACHI WADI, BHULESHWAR MAR, MUMBAI -400 002",22425589/22422053,MUMBAI,GREATER BOMBAY,MAHARASHTRA
SVCB0013004,The Shamrao Vithal Cooperative Bank Ltd,SVCB0013004,400087004,SAHYADRI SAHAKARI BANK-LALBAUG,"PHANSE BUILDING, DR. B.A. ROAD, OPP. DIGVIJAY MILL, LALBAUG, MUMBAI -400 012",24703583/24706404,MUMBAI,GREATER BOMBAY,MAHARASHTRA
SVCB0013005,The Shamrao Vithal Cooperative Bank Ltd,SVCB0013005,400087005,SAHYADRI SAHAKARI BANK-KANDIVLI(W),"SAHYADRI NAGAR, CHARKHOP, KANDIVLI (W), MUMBAI -400 067",28692529/28685099,MUMBAI,GREATER BOMBAY,MAHARASHTRA
SVCB0013006,The Shamrao Vithal Cooperative Bank Ltd,SVCB0013006,415087002,SAHYADRI SAHAKARI BANK-SATARA CITY,"CITY POINT, POWAI NAKA, SATARA-415001",02162-232105/06,SATARA,SATARA,MAHARASHTRA
SVCB0013007,The Shamrao Vithal Cooperative Bank Ltd,SVCB0013007,400087007,SAHYADRI SAHAKARI BANK-KAMOTHE,"SURAJ COMPLEX, SHOP NO 2 & 3,PLOT NO. 2 &21, SECTOR NO. 36, KAMOTHE NAVI MUMBAI -410209",32194229/27434187,KAMOTHE,RAIGAD,MAHARASHTRA
SVCB0013008,The Shamrao Vithal Cooperative Bank Ltd,SVCB0013008,400087008,SAHYADRI SAHAKARI BANK-BHIWANDI,"SHOP NO, 1,2, & 2-A, ARJUN SAGAR APARTMENT, ANJUR NAKA, AGRA ROAD, BHIWANDI, DIST- THANE PIN- 421 302",02522-278833/02522-278882,BHIWANDI,THANE,MAHARASHTRA
SVCB0013009,The Shamrao Vithal Cooperative Bank Ltd,SVCB0013009,400087009,SAHYADRI SAHAKARI BANK-DOMBIVLI,"SHOP NO. 11 TO 14 CHIRAG CHS.LTD, FADKE ROAD, DOMBIVLI (E)",0251-2439896,DOMBIVLI,THANE,MAHARASHTRA
SVCB0000083,The Shamrao Vithal Cooperative Bank Ltd,SVCB0000083,400089073,DADAR EAST,"GROUND FLOOR, ALAP CHS LTD, SIR BHALCHANDRA ROAD, DADAR (EAST), MUMBAI – 400 014 ","022 -24144086, 022-2414 4087",MUMBAI,GREATER BOMBAY,MAHARASHTRA
SVCB0001017,The Shamrao Vithal Cooperative Bank Ltd,SVCB0001017,400801017,HINDUSTAN COOP BK-VIKROLI EAST,"236/2343 GROUND FLOOR, TAGORE NAGAR, OPP B.M.C SCHOOL, VIKROLI EAST, MUMBAI 400083",23483780,MUMBAI,GREATER BOMBAY,MAHARASHTRA