ID,BANK,IFSC_CODE,MICR_CODE,BRANCH_NAME,ADDRESS,CONTACT,CITY,DISTRICT,STATE
CSBK0000001,Catholic Syrian Bank,CSBK0000001,682047002,RTGS CENTRE,"DJM BUILDINGS, MARKET ROAD, ERNAKULAM, KOCHI - 680 011, KERALA",ERNAKULAM,,,KERALA
CSBK0000002,Catholic Syrian Bank,CSBK0000002,682047014,ALUVA,"PAUL DAVIS, E-MAIL : ALUVA@CSB.CO.IN, PHONE: 0484 2624565",ERNAKULAM,,,KERALA
CSBK0000003,Catholic Syrian Bank,CSBK0000003,NON-MICR,AMBALLUR,"SREE KRISHNA BUILDING, AMBALLUR JUNCTION, P.O. ALAGAPPA NAGAR, THRISSUR - 680302",TRISSUR,,,KERALA
CSBK0000004,Catholic Syrian Bank,CSBK0000004,NON-MICR,ANNAMANADA,CHAKKARAMPILLYSHOPING COMPLEX COMPLEX,TRISSUR,,,KERALA
CSBK0000005,Catholic Syrian Bank,CSBK0000005,NON-MICR,ASHTAMICHIRA,"XII/773(L), MUDILIKULATH SHOPPING COMPLEX, ASHTAMICHIRA P.O. - 680731, THRISSUR DISTRICT",TRISSUR,,,KERALA
CSBK0000006,Catholic Syrian Bank,CSBK0000006,NON-MICR,ALTHARA,"P.B. NO. 2, P.O. PUNNAYURKULAM, ALTHARA, THRISSUR - 679561",TRISSUR,,,KERALA
CSBK0000007,Catholic Syrian Bank,CSBK0000007,NON-MICR,KUNNUKARA,"ATHANI MANJALI ROAD, P.O.KUNNUKARA-683524 ERNAKULAM DT., KERALA",ERNAKULAM,,,KERALA
CSBK0000008,Catholic Syrian Bank,CSBK0000008,NON-MICR,AZHIKODE,"VANKULATHUVAYAL, P O AZHIKODE, KANNUR - 670 009",KANNUR,,,KERALA
CSBK0000009,Catholic Syrian Bank,CSBK0000009,560047002,BRIGADE ROAD BANGALORE,"ST.PATRICK'S SHOPPING ARCADE,BRIGADE ROAD,BANGALORE - 560 025",BANGALORE URBAN,,,KARNATAKA
CSBK0000010,Catholic Syrian Bank,CSBK0000010,400047003,CHEMBUR MUMBAI,"GAMA GRANDEUR, CENTRAL AVENUE ROAD, P O CHEMBUR, MUMBAI-40 071",GREATER MUMBAI,,,MAHARASHTRA
CSBK0000011,Catholic Syrian Bank,CSBK0000011,NON-MICR,KANNUR,"VEEKAY COMPLEX,FORT ROAD,KANNUR",BIJAPUR,,,KARNATAKA
CSBK0000012,Catholic Syrian Bank,CSBK0000012,NON-MICR,CHALAKUDY,"KAITHARATHU BUILDING, MAIN ROAD, CHALAKKUDY,KERALA STATE. PIN 680307",TRISSUR,,,KERALA
CSBK0000013,Catholic Syrian Bank,CSBK0000013,NON-MICR,CHALISSERY,"ORUMA COMPLEX, MAIN ROAD JN, CHALISSERY-679536",PALAKKAD,,,KERALA
CSBK0000014,Catholic Syrian Bank,CSBK0000014,NON-MICR,CHANGANASSERY,"KULATHUNGAL BUILDINGS,M C ROAD,.PERUNNA PO,686102,KOTAAM DT,KERALAINDIA.",KOTTAYAM,,,KERALA
CSBK0000015,Catholic Syrian Bank,CSBK0000015,NON-MICR,CHAVAKKAD,"P.B. NO. 3, BYE PASS ROAD, CHAVAKKAD, THRISSUR - 680506, KERALA",TRISSUR,,,KERALA
CSBK0000016,Catholic Syrian Bank,CSBK0000016,NON-MICR,CHITTATTUKARA,"MAIN ROAD, CHITTATTUKARA - 680511, THRISSUR DISTRICT",TRISSUR,,,KERALA
CSBK0000017,Catholic Syrian Bank,CSBK0000017,NON-MICR,CHITTUR,"SOHAR COMPLEX,MAIN ROAD, CHITTUR - 678101.",PALAKKAD,,,KERALA
CSBK0000018,Catholic Syrian Bank,CSBK0000018,682047012,KOCHI-1,"PALAMOOTTIL BUILDING,CC NO.1/583/1, UNNUMPURAM,KOCHI,682001",ERNAKULAM,,,KERALA
CSBK0000019,Catholic Syrian Bank,CSBK0000019,641047002,RAJASTREET,"DOOR NO. 153, RAJA STREET, P.B. NO.124, COIMBATORE, T N- 641 001",COIMBOTORE,,,TAMIL NADU
CSBK000001A,Catholic Syrian Bank,CSBK000001A,NON-MICR,ALAPPUZHA,"GOLD MERCHANT'S ASSOCIATION BLDGS, NO.XVIII/1285, P.B.NO.3818, MULLAKKAL, ALAPPUZHA-688010, KERALA.",ALAPUZZHA,,,KERALA
CSBK0000020,Catholic Syrian Bank,CSBK0000020,NON-MICR,ENGANDIYUR,"MAIN ROAD, P.O. ENGANDIYUR, THRISSUR - 680615",TRISSUR,,,KERALA
CSBK0000021,Catholic Syrian Bank,CSBK0000021,682047002,ERNAKULAM MARKET ROAD,"D.J.M BUILDING, MARKET ROAD,COCHI,682011",ERNAKULAM,,,KERALA
CSBK0000022,Catholic Syrian Bank,CSBK0000022,638047022,ERODE,"25, CUTCHERRY STREET ERODE - 638 001 TAMIL NADU",ERODE,,,TAMIL NADU
CSBK0000023,Catholic Syrian Bank,CSBK0000023,NON-MICR,FEROKE,"KODINJI TOWERS, CHERUVANNUR, FEROKE - 673631",KOZHIKODE,,,KERALA
CSBK0000024,Catholic Syrian Bank,CSBK0000024,NON-MICR,GUDALUR,"VAISHANAVI COMPLEX , P.B.NO.3 CALICUT ROAD, GUDALUR-643212 NILGIRIS DT., TAMILNADU",NILGIRIS,,,TAMIL NADU
CSBK0000025,Catholic Syrian Bank,CSBK0000025,NON-MICR,GURUVAYOOR,"P.B. NO. 10, EAST NADA, GURUVAYUR, THRISSUR - 680101, KERALA",TRISSUR,,,KERALA
CSBK0000026,Catholic Syrian Bank,CSBK0000026,NON-MICR,IRINJALAKUDA,"TANA JUNCTION, P.B. NO. 5, IRINJALAKUDA, THRISSUR - 680121, KERALA",TRISSUR,,,KERALA
CSBK0000027,Catholic Syrian Bank,CSBK0000027,NON-MICR,KADAMPANAD,"XII/670, P.O.KADAMBANAD SOUTH PIN-691553 PATHANAMTHITTA DT., KERALA",PATHANAMTHITTA,,,KERALA
CSBK0000028,Catholic Syrian Bank,CSBK0000028,NON-MICR,KADUKUTTY,"JOSE P.A, E-MAIL: KADUKUTTY@CSB.CO.IN, PHONE: 0480 2718278",TRISSUR,,,KERALA
CSBK0000029,Catholic Syrian Bank,CSBK0000029,NON-MICR,KALLIASSERY,"466E/IX, NH 17, P O KALLIASSERY, KANNUR - 670562",KANNUR,,,KERALA
CSBK0000030,Catholic Syrian Bank,CSBK0000030,NON-MICR,KANDASSANKADAVU,"MAIN ROAD, KANDASSANKADAVU - 680613, THRISSUR DISTRICT",TRISSUR,,,KERALA
CSBK0000031,Catholic Syrian Bank,CSBK0000031,NON-MICR,KARUKACHAL,"PUTHUPARAMBIL BUILDING,KARUKACHAL,686540",KOTTAYAM,,,KERALA
CSBK0000032,Catholic Syrian Bank,CSBK0000032,NON-MICR,KARUR,"1,SOUTH MADAVILAGAM ST,PRABHU TOWERS,HOSPITAL RD,PB 19,KARUR 639001",KARUR,,,TAMIL NADU
CSBK0000033,Catholic Syrian Bank,CSBK0000033,NON-MICR,KATTANAM,"P.O.PALLIKKAL-690503 P.B.NO.3 ALAPPUZHA DT., KERALA",ALAPUZZHA,,,KERALA
CSBK0000034,Catholic Syrian Bank,CSBK0000034,NON-MICR,KAYAMKULAM,"MAIN ROAD, P.B.NO.18 KAYAMKULAM-690502 ALAPPUZHA DT., KERALA",ALAPUZZHA,,,KERALA
CSBK0000035,Catholic Syrian Bank,CSBK0000035,NON-MICR,KEERAMPARA,"KEERAMPARA JUNCTION P.O.KEERAMPARA-686691 ERNAKULAM DT., KERALA",ERNAKULAM,,,KERALA
CSBK0000036,Catholic Syrian Bank,CSBK0000036,NON-MICR,KILIKOLLUR,"MOONAMKUTTY JUNCTION, KILIKOLLUR-691004 KOLLAM DT., KERALA",KOLLAM,,,KERALA
CSBK0000037,Catholic Syrian Bank,CSBK0000037,NON-MICR,KODUMUDI,"BUILDING NO.9, P.B.NO.6, BY PASS ROAD, WARD NO.6, KODUMUDI-638151 PERIYAR DT., TAMILNADU",ERODE,,,TAMIL NADU
CSBK0000038,Catholic Syrian Bank,CSBK0000038,NON-MICR,KODUVAYUR,"K.S ABOOBACKER BUILDING, PALAKKAD ROAD, KODUVAYUR - 678501",PALAKKAD,,,KERALA
CSBK0000039,Catholic Syrian Bank,CSBK0000039,680047005,R S ROAD THRISSUR,"P.B. NO. 139, RAILWAY STATION ROAD, THRISSUR - 680001, KERALA",TRISSUR,,,KERALA
CSBK0000040,Catholic Syrian Bank,CSBK0000040,NON-MICR,KOLLAPPALLY,"ST.AUGUSTINE'S CHURCH ROAD, P.O.ANTHINAD-686651 KOTTAYAM DT., KERALA",KOTTAYAM,,,KERALA
CSBK0000041,Catholic Syrian Bank,CSBK0000041,NON-MICR,KOONAMMUCHI,"DOOR NO. IX-144, BAZAR JUNCTION, KOONAMMUCHI - 680504, THRISSUR DISTRICT",TRISSUR,,,KERALA
CSBK0000042,Catholic Syrian Bank,CSBK0000042,NON-MICR,KOTTAPADI,"MAIN ROAD, KOTTAPADI - 680505, THRISSUR DISTRICT",TRISSUR,,,KERALA
CSBK0000043,Catholic Syrian Bank,CSBK0000043,686047002,KOTTAYAM,"MATTEETHARA BUILDINGS,BAKER JUNCTION,KOTTAYAM 68601,KERAL,INDIA",KOTTAYAM,,,KERALA
CSBK0000044,Catholic Syrian Bank,CSBK0000044,NON-MICR,KOTTAYI,"ANUGRAHA SHOPPING COMPLEX P.O.KOTTAYI-678572 PALAKKAD DT., KERALA",PALAKKAD,,,KERALA
CSBK0000045,Catholic Syrian Bank,CSBK0000045,NON-MICR,KOZHIKODE BAZAR,"VARGHESE GEORGE, PHONE:0495-2727240 EMAIL:KOZHIKODEBAZAR@CSB.CO.IN",KOZHIKODE,,,KERALA
CSBK0000046,Catholic Syrian Bank,CSBK0000046,673047002,KOZHIKODE CITY,"MANUEL SONS TOWERS, G S ROAD, KOZHIKODE - 673001.",KOZHIKODE,,,KERALA
CSBK0000047,Catholic Syrian Bank,CSBK0000047,NON-MICR,KUMARANALLOOR,"KUMARANALLOOR,PERUBAIKOD PO, KOTTAYAM DT.",KOTTAYAM,,,KERALA
CSBK0000048,Catholic Syrian Bank,CSBK0000048,695047003,KUMARAPURAM,"PB NO. 2405, P.O MEDICAL COLLEGE, KUMARAPURAM, THIRUVANANTHAPURAM - 695011",ALAPUZZHA,,,KERALA
CSBK0000049,Catholic Syrian Bank,CSBK0000049,NON-MICR,KUMBAZHA,"DANIE COMPLEX, P.O.KUMBAZHA-689653 RANNI ROAD,P.B.NO.1, PATHANAMTHITTA DT., KERALA",PATHANAMTHITTA,,,KERALA
CSBK0000050,Catholic Syrian Bank,CSBK0000050,NON-MICR,KUNNAMKULAM,"P. B. NO. 3, GURUVAYUR ROAD, KUNNAMKULAM - 680503, THRISSUR DISTRICT",TRISSUR,,,KERALA
CSBK0000051,Catholic Syrian Bank,CSBK0000051,NON-MICR,KUNNATHANGADI,"X/118, P. O. VELUTHUR - 680616, THRISSUR DISTRICT",TRISSUR,,,KERALA
CSBK0000052,Catholic Syrian Bank,CSBK0000052,NON-MICR,KURIYANNOOR,"BUILDING NO.5/358A, POST OFFICE JN. PUTHETHU VADAKETHIL BUILDING KURIYANNOOR-689550,PATHANAMTHITTA,KERALA",PATHANAMTHITTA,,,KERALA
CSBK0000053,Catholic Syrian Bank,CSBK0000053,NON-MICR,KURUMPILAVU,"CHIRAKKAL CENTRE, KURUMPILAVU - 680584, THRISSUR DISTRICT",TRISSUR,,,KERALA
CSBK0000054,Catholic Syrian Bank,CSBK0000054,NON-MICR,KURUPPANTHARA,"MARKET JN. MANJOOR P.O.,  KOTTAYAM 686 603",KOTTAYAM,,,KERALA
CSBK0000055,Catholic Syrian Bank,CSBK0000055,680047007,KUTTANALLUR,"7/450 A, M.M. BROTHERS BUILDING, P.O. ANCHERY, KUTTANELLUR - 680006, THRISSUR DISTRICT, KERALA",TRISSUR,,,KERALA
CSBK0000056,Catholic Syrian Bank,CSBK0000056,NON-MICR,KUTTIKAD,"P.O.KUTTIKAD-680721 VIA CHALAKUDY THRISSUR DT., KERALA",TRISSUR,,,KERALA
CSBK0000057,Catholic Syrian Bank,CSBK0000057,NON-MICR,KUZHUR,"KUZHUR P.O. PIN-680734, VIA MALA THRISSUR DT., KERALA",TRISSUR,,,KERALA
CSBK0000058,Catholic Syrian Bank,CSBK0000058,600047002,CHENNAI-1,"NO.3, 2ND LINE BEACH,CHENNAI-600 001,TAMILNADU",CHENNAI,,,TAMIL NADU
CSBK0000059,Catholic Syrian Bank,CSBK0000059,600047004,PURUSAWALKAM,"268,PURUSAWALKAM HIGH ROAD,CHENNAI-600 007",CHENNAI,,,TAMIL NADU
CSBK0000060,Catholic Syrian Bank,CSBK0000060,NON-MICR,MALAPPURAM,"CATHOLIC CENTRE, UP-HILL, MALAPPURAM, PB NO 24, 676 505",MALAPURAM,,,KERALA
CSBK0000061,Catholic Syrian Bank,CSBK0000061,NON-MICR,MALAYATTUR,"ST.THOMAS CHURCH BUILDING MALAYATTUR - 683587 ERNAKULAM DT., KERALA",ERNAKULAM,,,KERALA
CSBK0000062,Catholic Syrian Bank,CSBK0000062,NON-MICR,MANALUR,"MANALUR - 680617, THRISSUR DISTRICT",TRISSUR,,,KERALA
CSBK0000063,Catholic Syrian Bank,CSBK0000063,NON-MICR,MANANTHAVADY,"P B NO. 5, MP VI/581, KOZHIKODE ROAD, MANANTHAVADY - 670645, WYNAD DT.",WAYANAD,,,KERALA
CSBK0000064,Catholic Syrian Bank,CSBK0000064,NON-MICR,MANIMALA,"KOVOOR BUILDING, MANIMALA RANNI ROAD P.B.NO.2, MANIMALA - 686543 KOTTAYAM DT., KERALA",KOTTAYAM,,,KERALA
CSBK0000065,Catholic Syrian Bank,CSBK0000065,NON-MICR,MARANCHERRY,"PONNANI ROAD, MARANCHERY, MALAPPURAM - 679 581",MALAPURAM,,,KERALA
CSBK0000066,Catholic Syrian Bank,CSBK0000066,NON-MICR,MARATHAKKARA,"P.B. NO. 51, MARATHAKKARA - 680320, THRISSUR DISTRICT, KERALA",TRISSUR,,,KERALA
CSBK0000067,Catholic Syrian Bank,CSBK0000067,NON-MICR,MURUKKUMPUZHA,"PANACHAMOODU JN.,MURUKKUMPUZHA-695302",TRIVANDRUM,,,KERALA
CSBK0000068,Catholic Syrian Bank,CSBK0000068,NON-MICR,MUVATTUPUZHA,"VALLAMATTAM ESTATE, POST OFFICE JN. MUVATTUPUZHA ERNAKULAM DT. KERALA- 686 661",ERNAKULAM,,,KERALA
CSBK0000069,Catholic Syrian Bank,CSBK0000069,68204719,NARAKKAL,"POPPU AND MARIAM MEMORIAL BLDG, V.P ROAD, NARAKKAL - 682505",ERNAKULAM,,,KERALA
CSBK0000070,Catholic Syrian Bank,CSBK0000070,NON-MICR,NEMOM,"DOOR NO.1/1019,NEMOM-695020,THIRUVANANTHAPURAM",TRIVANDRUM,,,KERALA
CSBK0000071,Catholic Syrian Bank,CSBK0000071,NON-MICR,NEYYATTINKARA,"P.S THOMAS, E-MAIL : NEYYATTINKARA@CSB.CO.IN, PHONE:04716451612",TRIVANDRUM,,,KERALA
CSBK0000072,Catholic Syrian Bank,CSBK0000072,NON-MICR,OLAVAKKODE,"MALAMPUZHA ROAD, OLAVAKKODE - 678 002",PALAKKAD,,,KERALA
CSBK0000073,Catholic Syrian Bank,CSBK0000073,680047008,OLLUR,"P.B. NO. 83, PANAMKUTTICHIRA, P.O. OLLUR, THRISSUR - 680306, KERALA",TRISSUR,,,KERALA
CSBK0000074,Catholic Syrian Bank,CSBK0000074,682047008,BANAERJI ROAD,"BANERJI ROAD, PALATHODE, TATAPURAM, KOCHI 682014",ERNAKULAM,,,KERALA
CSBK0000075,Catholic Syrian Bank,CSBK0000075,NON-MICR,PALAYAMPARMBU,"PALAYAMPARAMBU P.O. - 680741, (VIA) ANNAMANADA, THRISSUR DISTRICT",TRISSUR,,,KERALA
CSBK0000076,Catholic Syrian Bank,CSBK0000076,NON-MICR,PARATHODE,"K.K.ROAD, P.O.CHITTADY - 686524 KOTTAYAM DT., KERALA",KOTTAYAM,,,KERALA
CSBK0000077,Catholic Syrian Bank,CSBK0000077,NON-MICR,PATTIKKAD,"DOOR NO. VII/274A, NATIONAL HIGHWAY, PATTIKAD - 680652, THRISSUR DISTRICT, KERALA",TRISSUR,,,KERALA
CSBK0000078,Catholic Syrian Bank,CSBK0000078,NON-MICR,PAVARATTY,"P.B. NO. 7, MAIN ROAD, P.O. PAVARATTY, THRISSUR - 680507, KERALA",TRISSUR,,,KERALA
CSBK0000079,Catholic Syrian Bank,CSBK0000079,NON-MICR,POLLACHI,141-COIMBATORE ROAD OPP NALLAPPA THEATRE POLLACHI 642 001,COIMBOTORE,,,TAMIL NADU
CSBK0000080,Catholic Syrian Bank,CSBK0000080,NON-MICR,PUTHENPEEDIKA,"VII/363,VIKAS BLDG,MAIN ROAD,PUTHENPEEDIKA,680642",TRISSUR,,,KERALA
CSBK0000081,Catholic Syrian Bank,CSBK0000081,NON-MICR,PUTHOOR,P.O.PUTHOOR-691507 KOLLAM DT KERALA,KOLLAM,,,KERALA
CSBK0000082,Catholic Syrian Bank,CSBK0000082,NON-MICR,KOLLAM,"NAJEEM COMPLEX,DISTRICT HOSPITAL ROAD,VADAYATTUKOTTA ROAD END,CHAMAKADA,KOLLAM-691001,KERALA",KOLLAM,,,KERALA
CSBK0000083,Catholic Syrian Bank,CSBK0000083,636047002,SALEM,"DAVY PAUL, E-MAIL : SALEM@CSB.CO.IN  TELEPHONE : 0484 2353927",SALEM,,,TAMIL NADU
CSBK0000084,Catholic Syrian Bank,CSBK0000084,NON-MICR,CHERTHALA,"MUTTOM BAZAR,CHERTHALA,688524,ALAPUZHA DT,KERALA,INDIA.",ALAPUZZHA,,,KERALA
CSBK0000085,Catholic Syrian Bank,CSBK0000085,641047004,SINGANELLUR,"KAMARAJ ROAD, UPPILIPALAYANM, P.B. NO.3306, SINGANELLUR, COIMBATORE T N- 641 015",COIMBOTORE,,,TAMIL NADU
CSBK0000086,Catholic Syrian Bank,CSBK0000086,NON-MICR,SOORANAD,"CHAKKUVALLY JUNCTION, P.O.SOORANAD-690522 KOLLAM DT., KERALA",KOLLAM,,,KERALA
CSBK0000087,Catholic Syrian Bank,CSBK0000087,NON-MICR,TANUR,"RAILWAY STATION ROAD,P O TANUR, MALAPPURAM KERALA- 676 302",MALAPURAM,,,KERALA
CSBK0000088,Catholic Syrian Bank,CSBK0000088,NON-MICR,TATTAMANGALAM,"2/280, MAIN ROAD TATTAMANGALAM - 678102, CHITTUR TALUK, PALAKKAD DT., KERALA",PALAKKAD,,,KERALA
CSBK0000089,Catholic Syrian Bank,CSBK0000089,NON-MICR,THALASSERY,"P B NO.57, M M ROAD JUNCTION, THALASSERY - 670101, KANNUR DIST.",KANNUR,,,KERALA
CSBK0000090,Catholic Syrian Bank,CSBK0000090,682047010,THOPPUMPADY,"PB NO. 813, THOPPUMPADY, KOCHI - 682005",ERNAKULAM,,,KERALA
CSBK0000091,Catholic Syrian Bank,CSBK0000091,NON-MICR,THOTTAKAD,THOTTAKAD - 686539 KOTTAYAM DT KERALA,KOTTAYAM,,,KERALA
CSBK0000092,Catholic Syrian Bank,CSBK0000092,NON-MICR,TIRUR,"TARIFF BUILDING,PAN BAZAR, TIRUR - 676 101.",MALAPURAM,,,KERALA
CSBK0000093,Catholic Syrian Bank,CSBK0000093,689047002,THIRUVALLA,"M C ROAD,THIRUVALLA 689101,PATHANAMTHITTA DIST, KERALA",PATHANAMTHITTA,,,KERALA
CSBK0000094,Catholic Syrian Bank,CSBK0000094,680047002,THRISSUR MAIN,"P.B. NO.7, ROUND SOUTH, THRISSUR - 680001,KERALA",TRISSUR,,,KERALA
CSBK0000095,Catholic Syrian Bank,CSBK0000095,682047015,TRIPUNITHURA,"PB. NO.10, KALARIKKAL BAZAR, HILL PALACE ROAD, THRIPUNITHURA - 682301",ERNAKULAM,,,KERALA
CSBK0000096,Catholic Syrian Bank,CSBK0000096,695047002,THIRUVANANTHAPURAM MAIN,"MALANKAA BUILDING COMPLEX,PALAYAM,THIRUVANANTHAPURAM-695034,KERALA",TRIVANDRUM,,,KERALA
CSBK0000097,Catholic Syrian Bank,CSBK0000097,695047002,ULLOOR,"ULLOOR, MEDICAL COLLEGE P O, THIRUVANANTHAPURAM 695011,KERALA",TRIVANDRUM,,,KERALA
CSBK0000098,Catholic Syrian Bank,CSBK0000098,682047011,VALANJAMBALAM,"PB NO 1745, CHITTOOR ROAD, VALANJAMBALAM, ERNAKULAM SOUTH - 682016",ERNAKULAM,,,KERALA
CSBK0000099,Catholic Syrian Bank,CSBK0000099,NON-MICR,VALLAMKULAM,"OORAYIL BLDGS, VALLAMKULAM-689541 VALLAMKULAM EAST P.O., VIA.THIRUVALLA PATHANAMTHITTA DT., KERALA",PATHANAMTHITTA,,,KERALA
CSBK0000100,Catholic Syrian Bank,CSBK0000100,682047002,IBD ERNAKULAM,"PB NO. 1156, MARKET ROAD, ERNAKULAM - 682 011, KERALA",ERNAKULAM,,,KERALA
CSBK0000101,Catholic Syrian Bank,CSBK0000101,NON-MICR,VELLIKULANGARA,"KALAMBADEN'S BUILDINGS VELLIKULANGARA-680693 THRISSUR DT., KERALA",TRISSUR,,,KERALA
CSBK0000102,Catholic Syrian Bank,CSBK0000102,NON-MICR,OTTAPALAM,"AYODHYA TOWER, BANK LANE, OTTAPALAM – 679101",PALAKKAD,,,KERALA
CSBK0000103,Catholic Syrian Bank,CSBK0000103,NON-MICR,NEMMARA,"MOHAN NAIR C, PHONE: 04923-244211, EMAIL: NEMMARA@CSB.CO.IN",PALAKKAD,,,KERALA
CSBK0000104,Catholic Syrian Bank,CSBK0000104,NON-MICR,PONKUNNAM,"P.B. NO. 3, P.O. PONKUNNAM KOTTAYAM DT KERALA - 686 506",KOTTAYAM,,,KERALA
CSBK0000105,Catholic Syrian Bank,CSBK0000105,NON-MICR,PATTAMBI,"PATTAMBI - 679303, PALAKKAD DISTRICT., KERALA",PALAKKAD,,,KERALA
CSBK0000106,Catholic Syrian Bank,CSBK0000106,NON-MICR,KUNDARA,"GHEE HOME, KALLARACKKAL HOSPITAL JN., KUNDARA- 691 501 KOLLAM DT., KERALA",KOLLAM,,,KERALA
CSBK0000107,Catholic Syrian Bank,CSBK0000107,NON-MICR,MALLAPALLY,"KUSHIMANNIL BUILDING,POST OFFICE JN,THIRUVALLA RD,MALLAPALLY, PATHANAMTHITTA DT.KERALA- 689 585",PATHANAMTHITTA,,,KERALA
CSBK0000108,Catholic Syrian Bank,CSBK0000108,NON-MICR,WADAKKANCHERRY,"THOUFEEQ BUILDING, OPP. OTTUPARA BUS STAND, OTTUPARA - 680590, THRISSUR DISTRICT",TRISSUR,,,KERALA
CSBK0000109,Catholic Syrian Bank,CSBK0000109,NON-MICR,CHUNGATHARA,"P.O.CHUNGATHARA, NILAMBUR TALUK, MALAPPURAM DT  679334",MALAPURAM,,,KERALA
CSBK0000110,Catholic Syrian Bank,CSBK0000110,NON-MICR,KOTTARAKKARA,"SHEEBA BLDG,PULAMON JUNCTION,KOTTARAKKARA,-691531,KOLLAM DT. KERALA",KOLLAM,,,KERALA
CSBK0000111,Catholic Syrian Bank,CSBK0000111,NON-MICR,ADOOR,"P B NO.7,ADOOR-691 523,PATHANAMTHITTA DIST, KERALA",PATHANAMTHITTA,,,KERALA
CSBK0000112,Catholic Syrian Bank,CSBK0000112,682047006,KALOOR,ST.ANTONY'S SHRINE.HOLY TUESDAY SHOPPING MALL. KALOOR.COCHIN682017,ERNAKULAM,,,KERALA
CSBK0000113,Catholic Syrian Bank,CSBK0000113,678047002,PALAKKAD,"IMPERIAL BUILDINGS, T B ROAD, PALAKKAD - 678014",PALAKKAD,,,KERALA
CSBK0000114,Catholic Syrian Bank,CSBK0000114,NON-MICR,THURUTHIPURAM,"THURUTHIPURAM P.O.MOOTHAKUNNAM - 683516 ERNAKULAM DT., KERALA",ERNAKULAM,,,KERALA
CSBK0000115,Catholic Syrian Bank,CSBK0000115,NON-MICR,SHORANUR,"KULAPPULLY JUNCTION, SHORANUR - 679122",PALAKKAD,,,KERALA
CSBK0000116,Catholic Syrian Bank,CSBK0000116,NON-MICR,PUTHENVELIKKARA,"VIVIKA CHANDRIKA SABHA BUILDINGS, 1ST FLOOR,PUTHENVELIKKARA,P.O.PUTHENVEL PIN-683594, ERNAKULAM DT., KERALA",ERNAKULAM,,,KERALA
CSBK0000117,Catholic Syrian Bank,CSBK0000117,620047002,TRICHY,"NEW NO 8, OLD NO 56, ST.ANNES BLDG, MADURAI ROAD, MELAPPUDUR, PB NO. 149, THIRUCHIRAPALLI - 620001",TIRUCHIORAPPALLI,,,TAMIL NADU
CSBK0000118,Catholic Syrian Bank,CSBK0000118,NON-MICR,EDAVA,"P.B.NO.502, P.O.EDAVA MAS BUILDING, PIN-695311 THIRUVANATHAPURAM DT., KERALA",TRIVANDRUM,,,KERALA
CSBK0000119,Catholic Syrian Bank,CSBK0000119,NON-MICR,SREENARAYANAPURAM,"TRIPLE COMPLEX, NH -17, P.O PANANGAD - 680665, THRISSUR DISTRICT",TRISSUR,,,KERALA
CSBK0000120,Catholic Syrian Bank,CSBK0000120,682047020,PALLIPURAM,"BABY LUCKOSE, E-MAIL : PALLIPURAM@CSB.CO.IN, PHONE: 0484 2488011",ERNAKULAM,,,KERALA
CSBK0000121,Catholic Syrian Bank,CSBK0000121,NON-MICR,MADURAI,"79 WEST TOWER STREET, MADURAI 625001",MADURAI,,,TAMIL NADU
CSBK0000122,Catholic Syrian Bank,CSBK0000122,NON-MICR,EDAKKUNNU,"ANTONY CHEVOOKARAN, E-MAIL : EDAKKUNNU@CSB.CO.IN, PHONE: 0484 2451533",ERNAKULAM,,,KERALA
CSBK0000123,Catholic Syrian Bank,CSBK0000123,641047003,GANDHIPURAM,"P.B. NO. 2929,IST FLOOR SREE GANESHA COMPLEX, NO 12 10TH STREET GANDHIPURAM COIMBATORE-641 012 TAMILNADU",COIMBOTORE,,,TAMIL NADU
CSBK0000124,Catholic Syrian Bank,CSBK0000124,NON-MICR,MANNATHUR,"142/A-9, THADIYAPILLIL BLDGS ATHANIKAL JN., P.O.MANNATHUR-686723 VIA.MUVATTUPUZHA, EKM DT., KERALA",ERNAKULAM,,,KERALA
CSBK0000125,Catholic Syrian Bank,CSBK0000125,682047021,SOUTH VAZHAKULAM,"SHEELA M JOSE, E-MAIL : SOUTHVAZHAKULAM@CSB.CO.IN, PHONE: 0484 2677158",ERNAKULAM,,,KERALA
CSBK0000126,Catholic Syrian Bank,CSBK0000126,NON-MICR,OKKAL,"ST.JOSEPH'S CHURCH BUILDING, THANIPUZHA, P.O.OKKAL, PIN- 683 550",ERNAKULAM,,,KERALA
CSBK0000127,Catholic Syrian Bank,CSBK0000127,673047004,KOVOOR,"NEW DEVAGIRI BLDG,MEDICAL COLLEGE P O,KOVOOR,KOZHIKODE-673008MR",KOZHIKODE,,,KERALA
CSBK0000128,Catholic Syrian Bank,CSBK0000128,695047004,PALLIMUKKU,"PALLIMUKKU,VANCHYOOR P O, TRIVANDRUM",TRIVANDRUM,,,KERALA
CSBK0000129,Catholic Syrian Bank,CSBK0000129,NON-MICR,THALIKULAM,"HAYADARIA BUILDING, P.O. THALIKULAM, THRISSUR - 680569, KERALA",TRISSUR,,,KERALA
CSBK0000130,Catholic Syrian Bank,CSBK0000130,NON-MICR,PERAMBRA,"VIA KODAKARA, P.O. PERAMBRA - 680689, THRISSUR DISTRICT",TRISSUR,,,KERALA
CSBK0000131,Catholic Syrian Bank,CSBK0000131,NON-MICR,NAGERCOIL,"NO:4, DENNISON STREET, NAGERCOIL-629001",KANNIYAKUMARI,,,TAMIL NADU
CSBK0000132,Catholic Syrian Bank,CSBK0000132,NON-MICR,CHENNAMANGALAM,"PAULSON K.M, PHONE: 0484 2518261",ERNAKULAM,,,KERALA
CSBK0000133,Catholic Syrian Bank,CSBK0000133,NON-MICR,THURAVOOR,"THURAVOOR P.O., ANGAMALLY VIA, ERNAKULAM-683586 KERALA",ERNAKULAM,,,KERALA
CSBK0000134,Catholic Syrian Bank,CSBK0000134,NON-MICR,PERUMBA,"KEYAR BUILDINGS, PERUMBA, P O PAYYANNUR - 670307.",KANNUR,,,KERALA
CSBK0000135,Catholic Syrian Bank,CSBK0000135,NON-MICR,PERINNANAM,"PERINNANAM, THRISSUR - 680686",TRISSUR,,,KERALA
CSBK0000136,Catholic Syrian Bank,CSBK0000136,682047018,ALENGAD,"KOTTAPURAM JN,ALENGAD P O,ERNAKULAM DIST PIN-683511",ERNAKULAM,,,KERALA
CSBK0000137,Catholic Syrian Bank,CSBK0000137,682047009,KAKKANAD,"NGO QUARTERS JN, PO TRIKAKKARA, KOCHI - 682021",ERNAKULAM,,,KERALA
CSBK0000138,Catholic Syrian Bank,CSBK0000138,682047007,ERNAKULAM MG ROAD,"CC-40/9668 A-3 EMGEE SQUARE GROUND FLOOR, M G ROAD ERNAKULAM KOCHI - 682 035",ERNAKULAM,,,KERALA
CSBK0000139,Catholic Syrian Bank,CSBK0000139,NON-MICR,MUKKOOTTUTHARA,"P.B.NO.1, PAMPAVALY ROAD, MUKKOOTTUTHARA - 686510 KOTTAYAM DT., KERALA",KOTTAYAM,,,KERALA
CSBK0000140,Catholic Syrian Bank,CSBK0000140,NON-MICR,POOCHINNIPADAM,"POOCHINNI PADAM, P.O.URAKAM,680562",TRISSUR,,,KERALA
CSBK0000141,Catholic Syrian Bank,CSBK0000141,NON-MICR,VANIYAMBADI,"P.B.NO.178, NO.1, CNS PLAZA NEAR BUS STAND, CNA ROAD, VANIYAMBADI-635751VELLORE DT.,TAMIL NADU",VELLORE,,,TAMIL NADU
CSBK0000142,Catholic Syrian Bank,CSBK0000142,NON-MICR,THOYAKAVU,"II/344,THOYAKKAVU-MULLASSERY RD,THOYAKKAVU, THRISSUR DISTRICT, 680513",TRISSUR,,,KERALA
CSBK0000143,Catholic Syrian Bank,CSBK0000143,NON-MICR,TALIPARAMBA,"P B NO.105, MANNA, P O TALIPARAMBA - 670 141",KANNUR,,,KERALA
CSBK0000144,Catholic Syrian Bank,CSBK0000144,NON-MICR,MUKATHALA,"DECENT JUNCTION, P.O MUKATHALA - 691577 KOLLAM DT KERALA",KOLLAM,,,KERALA
CSBK0000145,Catholic Syrian Bank,CSBK0000145,NON-MICR,PALLAVUR,"PAULY THOMAS V, PHONE:04922-234249, EMAIL: PALLAVUR@CSB.CO.IN",PALAKKAD,,,KERALA
CSBK0000146,Catholic Syrian Bank,CSBK0000146,NON-MICR,PUTHIYAKAVU,"K S PURAM P O,NATIONAL HIGHWAY, KARUNAGAPALLY----690544",KOLLAM,,,KERALA
CSBK0000147,Catholic Syrian Bank,CSBK0000147,NON-MICR,KALLUMALA,"KARTHIKA BUILDINGS, KALLUMALA P.O.MAVELIKARA-690101 ALAPPUZHA DT., KERALA",ALAPUZZHA,,,KERALA
CSBK0000148,Catholic Syrian Bank,CSBK0000148,NON-MICR,CHOONAD,"MANJADIKUTTIYIL BUILDINGS, CHOONAD, P.O.ELIPPAKULAM-690503,VIA PALLIKKAL, ALAPUZHA DT., KERLALA",ALAPUZZHA,,,KERALA
CSBK0000149,Catholic Syrian Bank,CSBK0000149,NON-MICR,MANGALAM,"FIRST FLOOR, FATHIMA TOWER, PO MANGALAM - 676561",MALAPURAM,,,KERALA
CSBK0000150,Catholic Syrian Bank,CSBK0000150,NON-MICR,MUNDATHIKODE,"DOOR NO. 11/369, P. O. MUNDATHIKODE - 680595, THRISSUR DISTRICT",TRISSUR,,,KERALA
CSBK0000151,Catholic Syrian Bank,CSBK0000151,NON-MICR,CHERIYANAD,"NISHI BUILDINGS, P.O.CHERIYANAD-689511 ALAPUZHA DT., KERALA",ALAPUZZHA,,,KERALA
CSBK0000152,Catholic Syrian Bank,CSBK0000152,680047011,MUTHUVARA,"P. O. PUZHAKKAL, MUTHUVARA - 680553, THRISSUR DISTRICT",TRISSUR,,,KERALA
CSBK0000153,Catholic Syrian Bank,CSBK0000153,NON-MICR,PALA,"MATTATHIL BUILDINGS,OPP.OLD PRIVATE BUS STAND,PALA,686575",KOTTAYAM,,,KERALA
CSBK0000154,Catholic Syrian Bank,CSBK0000154,NON-MICR,ETTUMANOOR,"VETTOOR HOUSE,M C ROAD,ETTUMANOOR,686631,KOTTAYAM DT,KERALA,INDIA",KOTTAYAM,,,KERALA
CSBK0000155,Catholic Syrian Bank,CSBK0000155,NON-MICR,KOOTHATTUKULAM,"P.B.NO.10, M.C.ROAD, KOOTHATTUKULAM-686662",ERNAKULAM,,,KERALA
CSBK0000156,Catholic Syrian Bank,CSBK0000156,NON-MICR,PERUMBAVOOR,"P.B.NO.27, PERUMBAVOOR - 683542 ERNAKULAM DT., KERALA",ERNAKULAM,,,KERALA
CSBK0000157,Catholic Syrian Bank,CSBK0000157,NON-MICR,THATTARAMBALAM,"MMC500-WARD NO.14,POOTHIYOT BUILDING,THATTARAMBALAM,690103.",ALAPUZZHA,,,KERALA
CSBK0000158,Catholic Syrian Bank,CSBK0000158,NON-MICR,ELAKAMON,"OONNIMOODU JUNCTION P.O.ELAKAMON-695310 AYIROOR-VARKALA, TRIVANDRUM DT., KERALA",TRIVANDRUM,,,KERALA
CSBK0000159,Catholic Syrian Bank,CSBK0000159,NON-MICR,PUTHUSSERY,"PUTHUSSERY SOUTH - 689602 VIA.KALLOOPARA, THIRUVALLA PATHANAMTHITTA DT., KERALA",PATHANAMTHITTA,,,KERALA
CSBK0000160,Catholic Syrian Bank,CSBK0000160,NON-MICR,VILABHAGOM,"VILABHAGOM, P.O.NEDUNGANDA-695307 VIA.KADAKKAVUR THIRUVANANTHAPURAM DT., KERALA",TRIVANDRUM,,,KERALA
CSBK0000161,Catholic Syrian Bank,CSBK0000161,700047003,BURRA BAZAR KOLKOTA,"BURRA BAZAR, 48, SIR HARIRAM GOENKA STREET, KOLKATA - 700007",KOLKATA,,,WEST BENGAL
CSBK0000162,Catholic Syrian Bank,CSBK0000162,682047017,NORTH PARAVUR,"JOSE VALOORAN,E-MAIL:NORTHPARAVUR@CSB.CO.IN  TELEPHONE 04842442204",ERNAKULAM,,,KERALA
CSBK0000163,Catholic Syrian Bank,CSBK0000163,NON-MICR,CHENGANNUR,"XIV/144A, K.O.PHILIP & CO.BUILDING CHENGANNUR-689121 ALAPUZHA DT., KERALA",ALAPUZZHA,,,KERALA
CSBK0000164,Catholic Syrian Bank,CSBK0000164,NON-MICR,PANDALAM,"SANKARATHIL BUILDING, M.C.ROAD P.B.NO.3, PANDALAM - 689501 PATHANAMTHITTA DT., KERALA",PATHANAMTHITTA,,,KERALA
CSBK0000165,Catholic Syrian Bank,CSBK0000165,NON-MICR,PATHANAMTHITTA,"THELLERETH PLAZA,K P ROAD,PATHANAMTHITTA-689645,KERALA",PATHANAMTHITTA,,,KERALA
CSBK0000166,Catholic Syrian Bank,CSBK0000166,NON-MICR,KADUTHURUTHY,"P.B.NO.5, KALAPURAYIL BUILDING, P.O.KADUTHURUTHY, KOTTAYAM DT.- 686604",KOTTAYAM,,,KERALA
CSBK0000167,Catholic Syrian Bank,CSBK0000167,NON-MICR,ANGAMALY,"DOOR NO. IV/254F, KOORAN'S AVENUE,ANGAMALY 683572, ERNAKULAM DIST",ERNAKULAM,,,KERALA
CSBK0000168,Catholic Syrian Bank,CSBK0000168,NON-MICR,PUNALUR,"KESAVAPILLAI, E-MAIL : PUNALUR@CSB.CO.IN, PHONE: 0475 2222349",KOLLAM,,,KERALA
CSBK0000169,Catholic Syrian Bank,CSBK0000169,NON-MICR,ARIPALAM,"ST. MARY'S SHOPPING COMPLEX, ARIPALAM - 680688, THRISSUR DISTRICT, KERALA",TRISSUR,,,KERALA
CSBK0000170,Catholic Syrian Bank,CSBK0000170,NON-MICR,PUNNAVELI,"VADAKEDATH BUILDING, KULATHUNGAL KAVALA PUNNAVELI - 689589, P.O.PUNNAVELI, PATHANAMTHITTA DT., KERALA",PATHANAMTHITTA,,,KERALA
CSBK0000171,Catholic Syrian Bank,CSBK0000171,NON-MICR,NEEZHOOR,"KADUTHURUTHY ELANJI ROAD NEEZHOOR - 686612 KOTTAYAM DT., KERALA",KOTTAYAM,,,KERALA
CSBK0000172,Catholic Syrian Bank,CSBK0000172,NON-MICR,KOOTTANAD,"CITY CENTRE, GURUVAYUR ROAD, KOOTTANAD – 679533",PALAKKAD,,,KERALA
CSBK0000173,Catholic Syrian Bank,CSBK0000173,NON-MICR,MULLURKARA,"DOOR NO. V/36A, MULLURKARA - 680583, THRISSUR DISTRICT",TRISSUR,,,KERALA
CSBK0000174,Catholic Syrian Bank,CSBK0000174,695047007,MANNATHALA,"RAJEEVAM SHOPPING COMPLEX, UP XIV/716, MANNANTHALA PO, THIRUVANANTHAPURAM - 695015",TRIVANDRUM,,,KERALA
CSBK0000175,Catholic Syrian Bank,CSBK0000175,NON-MICR,DINDIGUL,"NO. 27, NISHA COMPLEX PALANI ROAD DINDIGUL - 624 001",DINDIGUL,,,TAMIL NADU
CSBK0000176,Catholic Syrian Bank,CSBK0000176,685047002,THODUPUZHA,"JYOTHI SUPER BAZAR, THODUPUZHA, IDUKKI DISTRICT",IDUKKI,,,KERALA
CSBK0000177,Catholic Syrian Bank,CSBK0000177,400047002,MUMBAI FORT,"MARSHALL BLDG ANNEX,SOORJI VALLABHDAS MARG, BALLARD ESTATE,MUMBAI - 400 038, MAHARASHTRA",GREATER MUMBAI,,,MAHARASHTRA
CSBK0000178,Catholic Syrian Bank,CSBK0000178,NON-MICR,VAIKOM,"VII/350, 1ST FLOOR, HOSPITAL ROAD VAIKOM KOTTAYAM DT KERALA - 686 141",KOTTAYAM,,,KERALA
CSBK0000179,Catholic Syrian Bank,CSBK0000179,695047009,KAZHAKUTTOM,"PLACKAL TOWER, KP 2/876, NH BYE PASS, PO. KAZHAKUTTOM, THIRUVANANTHAPURAM - 695582",TRIVANDRUM,,,KERALA
CSBK0000180,Catholic Syrian Bank,CSBK0000180,NON-MICR,MAVELIKARA,"THAYYIL SHOPPING COMPLEX, 1ST FLOOR, AVJ JUNCTION., MAVELIKARA - 690101 ALAPPUZHA DT., KERALA",ALAPUZZHA,,,KERALA
CSBK0000181,Catholic Syrian Bank,CSBK0000181,NON-MICR,KOOVAPALLY,"NARAYANA BUILDING KOOVAPALLY-686518 KOTTAYAM DT., KERALA",KOTTAYAM,,,KERALA
CSBK0000182,Catholic Syrian Bank,CSBK0000182,NON-MICR,NALUKODY,"VALUPARAMBIL BUILDING,NALUKODY-686548,KOTTAYAM DT,KERALA.",KOTTAYAM,,,KERALA
CSBK0000183,Catholic Syrian Bank,CSBK0000183,NON-MICR,TUTICORIN,"MANUEL TOWERS, 52/B EAST CAR STREET, TUTICORIN-628002 TAMIL NADU",THOOTHKUDI,,,TAMIL NADU
CSBK0000184,Catholic Syrian Bank,CSBK0000184,NON-MICR,TIRUPATTUR,"38-A, SUNDER LODGE BUILDING,GROUND FLOOR KRISHNAGIRI ROAD, TIRUPATTUR - 635601 NORTH ARCOT DT., TAMIL NADU",VELLORE,,,TAMIL NADU
CSBK0000185,Catholic Syrian Bank,CSBK0000185,680047003,M O ROAD THRISSUR,"DOOR NO. XXV/46, P.B. NO. 132, M.O. ROAD, THRISSUR - 680001, KERALA",TRISSUR,,,KERALA
CSBK0000186,Catholic Syrian Bank,CSBK0000186,682047005,GIRINAGAR,"DOOR NO. XXX/IV, GCDA BUILDING, GIRINAGAR NORTH ,COCHI,682020",ERNAKULAM,,,KERALA
CSBK0000187,Catholic Syrian Bank,CSBK0000187,NON-MICR,VADAKARA,"P.B.NO.1, CHORODE 673106, BADAGARA, KOZHIKODE DT., KERALA",KOZHIKODE,,,KERALA
CSBK0000188,Catholic Syrian Bank,CSBK0000188,NON-MICR,THIKKOTI,"ROSE TOWERS, MAIN ROAD, THIKKOTI - 673529",KOZHIKODE,,,KERALA
CSBK0000189,Catholic Syrian Bank,CSBK0000189,NON-MICR,KOMBODINJAMAKKAL,"RAJ COMPLEX, KOMBODINJAMAKKAL, P.O. THAZHEKAD - 680697",TRISSUR,,,KERALA
CSBK0000190,Catholic Syrian Bank,CSBK0000190,NON-MICR,PRAVUMKOOD,"PALLATH MADAM BUILDINGS PRAVUMKOOD JN., MAZHUKEER,P.O.KALLISSERY PIN-689124, ALAPPUZHA DT., KERALA",ALAPUZZHA,,,KERALA
CSBK0000191,Catholic Syrian Bank,CSBK0000191,NON-MICR,MALAKKARA,"VIA, EDAYARANMULA,MALAKKARA-689 532,PATHANAMTHITTA DIST, KERALA",PATHANAMTHITTA,,,KERALA
CSBK0000192,Catholic Syrian Bank,CSBK0000192,NON-MICR,THATTAYIL,"K.S.JACOB BUILDING P.O.THATTAYIL - 691525 PATHANAMTHITTA DT., KERALA",PATHANAMTHITTA,,,KERALA
CSBK0000193,Catholic Syrian Bank,CSBK0000193,NON-MICR,VANNAPURAM,"VIA THODUPUZHA VANNAPPURAM-685582, THOPPIL BUILDING, IDUKKI DT., KERALA",IDUKKI,,,KERALA
CSBK0000194,Catholic Syrian Bank,CSBK0000194,NON-MICR,ANTHIKAD,"P.O. ANTHIKAD, ANTHIKAD - 680641, THRISSUR DISTRICT",TRISSUR,,,KERALA
CSBK0000195,Catholic Syrian Bank,CSBK0000195,NON-MICR,PANAMARATHUPATTI,"SANJEEVI COMPLEX, CHANDAPETTAI, PANAMARATHUPATTI-636204, SALEM DT.",SALEM,,,TAMIL NADU
CSBK0000196,Catholic Syrian Bank,CSBK0000196,NON-MICR,AMMAPALAYAM,"MAIN ROAD, AMMAPALAYAM-621 101 PERAMBALUR DT., TAMIL NADU",PERAMBALUR,,,TAMIL NADU
CSBK0000197,Catholic Syrian Bank,CSBK0000197,NON-MICR,NATTIKA,"P.B. NO. 13, THRIPRAYAR JUNCTION, P.O. NATTIKA, THRISSUR - 680566, KERALA",TRISSUR,,,KERALA
CSBK0000198,Catholic Syrian Bank,CSBK0000198,600047003,KODAMBAKKAM,"49,GOKULAM BLDG,ARCOT ROAD,KODAMBAKKOM-600 024",CHENNAI,,,TAMIL NADU
CSBK0000199,Catholic Syrian Bank,CSBK0000199,NON-MICR,VELLAR,"5/90, DHARMAPURI MAIN ROAD KOVIL, VELLAR-636451 SALEM DT., TAMIL NADU",SALEM,,,TAMIL NADU
CSBK0000200,Catholic Syrian Bank,CSBK0000200,NON-MICR,VELLORE,"80/2 , IDA SCUDDER ROAD , OPP CMS , VELLORE 632004",VELLORE,,,TAMIL NADU
CSBK0000201,Catholic Syrian Bank,CSBK0000201,500047002,HYDERABAD,"D/NO.5-9-241-244,FIRST FLOOR , OPP. GRAMMAR SCHOOL,ABID ROAD,HYDERABAD - 500 001",HYDERABAD URBAN,,,ANDHRA PRADESH
CSBK0000202,Catholic Syrian Bank,CSBK0000202,NON-MICR,MAKKARAPARAMBA,"P.B.NO.2, MAIN ROAD, MAKKARAPARAMBA - 676507 MALAPPURAM DT., KERALA",MALAPURAM,,,KERALA
CSBK0000203,Catholic Syrian Bank,CSBK0000203,NON-MICR,BELGAUM,"ISHANOPUS,IST FLR,P.B.NO 533,CONGRESS RD,TILAKWADI,BELGAUM,590006",BELGAUM,,,KARNATAKA
CSBK0000204,Catholic Syrian Bank,CSBK0000204,NON-MICR,MYSORE,"PB NO 5, SILVER TOWER, D.NO 9/2, OPP CLOCK TOWER, ASHOKA ROAD, MYSORE - 570001",MYSORE,,,KARNATAKA
CSBK0000205,Catholic Syrian Bank,CSBK0000205,110047002,CONNAUGHT CIRCUS NEWDELHI,"G-36 CONNAUGHT CIRCUS,NEW DELHI - 110 001, NEW DELHI",NEW DELHI,,,DELHI
CSBK0000206,Catholic Syrian Bank,CSBK0000206,520047001,VIJAYAWADA,"USHA ESTATES, DOOR NO 27.13.28, GOPALAREDDY ROAD, GOVERNPOST, VIJAYAWADA - 520002",KRISHNA,,,ANDHRA PRADESH
CSBK0000207,Catholic Syrian Bank,CSBK0000207,520047102,GUNTUR,"MAIN ROAD, ARUNDALPET, GUNTUR - 522002",GUNTUR,,,ANDHRA PRADESH
CSBK0000208,Catholic Syrian Bank,CSBK0000208,560047004,BANGALORE CITY,"FIRST MAIN ROAD, GANDHI NAGAR, BANGALORE CITY - 560009",BANGALORE URBAN,,,KARNATAKA
CSBK0000209,Catholic Syrian Bank,CSBK0000209,641047102,TIRUPUR,"SEETHA ARCADE , KUMARAN ROAD , TIRUPUR , COIMBATORE 641601",COIMBOTORE,,,TAMIL NADU
CSBK0000210,Catholic Syrian Bank,CSBK0000210,NON-MICR,NELLORE,"PB NO 3, SUBEDARPET ROAD, NELLORE - 524001, ANDHRA PRADESH",NELLORE,,,ANDHRA PRADESH
CSBK0000211,Catholic Syrian Bank,CSBK0000211,700047002,LAL BAZAR KOLKATA,"FIRST FLOOR, PODDAR COURT, 18, RABINDRA SARANI, KOLKATA 700001",KOLKATA,,,WEST BENGAL
CSBK0000212,Catholic Syrian Bank,CSBK0000212,NON-MICR,THANJAVUR,"104,ESAT MAIN STREET ,THANJAVUR , TAMILNADU PIN 613001",THANJAVUR,,,TAMIL NADU
CSBK0000213,Catholic Syrian Bank,CSBK0000213,580047002,HUBLI,"FIRST FLOOR LAKSHMI - BALAKRISHNA SQUARE STATION ROAD DHARWAD DT. HUBLI, KARNATAKA- 580 020",DHARWAD,,,KARNATAKA
CSBK0000214,Catholic Syrian Bank,CSBK0000214,NON-MICR,THEKKADA,"THEKKADA P.O.VEMBAYAM - 695615 THIRUVANATHAPURAM DT., KERALA",TRIVANDRUM,,,KERALA
CSBK0000215,Catholic Syrian Bank,CSBK0000215,NON-MICR,VALLICODE,"VAYANASALA JUNCTION, P.O.VALLICODE PIN-689659, PATHANAMTHITTA DT., KERALA",PATHANAMTHITTA,,,KERALA
CSBK0000216,Catholic Syrian Bank,CSBK0000216,NON-MICR,R.V.P.PUDUR,"5/432, MAIN ROAD, P.O. R.V.P PUDUR, PIN- 678555 PALAKKAD DT., KERALA",PALAKKAD,,,KERALA
CSBK0000217,Catholic Syrian Bank,CSBK0000217,NON-MICR,KANAKKARY,"K.P.W.10,KANAKKARY P O,KOTTAYAM DT,686632",KOTTAYAM,,,KERALA
CSBK0000218,Catholic Syrian Bank,CSBK0000218,600047005,ROYAPETTAH,"NO.18,V.S.S.M BUILDING,ROYAPETTAH ROAD,CHENNAI - 600 014",CHENNAI,,,TAMIL NADU
CSBK0000219,Catholic Syrian Bank,CSBK0000219,NON-MICR,BHIMAVARAM,"PB NO 57, P.P ROAD, 22/2/23, PRAKASAM CHOWK, BHIMAVARAM - 534201, WEST GODAVARI DT, ANDHRA PRADESH",WEST GODAVARI,,,ANDHRA PRADESH
CSBK0000220,Catholic Syrian Bank,CSBK0000220,NON-MICR,CHENAPPADY,"P.O.CHENAPPADY VIA KANJIRAPALLY-686525 KOTTAYAM DT., KERALA",KOTTAYAM,,,KERALA
CSBK0000221,Catholic Syrian Bank,CSBK0000221,NON-MICR,RAJAMUNDRY,"PB NO 23, FIRST FLOOR, STADIUM ROAD, RAJAMUNDRY, EAST GODAVARY - 533101",EAST GODAVARI,,,ANDHRA PRADESH
CSBK0000222,Catholic Syrian Bank,CSBK0000222,575047002,MANGALORE,"I FLOOR, KUNIL CENTRE, DR. U P MALAYA ROAD,HAMPANKETTA, MANGALORE-575001",DAKSHINA KANNADA,,,KARNATAKA
CSBK0000223,Catholic Syrian Bank,CSBK0000223,600047006,MOUNT ROAD CHENNAI,"826,TARAPORE TOWERS,MOUNT ROAD,CHENNAI - 600 002",CHENNAI,,,TAMIL NADU
CSBK0000224,Catholic Syrian Bank,CSBK0000224,NON-MICR,MAMMIYOOR,"VAKKAYIL COMPLEX, MAMMIYOOR JUNCTION, P.O. GURUVAYUR, THRISSUR - 680101, KERALA",TRISSUR,,,KERALA
CSBK0000225,Catholic Syrian Bank,CSBK0000225,NON-MICR,AVANOOR,"II/248, AVANOOR - 680547, (VIA) MUNDUR, THRISSUR DISTRICT",TRISSUR,,,KERALA
CSBK0000226,Catholic Syrian Bank,CSBK0000226,NON-MICR,NELLAD,"PARAKKUDIYIL BUILDINGS, DOOR NO.726, P.O.NELLAD - 686721 ERNAKULAM DT., KERALA",ERNAKULAM,,,KERALA
CSBK0000227,Catholic Syrian Bank,CSBK0000227,680047004,"WEST FORT, THRISSUR","P.B. NO. 805, M.G. ROAD, WEST FORT, THRISSUR - 680004, KERALA",TRISSUR,,,KERALA
CSBK0000228,Catholic Syrian Bank,CSBK0000228,605047001,PONDICHERRY,DOOR NO. 474/476/478 M G ROAD PONDICHERRY - 605 001,PONDICHERRY,,,PONDICHERRY
CSBK0000229,Catholic Syrian Bank,CSBK0000229,NON-MICR,GULBARGA,"PLOT NO.7., SUPER MARKET, P.B. NO. 33, GULBARGA, KARNATAKA- 585 101",GULBERGA,,,KARNATAKA
CSBK0000230,Catholic Syrian Bank,CSBK0000230,411047001,PUNE,"FIRST STERLING CENTRE, OPP. HOTEL ARORA TOWER, M G ROAD, PUNE 411 01",GREATER MUMBAI,,,MAHARASHTRA
CSBK0000231,Catholic Syrian Bank,CSBK0000231,680047006,COLLEGE ROAD THRISSUR,"P.B. NO.502, ""COLLEGE VIEW"", HEAD OFFICE BUILDING, ST. MARY'S COLLEGE ROAD, THRISSUR - 680020, KERALA",TRISSUR,,,KERALA
CSBK0000232,Catholic Syrian Bank,CSBK0000232,600047001,SERVICE BR. CHENNAI,"826,TARAPORE TOWERS,MOUNT ROAD,CHENNAI - 600 002",CHENNAI,,,TAMIL NADU
CSBK0000233,Catholic Syrian Bank,CSBK0000233,400047004,MULUND,"ANU APARTMENTS, GOVARDHAN NAGAR,L B S MARG, MULUND WEST 400 082",GREATER MUMBAI,,,MAHARASHTRA
CSBK0000234,Catholic Syrian Bank,CSBK0000234,682047003,PALARIVATTOM,"MARKET ROAD, ERNAKULAM, KOCHI - 682011, ERNAKULAM, KERALA",ERNAKULAM,,,KERALA
CSBK0000235,Catholic Syrian Bank,CSBK0000235,695047006,KOWDIAR,"TEMPLE ROAD, AMBALAMUKKU JN , KOWDIAR , TRIVANDRUM - 695 003, KERALA",TRIVANDRUM,,,KERALA
CSBK0000237,Catholic Syrian Bank,CSBK0000237,680047000,THRISSUR NRI,"CSB BHAVAN', ST. MARY'S COLLEGE ROAD, THRISSUR - 680020",TRISSUR,,,KERALA
CSBK0000238,Catholic Syrian Bank,CSBK0000238,NON-MICR,KOTHAMANGALAM,"PILMA BUILDING, P.B.NO: 55, A.M ROAD, KOTHAMANGALAM, ERNAKULAM DT. -686691",ERNAKULAM,,,KERALA
CSBK0000239,Catholic Syrian Bank,CSBK0000239,390047002,BARODA,"AANGAN TOWER, OPP. BHAVANS SCHOOL, INDIRA GANDHI MARG, BARODA - 390004",GANDHINAGAR,,,GUJARAT
CSBK0000240,Catholic Syrian Bank,CSBK0000240,395047002,SURAT,"FIRST FLOOR,DEVANG SHOPPING CENTRE,NEAR PEARL POINT, SURAT-395 007",SURAT,,,GUJARAT
CSBK0000241,Catholic Syrian Bank,CSBK0000241,NON-MICR,SULTAN BATHERY,"PB NO.25, FIRST FLOOR, SUJANA COMPLEX, KALPETTA - MYSORE ROAD, SULTHAN BATHERY - 673592",WAYANAD,,,KERALA
CSBK0000242,Catholic Syrian Bank,CSBK0000242,NON-MICR,MANNARKKAD,"`DOOR NO. 7/191, 1ST FLOOR, NAWAR COMPLEX, HOSPITAL JUNCTION, MANNARKKAD-678582",PALAKKAD,,,KERALA
CSBK0000243,Catholic Syrian Bank,CSBK0000243,NON-MICR,TIRUVALLUR,"NO.50, MOTILAL STREET, THIRUVALLUR - 602001 TAMIL NADU",TIRUVALLUR,,,TAMIL NADU
CSBK0000244,Catholic Syrian Bank,CSBK0000244,600047007,PALLAVARAM,"7/IA, INDIRA GANDHI ROAD, PALLAVARAM, KANCHEEPURAM DT, CHENNAI - 600 043",KANCHEEPURAM,,,TAMIL NADU
CSBK0000245,Catholic Syrian Bank,CSBK0000245,560047005,YELEHANKA,"1217, OPP. SHOPPING COMPLEX, NEW TOWN, YELAHANKA, BANGALORE - 560064",BANGALORE URBAN,,,KARNATAKA
CSBK0000246,Catholic Syrian Bank,CSBK0000246,NON-MICR,RANNI,"PB NO 7,MULAMOOTTIL BLDG,RANNI,PAZHAVANGADI-689673",PATHANAMTHITTA,,,KERALA
CSBK0000247,Catholic Syrian Bank,CSBK0000247,682047004,KALOOR AZAD ROAD,"PAVAKULAM CHAMBERS 36/2289 B,AZAD ROAD,KALOOR,KOCHI,682017",ERNAKULAM,,,KERALA
CSBK0000248,Catholic Syrian Bank,CSBK0000248,NON-MICR,"T.K ROAD,THIRUVALLA","KUNNATHUPARAMBIL SHOPPING COMPLEX T K ROAD, THIRUVALLA - 689101 PATHANAMTHITTA DT., KERALA",PATHANAMTHITTA,,,KERALA
CSBK0000249,Catholic Syrian Bank,CSBK0000249,NON-MICR,KANJIRAPALLY,"TMC BUILDINGS,NEAR RUBBER BOARD REGIONAL OFFICE,KK ROAD,KANJIRAPALLY PO, KOTTAYAM DT.",KOTTAYAM,,,KERALA
CSBK0000250,Catholic Syrian Bank,CSBK0000250,NON-MICR,KUMBANAD,"LEEJOY BUILDINGS, IV/450, KOIPURAM PANCHAYAT,P.O.KUMBANAD-689547 PATHANAMTHITTA DT., KERALA",PATHANAMTHITTA,,,KERALA
CSBK0000251,Catholic Syrian Bank,CSBK0000251,673047005,"MAVOOR ROAD, KOZHIKODE","ALPHONSA BLDG.,MAVOOR RD.,KOZHIKODE 673004",KOZHIKODE,,,KERALA
CSBK0000252,Catholic Syrian Bank,CSBK0000252,682047016,KALAMASSERY,"FIRST FLOOR, RAINA COMPLEX, PREMIER JUNCTION, KALAMASSERY - 683104",ERNAKULAM,,,KERALA
CSBK0000253,Catholic Syrian Bank,CSBK0000253,NON-MICR,PANAJI GOA,"GROUND FLOOR,'HOTEL SUMMIT BLDG,MENEZEZ BRAGANZA RD,NEAR FIDALGO,PANAJI,403001",NORTH GOA,,,GOA
CSBK0000255,Catholic Syrian Bank,CSBK0000255,NON-MICR,VARKALA,"DOOR NO.XX 1/356, TEMPLE ROAD, VARKALA. THIRUVANANTHAPURAM DT., KERALA",TRIVANDRUM,,,KERALA
CSBK0000256,Catholic Syrian Bank,CSBK0000256,NON-MICR,KALPETTA,"KEERTHI BUILDING, MAIN ROAD, KALPETTA, WAYANAD - 673 121",WAYANAD,,,KERALA
CSBK0000257,Catholic Syrian Bank,CSBK0000257,NON-MICR,PERINTHALMANNA,"SASIDHARAN T K, PHONE: 04933-226477,EMAIL: PERINTHALMANNA@CSB.CO.IN",MALAPURAM,,,KERALA
CSBK0000258,Catholic Syrian Bank,CSBK0000258,NON-MICR,MUNNAR,"CARMEL CENTRE, G.H ROAD, MUNNAR - 685612, IDUKKI DT. KERALA",IDUKKI,,,KERALA
CSBK0000259,Catholic Syrian Bank,CSBK0000259,600047008,IFB-CHENNAI,"826,TARAPORE TOWERS,MOUNT ROAD,CHENNAI - 600 002",CHENNAI,,,TAMIL NADU
CSBK0000260,Catholic Syrian Bank,CSBK0000260,NON-MICR,KASARGOD,"K J JOSEPH, PHONE: 04994-222590,EMAIL: KASARGOD@CSB.CO.IN",KASARAGOD,,,KERALA
CSBK0000261,Catholic Syrian Bank,CSBK0000261,NON-MICR,BHAVANI,"SAMY COMPLEX, FIRST FLOOR, METTUR ROAD, NEAR NEW BUS STAND, BHAVANI-638302 ERODE DT., TAMILNADU",ERODE,,,TAMIL NADU
CSBK0000262,Catholic Syrian Bank,CSBK0000262,380047002,AHMEDABAD,"P B NO.11042, 1ST FLOOR, SAHAJANAND TRADE CENTRE,  ASHRAM ROAD, PREETAM NAGAR, PALDI, AHMEDABAD 380006",AHMEDABAD,,,GUJARAT
CSBK0000263,Catholic Syrian Bank,CSBK0000263,641047006,COIMBATORE-IFB,"DOOR NO. 493, WARD NO.43, CROSS CUT ROAD, P.B. NO. 2967, COIMBATORE, T N- 641 012",COIMBOTORE,,,TAMIL NADU
CSBK0000264,Catholic Syrian Bank,CSBK0000264,400047005,IFB-MUMBAI,"53, EAST AND WEST BUILDINGMUMBAI SAMACHAR MARG, OPP.MUMBAI STOCK EXCHANGE,FORT MUMBAI-400023, MAHARASHTRA",GREATER MUMBAI,,,MAHARASHTRA
CSBK0000265,Catholic Syrian Bank,CSBK0000265,NON-MICR,SIVAKASI,"33-33A, WEST CAR STREET, SIVAKASI,VIRUDHANAGAR DT., T N - 626 123",VIRUDHUNAGAR,,,TAMIL NADU
CSBK0000266,Catholic Syrian Bank,CSBK0000266,600047009,AMBATTUR,"358, M.T.H ROAD, AMBATTUR, CHENNAI - 600053",TIRUVALLUR,,,TAMIL NADU
CSBK0000267,Catholic Syrian Bank,CSBK0000267,NON-MICR,KANJIKODE,"PANNIVELIL BLDGS,OPP.ITI, KANJIKODE WEST - 678 623",PALAKKAD,,,KERALA
CSBK0000268,Catholic Syrian Bank,CSBK0000268,NON-MICR,KANHANGAD,"OPP.CITY HOSPITAL, NORTH KOTTACHERY, KANHANGAD-671315 KASARGOD DT., KERALA",KASARAGOD,,,KERALA
CSBK0000269,Catholic Syrian Bank,CSBK0000269,641047005,GANAPATHY,"KALPA BUILDING ,LAKSHMIPURAM ,GANAPATHY ,COIMBATORE PIN 641006",COIMBOTORE,,,TAMIL NADU
CSBK0000270,Catholic Syrian Bank,CSBK0000270,682047001,ERNAKULAM SER.BR,"DJM BUILDING, MARKET ROAD, ERNAKULAM.",ERNAKULAM,,,KERALA
CSBK0000271,Catholic Syrian Bank,CSBK0000271,NON-MICR,GOBICHETTIPALAYAM,"77,MAIN ROAD, NEAR BUS STAND GOBICHETTIPALAYAM-638476 TAMILNADU",ERODE,,,TAMIL NADU
CSBK0000272,Catholic Syrian Bank,CSBK0000272,NON-MICR,TIRURANGADI,"KAKKAD-CHEMMAD ROAD, OPP PSMO COLLEGE, TIRURANGADI-676306",MALAPURAM,,,KERALA
CSBK0000273,Catholic Syrian Bank,CSBK0000273,600047010,GUINDY,"DOOR NO.64, MOUNT ROAD, GUINDY, CHENNAI - 600032",CHENNAI,,,TAMIL NADU
CSBK0000274,Catholic Syrian Bank,CSBK0000274,NON-MICR,UDUMALPET,"45, FIRST FLOOR , DHALI ROAD,UDUMALPET 642126",COIMBOTORE,,,TAMIL NADU
CSBK0000275,Catholic Syrian Bank,CSBK0000275,680047009,ARANATTUKARA,"ST. THOMAS CHURCH SHOPPING COMPLEX, BIG BAZAR, ARANNATTUKARA, THRISSUR - 680618, KERALA",TRISSUR,,,KERALA
CSBK0000276,Catholic Syrian Bank,CSBK0000276,500047003,SECUNDERABAD,"1ST FLOOR,DIAMOND TOWERS, S D ROAD, DECUNDERABAD- 500003",HYDERABAD URBAN,,,ANDHRA PRADESH
CSBK0000277,Catholic Syrian Bank,CSBK0000277,400047006,VASHI,"NO. 20, DAFFODILS, SECTOR -14, VASHI, NAVI MUMBAI -400 703",GREATER MUMBAI,,,MAHARASHTRA
CSBK0000278,Catholic Syrian Bank,CSBK0000278,641047103,AVANASHI,"1ST FLOOR, PRIYADHARSHINI TOWERS, EAST CAR STREET, AVANASHI 641654, COIMBATORE DT., TAMIL NADU",COIMBOTORE,,,TAMIL NADU
CSBK0000280,Catholic Syrian Bank,CSBK0000280,680047001,THRISSUR SERVICE BR,"PO BOX NO 250, MAIN BRANCH PREMISES, ROUND SOUTH, THRISSUR - 680001",TRISSUR,,,KERALA
CSBK0000281,Catholic Syrian Bank,CSBK0000281,400047001,SERVICE BR. MUMBAI,"SERVICE BR. P.B.NO.925,53 EAST&WEST BLDGMUMBAI SAMACHAR MARG, OPP.MUMBAI STOCK EXCHANGE,FORT MUMBAI-400023, MAHARASHTRA",GREATER MUMBAI,,,MAHARASHTRA
CSBK0000282,Catholic Syrian Bank,CSBK0000282,411047002,RAMWADI,"26/4, MATCHWEL FACTORY ROAD, RAMWADI, PUNE - 411014",PUNE,,,MAHARASHTRA
CSBK0000283,Catholic Syrian Bank,CSBK0000283,110047003,ASHOK VIHAR DELHI,"OPP:DEEP CINEMA, ASHOK VIHAR, PHASE -I, DELHI - 110 052, NEW DELHI",NEW DELHI,,,DELHI
CSBK0000284,Catholic Syrian Bank,CSBK0000284,560047006,T.DASARAHALLI,"SRINIDHI TOWERS, NH-4, TUMKUR ROAD, T.DASARAHALLI, BANGALORE-560057",BANGALORE URBAN,,,KARNATAKA
CSBK0000285,Catholic Syrian Bank,CSBK0000285,NON-MICR,KARUMATHAMPATTY,"AYAR AMBROSE RURAL SELF EMPLOYMENT INSTITUTE BLDGS., AVANASHI RD., KARUMATHAMPATTY, COIMBATORE, T N- 641 659",COIMBOTORE,,,TAMIL NADU
CSBK0000286,Catholic Syrian Bank,CSBK0000286,400047007,KALYAN,"NISHANT II, VAIDYAWADI,RAMBAUG MAIN ROAD, KALYAN 421 301",GREATER MUMBAI,,,MAHARASHTRA
CSBK0000288,Catholic Syrian Bank,CSBK0000288,682047013,PONNURUNNI,"THAMMANAM RD,PONNURUNNI,KOCHI, P.O.VYTILLA,682019",ERNAKULAM,,,KERALA
CSBK0000289,Catholic Syrian Bank,CSBK0000289,682047002,IT DEPARTMENT,"D.J.M BUILDING, MARKET ROAD,COCHI,682011",ERNAKULAM,,,KERALA
CSBK0000290,Catholic Syrian Bank,CSBK0000290,NON-MICR,KALPAKANCHERY,"MAIN ROAD, KADUNGATHUKUNDU, KALPAKANCHERY - 676551",MALAPURAM,,,KERALA
CSBK0000291,Catholic Syrian Bank,CSBK0000291,400047008,VASAI,"C-001 ORNAMENT APARTMENT,  EVERSHINE CITY VASAI EADST",THANE,,,MAHARASHTRA
CSBK0000292,Catholic Syrian Bank,CSBK0000292,400047009,THANE,"OPP. ST JOHN THE BAPTIST H.S., JAMBLINAKA,THANE WEST 400 601",GREATER MUMBAI,,,MAHARASHTRA
CSBK0000293,Catholic Syrian Bank,CSBK0000293,NON-MICR,FTS CENTRE,"DJM BUILDING, MARKET ROAD, ERNAKULAM - 682011",ERNAKULAM,,,KERALA
CSBK0000294,Catholic Syrian Bank,CSBK0000294,160047002,CHANDIGARH,"SCO-114-115, SECTOR-34A, CHANDIGARH - 160 022, CHANDIGARH (U.T.)",CHANDIGARH,,,CHANDIGARH
CSBK0000295,Catholic Syrian Bank,CSBK0000295,141047002,LUDHIANA,"GREEN FIELD, NEAR SARABHA NAGAR CHOWK, LUDHIANA - 141 002, PUNJAB",LUDHIANA,,,PUNJAB
CSBK0000296,Catholic Syrian Bank,CSBK0000296,110047004,GREATER KAILASH,"M-17, MARKET, GREATER KAILASH II, NEW DELHI - 110 048, NEW DELHI",NEW DELHI,,,DELHI
CSBK0000297,Catholic Syrian Bank,CSBK0000297,110047005,NOIDA,"C-60, SECTOR-2, NOIDA - 201 301, GAUTHAM BUDH NAGAR(DT.), UTTAR PRADESH",GAUTAM BODDA NAGAR,,,UTTAR PRADESH
CSBK0000298,Catholic Syrian Bank,CSBK0000298,695047008,PATTOM,"ST.MARY'S HIGHER SECONDARY SCHOOL BUILDING, PATTOM, THIRUVANANTHAPURAM-695004, KERALA",TRIVANDRUM,,,KERALA
CSBK0000299,Catholic Syrian Bank,CSBK0000299,680047012,EAST FORT THRISSUR,"C.M.K. COMPLEX, PALAKKAD MAIN ROAD, EAST FORT, THRISSUR - 680005, KERALA",TRISSUR,,,KERALA
CSBK0000300,Catholic Syrian Bank,CSBK0000300,110047006,FARIDABAD,"A-2/B, NEELAM BATA ROAD, FARIDABAD - 121 001, HARYANA",FARIDABAD,,,HARYANA
CSBK0000301,Catholic Syrian Bank,CSBK0000301,400047012,VILE PARLE,"VILE PARLE BRANCH, NEAR BMC BAZAAR, OPP. PAWAN HOUSE, VILE PARLE (W), MUMBAI - 400 056",GREATER MUMBAI,,,MAHARASHTRA
CSBK0000302,Catholic Syrian Bank,CSBK0000302,NON-MICR,MULUND WEST(NAHUR),"SHOPNO.718 ST.PIUS X SCHOOL STPIUS SHOPPING CENTRE, MMM. RD, NAHUR,MULUND W ,MUMBAI-80",GREATER MUMBAI,,,MAHARASHTRA
CSBK0000303,Catholic Syrian Bank,CSBK0000303,400047010,ANDHERI WEST,"COSMOPOLITAN EDUCATION SOCIETY, VALIA COLLEGE OF COMMERCE AND ARTS, D.N NAGAR, LINK ROAD, ANDHERI WEST",GREATER MUMBAI,,,MAHARASHTRA
CSBK0000304,Catholic Syrian Bank,CSBK0000304,400047013,MAHIM WEST,VICTORIA HIGH SCHOOL SITLADEVI TEMPLE RD. MAHIM (W) MUMBAI - 400 016.,GREATER MUMBAI,,,MAHARASHTRA
CSBK0000305,Catholic Syrian Bank,CSBK0000305,600047011,PADI,"DOOR NO 32 , 1ST MAIN ROAD,OLYMPIC COLONY.PADI ,CHENNAI 600 050",CHENNAI,,,TAMIL NADU
CSBK0000306,Catholic Syrian Bank,CSBK0000306,641047002,R S PURAM COIMBATORE,"CSB ZONAL OFFICE PREMISES, 513, DB ROAD, R.S PURAM, COIMBATORE - 641002",COIMBOTORE,,,TAMIL NADU
CSBK0000308,Catholic Syrian Bank,CSBK0000308,686047003,KALATHIPADY,"NOYAPLAZA,KALATHIPADY,VADAVATHOOR PO,686010,KOTTAYAM DT,KERALA,INDIA",KOTTAYAM,,,KERALA
CSBK0000309,Catholic Syrian Bank,CSBK0000309,680047013,THALORE,"INFANT JESUS MONASTRY COMPLEX, P.O. THALORE, THRISSUR - 680306",TRISSUR,,,KERALA
CSBK0000310,Catholic Syrian Bank,CSBK0000310,NON-MICR,MALA,"ST. STANISLAUS FORANCE CHURCH BLDG., MALA 680732, THRISSUR DISTRICT",TRISSUR,,,KERALA
CSBK0000311,Catholic Syrian Bank,CSBK0000311,680047014,MANNUTHY,"ST. ANTONY'S CHURCH BUILDING, P.O. MANNUTHY - 680651, THRISSUR DISTRICT, KERALA",TRISSUR,,,KERALA
CSBK0000312,Catholic Syrian Bank,CSBK0000312,302047002,JAIPUR,"11, MOTILAL ATAL ROAD, JAIPUR - 302 001, RAJASTHAN",JAIPUR,,,RAJASTHAN
CSBK0000313,Catholic Syrian Bank,CSBK0000313,NON-MICR,THIRUMALA,"ROHINI BUILDING, THIRUMALA, TRIVANDRUM -6, KERALA",TRIVANDRUM,,,KERALA
CSBK0000314,Catholic Syrian Bank,CSBK0000314,NON-MICR,MARGAO,"RENATO BUILDING ,FR. MIRANDA ROAD , NEAR GARDEN,MARGAO - 403 601",SOUTH GOA,,,GOA
CSBK0000315,Catholic Syrian Bank,CSBK0000315,751047002,BHUBANESWAR,"NO.45, ASHOK NAGAR, JANPATH, BHUBANESWAR - 751 009, ORISSA",KHURDA,,,ORISSA
CSBK0000316,Catholic Syrian Bank,CSBK0000316,110047007,GURGAON,"SCO-4, GROUND FLOOR, SECTOR-14, NEAR PAYAL CINEMA, GURGAON-122 001, HARYANA",GURGAON,,,HARYANA
CSBK0000317,Catholic Syrian Bank,CSBK0000317,NON-MICR,MANJERI,"COURT ROAD, MANJERI - 676121, MALAPPURAM DISTRICT, KERALA",MALAPURAM,,,KERALA
CSBK0000318,Catholic Syrian Bank,CSBK0000318,144047002,JALANDHAR,"32, G T ROAD, AMARDEEP BUILDING, OPP:NARINDER CINEMA, JALANDHAR CITY - 144 001, PUNJAB",JALANDHAR,,,PUNJAB
CSBK0000320,Catholic Syrian Bank,CSBK0000320,600047012,ANNANAGAR CHENNAI,"B13,2ND MAIN ROAD, ANNA NAGAR EAST,CHENNAI 600 012",CHENNAI,,,TAMIL NADU
CSBK0000321,Catholic Syrian Bank,CSBK0000321,110047001,SERVICE BR DELHI,"G36, GROUND FLOOR, CONNAUGHT CIRCUS, NEW DELHI - 110001",NEW DELHI,,,DELHI
CSBK0000322,Catholic Syrian Bank,CSBK0000322,110047008,GAUTHAM NAGAR,"NO.216-A/5, NEAR FR.AGNEL SENIOR SECONDARY SCHOOL, GAUTAM NAGAR, NEW DELHI - 110 049, NEW DELHI",NEW DELHI,,,DELHI
CSBK0000323,Catholic Syrian Bank,CSBK0000323,680047016,KOTTEKAD,"ST. MARY'S ASSUMPTION CHURCH CHURCH SHOPPING COMPLEX, KOTTEKAD - 680013, THRISSUR DISTRICT",TRISSUR,,,KERALA
CSBK0000324,Catholic Syrian Bank,CSBK0000324,NON-MICR,PARAPPUR,"ST.JOHNS FORANE CHURCH PREMISES, PARAPPUR P.O., MUTHUVARA TRICHUR -680 552. KERALA.",TRISSUR,,,KERALA
CSBK0000325,Catholic Syrian Bank,CSBK0000325,NON-MICR,PARAPPUKKARA,"ST.JOHNS FORANE CHURCH PARAPPUKKARA - 680 310 TRICHUR DT., KERALA",TRISSUR,,,KERALA
CSBK0000326,Catholic Syrian Bank,CSBK0000326,680047017,POONKUNNAM,"PALISSERY  TOWER, NEAR  BSNL  TELEPHONE EXCHANGE, ACHUTHA MENON  ROAD, POONKUNNAM P.O., THRISSUR  680 002, KERALA",TRISSUR,,,KERALA
CSBK0000327,Catholic Syrian Bank,CSBK0000327,NON-MICR,VYLATHUR,"VIII/538 B, CHRISTY COMPLEX VYLATHUR, NHAMANANGAD P O TRICHUR - 679 563, KERALA",TRISSUR,,,KERALA
CSBK0000328,Catholic Syrian Bank,CSBK0000328,680047015,PARAVATTANI,"ST. ANTONY'S SHOPPING COMPLEX, PARAVATTANI - 680005, THRISSUR DISTRICT",TRISSUR,,,KERALA
CSBK0000329,Catholic Syrian Bank,CSBK0000329,695047007,NALANCHIRA,"SARVODAYA VIDYALAYA, NALANCHIRA, THIRUVANANTHAPURAM - 695015",TRIVANDRUM,,,KERALA
CSBK0000330,Catholic Syrian Bank,CSBK0000330,560047007,DHARMARAM,"DHARMARAM COLLEGE PO., CHRIST SCHOOL ROAD, BANGALORE - 560029",BANGALORE URBAN,,,KARNATAKA
CSBK0000331,Catholic Syrian Bank,CSBK0000331,400047014,BORIVLI,"ST.FRANCIS ITI, MOUNT POINSUR, BORIVILI WEST, MUMBAI - 400103",GREATER MUMBAI,,,MAHARASHTRA
CSBK0000332,Catholic Syrian Bank,CSBK0000332,NON-MICR,CHENGAROOR,"ST.GEORGE CATHOLIC CHURCH SHOPPING COMPX CHENGAROOR -689 594 PATHANAMTHITTA DT., KERALA",PATHANAMTHITTA,,,KERALA
CSBK0000333,Catholic Syrian Bank,CSBK0000333,400047015,BANDRA,"SOCIETY OF DIVINE WORD, 510, SVD HOUSE, OPP. NATIONAL COLLEGE, BANDRA WEST.",GREATER MUMBAI,,,MAHARASHTRA
CSBK0000334,Catholic Syrian Bank,CSBK0000334,695047013,"G H  JN., THIRUVANANTHAPURAM","GOVERNMENT HOSPITAL JUNCTION, DEEPA ARCADE, CONVENT ROAD, TRIVANDRUM - 695 001,KERALA",TRIVANDRUM,,,KERALA
CSBK0000335,Catholic Syrian Bank,CSBK0000335,NON-MICR,MALLAD,"NALAKATH  SHOPPING COMPLEX , MALLAD - 680 506 ,THRISSUR DISTRICT, KERALA",TRISSUR,,,KERALA
CSBK0000336,Catholic Syrian Bank,CSBK0000336,600047013,PERAVALLUR,"CATHOLIC SYRIAN BANK, PERAVALLUR, CHENNAI.",CHENNAI,,,TAMIL NADU
CSBK0000337,Catholic Syrian Bank,CSBK0000337,560047008,DAVIS ROAD BANGALORE,"ST.ALPHONSIAN HIGH SCHOOL, DAVIS ROAD, ST.THOMAS TOWN P.O., BANGALORE-560084",BANGALORE URBAN,,,KARNATAKA
CSBK0000338,Catholic Syrian Bank,CSBK0000338,NON-MICR,CHOONDAL,"ST.JOSEPH'S HOSPITAL BUILDING, CHOONDL P.O., TRICHUR. PIN - 680502, KERALA",TRISSUR,,,KERALA
CSBK0000339,Catholic Syrian Bank,CSBK0000339,400047016,ANDHERI EAST,"INSTITUTE OF INDIAN CULTURE, OPP.CANOSSA HIGH SCHOOL, MAHAKALI CAVES ROAD, ANDHERI EAST, MUMBAI 400093",GREATER MUMBAI,,,MAHARASHTRA
CSBK0000340,Catholic Syrian Bank,CSBK0000340,400047018,NERUL,"ST.THOMAS JACOBITE SYRIAN ORTHADOX CHURCH BLDG., NEAR ST.XAVIER'S SCHOOL, SECTOR-3, PLOT NO.10, NERUL, NAVI MUMBAI - 400 706",THANE,,,MAHARASHTRA
CSBK0000341,Catholic Syrian Bank,CSBK0000341,NON-MICR,KUDASSANAD,"N.S.S. HIGH SCHOOL, KUDASSANAD- 689 512 ALLEPPEY DT., KERALA.",ALAPUZZHA,,,KERALA
CSBK0000342,Catholic Syrian Bank,CSBK0000342,NON-MICR,MALAPARAMBA,"PROVIDENCE WOMENS COLLEGE, CARMEL HILL, P.O MALAPARAMBA, KOZHIKODE - 673009",KOZHIKODE,,,KERALA
CSBK0000343,Catholic Syrian Bank,CSBK0000343,NON-MICR,KUZHIKATTUSSERY,"MARIA THRESA HOSPITAL KUZHIKATTUSSERY, TRICHUR PIN-680 696, KERALA",TRISSUR,,,KERALA
CSBK0000344,Catholic Syrian Bank,CSBK0000344,NON-MICR,THUMPAMON,"ST.MARYS ORTHODOX CATHEDRAL CHURCH THUMPAMON, VIA PANDALAM, PATHANAMTHITTA-689 502, KERALA",PATHANAMTHITTA,,,KERALA
CSBK0000345,Catholic Syrian Bank,CSBK0000345,NON-MICR,KARANCHIRA,"BISHOP ALAPATT MISSION HOSPITAL, KARANCHIRA, P.O.KATTOOR - 680 702. TRICHUR DT., KERALA.",TRISSUR,,,KERALA
CSBK0000346,Catholic Syrian Bank,CSBK0000346,400047020,DOMBIVLI,"ST.THERESE CONVENT SCHOOL, PANDIT DINDAYAL ROAD, DOMBIVILI WEST, MUMBAI - 421202",THANE,,,MAHARASHTRA
CSBK0000347,Catholic Syrian Bank,CSBK0000347,400047017,ULHAS NAGAR MUMBAI,"HOLY FAMILY CONVENT HS, LAL CHAKKI, ULHAS NAGAR, MUMBAI - 421004",THANE,,,MAHARASHTRA
CSBK0000348,Catholic Syrian Bank,CSBK0000348,682047022,TRIKKAKARA,"BHARAT MATHA COLLEGE, TRIKKAKARA, KOCHI - 682021",ERNAKULAM,,,KERALA
CSBK0000349,Catholic Syrian Bank,CSBK0000349,NON-MICR,MURINGOOR,"DIVINE RETREAT CENTRE, MURINGOOR, CHALAKUDY - 680 316 TRICHUR DT., KERALA.",TRISSUR,,,KERALA
CSBK0000350,Catholic Syrian Bank,CSBK0000350,NON-MICR,PULLUVAZHI,"ST.THOMAS CHURCH PREMISES, PULLUVAZHI, M.C ROAD, PERUMBAVOOR P.O., ERNAKULAM - 683 541, KERALA.",ERNAKULAM,,,KERALA
CSBK0000351,Catholic Syrian Bank,CSBK0000351,NON-MICR,PAYANKULAM,"SACRED HEART HOSPITAL, PAYANKULAM, THODUPUZHA-685 584 IDUKKI DT., KERALA.",IDUKKI,,,KERALA
CSBK0000352,Catholic Syrian Bank,CSBK0000352,NON-MICR,CHIRAKKADAVU,"DOOR NO. 260/A, VETTICATTU BUILDINGS, MANNAMPLAVU JUNCTION, CHIRAKKADAVU, KOTTAYAM-686 520, KERALA",KOTTAYAM,,,KERALA
CSBK0000353,Catholic Syrian Bank,CSBK0000353,NON-MICR,ATTINGAL,473/XII PRASAD HOTEL COMPLEX N H 47-NEAR KACHERY JUNCTION-ATTINGAL,TRIVANDRUM,,,KERALA
CSBK0000354,Catholic Syrian Bank,CSBK0000354,NON-MICR,PONNANI,"BALAKRISHNA BUILDING, OPP VIJAYAMATHA CONVENT MAIN ROAD, PONNANI 679577",MALAPURAM,,,KERALA
CSBK0000355,Catholic Syrian Bank,CSBK0000355,NON-MICR,EDAPPAL,C K TOWER NEAR BLOCK DEV.OFFICE PATTAMBI ROAD EDAPPAL 679 576 MALAPPURAM DT KERALA,MALAPURAM,,,KERALA
CSBK0000356,Catholic Syrian Bank,CSBK0000356,NON-MICR,HOSKOTE,K R EXTENSION NO.10321 HOSKOTE BANGALORE 562 114 KARNATAKA,BANGALORE RURAL,,,KARNATAKA
CSBK0000357,Catholic Syrian Bank,CSBK0000357,422047002,NASIK,"SHOP NO 9,10,11, CANADA CORNER, RUSHIRAJ AVENUE, SHARANPUR TIMBAK LINK ROAD, NASIK 422002, MAHARASHTRA",NASHIK,,,MAHARASHTRA
CSBK0000358,Catholic Syrian Bank,CSBK0000358,NON-MICR,HOSUR,"164, CITY SQUARE KRISHNAGIRI BYE PASS ROAD HOSUR 635 109, KRISHNAGIRI DT. T.NADU",KRISHNAGIRI,,,TAMIL NADU
CSBK0000359,Catholic Syrian Bank,CSBK0000359,NON-MICR,PHAGWARA,"MILAP TOWERS, G T ROAD PHAGWARA 144 401 PUNJAB",KAPURTHALA,,,PUNJAB
CSBK0000360,Catholic Syrian Bank,CSBK0000360,431047003,AURANGABAD,"OBEROI CHANMBERS, NEAR HOTEL AMAR PREET, JALNA ROAD, AURANGABAD, MAHARASHTRA - 431 001",AURANGABAD,,,MAHARASHTRA
CSBK0000361,Catholic Syrian Bank,CSBK0000361,530047002,VISAKHAPATNAM,"RATNASRI  NEAR DIAMOND PARK, SAVKARAMATTOM ROAD, DWARAKA NAGAR, VISAKHAPATNAM 530 016 ",VISHAKAPATNAM,,,ANDHRA PRADESH
CSBK0000362,Catholic Syrian Bank,CSBK0000362,NON-MICR,AVADI,"NO.65 NEHRU BAZAR OLD MARKET AVADI, CHENNAI",TIRUVALLUR,,,TAMIL NADU
CSBK0000363,Catholic Syrian Bank,CSBK0000363,NON-MICR,BOMMASANDRA,"KIADB BUILDING BOMMASANDRA INDUSTRIAL AREA COMPLEX HOSUR ROAD,BANGALORE 560 099",BANGALORE URBAN,,,KARNATAKA
CSBK0000364,Catholic Syrian Bank,CSBK0000364,700047004,SALT LAKE KOLKATTA,"NO.BF/25, SALT LAKE CITY SECTOR-1 KOLKATA 700 064",KOLKATA,,,WEST BENGAL
CSBK0000365,Catholic Syrian Bank,CSBK0000365,NON-MICR,KANAKAPURA,"KALYANI COMPLEX 2ND CROSS, B K ROAD KANAKAPURA 562 117  KARNATAKA",BANGALORE RURAL,,,KARNATAKA
CSBK0000366,Catholic Syrian Bank,CSBK0000366,560047011,DEVANAHALLI,"NEAR OLD BUS STAND, B B ROAD, DEVANAHALLI TOWN - 562110",BANGALORE RURAL,,,KARNATAKA
CSBK0000367,Catholic Syrian Bank,CSBK0000367,NON-MICR,KUMBAKONAM,"32, NAGESWARAN KOIL SANNATHI STREET KUMBAKONAM 612 001",THANJAVUR,,,TAMIL NADU
CSBK0000368,Catholic Syrian Bank,CSBK0000368,47000,CUDDALORE,"A.V.R.TOWERS,II FLOOR, NO.4,BHARATHI ROAD, CUDDALORE-607001",CUDDALORE,,,TAMIL NADU
CSBK0000369,Catholic Syrian Bank,CSBK0000369,NON-MICR,KUKATPALLY,5-222 VIVEKANANDA NAGAR COLONY KUKATPALLY HYDERABAD 500 072,RANGA REDDY,,,ANDHRA PRADESH
CSBK0000370,Catholic Syrian Bank,CSBK0000370,NON-MICR,SATARA,"VIJAY MILLENEIUM, SADAR BAZAR, NEAR ZILLA PARISHAD, VISAVA NAKA, SATARA, MAHARASHTRA 415001",SATARA,,,MAHARASHTRA
CSBK0000371,Catholic Syrian Bank,CSBK0000371,NON-MICR,JAMNAGAR,"SHIV' P N MARG OPP.DHANAVANTRY, UNIVERSITY OF AYURVEDA JAM NAGAR 361 008  GUJARAT",JAMNAGAR,,,GUJARAT
CSBK0000375,Catholic Syrian Bank,CSBK0000375,682047002,VOSTRO CELL,"D.J.M BUILDING, MARKET ROAD,KOCHI,682011",ERNAKULAM,,,KERALA
CSBK0000376,Catholic Syrian Bank,CSBK0000376,682047002,ALTERNATE CHANNELS,"D.J.M BUILDING, MARKET ROAD,COCHI,682011",ERNAKULAM,,,KERALA
CSBK0000377,Catholic Syrian Bank,CSBK0000377,629047102,MARTHANDAM,"1-14,A5.S VMALL,PAMMAM MARTHANDAM 629165,KANYAKUMARI DISTRICT,TAMILNADU",KANYAKUMARI,,,TAMIL NADU
CSBK0000378,Catholic Syrian Bank,CSBK0000378,NON-MICR,PERIYANAICKANPALAYAM,"23/A HARIPRIYA COMPLEX,LMW PIRIVU,PERIANAIKENPALAYAM,641020",PERIYANAICKANPALAYAM,PERIYANAICKANPALAYAM,COIMBATORE,TAMIL NADU
CSBK0000379,Catholic Syrian Bank,CSBK0000379,N A,PALLADAM,"365,TRICHY ROAD,NEAR DSP OFFICE,PALLADAM-641664",TIRUPUR,,,TAMILNADU
CSBK0000380,Catholic Syrian Bank,CSBK0000380,676047252,VALANCHERRY,"BUILDING NO III/747, MOOCHIKKAL , VALANCHERY 676552, MALAPPURAM DT",VALANCHERRY,VALANCHERRY,MALAPPURAM,KERALA
CSBK0000381,Catholic Syrian Bank,CSBK0000381,629047102,KOTTAKKAL,"SMART TRADE CITY,NEAR BUS STAND, KOTTAKKAL 676503",KOTTAKKAL,KOTTAKKAL,MALAPPURAM,KERALA
CSBK0000382,Catholic Syrian Bank,CSBK0000382,NON-MICR,NAMAKKAL,"782 A/1, RSR COMPLEX, SALEM MAIN ROAD, NAMAKKAL",NAMAKKAL,NAMAKKAL,NAMAKKAL,TAMIL NADU
CSBK0000383,Catholic Syrian Bank,CSBK0000383,110047009,GHAZIABAD,"R D C 21 & 22,GROUND FLOOR, ADVOCATE CHAMBERS,RAJ NAGAR, GHAZIABAD, UTTER PRADESH-201002",GHAZIABAD,GHAZIABAD,GHAZIABAD,UTTAR PRADESH
CSBK0000384,Catholic Syrian Bank,CSBK0000384,NON MICR,KOSI KALAN,"DOOR NO 4273,BALDEV GANJ,KOSI KALAN, MATHURA DT UTTAR PRADESH - 281 403",KOSI KALAN,KOSI KALAN,MATHURA,UTTAR PRADESH
CSBK0000385,Catholic Syrian Bank,CSBK0000385,NON MICR,KAMAN,"SURAJ BHAG COLONY, JURHARA ROAD, KAMAN  BHARTPUR-321022, RAJASTHAN",KAMAN,KAMAN,BHARTPUR,RAJASTHAN
CSBK0000386,Catholic Syrian Bank,CSBK0000386,282047002,AGRA,"SHREE TALKIES COMPOUND, NH-2,AGRA-282002",AGRA,,,UTTAR PRADESH
CSBK0000387,Catholic Syrian Bank,CSBK0000387,673047402,KONDOTTY,"GROUND FLOOR, TOWER 17,BYE PASS ROAD KONDOTTY         ",KONDOTTY,KUNDOTTY,MALAPPURAM,KERALA
CSBK0000388,Catholic Syrian Bank,CSBK0000388,400047021,VIRAR,"GROUND FLOOR, GOKUL PLAZA, OPP MULJIBHAI MEHTA INTERNATIONAL SCHOOL GOKUL TOWNSHIP,VIRAR WEST THANE 401303",VIRAR,VIRAR,THANE,MAHARASHTRA
CSBK0000389,Catholic Syrian Bank,CSBK0000389,400047022,BHAYANDER,"SHOP 7-8, ARIHANT DARSHAN,90 FT ROAD, NEAR FLYOVER BRIDGE, BHAYANDER WEST, THANE-401101",BHAYANDER,MIRA-BHAYANDAR,THANE,MAHARASHTRA
CSBK0000390,Catholic Syrian Bank,CSBK0000390,396047031,VAPI,"GROUND FLOOR,ORBIT,MAHALAKSHMI SOCIETY,VAPI-DAMAN ROAD,CHALA,VAPI,GUJARAT-396191",VAPI,VAPI,VALSAD,GUJARAT
CSBK0000391,Catholic Syrian Bank,CSBK0000391,NON MICR,SILVASA,"GROUND FLOOR, HOTEL PLAZA BUILDING, VAPI-SILVASSA MAIN ROAD,SILVASSA-396230",SILVASA,SILVASA,DADRA&NAGAR HAVELI,DADRA&NAGAR HAVELI
CSBK0000392,Catholic Syrian Bank,CSBK0000392,173047002,SOLAN,"GROUND FLOOR, DANG COMPLEX, NEAR D C OFFICE, RAJGARH ROAD, SOLAN, HIMACHAL PRADESH 173212.",SOLAN,SOLAN,SOLAN,HIMACHAL PRADESH
CSBK0000745,Catholic Syrian Bank,CSBK0000745,NONMICR,GANDHIPET,"GANDHIPET, TIRUPATHUR - 635 601, VELLORE DT., TAMILNADU",VELLORE,,,TAMIL NADU
CSBK0000396,Catholic Syrian Bank,CSBK0000396,BHAVNAGAR,BHAVNAGAR,"GROUND FLOOR, KRISHNA  DARSHAN, PARIMAL  CHOWK, WAGHAWADI  ROAD, BHAVNAGAR, GUJARAT-364001",PH:0278-2425911,BHAVNAGAR,BHAVNAGAR,GUJRAT
CSBK0000400,Catholic Syrian Bank,CSBK0000400,679047102,NILAMBUR,"2/640-G, JANATHAPADI, CNG ROAD , NILAMBUR -679329.","JOGGY C J  MANAGER, MOB: 9846222778,   TELEPHONE :04931-220606  EMAIL: NILAMBUR@CSB.CO.IN  ",NILAMBUR,MALAPPURAM,KERALA
CSBK0000397,Catholic Syrian Bank,CSBK0000397,396047112,AMLI,"GROUND FLOOR, RIDDHI APTS., NEAR HANUMAN MANDIR,  66 KVA ROAD, AMILI, SILVASSA 396230, (U T OF D & NH).","THOMAS JOSEPH ; MANAGER MOBLE: 09726058708, EMAILID: AMLI@CSB.CO.IN ",AMLI,DADRA&NAGAR HAVELI,DADRA&NAGAR HAVELI
CSBK0000403,Catholic Syrian Bank,CSBK0000403,NON MICR,UDAIPUR,"PLOT NO. 158, ASHWANI BAZAR, NEAR DELHI GATE, UDAIPUR 313001","MR AJAY OBEROI,MANAGER, TEL.: 0394-2411689,  MOBILE: 8233718649, MR AASHISH BORA,, TEL.: 0394-2411689, E-MAIL: UDAIPUR@CSB.CO.IN, MOBILE: 9461438578",UDAIPUR,UDAIPUR,RAJASTHAN
CSBK0000404,Catholic Syrian Bank,CSBK0000404,NON MICR,UJJAIN,"GROUND FLOOR, 37, AMAR SINGH MARG, FREEGANJ, UJJAIN 456010, MADHYA PRADESH","TOMY P A ; MANAGER ; PH: 0734 6052404 , 0734 2519293, 07828468506; EMAILID: UJJAIN@CSB.CO.IN,AMITH PANDE PROB ASST MANAGER  09691689083, EMAILID: UJJAIN@CSB.CO.IN",UJJAIN,UJJAIN,MADHYA PRADESH
CSBK0000395,Catholic Syrian Bank,CSBK0000395,416047002,KOLHAPUR,"514/1 /D ,  NEAR CBS ,STATION ROAD, KOLHAPUR 416 001","PAUL EMMATTY,SENIOR MANAGER -2316067929,KOLHAPUR@CSB.CO.IN",KOLHAPUR,KOLHAPUR,MAHARASHTRA
CSBK0000399,Catholic Syrian Bank,CSBK0000399,NON-MICR,AMRAVATI,"GROUND FLOOR, GULSHAN PLAZA, BADNERA ROAD, RAJAPET, AMARAVATI-444601","MATHEW  T S ,BRANCH MANAGER , PHONE 0721 6005115,PINTO PAUL,ASST.MANAGER, MOB-08879437666 , AMRAVATI@CSB.CO.IN",AMRAVATI,AMRAVATI,MAHARASHTRA
CSBK0000401,Catholic Syrian Bank,CSBK0000401,NON-MICR,KUTTIPURAM,"DEIRA TOWER, NH 17 JUNCTION,  KUTTIPPURAM-679571","DIAS DAVID, SENIOR MANAGER - PHONE  0494 2606111,KUTTIPPURAM@CSB.CO.IN",KUTTIPURAM,MALAPPURAM,KERALA
CSBK0000398,Catholic Syrian Bank,CSBK0000398,NON MICR,SRIPERUMBUDUR,"29 & 29A, THERADI STREET,SRIPERUMBUDUR, KANCHEEPURAM DISTRICT-602105","MR KISHORE KUMAR  O S MARAPPAN , BRANCH MANAGER -'EMAIL : SRIPERUMBUDUR@CSB.CO.IN,PH: 044-27162511",SRIPERUMBUDUR,KANCHEEPURAM,TAMIL NADU
CSBK0000402,Catholic Syrian Bank,CSBK0000402,NON MICR,BHIWADI,"SPL-1-L,PHASE 1,INDUSTRIAL AREA,BHIWADI,DISTT-ALWAR,RAJASTHAN-301019","MR MANISH KUMAR JHA,MOBILE-9310629886;'MR R D SHARMA,MOBILE-09540213010, PH NO : 0129 6450231",BHIWADI,ALWAR,RAJASTHAN
CSBK0000407,Catholic Syrian Bank,CSBK0000407,NON MICR,WALAJAPET,"GROUND FLOOR, PLOT NO-C-6, C-12 PART , BLOCK NO-1, WARD NO-2, T.N.H.B, WALAJAPET-632513, VELLORE DISTRICT, TAMIL NADU","RAGHUNATH R , BRANCH MANAGER 9442849423, PHONE NO: 9943096170,EMAILID: WALAJAPET@CSB.CO.IN",WALAJAPET,VELLORE,TAMIL NADU
CSBK0000408,Catholic Syrian Bank,CSBK0000408,444047002,AKOLA,"PLOT NO 31/4B,HOLY CROSS CONVENT ROAD,OPP:KHANDELWAL MARUTI SHOW ROOM,AKOLA-444001, MAHARASHTRA","RAJESH TR 08806921860  EMAIL AKOLA@CSB.CO.IN,RAJESH TR 08806921860  EMAIL AKOLA@CSB.CO.IN",AKOLA,AHMADNAGAR,MAHARASHTRA