ID,BANK,IFSC_CODE,MICR_CODE,BRANCH_NAME,ADDRESS,CONTACT,CITY,DISTRICT,STATE
MSCI0082002,Maharastra State Cooperative Bank,MSCI0082002,400082002,"FORT,MUMBAI","THE MAHARASHTRA STATE CO OP BANK LTD., 120 SHAHID BHAGAT SINGH MARG, FORT, MUMBAI - 400 001",,MUMBAI,GREATER MUMBAI,MAHARASHTRA
MSCI0082003,Maharastra State Cooperative Bank,MSCI0082003,400082003,LALBAUG,"EBRAHIM MANSION, 74-76, SANEGURJI MARG, LALBAUG, MUMBAI-400012.",,MUMBAI,GREATER MUMBAI,MAHARASHTRA
MSCI0082004,Maharastra State Cooperative Bank,MSCI0082004,400082004,UMARKHADI,"SAMSON APARTMENT, 57, RAMCHANDRA BHAT ROAD UMARKHADI, MUMBAI-400009.",,MUMBAI,GREATER MUMBAI,MAHARASHTRA
MSCI0082005,Maharastra State Cooperative Bank,MSCI0082005,400082005,PAREL,"CONTRACTOR BLDG., 268/272, DR. AMBEDKAR ROAD, PAREL, MUMBAI - 400 012.",,MUMBAI,GREATER MUMBAI,MAHARASHTRA
MSCI0082006,Maharastra State Cooperative Bank,MSCI0082006,400082006,SION,"MURLIDHAR MANDIR TRUST BLDG. PLOT NO –202,  SION (E), MUMBAI-400022",,MUMBAI,GREATER MUMBAI,MAHARASHTRA
MSCI0082007,Maharastra State Cooperative Bank,MSCI0082007,400082007,BANDRA (E),"ARAM SHOPPING CENTER, GOVT. COLONY,BANDRA (E), MUMBAI-400051.",,MUMBAI,GREATER MUMBAI,MAHARASHTRA
MSCI0082008,Maharastra State Cooperative Bank,MSCI0082008,400082008,BANDRA (W),"VISHNUDHAM, 6A, TURNER RD., BANDRA (W), MUMBAI-400050.",,MUMBAI,GREATER MUMBAI,MAHARASHTRA
MSCI0082009,Maharastra State Cooperative Bank,MSCI0082009,400082009,MAHIM,"LAVANYA, SITALADEVI TEMPLE RD., MAHIM, MUMBAI-400016",,MUMBAI,GREATER MUMBAI,MAHARASHTRA
MSCI0082010,Maharastra State Cooperative Bank,MSCI0082010,400082010,MATUNGA,"KRISHNA NIWAS, GR. FLOOR, GOGATEWADI, SENAPATI BAPAT MARG, MATUNGA, MUMBAI-400 016",,MUMBAI,GREATER MUMBAI,MAHARASHTRA
MSCI0082011,Maharastra State Cooperative Bank,MSCI0082011,400082011,PRABHADEVI,"SHRI. SIDDHIVINAYAK C.H.S., VEER SAVARKAR MARG, PRABHADEVI, MUMBAI-400028",,MUMBAI,GREATER MUMBAI,MAHARASHTRA
MSCI0082012,Maharastra State Cooperative Bank,MSCI0082012,400082012,PEDDER ROAD,"63, RATAN, DR. G. DESHMUKH MARG, PEDDER RD. MUMBAI-400026.",,MUMBAI,GREATER MUMBAI,MAHARASHTRA
MSCI0082013,Maharastra State Cooperative Bank,MSCI0082013,400082013,KURLA,"NAWAZ MANZIL, 303-304, LBS RD KURLA (W), MUMBAI-400070",,MUMBAI,GREATER MUMBAI,MAHARASHTRA
MSCI0082014,Maharastra State Cooperative Bank,MSCI0082014,400082014,SHIVAJI PARK,"RUKMINI NIKETAN, 1ST FLOOR RANADE ROAD, DADAR(W), MUMBAI-400028",,MUMBAI,GREATER MUMBAI,MAHARASHTRA
MSCI0082015,Maharastra State Cooperative Bank,MSCI0082015,400082015,ANDHERI (E),"DEVATA COOP HOUSING SOCIETY LTD., ""DEVDARSHAN"" BLDG., SHOP NO. 1&2, GR. FLOOR, RADHAKRISHNA MARG, OLD NAGARDAS ROAD, ANDHERI (E), MUMBAI 400 069",,MUMBAI,GREATER MUMBAI,MAHARASHTRA
MSCI0082016,Maharastra State Cooperative Bank,MSCI0082016,400082016,BORIVALI (W),"PRATAP NARAYANDAS BUNGLOW 126, L.T.ROAD, BORIVLI (W), MUMBAI-400092",,MUMBAI,GREATER MUMBAI,MAHARASHTRA
MSCI0082017,Maharastra State Cooperative Bank,MSCI0082017,400082017,CHEMBUR,"PLOT NO.-177- B, D K. SANDU MARG, CHEMBUR, MUMBAI-400071",,MUMBAI,GREATER MUMBAI,MAHARASHTRA
MSCI0082018,Maharastra State Cooperative Bank,MSCI0082018,400082018,DAHISAR,"LOKMANYA TILAK ROAD, TAWADEWADI, DAHISAR, MUMBAI - 400 068",,MUMBAI,GREATER MUMBAI,MAHARASHTRA
MSCI0082019,Maharastra State Cooperative Bank,MSCI0082019,400082019,GOREGAON,"HEM VILLA, OPP. RLY. STATION GOREGAON, MUMBAI-400062",,MUMBAI,GREATER MUMBAI,MAHARASHTRA
MSCI0082020,Maharastra State Cooperative Bank,MSCI0082020,400082020,GHATKOPAR,"KOT MAHAL COOP HOUSING SOCIETY, BLOCK NO. A-1, PLOT NO. 148, GARODIA NAGAR, GHATKOPAR (E), MUMBAI 400 077",,MUMBAI,GREATER MUMBAI,MAHARASHTRA
MSCI0082021,Maharastra State Cooperative Bank,MSCI0082021,400082021,JOGESHWARI,"ARONDEKAR BHUVAN, HINDU FRIENDS STY. ROAD, OPP. ISMAILYA COLLEGE, JOGESHWARI (E) MUMBAI-400060.",,MUMBAI,GREATER MUMBAI,MAHARASHTRA
MSCI0082022,Maharastra State Cooperative Bank,MSCI0082022,400082022,KANDIVALI,"A / 4, BEST STAFF QUARTERS,KANDIVALI (W), MUMBAI-67",,MUMBAI,GREATER MUMBAI,MAHARASHTRA
MSCI0082023,Maharastra State Cooperative Bank,MSCI0082023,400082023,KHAR,"MODERN C.H.S., SADHANA, (CORNER OF 16TH & 1ST RD.), KHAR, MUMBAI-400052",,MUMBAI,GREATER MUMBAI,MAHARASHTRA
MSCI0082024,Maharastra State Cooperative Bank,MSCI0082024,400082024,MALAD,"PARAS, DAFTARY ROAD, MALAD (E), MUMBAI-400 097",,MUMBAI,GREATER MUMBAI,MAHARASHTRA
MSCI0082025,Maharastra State Cooperative Bank,MSCI0082025,400082025,MULUND,"PLOT NO. 180, PARAG BLDG., GR FLOOR, GANESH GAWADE RD., MULUND (W), MUMBAI-400080",,MUMBAI,GREATER MUMBAI,MAHARASHTRA
MSCI0082026,Maharastra State Cooperative Bank,MSCI0082026,400082026,SANTACRUZ (E),"GADRE BHAVAN, NEHRU RD, NEAR POST OFFICE, SANTACRUZ (E), MUMBAI-400055.",,MUMBAI,GREATER MUMBAI,MAHARASHTRA
MSCI0082027,Maharastra State Cooperative Bank,MSCI0082027,400082027,SANTACRUZ (W),"LINKING ROAD EXTN, ADIWASI SAHKARI GRIHNIRMAN SANSTHA SANTACRUZ (W), MUMBAI-400054.",,MUMBAI,GREATER MUMBAI,MAHARASHTRA
MSCI0082028,Maharastra State Cooperative Bank,MSCI0082028,400082028,VIKHROLI,"KANNAMWARNAGAR, MAHA. HSG. BOARD, VIKHROLI(E), MUMBAI – 400079",,MUMBAI,GREATER MUMBAI,MAHARASHTRA
MSCI0082029,Maharastra State Cooperative Bank,MSCI0082029,400082029,VILEPARLE (E),"TRIMBAK NIWAS, M.G.ROAD, VILEPARLE (E), MUMBAI400057",,MUMBAI,GREATER MUMBAI,MAHARASHTRA
MSCI0082030,Maharastra State Cooperative Bank,MSCI0082030,400082030,VILEPARLE (W),"NANDA BHAVAN,BAJAJ ROAD, VILE-PARLE (W), MUMBAI -4000 56",,MUMBAI,GREATER MUMBAI,MAHARASHTRA
MSCI0082031,Maharastra State Cooperative Bank,MSCI0082031,400082031,VERSOVA,"ELDER’S HOME, OPP. FISHERIES UNIVERSITY ROAD, 7 BUNGALOWS, ANDHERI (W), MUMBAI - 400061",,MUMBAI,GREATER MUMBAI,MAHARASHTRA
MSCI0082032,Maharastra State Cooperative Bank,MSCI0082032,400082032,TILAKNAGAR (CHEMBUR),"AMACHI SHALA,TILAKNAGAR, (CHEMBUR), MUMBAI-400089.",,MUMBAI,GREATER MUMBAI,MAHARASHTRA
MSCI0082033,Maharastra State Cooperative Bank,MSCI0082033,400082033,BYCULLA,"N. S. CENTRE BLDG, GR. FLOOR, SIR J. J. RD., BYCULLA, MUMBAI-400008.",,MUMBAI,GREATER MUMBAI,MAHARASHTRA
MSCI0082034,Maharastra State Cooperative Bank,MSCI0082034,400082034,VASHI,"PLOT NO.- 88, SECTOR -17, VASHI, NAVI MUMBAI- 400703",,MUMBAI,GREATER MUMBAI,MAHARASHTRA
MSCI0082035,Maharastra State Cooperative Bank,MSCI0082035,400082035,JOGESHWARI (EXTN.COUNTER),"MAHANANDA DAIRY, WESTERN HIGHWAY RD, GOREGAON (W), MUMBAI-400 065",,MUMBAI,GREATER MUMBAI,MAHARASHTRA
MSCI0082036,Maharastra State Cooperative Bank,MSCI0082036,400082036,Y.C.P. (EXTN. COUNTER),"YSHAWANTRAO CHAVAN PRATISHTHAN, GENERAL BHOSALE MARG, NEAR SACHIVALAYA GYMKHANA, MUMBAI-400021 ",,MUMBAI,GREATER MUMBAI,MAHARASHTRA
MSCI0082050,Maharastra State Cooperative Bank,MSCI0082050,440082009,"NAGPUR REGINAL OFFICE BRANCH,","MSC BANK LTD, REGIONAL OFFICE BRANCH, DR. DHANANJAYRAO GADGIL RD,MAHAL, NAGPUR, 440 002",,NAGPUR,NAGPUR,MAHARASHTRA
MSCI0082051,Maharastra State Cooperative Bank,MSCI0082051,440082006,DEONAGAR,"SANTAJI LAY-OUT, DEONAGAR, NAGPUR - 440 015",,NAGPUR,NAGPUR,MAHARASHTRA
MSCI0082052,Maharastra State Cooperative Bank,MSCI0082052,,DHANTOLI,"VIJAY BHAVAN, LOKMAT CHOWK, WARDHA ROAD, NAGPUR-440 012.",,NAGPUR,NAGPUR,MAHARASHTRA
MSCI0082053,Maharastra State Cooperative Bank,MSCI0082053,440082003,DHARAMPETH,"MADHIMADHAV COMMERCIAL COMPLEX, LAXMI BHAVAN CHOWK, DHARAMPETH, NAGPUR - 440 010.",,NAGPUR,NAGPUR,MAHARASHTRA
MSCI0082054,Maharastra State Cooperative Bank,MSCI0082054,440082005,SADAR,"BLUE SHOP, RESIDENCY RD,SADAR, NAGPUR-440 001.",,NAGPUR,NAGPUR,MAHARASHTRA
MSCI0082055,Maharastra State Cooperative Bank,MSCI0082055,440082002,SITABULDI,"RAJARAM BLDG., MAIN ROAD,SITABULDI, NAGPUR-440 012.",,NAGPUR,NAGPUR,MAHARASHTRA
MSCI0082056,Maharastra State Cooperative Bank,MSCI0082056,440082008,RANAPRATAP NAGAR,"PLOT NO.-1, HOUSE NO.-2407,MEHADIA COLONY,RANA PRATAP NAGAR, NAGPUR - 440 010",,NAGPUR,NAGPUR,MAHARASHTRA
MSCI0082057,Maharastra State Cooperative Bank,MSCI0082057,440082007,WANJARI NAGAR,"PLOT NO.20, WANJARINAGAR,BABULKHEDA, NAGPUR-27.",,NAGPUR,NAGPUR,MAHARASHTRA
MSCI0082058,Maharastra State Cooperative Bank,MSCI0082058,440082010,CHHOTA TAJBAUG,"PLOT NO.115, PRITI APTT.,CHHOTA TAJBAUG CHOWK, NAGPUR - 440024",,NAGPUR,NAGPUR,MAHARASHTRA
MSCI0082059,Maharastra State Cooperative Bank,MSCI0082059,440082011,BYRAMJI TOWN,"32,CHITANIS LAY OUT,BYRAMJI TOWN, NAGPUR-440013",,NAGPUR,NAGPUR,MAHARASHTRA
MSCI0082060,Maharastra State Cooperative Bank,MSCI0082060,440082013,MANEWADA,"GIULMOHOR MANGE BHAVAN, MAHALAXMI NAGAR -3, CEMENT ROAD, MANEWADA, NAGPUR - 440 024.",,NAGPUR,NAGPUR,MAHARASHTRA
MSCI0082061,Maharastra State Cooperative Bank,MSCI0082061,440082012,DIGHORI,"PLOT NO.-8, ADARSHA NAGAR, UMRED ROAD,RING ROAD CHOWK, DIGHORI, NAGPUR - 440 009",,NAGPUR,NAGPUR,MAHARASHTRA
MSCI0082062,Maharastra State Cooperative Bank,MSCI0082062,444082001,AKOLA,"OLD COTTON MKET,AKOLA - 444 001",,AKOLA,AKOLA,MAHARASHTRA
MSCI0082063,Maharastra State Cooperative Bank,MSCI0082063,,AMRAVATI,"PANJABRAO DESHMUKH BLDG. MUNICIPAL WARD NO.=41 ,TOPE NANAGR, AMRAVATI-444 601",,AMRAVATI,AMRAVATI,MAHARASHTRA
MSCI0082064,Maharastra State Cooperative Bank,MSCI0082064,431082003,AURANGABAD,"PLOT NO.10, TOWN CENTRE,CIDCO, AURANGABAD - 431003.",,AURANGABAD,AURANGABAD,MAHARASHTRA
MSCI0082065,Maharastra State Cooperative Bank,MSCI0082065,,AURANGABAD EXTN.COUNTER,"PLOT NO.22, KOKANWADI, SMADHAN COLONEY, KAISARPURA, AURANGABAD - 431003.",,AURANGABAD,AURANGABAD,MAHARASHTRA