ID,BANK,IFSC_CODE,MICR_CODE,BRANCH_NAME,ADDRESS,,CONTACT,CITY,DISTRICT
APGB0000001,Andhra Pragathi Grameena Bank,APGB0000001,,HEAD OFFICE,"POST BOX 65, OPP OFFICERS' CLUB, KADAPA",9490158005,CUDDAPAH,CUDDAPAH,ANDHRA PRADESH
APGB0001001,Andhra Pragathi Grameena Bank,APGB0001001,,LEPAKSHI,"LEPAKSHI-515331
LEPAKSHI MANDAL
ANANTAPUR DISTRICT",08556-240475,LEPAKSHI,ANANTAPUR,ANDHRA PRADESH
APGB0001002,Andhra Pragathi Grameena Bank,APGB0001002,,ANANTAPUR  MAIN BRANCH,"ANANTAPUR  MAIN BRANCH 
B.S.N. COMPLEX, RAJU ROAD, 
ANANTAPUR, 
ANANTAPUR DISTRICT. PIN 515001",08554-221022,ANANTAPUR,ANANTAPUR,ANDHRA PRADESH
APGB0001003,Andhra Pragathi Grameena Bank,APGB0001003,,MUDDINAYANIPALLI,"MUDDINAYANIPALLI-515761
KALYANADURG MANDAL
ANANTAPUR DISTRICT",08492-200622,MUDDINAYANIPALLI,ANANTAPUR,ANDHRA PRADESH
APGB0001004,Andhra Pragathi Grameena Bank,APGB0001004,,NUTHIMADUGU,"NUTHIMADUGU-515787
KAMBADUR MANDAL
ANANTAPUR DISTRICT",08492-200633,NUTHIMADUGU,ANANTAPUR,ANDHRA PRADESH
APGB0001005,Andhra Pragathi Grameena Bank,APGB0001005,,MARALA,"MARALA-515159
BUKKAPATNAM MANDAL
ANANTAPUR DISTRICT",08555-283620,MARALA,ANANTAPUR,ANDHRA PRADESH
APGB0001007,Andhra Pragathi Grameena Bank,APGB0001007,,PAMIDI,"PAMIDI-515775
PAMIDI MANDAL
ANANTAPUR DISTRICT",08552-245088,PAMIDI,ANANTAPUR,ANDHRA PRADESH
APGB0001008,Andhra Pragathi Grameena Bank,APGB0001008,,KALASAMUDRAM,"KALASAMUDRAM-515591
KADIRI MANDAL
ANANTAPUR DISTRICT",08494-251364,KALASAMUDRAM,ANANTAPUR,ANDHRA PRADESH
APGB0001009,Andhra Pragathi Grameena Bank,APGB0001009,,RAYALACHERUVU,"RAYALACHERVU-515455
YADIKI MANDAL
ANANTAPUR DISTRICT",08558-277550,RAYALACHERUVU,ANANTAPUR,ANDHRA PRADESH
APGB0001010,Andhra Pragathi Grameena Bank,APGB0001010,,KODIKONDA,"KODIKONDA-515601
CHILAMATHUR MANDAL
ANANTAPUR DISTRICT",08556-243731,KODIKONDA,ANANTAPUR,ANDHRA PRADESH
APGB0001011,Andhra Pragathi Grameena Bank,APGB0001011,,ROLLA,"ROLLA-515321
ROLLA MANDAL
ANANTAPUR DISTRICT",08493-289126,ROLLA,ANANTAPUR,ANDHRA PRADESH
APGB0001012,Andhra Pragathi Grameena Bank,APGB0001012,,GUGUDU,"GUGUDU-515435
NARPALA MANDAL
ANANTAPUR DISTRICT",08554-283913,GUGUDU,ANANTAPUR,ANDHRA PRADESH
APGB0001013,Andhra Pragathi Grameena Bank,APGB0001013,,RAMAPURAM(A),"RAMAPURAM (A)- 515672
BATHALAPALLI MANDAL
ANANTAPUR DISTRICT",08559-201814,D.CHERLOPALLI,ANANTAPUR,ANDHRA PRADESH
APGB0001014,Andhra Pragathi Grameena Bank,APGB0001014,,NALLAMADA,"NALLAMADA-515591
NALLAMADA MANDAL
ANANTAPUR DISTRICT",08494-257508,NALLAMADA,ANANTAPUR,ANDHRA PRADESH
APGB0001015,Andhra Pragathi Grameena Bank,APGB0001015,,OBULA DEVARA CHERUVU,"OBULA DEVARA CHERUVU-515561
OBULA DEVARA CHERUVU MANDAL
ANANTAPUR DISTRICT",08494-258842,OBULA DEVARA CHERUVU,ANANTAPUR,ANDHRA PRADESH
APGB0001016,Andhra Pragathi Grameena Bank,APGB0001016,,SHETTUR,"SHETTUR-515767
SHETTUR MANDAL
ANANTAPUR DISTRICT",08492-283553,SHETTUR,ANANTAPUR,ANDHRA PRADESH
APGB0001017,Andhra Pragathi Grameena Bank,APGB0001017,,D.HIREHAL,"D.HIREHAL-515872
D.HIREHAL MANDAL
ANANTAPUR DISTRICT",08495-238432,D.HIREHAL,ANANTAPUR,ANDHRA PRADESH
APGB0001018,Andhra Pragathi Grameena Bank,APGB0001018,,GUMMAGATTA,"GUMMAGATTA-515865
GUMMAGATTA MANDAL
ANANTAPUR DISTRICT",08495-236708,GUMMAGATTA,ANANTAPUR,ANDHRA PRADESH
APGB0001019,Andhra Pragathi Grameena Bank,APGB0001019,,SOMALAPURAM,"SOMALAPURAM-515865
D.HIREHAL MANDAL
ANANTAPUR DISTRICT",08495-255855,SOMALAPURAM,ANANTAPUR,ANDHRA PRADESH
APGB0001020,Andhra Pragathi Grameena Bank,APGB0001020,,PEDABALLI,"PEDABALLI-515231
PUTTAPARTHY MANDAL
ANANTAPUR DISTRICT",08555-238927,PEDABALLI,ANANTAPUR,ANDHRA PRADESH
APGB0001021,Andhra Pragathi Grameena Bank,APGB0001021,,GANDLAPENTA,"GANDLAPENTA-515520
GANDLAPENTA MANDAL
ANANTAPUR DISTRICT",08494-254342,GANDLAPENTA,ANANTAPUR,ANDHRA PRADESH
APGB0001022,Andhra Pragathi Grameena Bank,APGB0001022,,NAMBULA POOLAKUNTA,"NAMBULA POOLA KUNTA-515521
NAMBULA POOLA KUNTA MANDAL
ANANTAPUR DISTRICT",08494-259544,NAMBULA POOLAKUNTA,ANANTAPUR,ANDHRA PRADESH
APGB0001023,Andhra Pragathi Grameena Bank,APGB0001023,,PAMUTHURTHI,"PAMUDURTHY-515154
BUKKAPATNAM MANDAL
ANANTAPUR DISTRICT",08555-243446,PAMUTHURTHI,ANANTAPUR,ANDHRA PRADESH
APGB0001024,Andhra Pragathi Grameena Bank,APGB0001024,,PERUR,"PERUR-515621
RAMAGIRI MANDAL
ANANTAPUR DISTRICT",08492-269644,PERUR,ANANTAPUR,ANDHRA PRADESH
APGB0001025,Andhra Pragathi Grameena Bank,APGB0001025,,GUNTAKAL,"GUNTAKAL-515801
MANDY BAZAR,
GUNTAKAL MANDAL
ANANTAPUR DISTRICT",08552-226071,GUNTAKAL,ANANTAPUR,ANDHRA PRADESH
APGB0001026,Andhra Pragathi Grameena Bank,APGB0001026,,PEDDA PAPPUR,"PEDDAPAPPUR-515447
PEDDAPAPPUR MANDAL
ANANTAPUR DISTRICT",08558-282020,PEDDA PAPPUR,ANANTAPUR,ANDHRA PRADESH
APGB0001027,Andhra Pragathi Grameena Bank,APGB0001027,,PUTLUR,"PUTLUR-515414
PUTLUR MANDAL
ANANTAPUR DISTRICT",08550-276113,PUTLUR,ANANTAPUR,ANDHRA PRADESH
APGB0001028,Andhra Pragathi Grameena Bank,APGB0001028,,N.S.GATE,"N.S. GATE-515621
RAMAGIRI MANDAL
ANANTAPUR DISTRICT",08559-202397,KUNTIMADDI,ANANTAPUR,ANDHRA PRADESH
APGB0001029,Andhra Pragathi Grameena Bank,APGB0001029,,DHARMAVARAM,"DHARMAVARAM-515671, SLV MARKET,
DHARMAVARAM MANDAL
ANANTAPUR DISTRICT",08559-223059,DHARMAVARAM,ANANTAPUR,ANDHRA PRADESH
APGB0001030,Andhra Pragathi Grameena Bank,APGB0001030,,KALYANDURG,"KALYANADURG-515761
MUDIGAL ROAD,
KALYANADURG MANDAL
ANANTAPUR DISTRICT",08497-220039,KALYANDURG,ANANTAPUR,ANDHRA PRADESH
APGB0001031,Andhra Pragathi Grameena Bank,APGB0001031,,RAYADURG,"RAYADURG-515865
RAYADURG MANDAL
ANANTAPUR DISTRICT",08495-252108,RAYADURG,ANANTAPUR,ANDHRA PRADESH
APGB0001032,Andhra Pragathi Grameena Bank,APGB0001032,,KADIRI - MAIN BRANCH,"KADIRI-515591, BY-PASS ROAD,
KADIRI MANDAL
ANANTAPUR DISTRICT",08494-224032,KADIRI,ANANTAPUR,ANDHRA PRADESH
APGB0001033,Andhra Pragathi Grameena Bank,APGB0001033,,KANUMUKKALA,"KANUMUKKALA-515652
CHENNE KOTHAPALLI MANDAL
ANANTAPUR DISTRICT",08559-247287,KANUMUKKALA,ANANTAPUR,ANDHRA PRADESH
APGB0001034,Andhra Pragathi Grameena Bank,APGB0001034,,THIMMAPURAM,"THIMMAPURAM (A)-515611
KAMBADUR MANDAL
ANANTAPUR DISTRICT",08492-200048,THIMMAPURAM,ANANTAPUR,ANDHRA PRADESH
APGB0001035,Andhra Pragathi Grameena Bank,APGB0001035,,PUTTAPARTHI,"PUTTAPARTHY  *  -515134
PUTTAPARTHY MANDAL,
ANANTAPUR DISTRICT",08555-287251,PUTTAPARTHI,ANANTAPUR,ANDHRA PRADESH
APGB0001036,Andhra Pragathi Grameena Bank,APGB0001036,,BHOOPASAMUDRAM,"BHOOPASAMUDRAM-515865
GUMMAGATTA MANDAL
ANANTAPUR DISTRICT",08495-255411,BHOOPASAMUDRAM,ANANTAPUR,ANDHRA PRADESH
APGB0001037,Andhra Pragathi Grameena Bank,APGB0001037,,PATHAKOTHACHERUVU,"PATHA KOTHA CHERUVU    -515401
GUNTAKAL MANDAL
ANANTAPUR DISTRICT",08552-200352,PATHAKOTHACHERUVU,ANANTAPUR,ANDHRA PRADESH
APGB0001038,Andhra Pragathi Grameena Bank,APGB0001038,,CHEEMALAVAGUPALLI,"CHEEMALAVAGUPALLI-515408
PEDDAPAPPUR MANDAL
ANANTAPUR DISTRICT",08558-281611,CHEEMALAVAGUPALLI,ANANTAPUR,ANDHRA PRADESH
APGB0001039,Andhra Pragathi Grameena Bank,APGB0001039,,BANDAMEEDAPALLI,"BANDAMEEDAPALLI-515641
RAPTHADU MANDAL
ANANTAPUR DISTRICT",08554-260634,M.BANDAMEEDAPALLI,ANANTAPUR,ANDHRA PRADESH
APGB0001040,Andhra Pragathi Grameena Bank,APGB0001040,,NALLAGUTLAPALLI,"NALLAGUTLAPALLI-515571
TANAKAL MANDAL
ANANTAPUR DISTRICT",08498-200097,THAVALAM,ANANTAPUR,ANDHRA PRADESH
APGB0001041,Andhra Pragathi Grameena Bank,APGB0001041,,TALPULA,"TALUPULA-515581
TALUPULA MANDAL
ANANTAPUR DISTRICT",08494-250838,TALPULA,ANANTAPUR,ANDHRA PRADESH
APGB0001042,Andhra Pragathi Grameena Bank,APGB0001042,,MADAKASIRA,"MADAKASIRA-515301
MADAKASIRA MANDAL
ANANTAPUR DISTRICT",08493-288468,MADAKASIRA,ANANTAPUR,ANDHRA PRADESH
APGB0001043,Andhra Pragathi Grameena Bank,APGB0001043,,GORANTLA,"GORANTLA-515231
GORANTLA MANDAL
ANANTAPUR DISTRICT",08556-235462,GORANTLA,ANANTAPUR,ANDHRA PRADESH
APGB0001044,Andhra Pragathi Grameena Bank,APGB0001044,,TALAMARLA,"TALAMARLA-515133
KOTHACHERVU MANDAL
ANANTAPUR DISTRICT",08555-246430,TALAMARLA,ANANTAPUR,ANDHRA PRADESH
APGB0001045,Andhra Pragathi Grameena Bank,APGB0001045,,GOWNIVARIPALLI,"GOWNIVARIPALLI-515231
GORANTLA MANDAL
ANANTAPUR DISTRICT",08556-204299,GOWNIVARIPALLI,ANANTAPUR,ANDHRA PRADESH
APGB0001046,Andhra Pragathi Grameena Bank,APGB0001046,,NEELAKANTAPURAM,"NEELAKANTAPURAM-515291
MADAKASIRA MANDAL
ANANTAPUR DISTRICT",08493-289344,GOVINDAPURAM,ANANTAPUR,ANDHRA PRADESH
APGB0001047,Andhra Pragathi Grameena Bank,APGB0001047,,NALLACHERUVU,"NALLACHERUVU-515551
NALLACHERUVU MANDAL
ANANTAPUR DISTRICT",08498-253327,NALLACHERUVU,ANANTAPUR,ANDHRA PRADESH
APGB0001048,Andhra Pragathi Grameena Bank,APGB0001048,,HEMAVATHI,"HEMAVATHI-515286
AMARAPURAM MANDAL
ANANTAPUR DISTRICT",08493-262223,HEMAVATHI,ANANTAPUR,ANDHRA PRADESH
APGB0001049,Andhra Pragathi Grameena Bank,APGB0001049,,GARLADINNE,"GARLADINNE (A)-515731
GARLADINNE MANDAL
ANANTAPUR DISTRICT",08551-286479,GARLADINNE,ANANTAPUR,ANDHRA PRADESH
APGB0001050,Andhra Pragathi Grameena Bank,APGB0001050,,BATHALAPALLI,"BATHALAPALLI-515661
BATHALAPALLI MANDAL
ANANTAPUR DISTRICT",08559-242366,BATHALAPALLI,ANANTAPUR,ANDHRA PRADESH
APGB0001051,Andhra Pragathi Grameena Bank,APGB0001051,,THAGGUPARTHI,"THAGGUPARTHY-515741
BELUGUPPA MANDAL
ANANTAPUR DISTRICT",08497-201259,THAGGUPARTHI,ANANTAPUR,ANDHRA PRADESH
APGB0001052,Andhra Pragathi Grameena Bank,APGB0001052,,B.PAPPUR,"B. PAPPUR-515435
NARPALA MANDAL
ANANTAPUR DISTRICT",08559-201221,B.PAPPUR,ANANTAPUR,ANDHRA PRADESH
APGB0001053,Andhra Pragathi Grameena Bank,APGB0001053,,DADITHOTA,"DADITHOTA-515631
TADIMARRI MANDAL
ANANTAPUR DISTRICT",08568-237267,DADITHOTA,ANANTAPUR,ANDHRA PRADESH
APGB0001054,Andhra Pragathi Grameena Bank,APGB0001054,,DURADAKUNTA,"DURADAKUNTA-515787
KALYANADURG MANDAL
ANANTAPUR DISTRICT",08497-289866,DURADAKUNTA,ANANTAPUR,ANDHRA PRADESH
APGB0001055,Andhra Pragathi Grameena Bank,APGB0001055,,BUDILI,"BUDILI-515241
GORANTLA MANDAL
ANANTAPUR DISTRICT",08556-246119,BUDILI,ANANTAPUR,ANDHRA PRADESH
APGB0001056,Andhra Pragathi Grameena Bank,APGB0001056,,AMADAGURU,"AMADAGURU-515566
AMADAGURU MANDAL
ANANTAPUR DISTRICT",08498-243642,AMADAGURU,ANANTAPUR,ANDHRA PRADESH
APGB0001057,Andhra Pragathi Grameena Bank,APGB0001057,,TARIMALA,"TARIMELA-515611
SINGANAMALA MANDAL
ANANTAPUR DISTRICT",08551-285817,TARIMALA,ANANTAPUR,ANDHRA PRADESH
APGB0001058,Andhra Pragathi Grameena Bank,APGB0001058,,GANDLAPARTHI,"GANDLAPARTHY-515641
RAPTHADU MANDAL
ANANTAPUR DISTRICT",08554-260252,GANDLAPARTHI,ANANTAPUR,ANDHRA PRADESH
APGB0001059,Andhra Pragathi Grameena Bank,APGB0001059,,KUDAIR,"KUDAIR-515711
KUDAIR MANDAL
ANANTAPUR DISTRICT",08554-258557,KUDAIR,ANANTAPUR,ANDHRA PRADESH
APGB0001060,Andhra Pragathi Grameena Bank,APGB0001060,,RAKETLA,"RAKETLA-515812
URAVAKONDA MANDAL
ANANTAPUR DISTRICT",08496-200033,RAKETLA,ANANTAPUR,ANDHRA PRADESH
APGB0001061,Andhra Pragathi Grameena Bank,APGB0001061,,UDDEHAL,"UDDEHAL-515871
BOMMANAHAL MANDAL
ANANTAPUR DISTRICT",08495-239043,UDDEHAL,ANANTAPUR,ANDHRA PRADESH
APGB0001062,Andhra Pragathi Grameena Bank,APGB0001062,,PALTHUR,"PALTHUR-515870
VIDAPANAKAL MANDAL
ANANTAPUR DISTRICT",08496-258011,PALTHUR,ANANTAPUR,ANDHRA PRADESH
APGB0001063,Andhra Pragathi Grameena Bank,APGB0001063,,KANAGANAPALLI,"KANAGANIPALLI-515641
KANAGANIPALLI MANDAL 
ANANTAPUR DISTRICT",08491-248307,KANAGANAPALLI,ANANTAPUR,ANDHRA PRADESH
APGB0001064,Andhra Pragathi Grameena Bank,APGB0001064,,B.KOTHAPALLI,"B. KOTHAPALLI-515581
TALUPULA MANDAL
ANANTAPUR DISTRICT",08494-247003,B.KOTHAPALLI,ANANTAPUR,ANDHRA PRADESH
APGB0001065,Andhra Pragathi Grameena Bank,APGB0001065,,URAVAKONDA,"URAVAKONDA-515812
URAVAKONDA MANDAL
ANANTAPUR DISTRICT",08496-257002,URAVAKONDA,ANANTAPUR,ANDHRA PRADESH
APGB0001066,Andhra Pragathi Grameena Bank,APGB0001066,,PEDDAMANTHUR,"PEDDAMANTHUR-515124
RODDAM MANDAL
ANANTAPUR DISTRICT",08555-202106,PEDDAMANTHUR,ANANTAPUR,ANDHRA PRADESH
APGB0001067,Andhra Pragathi Grameena Bank,APGB0001067,,EDDULAPALLI,"EDDULAPALLI-515775
PAMIDI MANDAL
ANANTAPUR DISTRICT",08552-244654,EDDULAPALLI,ANANTAPUR,ANDHRA PRADESH
APGB0001068,Andhra Pragathi Grameena Bank,APGB0001068,,GADEKAL,"GADEKAL-515801
VIDAPANAKAL MANDAL
ANANTAPUR DISTRICT",08496-258711,GADEKAL,ANANTAPUR,ANDHRA PRADESH
APGB0001069,Andhra Pragathi Grameena Bank,APGB0001069,,JELLIPALLI,"JELLIPALLI-515711
KUDAIR MANDAL
ANANTAPUR DISTRICT",08496-200245,UDIRIPIKONDA,ANANTAPUR,ANDHRA PRADESH
APGB0001070,Andhra Pragathi Grameena Bank,APGB0001070,,ANANTPUR -AMBEDKAR ROAD BRANCH,"AMBEDKAR ROAD  BRANCH
OPP: Z.P.OFFICE,  
DR.AMBEDKAR  ROAD, 
ANANTAPUR. PIN –515001",08554-249142,ANANTAPUR,ANANTAPUR,ANDHRA PRADESH
APGB0001071,Andhra Pragathi Grameena Bank,APGB0001071,,ANANTAPUR-PTC BRANCH,"ANANTAPUR *
 POLICE TRAINING COLLEGE BR.
OPP.POLICE TRAINING COLLEGE,,
ANANTAPUR, 
ANANTAPUR DISTRICT  PIN  515001",08554-270922,ANANTAPUR,ANANTAPUR,ANDHRA PRADESH
APGB0001073,Andhra Pragathi Grameena Bank,APGB0001073,,PENUKONDA,"PENUKONDA-515110
PENUKONDA MANDAL 
ANANTAPUR DISTRICT",08555-221169,PENUKONDA,ANANTAPUR,ANDHRA PRADESH
APGB0001074,Andhra Pragathi Grameena Bank,APGB0001074,,MUDIGUBBA,"MUDIGUBBA-515511
MUDIGUBBA MANDAL
ANANTAPUR DISTRICT",08494-256836,MUDIGUBBA,ANANTAPUR,ANDHRA PRADESH
APGB0001075,Andhra Pragathi Grameena Bank,APGB0001075,,GOOTY,"GOOTY-515455
OPP: RTC BUS STAND,
GOOTY MANDAL,
ANANTAPUR DISTRICT",08552-251936,GOOTY,ANANTAPUR,ANDHRA PRADESH
APGB0001076,Andhra Pragathi Grameena Bank,APGB0001076,,HINDUPUR,"HINDUPUR-515201
PENUKONDA ROAD,
HINDUPUR MANDAL
ANANTAPUR DISTRICT",08556-227047,HINDUPUR,ANANTAPUR,ANDHRA PRADESH
APGB0001077,Andhra Pragathi Grameena Bank,APGB0001077,,TADPATRI,"TADIPATRI-515411
TADIPATRI MANDAL
ANANTAPUR DISTRICT",08558-227645,TADPATRI,ANANTAPUR,ANDHRA PRADESH
APGB0001078,Andhra Pragathi Grameena Bank,APGB0001078,,KOTHACHERUVU,"KOTHACHERUVU-515133
PUTTAPARTHI ROAD,
KOTHACHERUVU MANDAL
ANANTAPUR DISTRICT",08555-280188,KOTHACHERUVU,ANANTAPUR,ANDHRA PRADESH
APGB0001079,Andhra Pragathi Grameena Bank,APGB0001079,,AGALI,"AGALI-515311
MAIN ROAD, NEAR WATER TANK, 
AGALI MANDAL
ANANTAPUR DISTRICT",08493-284968,AGALI,ANANTAPUR,ANDHRA PRADESH
APGB0001080,Andhra Pragathi Grameena Bank,APGB0001080,,KANEKAL,"KANEKAL-515871
MAIN ROAD, 
KANEKAL MANDAL
ANANTAPUR DISTRICT",08495-257646,KANEKAL,ANANTAPUR,ANDHRA PRADESH
APGB0001081,Andhra Pragathi Grameena Bank,APGB0001081,,"MARUTHI-NAGAR BRANCH,ANANTAPUR","ANANTAPUR  MARUTHINAGAR BRANCH, DWARAKAMAYI TOWERS, 
RAMA NAGAR MAIN ROAD, 
ANANTAPUR,
ANANTAPUR DISTRICT. PIN  515001",08554-243116,ANANTAPUR,ANANTAPUR,ANDHRA PRADESH
APGB0001082,Andhra Pragathi Grameena Bank,APGB0001082,,"NIRMALA CONVENT, REVENUE COLONY, ANANTAPUR","NIRMALA CONVENT-ANANTAPUR-515 001
REVENUE COLONY
ANANTAPUR DISTRICT",08554-244030,ANANTAPUR,ANANTAPUR,ANDHRA PRADESH
APGB0001083,Andhra Pragathi Grameena Bank,APGB0001083,,"SAI JR. COLLEGE, TARAKNADH NGR, ANANTAPUR","SAI JUNIOR COLLEGE-ANANTAPUR-515 001
TARAKNATH NAGAR
ANANTAPUR DISTRICT",08554-272154,ANANTAPUR,ANANTAPUR,ANDHRA PRADESH
APGB0001084,Andhra Pragathi Grameena Bank,APGB0001084,,"MEDICAL COLLEGE, GOVT. GEN. HOSP., ANANTAPUR","MEDICAL COLLEGE-ANATAPUR-515 001
GOVERNMENT GENERAL HOSPITAL
ANANTAPUR.",08554-240252,ANANTAPUR,ANANTAPUR,ANDHRA PRADESH
APGB0001087,Andhra Pragathi Grameena Bank,APGB0001087,,PEDDAVADUGUR,"D.NO.4/11-B,
PEDDAVADUGUR  VIL & MANDAL,
ANANTAPUR DISTRICT,
PIN-515 405
",08552-243960,PEDAVADIGURI,ANANTAPUR,ANDHRA PRADESH
APGB0001088,Andhra Pragathi Grameena Bank,APGB0001088,,BUKKARAYA SAMUDRAM,"D.NO.1/261 & 262
BUKKARAYASAMUDRAM,
ANANTAPUR DISTRICT
PIN-515 701
",08554-277844,BUKKARAYA SAMUDRAM,ANANTAPUR,ANDHRA PRADESH
APGB0001089,Andhra Pragathi Grameena Bank,APGB0001089,,ANANTAPUR-VENUGOPAL NAGAR,"D.NO.16-1-290/A,
17TH WARD,
VENUGOPALNAGAR-ANANTAPUR
ANANTAPUR DISTRICT
PIN-515 001
",08554-274368,ANANTAPUR,ANANTAPUR,ANDHRA PRADESH
APGB0001090,Andhra Pragathi Grameena Bank,APGB0001090,,"M. G. ROAD, KADIRI","D.NO.6-39,
M.G.ROAD,
KADIRI POST & MANDAL
ANANTAPUR DISTRICT
PIN-515 519
",08494-225032,KADIRI,ANANTAPUR,ANDHRA PRADESH
APGB0001100,Andhra Pragathi Grameena Bank,APGB0001100,,RAMAGIRI,"RAMAGIRI VILLAGE & POST,
RAMAGIRI MANDAL,
ANANTAPUR DISTRICT, PIN-515672
",0,RAMGIRI,ANANTAPUR,ANDHRA PRADESH
APGB0001101,Andhra Pragathi Grameena Bank,APGB0001101,,TAPOVANAM-A,"TAPOVANAM, ANANTAPUR MANDAL, ANANTAPUR DIST",,ANANTAPUR,ANANTAPUR,ANDHRA PRADESH
APGB0002002,Andhra Pragathi Grameena Bank,APGB0002002,,VEERAPANAYANIPALLE,"VEERAPUNAYUNIPALLE-516321
VEERAPUNAYUNIPALLE MANDAL
KADAPA DISTRICT",08563-270034,VEERAPANAYANIPALLE,CUDDAPAH,ANDHRA PRADESH
APGB0002005,Andhra Pragathi Grameena Bank,APGB0002005,,VALLUR,"VALLUR-516293
VALLUR MANDAL
KADAPA DISTRICT",08562-236482,VALLUR,CUDDAPAH,ANDHRA PRADESH
APGB0002006,Andhra Pragathi Grameena Bank,APGB0002006,,VEERABALLE,"VEERABALLI-516268
VEERABALLI MANDAL
KADAPA DISTRICT",08561-243426,VEERABALLE,CUDDAPAH,ANDHRA PRADESH
APGB0002007,Andhra Pragathi Grameena Bank,APGB0002007,,PORUMAMILLA,"PORUMAMILLA-516193
PORUMAMILLA MANDAL
KADAPA DISTRICT",08569-285235,PORUMAMILLA,CUDDAPAH,ANDHRA PRADESH
APGB0002008,Andhra Pragathi Grameena Bank,APGB0002008,,UPPARAPALLE,"UPPARAPALLE-516247
SIDDAVATAM MANDAL
KADAPA DISTRICT",08589-270066,UPPARAPALLE,CUDDAPAH,ANDHRA PRADESH
APGB0002012,Andhra Pragathi Grameena Bank,APGB0002012,,VEMULA,"VEMULA-516349
VEMULA MANDAL
KADAPA DISTRICT",08588-282481,VEMULA,CUDDAPAH,ANDHRA PRADESH
APGB0002013,Andhra Pragathi Grameena Bank,APGB0002013,,KADAPA MAIN,"KADAPA    MAIN BRANCH
NEAR KRISHNA THEATRE, MADRAS ROAD,
KADAPA, 
KADAPA DISTRICT. PIN  516001",08562-242910,CUDDAPAH,CUDDAPAH,ANDHRA PRADESH
APGB0002014,Andhra Pragathi Grameena Bank,APGB0002014,,KORRAPADU,"KORRAPADU-516359
RAJUPALEM  MANDAL
KADAPA DISTRICT",08564-230157,KORRAPADU,CUDDAPAH,ANDHRA PRADESH
APGB0002015,Andhra Pragathi Grameena Bank,APGB0002015,,PEDDA PASUPULA,"PEDDAPASUPULA-516411
PEDDAMUDIAM MANDAL
KADAPA DISTRICT",08560-272607,PEDDA PASUPULA,CUDDAPAH,ANDHRA PRADESH
APGB0002018,Andhra Pragathi Grameena Bank,APGB0002018,,OBULAVARIPALLE,"OBULAVARIPALLE-516108
OBULAVARIPALLE MANDAL
KADAPA DISTRICT",08566-256088,OBULAVARIPALLE,CUDDAPAH,ANDHRA PRADESH
APGB0002019,Andhra Pragathi Grameena Bank,APGB0002019,,PRODDATUR,"PRODDUTUR-516360
GANDHI ROAD,
PRODDUTUR MANDAL
KADAPA DISTRICT",08564-243636,PRODDATUR,CUDDAPAH,ANDHRA PRADESH
APGB0002020,Andhra Pragathi Grameena Bank,APGB0002020,,RAYAVARAM,"RAYAVARAM-516129
T.SUNDUPALLI MANDAL
KADAPA DISTRICT",08561-243672,RAYAVARAM,CUDDAPAH,ANDHRA PRADESH
APGB0002022,Andhra Pragathi Grameena Bank,APGB0002022,,VEMPALLE,"VAIMPALLE-516329
VAIMPALLE MANDAL
KADAPA DISTRICT",08588-281242,VEMPALLE,CUDDAPAH,ANDHRA PRADESH
APGB0002023,Andhra Pragathi Grameena Bank,APGB0002023,,KONDAPURAM,"KONDAPURAM (K) -516444
KONDAPURAM MANDAL
KADAPA DISTRICT",08560-274213,KONDAPURAM,CUDDAPAH,ANDHRA PRADESH
APGB0002024,Andhra Pragathi Grameena Bank,APGB0002024,,ATLUR,"ATLUR – 516501
ATLUR MANDAL
KADAPA DISTRICT",08589-278750,ATLUR,CUDDAPAH,ANDHRA PRADESH
APGB0002032,Andhra Pragathi Grameena Bank,APGB0002032,,NANDALUR,"NANDALUR-516150
NANDALUR MANDAL
KADAPA DISTRICT",08565-243048,NANDALUR,CUDDAPAH,ANDHRA PRADESH
APGB0002033,Andhra Pragathi Grameena Bank,APGB0002033,,BRAHMAM GARIMATTAM,"BRAHMAMGARI MATTAM-516503
BRAHMAMGARI MATTAM MANDAL,
KADAPA DISTRICT",08569-286026,BRAHMAM GARIMATTAM,CUDDAPAH,ANDHRA PRADESH
APGB0002035,Andhra Pragathi Grameena Bank,APGB0002035,,KANAGUDUR,"KANAGUDUR-516175
DUVVUR MANDAL
KADAPA DISTRICT",08564-234875,KANAGUDUR,CUDDAPAH,ANDHRA PRADESH
APGB0002037,Andhra Pragathi Grameena Bank,APGB0002037,,CHINTHAKOMMADINNE,"CHINTAKOMMADINNE-516003
CHINTAKOMMADINNE MANDAL
KADAPA DISTRICT",08562-231377,CHINTHAKOMMADINNE,CUDDAPAH,ANDHRA PRADESH
APGB0002038,Andhra Pragathi Grameena Bank,APGB0002038,,CHINNAGURUVALURU,"CHINNAGURUVALURU-516172
CHAPADU MANDAL
KADAPA DISTRICT",08564-237576,CHINNAGURUVALUR,CUDDAPAH,ANDHRA PRADESH
APGB0002039,Andhra Pragathi Grameena Bank,APGB0002039,,RAMANAPALLE,"RAMANAPALLE-516162
CHENNUR MANDAL
KADAPA DISTRICT",08562-235920,RAMANAPALLE,CUDDAPAH,ANDHRA PRADESH
APGB0002040,Andhra Pragathi Grameena Bank,APGB0002040,,PEDDAMUDIYAM,"PEDDAMUDIAM-516412
PEDDAMUDIAM MANDAL
KADAPA DISTRICT",08560-272842,PEDDAMUDIYAM,CUDDAPAH,ANDHRA PRADESH
APGB0002041,Andhra Pragathi Grameena Bank,APGB0002041,,MYLAVARAM,"MYLAVARAM-516439
MYLAVARAM MANDAL
KADAPA DISTRICT",08560-273446,MYLAVARAM,CUDDAPAH,ANDHRA PRADESH
APGB0002042,Andhra Pragathi Grameena Bank,APGB0002042,,LINGALA,"LINGALA-516396
LINGALA MANDAL
KADAPA DISTRICT",08568-238509,LINGALA,CUDDAPAH,ANDHRA PRADESH
APGB0002043,Andhra Pragathi Grameena Bank,APGB0002043,,NALLAPUREDDYPALLE,"NALLAPUREDDYPALLE-516390
PULIVENDULA MANDAL
KADAPA DISTRICT",08568-239223,NALLAPUREDDYPALLE,CUDDAPAH,ANDHRA PRADESH
APGB0002053,Andhra Pragathi Grameena Bank,APGB0002053,,SIDDAVATTAM,"SIDDAVATAM-516237
SIDDAVATAM MANDAL
KADAPA DISTRICT",08589-272009,SIDDAVATTAM,CUDDAPAH,ANDHRA PRADESH
APGB0002054,Andhra Pragathi Grameena Bank,APGB0002054,,KALASAPADU,"KALASAPADU-516217
KALASAPADU  MANDAL
KADAPA DISTRICT",08569-286430,KALASAPADU,CUDDAPAH,ANDHRA PRADESH
APGB0002055,Andhra Pragathi Grameena Bank,APGB0002055,,GALIVEEDU,"GALIVEEDU-516267
GALIVEEDU MANDAL
KADAPA DISTRICT",08567-233206,GALIVEEDU,CUDDAPAH,ANDHRA PRADESH
APGB0002057,Andhra Pragathi Grameena Bank,APGB0002057,,KAMALAPURAM,"KAMALAPURAM-516289
KAMALAPURAM MANDAL
KADAPA DISTRICT",08563-274237,KAMALAPURAM,CUDDAPAH,ANDHRA PRADESH
APGB0002067,Andhra Pragathi Grameena Bank,APGB0002067,,CHILAMAKUR,"CHILAMAKUR-516310
YERRAGUNTLA MANDAL
KADAPA DISTRICT",08563-276124,CHILAMKUR,CUDDAPAH,ANDHRA PRADESH
APGB0002072,Andhra Pragathi Grameena Bank,APGB0002072,,CHAKRAYPET,"CHAKRAYAPET-516260
CHAKRAYAPET MANDAL
KADAPA DISTRICT",08567-234616,CHAKRAYPET,CUDDAPAH,ANDHRA PRADESH
APGB0002076,Andhra Pragathi Grameena Bank,APGB0002076,,RAJAMPET,"RAJAMPET-516115
RAJAMPET MANDAL
KADAPA DISTRICT",08565-240330,RAJAMPET,CUDDAPAH,ANDHRA PRADESH
APGB0002078,Andhra Pragathi Grameena Bank,APGB0002078,,MYDUKUR,"MYDUKUR-516172, 10TH WARD, BADVEL ROAD, 
MYDUKUR MANDAL
KADAPA DISTRICT",08564-231260,MYDUKUR,CUDDAPAH,ANDHRA PRADESH
APGB0002079,Andhra Pragathi Grameena Bank,APGB0002079,,SAMBEPALLI,"SAMBEPALLE-516215
SAMBEPALLE MANDAL
KADAPA DISTRICT",08561-242434,SAMBEPALLI,CUDDAPAH,ANDHRA PRADESH
APGB0002082,Andhra Pragathi Grameena Bank,APGB0002082,,PENDLIMARRY,"PENDLIMARRY-516216
PENDLIMARRY MANDAL
KADAPA DISTRICT",08562-202395,PENDLIMARRY,CUDDAPAH,ANDHRA PRADESH
APGB0002083,Andhra Pragathi Grameena Bank,APGB0002083,,BADVEL,"BADVEL – 516227
D.NO 8/2A, NEAR RTC BUS STAND, 
BADVEL MANDAL
KADAPA DISTRICT",08569-284215,BADVEL,CUDDAPAH,ANDHRA PRADESH
APGB0002085,Andhra Pragathi Grameena Bank,APGB0002085,,ITUKALAPADU,"ITUKALAPADU-516193
B.KODUR MANDAL
KADAPA DISTRICT",08569-210599,ITUKALAPADU,CUDDAPAH,ANDHRA PRADESH
APGB0002087,Andhra Pragathi Grameena Bank,APGB0002087,,NAGARIPADU,"NAGARIPADU-516110
KODUR (RAILWAY) MANDAL, 
KADAPA DISTRICT",08566-246485,NAGARIPADU,CUDDAPAH,ANDHRA PRADESH
APGB0002092,Andhra Pragathi Grameena Bank,APGB0002092,,CHINNAMANDEM,"CHINNAMANDEM-516214
CHINNAMANDEM MANDAL
KADAPA DISTRICT",08561-244023,CHINNAMANDAM,CUDDAPAH,ANDHRA PRADESH
APGB0002094,Andhra Pragathi Grameena Bank,APGB0002094,,PONDALUR,"PONDALUR – 516128
PENAGALURU MANDAL
KADAPA DISTRICT",08565-257254,PONDALUR,CUDDAPAH,ANDHRA PRADESH
APGB0002095,Andhra Pragathi Grameena Bank,APGB0002095,,VADDIRALA,"VADDIRALA-516432
MYLAVARAM MANDAL
KADAPA DISTRICT",08560-273037,DHODIUM,CUDDAPAH,ANDHRA PRADESH
APGB0002101,Andhra Pragathi Grameena Bank,APGB0002101,,THONDUR,"THONDURU-516401
THONDURU MANDAL
KADAPA DISTRICT",08568-238308,THONDUR,CUDDAPAH,ANDHRA PRADESH
APGB0002102,Andhra Pragathi Grameena Bank,APGB0002102,,NARASAPURAM,"NARASAPURAM-516217
AVADHOOTA KASINAYANA MANDAL
KADAPA DISTRICT",08569-286262,NARASAPURAM,CUDDAPAH,ANDHRA PRADESH
APGB0002107,Andhra Pragathi Grameena Bank,APGB0002107,,RAYACHOTI,"RAYACHOTY-516268
RAYACHOTY MANDAL
KADAPA DISTRICT",08561-251634,RAYACHOTI,CUDDAPAH,ANDHRA PRADESH
APGB0002108,Andhra Pragathi Grameena Bank,APGB0002108,,NOOLIVEEDU,"NOOLIVEEDU-516272
GALIVEEDU MANDAL
KADAPA DISTRICT",08567-234890,NOOLIVEEDU,CUDDAPAH,ANDHRA PRADESH
APGB0002109,Andhra Pragathi Grameena Bank,APGB0002109,,SETTIGUNTA,"SETTIGUNTA-516102
RAILWAY KODUR MANDAL
KADAPA DISTRICT",08566-247877,SETTIGUNTA,CUDDAPAH,ANDHRA PRADESH
APGB0002112,Andhra Pragathi Grameena Bank,APGB0002112,,B.KODURU,"B.KODURU – 516228
B.KODURU MANDAL,
KADAPA DISTRICT",08569-286606,B.KODURU,CUDDAPAH,ANDHRA PRADESH
APGB0002116,Andhra Pragathi Grameena Bank,APGB0002116,,KADAPA - MOCHAMPETA,"KADAPA   MOCHAMPET  BRANCH
TULASI COMPLEX, NEAR BAHADUR KHAN MASJID, TRUNK ROAD
KADAPA,
KADAPA DISTRICT.   PIN 516001",08562-245950,THUMMALURU,CUDDAPAH,ANDHRA PRADESH
APGB0002117,Andhra Pragathi Grameena Bank,APGB0002117,,KODUR,"KODUR (RAILWAY)-516101
KODURU MANDAL
KADAPA DISTRICT",08566-242558,KODUR,CUDDAPAH,ANDHRA PRADESH
APGB0002118,Andhra Pragathi Grameena Bank,APGB0002118,,BOYANAPALLE,"BOYANAPALLE – 516126
RAJAMPET  MANDAL,
KADAPA DISTRICT",08565-200323,AKEPADU,CUDDAPAH,ANDHRA PRADESH
APGB0002120,Andhra Pragathi Grameena Bank,APGB0002120,,YERRAGUNTLA,"YERRAGUNTLA-516309
YERRAGUNTLA MANDAL
KADAPA DISTRICT",08563-275136,YERRAGUNTLA,CUDDAPAH,ANDHRA PRADESH
APGB0002121,Andhra Pragathi Grameena Bank,APGB0002121,,RAMAPURAM(K),"RAMAPURAM (K) -516504
RAMAPURAM MANDAL
KADAPA DISTRICT",08567-238080,CHITLOOR,CUDDAPAH,ANDHRA PRADESH
APGB0002122,Andhra Pragathi Grameena Bank,APGB0002122,,VATHALUR,"VATHALUR-516107
PULLAMPET MANDAL
KADAPA DISTRICT",08565-246802,VATHALUR,CUDDAPAH,ANDHRA PRADESH
APGB0002123,Andhra Pragathi Grameena Bank,APGB0002123,,ALAVALAPADU,"ALAVALAPADU – 516350
VEMULA MANDAL,
KADAPA DISTRICT",08588-283116,ALAVALAPADU,CUDDAPAH,ANDHRA PRADESH
APGB0002124,Andhra Pragathi Grameena Bank,APGB0002124,,KOTHA NELLORE,"KOTHA NELLORE-516163 
KHAJIPET  MANDAL
KADAPA DISTRICT",08562-235055,KOTHA NELLORE,CUDDAPAH,ANDHRA PRADESH
APGB0002128,Andhra Pragathi Grameena Bank,APGB0002128,,PEDDA CHAPPALI,"PEDDACHEPPALI-516289
KAMALAPURAM MANDAL
KADAPA DISTRICT",08563-277123,PEDDA CHAPPALI,CUDDAPAH,ANDHRA PRADESH
APGB0002133,Andhra Pragathi Grameena Bank,APGB0002133,,ANKALAMMA GUDUR,"ANKALAMMAGUDUR – 516484
SIMHADRIPURAM MANDAL,
KADAPA DISTRICT",08568-239411,ANKALAMMA GUDUR,CUDDAPAH,ANDHRA PRADESH
APGB0002135,Andhra Pragathi Grameena Bank,APGB0002135,,ANANTHARAJUPETA,"ANANTHARAJUPET – 516105
RAILWAY KODUR MANDAL
KADAPA DISTRICT",08566-200276,ANANTHARAJUPETA,CUDDAPAH,ANDHRA PRADESH
APGB0002137,Andhra Pragathi Grameena Bank,APGB0002137,,RAJUPALEM,"RAJUPALEM-516363
RAJUPALEM MANDAL
KADAPA DISTRICT",08564-230147,RAJUPALEM,CUDDAPAH,ANDHRA PRADESH
APGB0002138,Andhra Pragathi Grameena Bank,APGB0002138,,JAMMALAMADUGU,"JAMMALAMADAGU-516434
JAMMALAMADUGU MANDAL
KADAPA DISTRICT",08560-270492,JAMMALAMADAGU,CUDDAPAH,ANDHRA PRADESH
APGB0002139,Andhra Pragathi Grameena Bank,APGB0002139,,BALA THIMMAYYAGARI PALLE,"BALATHIMMAIAHGARIPALLE-516259
CHAKRAYAPET MANDAL
KADAPA DISTRICT",08567-201074,BALA THIMMAYYAGARI PALLE,CUDDAPAH,ANDHRA PRADESH
APGB0002140,Andhra Pragathi Grameena Bank,APGB0002140,,KADAPA - KAGITALAPENTA,"KADAPA   KAGITALAPENTA BRANCH *
NEAR GOVT. ITI, 
KAGITALAPENTA,
KADAPA DISTRICT.  PIN  516003",08562-259082,KAGITHALAPENTA,CUDDAPAH,ANDHRA PRADESH
APGB0002143,Andhra Pragathi Grameena Bank,APGB0002143,,KADAPA-JAYANAGAR COLONY BRANCH,"KADAPA JAYANAGAR COLONY  BRANCH
NEAR APSARA THEATRE,
JAYANAGAR COLONY, 
KADAPA DISTRICT. PIN  516002",08562- 244692,CUDDAPAH,CUDDAPAH,ANDHRA PRADESH
APGB0002144,Andhra Pragathi Grameena Bank,APGB0002144,,SIMHADRIPURAM,"SIMHADRIPURAM-516454
SIMHADRIPURAM MANDAL
KADAPA DISTRICT",08568-235114,SIMHADRIPURAM,CUDDAPAH,ANDHRA PRADESH
APGB0002145,Andhra Pragathi Grameena Bank,APGB0002145,,PULIVENDLA,"PULIVENDULA-516390
PULIVENDULA MANDAL 
KADAPA DISTRICT",08568-287977,PULIVENDLA,CUDDAPAH,ANDHRA PRADESH
APGB0002150,Andhra Pragathi Grameena Bank,APGB0002150,,PULLAMPET,"PULLAMPET-516107
PULLAMPET MANDAL
KADAPA DISTRICT",08566-257720,PULLAMPET,CUDDAPAH,ANDHRA PRADESH
APGB0002151,Andhra Pragathi Grameena Bank,APGB0002151,,CHENNUR,"CHENNUR-516162, D.NO. 12/280, RAMALAYAM STREET, 
CHENNUR MANDAL
KADAPA DISTRICT",08562-235720,CHENNUR,CUDDAPAH,ANDHRA PRADESH
APGB0002154,Andhra Pragathi Grameena Bank,APGB0002154,,TSUNDUPALLI,"T.SUNDUPALLI-516130
T.SUNDUPALLI MANDAL
KADAPA DISTRICT",08561-248698,TSUNDUPALLI,CUDDAPAH,ANDHRA PRADESH
APGB0002155,Andhra Pragathi Grameena Bank,APGB0002155,,CHITVEL,"CHITVEL-516 104
D.NO.1/200, MAIN ROAD, CHITVEL MANDAL,
KADAPA DISTRICT",08566-240983,CHITVEL,CUDDAPAH,ANDHRA PRADESH
APGB0002156,Andhra Pragathi Grameena Bank,APGB0002156,,KADAPA POLICE LINE BRANCH,"POLICE LINE-516 001
D.NO.20/1066, UPSTAIRS, 
CO-OPERATIVE COLONY,
KADAPA DISTRICT",08562-223437,CUDDAPAH,CUDDAPAH,ANDHRA PRADESH
APGB0002157,Andhra Pragathi Grameena Bank,APGB0002157,,DUVVUR,"DUVVURU-516 175
DUVVUR MANDAL
KADAPA DISTRICT",08564-238555,DUVVUR,CUDDAPAH,ANDHRA PRADESH
APGB0002158,Andhra Pragathi Grameena Bank,APGB0002158,,KHAJIPETA,"KHAJIPETA-516 203
KHAJIPETA MANDAL
KADAPA DISTRICT",08562-238187,SUNKESULA KHAJIPETA,CUDDAPAH,ANDHRA PRADESH
APGB0002159,Andhra Pragathi Grameena Bank,APGB0002159,,MUDDANUR,"MUDDANUR-516 380
D.NO.5/99 A, MUDDANUR VIL & MANDAL
KADAPA DISTRICT",08560-279359,MUDDANUR,CUDDAPAH,ANDHRA PRADESH
APGB0002160,Andhra Pragathi Grameena Bank,APGB0002160,,LAKKIREDDIPALLE,"LAKKIREDDYPALLI-516 257
NGO HOME, LAKKIREDDYPALLI VIL & MANDAL
KADAPA DISTRICT",08567-234041,LAKKIREDDIPALLE,CUDDAPAH,ANDHRA PRADESH
APGB0002161,Andhra Pragathi Grameena Bank,APGB0002161,,DEVUNIKADAPA,"KADAPA-DEVUNI KADAPA-516 001
D.NO.16/308, UPSTAIRS,
D.C. ROAD, DEVUNI KADAPA,
KADAPA DISTRICT",08562-221533,CUDDAPAH,CUDDAPAH,ANDHRA PRADESH
APGB0002162,Andhra Pragathi Grameena Bank,APGB0002162,,KADAPA NESCO,"NESCO,KADAPA-516002, NEAR RTC BUS STAND, ARAVINDANAGAR, KADAPA.",08562-200065,CUDDAPAH,CUDDAPAH,ANDHRA PRADESH
APGB0002163,Andhra Pragathi Grameena Bank,APGB0002163,,RAJAMPET - R. S. ROAD,"D.NO.6/52,
R.S. ROAD, RAJAMPET, 
KADAPA DISTRICT
PIN-516 115
",08565-251669,RAJAMPET,CUDDAPAH,ANDHRA PRADESH
APGB0002164,Andhra Pragathi Grameena Bank,APGB0002164,,YERRAMUKKAPALLI,"D.NO.1/2687, APHB COLONY,
R.S. ROAD, YERRAMUKKAPALLI,
KADAPA
YSR DISTRICT
PIN-516 004
",08562-256322,CUDDAPAH,CUDDAPAH,ANDHRA PRADESH
APGB0002166,Andhra Pragathi Grameena Bank,APGB0002166,,GOPAVARAM,"PLOT NO.9, APHB COLONY,
BHAGATH SINGH COLONY,
GOPAVARAM VIL & PO,
PRODDATUR MANDAL,
YSR KADAPA DISTRICT
PIN-516 360
",08564-200326,GOPAVARAM,CUDDAPAH,ANDHRA PRADESH
APGB0002167,Andhra Pragathi Grameena Bank,APGB0002167,,PRODDATUR - MODEMPALLI,"MODEMPALLI - 516360, JINNAH ROAD, MODEMPALLI, PRODDUTUR POST, KADAPA DIST",0,PRODDATUR,CUDDAPAH,ANDHRA PRADESH
APGB0002172,Andhra Pragathi Grameena Bank,APGB0002172,,NANDIMANDALAM,"D. NO. 6/328-2,
NANDIMANDALAM VILLAGE,
PENDLIMARRI MANDAL,
KADAPA DISTRICT,  
PIN-516218
",0,NANDIMANDALAM,CUDDAPAH,ANDHRA PRADESH
APGB0002175,Andhra Pragathi Grameena Bank,APGB0002175,,PENAGALURU,"D.NO. 3/205A, PENAGALUR VILLAGE & POST KADAPA DIST",,PENGALUR,CUDDAPAH,ANDHRA PRADESH
APGB0003003,Andhra Pragathi Grameena Bank,APGB0003003,,ADONI,"ADONI – 518301
DOOR NO.268-12, 1ST FLOOR,
ACHARI ARCHADE, NEAR POLICE CONTROL ROOM,
YEMMIGANUR ROAD,
KURNOOL DISTRICT",08512-253537,ADONI,KURNOOL,ANDHRA PRADESH
APGB0003004,Andhra Pragathi Grameena Bank,APGB0003004,,PARLA,"PARLA-518478
(VIA) K.NAGALAPURAM, 
KALLUR MANDAL
KURNOOL DISTRICT",08525-200055,PARLA,KURNOOL,ANDHRA PRADESH
APGB0003009,Andhra Pragathi Grameena Bank,APGB0003009,,KURNOOL-MAIN,"KURNOOL MAIN BRANCH
CLUB ROAD, 
RAILWAY STATION ROAD,
KURNOOL, 
KURNOOL DISTRICT.  PIN  518004",08518-220176,KURNOOL,KURNOOL,ANDHRA PRADESH
APGB0003010,Andhra Pragathi Grameena Bank,APGB0003010,,NANDIVARGAM,"NANDIVARGAM-518176
BANAGNAPALLE MANDAL
KURNOOL DISTRICT",08515-248058,NANDIVARGAM,KURNOOL,ANDHRA PRADESH
APGB0003011,Andhra Pragathi Grameena Bank,APGB0003011,,NANOOR,"NANNOOR-518023
ORVAKAL MANDAL
KURNOOL DISTRICT",08518-238558,NANOOR,KURNOOL,ANDHRA PRADESH
APGB0003016,Andhra Pragathi Grameena Bank,APGB0003016,,NEMAKAL,"NEMAKAL-518396
CHIPPAGIRI  MANDAL
KURNOOL DISTRICT",08523-239996,NEMAKAL,KURNOOL,ANDHRA PRADESH
APGB0003017,Andhra Pragathi Grameena Bank,APGB0003017,,PARUMANCHALA,"PARUMANCHALA-518407
JUPADU BUNGLOW MANDAL
KURNOOL DISTRICT",08513-256030,PARUMANCHALA,KURNOOL,ANDHRA PRADESH
APGB0003021,Andhra Pragathi Grameena Bank,APGB0003021,,ALUR,"ALURU – 518395
ALURU MANDAL,
KURNOOL DISTRICT",08523-228059,ALUR,KURNOOL,ANDHRA PRADESH
APGB0003025,Andhra Pragathi Grameena Bank,APGB0003025,,BETAMCHERLA,"BETAMCHERLA – 518599 
BETAMCHERLA MANDAL,
KURNOOL DISTRICT",08516-273100,BETAMCHERLA,KURNOOL,ANDHRA PRADESH
APGB0003026,Andhra Pragathi Grameena Bank,APGB0003026,,UYYALAWADA,"UYYALAWADA-518155
UYYALAWADA MANDAL
KURNOOL DISTRICT",08510-234927,UYYALAWADA,KURNOOL,ANDHRA PRADESH
APGB0003027,Andhra Pragathi Grameena Bank,APGB0003027,,DEEBAGUNTLA,"DEEBAGUNTLA-518502
GOSPADU MANDAL
KURNOOL DISTRICT",08514-232253,DEEBAGUNTLA,KURNOOL,ANDHRA PRADESH
APGB0003028,Andhra Pragathi Grameena Bank,APGB0003028,,DEVANAKONDA,"DEVANAKONDA-518465
DEVANAKONDA MANDAL
KURNOOL DISTRICT",08520-276526,DEVANAKONDA,KURNOOL,ANDHRA PRADESH
APGB0003029,Andhra Pragathi Grameena Bank,APGB0003029,,TANGUTUR,"TANGATURU (K)-518124
BANAGANAPALLI MANDAL
KURNOOL DISTRICT",08515-236036,TANGUTUR,KURNOOL,ANDHRA PRADESH
APGB0003030,Andhra Pragathi Grameena Bank,APGB0003030,,PEDDA TUMBALAM,"PEDDATHUMBALAM-518301
ADONI MANDAL
KURNOOL DISTRICT",08512-257416,PEDDA TUMBALAM,KURNOOL,ANDHRA PRADESH
APGB0003031,Andhra Pragathi Grameena Bank,APGB0003031,,GADIVEMULA,"GADIVEMULA-518508
GADIVEMULA MANDAL
KURNOOL DISTRICT",08514-233234,GADIVEMULA,KURNOOL,ANDHRA PRADESH
APGB0003034,Andhra Pragathi Grameena Bank,APGB0003034,,KODUMUR,"KODUMURU-518464
KODUMURU MANDAL
KURNOOL DISTRICT",08525-228057,KODUMUR,KURNOOL,ANDHRA PRADESH
APGB0003036,Andhra Pragathi Grameena Bank,APGB0003036,,MANTRALAYAM,"MANTRALAYAM-518345
MANTRALAYAM MANDAL
KURNOOL DISTRICT",08512-279432,MANTRALAYAM,KURNOOL,ANDHRA PRADESH
APGB0003047,Andhra Pragathi Grameena Bank,APGB0003047,,TERNEKAL,"TERNEKAL-518465
DEVANAKONDA MANDAL
KURNOOL DISTRICT",08520-233026,TERNEKAL,KURNOOL,ANDHRA PRADESH
APGB0003049,Andhra Pragathi Grameena Bank,APGB0003049,,KOILKUNTLA,"KOILAKUNTLA-518134  *
RTC BUS STAND ROAD, 
KOILAKUNTLA MANDAL
KURNOOL DISTRICT",08510-225209,KOILKUNTLA,KURNOOL,ANDHRA PRADESH
APGB0003050,Andhra Pragathi Grameena Bank,APGB0003050,,KOLIMIGUNDLA,"KOLIMIGUNDLA-518123
KOLIMIGUNDLA MANDAL
KURNOOL DISTRICT",08510-244321,KOLIMIGUNDLA,KURNOOL,ANDHRA PRADESH
APGB0003051,Andhra Pragathi Grameena Bank,APGB0003051,,GARLADINNE,"GARLADINNE (K) -518200
PEAPULLY MANDAL
KURNOOL DISTRICT",08522-201234,GARLADINNE,KURNOOL,ANDHRA PRADESH
APGB0003060,Andhra Pragathi Grameena Bank,APGB0003060,,DORNIPADU,"DORNIPADU-518135
DORNIPADU MANDAL
KURNOOL DISTRICT",08510-253725,DORNIPADU,KURNOOL,ANDHRA PRADESH
APGB0003061,Andhra Pragathi Grameena Bank,APGB0003061,,GOSPADU,"GOSPADU-518593
GOSPADU MANDAL
KURNOOL DISTRICT",08519-252739,GOSPADU,KURNOOL,ANDHRA PRADESH
APGB0003062,Andhra Pragathi Grameena Bank,APGB0003062,,GAJULAPALLE,"GAJULAPALLE-518583
MAHANANDI MANDAL
KURNOOL DISTRICT",08514-232723,GAJULAPALLE,KURNOOL,ANDHRA PRADESH
APGB0003063,Andhra Pragathi Grameena Bank,APGB0003063,,GARGEYAPURAM,"GARGEYAPURAM-518452
KURNOOL MANDAL
KURNOOL DISTRICT",08518-238146,GARGEYAPURAM,KURNOOL,ANDHRA PRADESH
APGB0003064,Andhra Pragathi Grameena Bank,APGB0003064,,MIDTHUR,"MIDTHUR-518405
MIDTHUR MANDAL
KURNOOL DISTRICT",08513-282645,MIDTHUR,KURNOOL,ANDHRA PRADESH
APGB0003065,Andhra Pragathi Grameena Bank,APGB0003065,,ATMAKUR (K),"ATMAKUR (K) ** – 518422 
GOUD CENTRE, 
ATMAKUR MANDAL,
KURNOOL DISTRICT",08517-283460,ATMAKUR,KURNOOL,ANDHRA PRADESH
APGB0003066,Andhra Pragathi Grameena Bank,APGB0003066,,PERAVALI,"PERAVALI-518391
MADDIKERA MANDAL
KURNOOL DISTRICT",08520-277329,PERAVALI,KURNOOL,ANDHRA PRADESH
APGB0003070,Andhra Pragathi Grameena Bank,APGB0003070,,YEMMIGANUR,"YEMMIGANUR  *  -518360
YEMMIGANUR MANDAL
KURNOOL DISTRICT",08512-255752,YEMMIGANUR,KURNOOL,ANDHRA PRADESH
APGB0003071,Andhra Pragathi Grameena Bank,APGB0003071,,RAGADAGUDUR,"REGADAGUDUR-518533
VELUGODU MANDAL
KURNOOL DISTRICT",08517-284550,RAGADAGUDUR,KURNOOL,ANDHRA PRADESH
APGB0003073,Andhra Pragathi Grameena Bank,APGB0003073,,HUSSAINAPURAM(K),"HUSSAINAPURAM (K)-518011
ORVAKAL MANDAL
KURNOOL DISTRICT",08518-239158,HUSSAINAPURAM,KURNOOL,ANDHRA PRADESH
APGB0003074,Andhra Pragathi Grameena Bank,APGB0003074,,KOTHAKOTA,"KOTHAKOTA-518466
C.BELAGAL MANDAL
KURNOOL DISTRICT",08525-279405,KOTHAKOTA,KURNOOL,ANDHRA PRADESH
APGB0003075,Andhra Pragathi Grameena Bank,APGB0003075,,VELDURTHI,"VELDURTHY-518216
VELDURTHY MANDAL
KURNOOL DISTRICT",08516-275758,VELDURTHI,KURNOOL,ANDHRA PRADESH
APGB0003080,Andhra Pragathi Grameena Bank,APGB0003080,,HALAHARVI,"HALAHARVI-518348
HALAHARVI MANDAL
KURNOOL DISTRICT",08523-249161,HALAHARVI,KURNOOL,ANDHRA PRADESH
APGB0003081,Andhra Pragathi Grameena Bank,APGB0003081,,PATTIKONDA,"PATHIKONDA-518380
PATHIKONDA MANDAL
KURNOOL DISTRICT",08520-226056,PATTIKONDA,KURNOOL,ANDHRA PRADESH
APGB0003084,Andhra Pragathi Grameena Bank,APGB0003084,,TUGGALI,"THUGGALI-518390
THUGGALI MANDAL
KURNOOL DISTRICT",08520-277626,TUGGALI,KURNOOL,ANDHRA PRADESH
APGB0003089,Andhra Pragathi Grameena Bank,APGB0003089,,NOSSAM,"NOSSAM-518145
SANJAMALA MANDAL
KURNOOL DISTRICT",08510-273666,NOSSAM,KURNOOL,ANDHRA PRADESH
APGB0003090,Andhra Pragathi Grameena Bank,APGB0003090,,DHONE,"DHONE-518222
NEAR GOVT.DEGREE COLLEGE,
DHONE MANDAL
KURNOOL DISTRICT",08516-222684,DHONE,KURNOOL,ANDHRA PRADESH
APGB0003093,Andhra Pragathi Grameena Bank,APGB0003093,,HEBBATAM,"HEBBATAM-518310
HOLAGUNDA MANDAL
KURNOOL DISTRICT",08512-289519,HEBBATAM,KURNOOL,ANDHRA PRADESH
APGB0003096,Andhra Pragathi Grameena Bank,APGB0003096,,JUPADU BUNGLOW,"JUPADU BUNGLOW-518401
JUPADU BUNGLOW MANDAL
KURNOOL DISTRICT",08513-282012,BANNUR,KURNOOL,ANDHRA PRADESH
APGB0003097,Andhra Pragathi Grameena Bank,APGB0003097,,PETNIKOTA,"PETNIKOTA-518123
KOLIMIGUNDLA MANDAL
KURNOOL DISTRICT",08510-201446,PETNIKOTA,KURNOOL,ANDHRA PRADESH
APGB0003099,Andhra Pragathi Grameena Bank,APGB0003099,,SUNNIPENTA,"SUNNIPENTA-518102
SRISAILAMDAM PROJECT COLONY (EAST),           
ATMAKUR MANDAL
KURNOOL DISTRICT",08524-286090,SRISAILAM PRJCT.TOWNSHIP,KURNOOL,ANDHRA PRADESH
APGB0003100,Andhra Pragathi Grameena Bank,APGB0003100,,POLAKAL,"POLAKAL-518473
C.BELAGAL MANDAL
KURNOOL DISTRICT",08525-249530,POLAKAL,KURNOOL,ANDHRA PRADESH
APGB0003103,Andhra Pragathi Grameena Bank,APGB0003103,,TUNGABHADRA,"THUNGABHADRA-518397
MANTRALAYAM MANDAL
KURNOOL DISTRICT",08512-259736,TUNGABHADRA,KURNOOL,ANDHRA PRADESH
APGB0003105,Andhra Pragathi Grameena Bank,APGB0003105,,JONNAGIRI,"JONNAGIRI-518390
TUGGALI MANDAL
KURNOOL DISTRICT",08520-236928,JONNAGIRI,KURNOOL,ANDHRA PRADESH
APGB0003106,Andhra Pragathi Grameena Bank,APGB0003106,,NANDYAL  NOONEPALLE BRANCH  ,"NANDYAL  NOONEPALLE BRANCH   *
NEAR GOVT. HOSPITAL,
NOONEPALLE,
KURNOOL DISTRICT.  PIN 518503",08514-245490,NANDYAL,KURNOOL,ANDHRA PRADESH
APGB0003110,Andhra Pragathi Grameena Bank,APGB0003110,,NANDYAL MAIN,"NANDYAL MAIN BRANCH
SANJEEVA NAGAR, 
NANDYAL,
KURNOOL DISTRICT.  PIN 518501",08514-245097,NANDYAL,KURNOOL,ANDHRA PRADESH
APGB0003113,Andhra Pragathi Grameena Bank,APGB0003113,,THIMMAPURAM,"THIMMAPURAM (K) -518512
MAHANANDI MANDAL
KURNOOL DISTRICT",08514-235606,THIMMAPURAM,KURNOOL,ANDHRA PRADESH
APGB0003114,Andhra Pragathi Grameena Bank,APGB0003114,,POLURU,"POLURU-518511
NANDYAL MANDAL
KURNOOL DISTRICT",08514-235442,POLURU,KURNOOL,ANDHRA PRADESH
APGB0003119,Andhra Pragathi Grameena Bank,APGB0003119,,PEDDAKADABURU,"PEDDAKADABUR-518323
PEDDAKADABUR MANDAL
KURNOOL DISTRICT",08512-277316,PEDDAKADABURU,KURNOOL,ANDHRA PRADESH
APGB0003126,Andhra Pragathi Grameena Bank,APGB0003126,,URUKUNDA,"URUKUNDA-518301
KOWTHALAM MANDAL
KURNOOL DISTRICT",08512-248230,URUKUNDA,KURNOOL,ANDHRA PRADESH
APGB0003127,Andhra Pragathi Grameena Bank,APGB0003127,,DAIVAMDINNE,"DAIVAMDINNE-518360
YEMMIGANUR MANDAL
KURNOOL DISTRICT",08512-246003,DAIVAM DINNE,KURNOOL,ANDHRA PRADESH
APGB0003129,Andhra Pragathi Grameena Bank,APGB0003129,,BADINEHAL,"BADINEHAL – 518344
KOWTHALAM MANDAL
KURNOOL DISTRICT",08512-202090,BADINEHAL,KURNOOL,ANDHRA PRADESH
APGB0003131,Andhra Pragathi Grameena Bank,APGB0003131,,KAIRUPPALA,"KAIRUPPALA-518465
ASPARI MANDAL
KURNOOL DISTRICT",08520-202088,KAIRUPPALA,KURNOOL,ANDHRA PRADESH
APGB0003136,Andhra Pragathi Grameena Bank,APGB0003136,,KRISHNA NAGAR-KURNOOL,"KURNOOL   KRISHNA NAGAR BRANCH  *
MVR PLAZA, 1ST FLOOR, MAIN ROAD,  
KRISHNANAGAR,   B-CAMP POST, 
KURNOOL DISTRICT. PIN  518002",08518-232048,KURNOOL,KURNOOL,ANDHRA PRADESH
APGB0003141,Andhra Pragathi Grameena Bank,APGB0003141,,KRISHNAGIRI,"KRISHNAGIRI-518216
KRISHNAGIRI MANDAL
KURNOOL DISTRICT",08516-254010,KRISHNAGIRI,KURNOOL,ANDHRA PRADESH
APGB0003142,Andhra Pragathi Grameena Bank,APGB0003142,,ASPARI,"ASPARI – 518347 
ASPARI MANDAL
KURNOOL DISTRICT",08523-288643,ASPARI,KURNOOL,ANDHRA PRADESH
APGB0003146,Andhra Pragathi Grameena Bank,APGB0003146,,PEAPULLY,"PEAPULLY-518221
NATIONAL HIGHWAY-7, 
PEAPULLY MANDAL
KURNOOL DISTRICT",08522-229084,PEAPULLY,KURNOOL,ANDHRA PRADESH
APGB0003147,Andhra Pragathi Grameena Bank,APGB0003147,,BANGANAPALLE,"BANAGANAPALLE – 518214
BANAGANAPALLE MANDAL
KURNOOL DISTRICT",08515-228430,BANGANAPALLE,KURNOOL,ANDHRA PRADESH
APGB0003148,Andhra Pragathi Grameena Bank,APGB0003148,,NANDIKOTKUR,"NANDIKOTKUR-518401
NANDIKOTKUR MANDAL
KURNOOL DISTRICT",08513-281601,NANDIKOTKUR,KURNOOL,ANDHRA PRADESH
APGB0003149,Andhra Pragathi Grameena Bank,APGB0003149,,GUDUR(K),"GUDUR  (K) -518466
GUDUR MANDAL
KURNOOL DISTRICT",08525-239395,GUDUR,KURNOOL,ANDHRA PRADESH
APGB0003152,Andhra Pragathi Grameena Bank,APGB0003152,,KOSIGI,"KOSIGI-518313
KOSIGI MANDAL
KURNOOL DISTRICT",08512-238717,KOSIGI,KURNOOL,ANDHRA PRADESH
APGB0003153,Andhra Pragathi Grameena Bank,APGB0003153,,CHAGALAMARRY,"CHAGALAMARRY-518553
CHAGALAMARRY MANDAL
KURNOOL DISTRICT",08519-232214,CHAGALAMARRI,KURNOOL,ANDHRA PRADESH
APGB0003155,Andhra Pragathi Grameena Bank,APGB0003155,,MAHANANDI,"MAHANANDI-518673
MAHANANDI MANDAL
KURNOOL DISTRICT",08514-234871,MAHANANDI,KURNOOL,ANDHRA PRADESH
APGB0003156,Andhra Pragathi Grameena Bank,APGB0003156,,"GOVT GENERAL HOSPITAL, KURNOOL","KURNOOL-GOVT GEN HOSPITAL-518 002
BUDHAVARPET
KURNOOL",08518-255636,KURNOOL,KURNOOL,ANDHRA PRADESH
APGB0003158,Andhra Pragathi Grameena Bank,APGB0003158,,ALLAGADDA,"ALLAGADDA-518 543
H.NO.8-1-62, T.B. ROAD, 
ALLAGADDA MANDAL
KURNOOL DISTRICT",08519-221444,ALLAGADDA,KURNOOL,ANDHRA PRADESH
APGB0003159,Andhra Pragathi Grameena Bank,APGB0003159,,KURNOOL-POOLA BAZAR,"KURNOOL-POOLABAZAR-518 001
D.NO.19/309 (UPSTAIRS)
NEAR CHINNA AMMAVARISALA
KURNOOL DISTRICT",08518-241166,KURNOOL,KURNOOL,ANDHRA PRADESH
APGB0003160,Andhra Pragathi Grameena Bank,APGB0003160,,NANDYAL-BALA JUNIOR COLLEGE,"NANDYAL-BALA JUNIOR COLLEGE-518 501
GANDHI CHOWK, ATMAKUR ROAD
NANDYAL, KURNOOL DISTRICT",08514-221611,NANDYAL,KURNOOL,ANDHRA PRADESH
APGB0003161,Andhra Pragathi Grameena Bank,APGB0003161,,VELGODU,"VELUGODU-518 533
D.NO.19-188/3, VELUGODU VIL & MANDAL
KURNOOL DISTRICT",08517-235150,VELGODU,KURNOOL,ANDHRA PRADESH
APGB0003162,Andhra Pragathi Grameena Bank,APGB0003162,,KURNOOL-VR COLONY,"KURNOOL-VRCOLONY, KURNOOL -518003                 45/142-26-3, ROAD NO.5, VENKATA RAMANA COLONY,KURNOOL",08518-254800,KURNOOL,KURNOOL,ANDHRA PRADESH
APGB0003163,Andhra Pragathi Grameena Bank,APGB0003163,,NANDYAL - S P Y REDDY DEGREE COLLEGE FOR WOMEN,"NANDYAL -SPYW COLLEGE, NANDYAL-518501          D.NO12-1, FLAT NO. 9, TEJA COMPLEX, BOMMALASATRAM, NANDYAL.",08514-246328,NANDYAL,KURNOOL,ANDHRA PRADESH
APGB0003165,Andhra Pragathi Grameena Bank,APGB0003165,,"MOSQUE STREET, ADONI","D.NO.12/747
MOSQUE  STREET
ADONI
KURNOOL DISTRICT
PIN-518 301
",08512-221666,ADONI,KURNOOL,ANDHRA PRADESH
APGB0003166,Andhra Pragathi Grameena Bank,APGB0003166,,"SRINIVASA NAGAR, NANDYAL","D.NO.B-39, I FLOOR,
BALAJI COMPLEX, SRINIVASA NAGAR,
NANDYAL,
KURNOOL DISTRICT,
PIN-518 501
",08514-244254,NANDYAL,KURNOOL,ANDHRA PRADESH
APGB0003167,Andhra Pragathi Grameena Bank,APGB0003167,,YEMMIGANUR-SIVA CIRCLE,"SIVA CIRCLE, YEMMIGANUR - 518360, 1/1443-6, PARK ROAD, SIVA CIRCLE, YEMMIGANUR POST, KURNOOL",08512-228138,YEMMIGANUR,KURNOOL,ANDHRA PRADESH
APGB0003168,Andhra Pragathi Grameena Bank,APGB0003168,,KURNOOL-REVENUE COLONY,"87-1239-1, NANDYAL ROAD, REVENUE COLONY, C-CAMP POST, KURNOOL, KURNOOL - DISTRICT, PIN - 518 002",0,KURNOOL,KURNOOL,ANDHRA PRADESH
APGB0003169,Andhra Pragathi Grameena Bank,APGB0003169,,ZP OFFICE-KURNOOL,"ZP OFFICE COMPLEX,             KURNOOL",08518-278899,KURNOOL,KURNOOL,ANDHRA PRADESH
APGB0003173,Andhra Pragathi Grameena Bank,APGB0003173,,PANYAM,"D. NO. 14-571,
PANYAM VILLAGE & POST,
PANYAM MANDAL
KURNOOL DISTRICT, 
PIN-518 112
",0,PANEAM,KURNOOL,ANDHRA PRADESH
APGB0004001,Andhra Pragathi Grameena Bank,APGB0004001,,NELLORE MAIN,"NELLORE MAIN BRANCH 
SRINIVASA AGRAHARAM,
NEAR VIJAYA MAHAL GATE 
NELLORE, 
NELLORE DISTRICT   PIN 524001",0861- 2328514,NELLORE,NELLORE,ANDHRA PRADESH
APGB0004002,Andhra Pragathi Grameena Bank,APGB0004002,,VAKADU,"VAKADU – 524415
VAKADU MANDAL
NELLORE DISTRICT",08624- 240256,VAKADU,NELLORE,ANDHRA PRADESH
APGB0004003,Andhra Pragathi Grameena Bank,APGB0004003,,PELLAKURU,"PELLAKURU – 524129
PELLAKURU MANDAL
NELLORE DISTRICT",08623- 278524,PELLAKURU,NELLORE,ANDHRA PRADESH
APGB0004004,Andhra Pragathi Grameena Bank,APGB0004004,,JAGADEVIPETA,"JAGADEVIPETA – 524332
INDUKURPET MANDAL
NELLORE DISTRICT",0861- 2381123,JAGADEVIPETA,NELLORE,ANDHRA PRADESH
APGB0004006,Andhra Pragathi Grameena Bank,APGB0004006,,GANDIPALEM,"GANDIPALEM – 524235
UDAYAGIRI MANDAL
NELLORE DISTRICT",08620- 228434,GANDIPALEM,NELLORE,ANDHRA PRADESH
APGB0004007,Andhra Pragathi Grameena Bank,APGB0004007,,KASUMUR,"KASUMURU – 524325
VENKATACHALAM MANDAL
NELLORE DISTRICT",0861- 2398977,KASUMUR,NELLORE,ANDHRA PRADESH
APGB0004008,Andhra Pragathi Grameena Bank,APGB0004008,,NELLORE - VEDAYAPALEM,"NELLORE  VEDAYAPALEM BRANCH   
VEDAYAPALEM, 
NELLORE,
NELLORE DISTRICT.    PIN 524004",0861- 2339709,NELLORE,NELLORE,ANDHRA PRADESH
APGB0004009,Andhra Pragathi Grameena Bank,APGB0004009,,VAVILLA,"VAVILLAGEA – 524318
VIDAVALURU MANDAL
NELLORE DISTRICT",08622- 287980,VAVILLA,NELLORE,ANDHRA PRADESH
APGB0004010,Andhra Pragathi Grameena Bank,APGB0004010,,BANGARUPET,"BANGARUPET -524404
VENKATAGIRI MANDAL
NELLORE DISTRICT",08625- 257474,BANGARUPETA,NELLORE,ANDHRA PRADESH
APGB0004011,Andhra Pragathi Grameena Bank,APGB0004011,,KURUGONDA,"KURUGONDA – 524402
OZILI MANDAL
NELLORE DISTRICT",08624- 227922,KURUGONDA,NELLORE,ANDHRA PRADESH
APGB0004012,Andhra Pragathi Grameena Bank,APGB0004012,,GOURAVARAM,"GOWRAVARAM – 524147
KAVALI MANDAL
NELLORE DISTRICT",08626- 255501,GOURAVARAM,NELLORE,ANDHRA PRADESH
APGB0004013,Andhra Pragathi Grameena Bank,APGB0004013,,CHILAKALAMARI,"CHILAKALAMARRI – 524302 
ANANTHASAGARAM MANDAL
NELLORE DISTRICT",08628- 239444,CHILAKALAMARI,NELLORE,ANDHRA PRADESH
APGB0004014,Andhra Pragathi Grameena Bank,APGB0004014,,MARRIPADU,"MARRIPADU – 524312 
MARRIPADU MANDAL
NELLORE DISTRICT",08620- 228922,MARRIPADU,NELLORE,ANDHRA PRADESH
APGB0004015,Andhra Pragathi Grameena Bank,APGB0004015,,CHAKALAKONDA,"CHAKALAKONDA –524221
VINJAMURU MANDAL
NELLORE DISTRICT",08629- 240015,CHAKALAKONDA,NELLORE,ANDHRA PRADESH
APGB0004016,Andhra Pragathi Grameena Bank,APGB0004016,,SIDDANAKONDURU,"SIDDANAKONDURU – 524225
KALIGIRI MANDAL
NELLORE DISTRICT",08626- 247834,SIDDANAKONDURU,NELLORE,ANDHRA PRADESH
APGB0004017,Andhra Pragathi Grameena Bank,APGB0004017,,MALLAM,"MALLAM – 524403
CHITTAMURU MANDAL
NELLORE DISTRICT",08624- 257123,MALLAM,NELLORE,ANDHRA PRADESH
APGB0004018,Andhra Pragathi Grameena Bank,APGB0004018,,BRAHMANAKRAKA,"BRAHMANAKRAKA –524228
JALADANKI MANDAL
NELLORE DISTRICT",08626- 258497,BRAHMANAKRAKA,NELLORE,ANDHRA PRADESH
APGB0004019,Andhra Pragathi Grameena Bank,APGB0004019,,POOLATHOTA,"POOLATHOTA – 524123
DORAVARISATRAM MANDAL
NELLORE DISTRICT",08623- 278022,POOLATHOTA,NELLORE,ANDHRA PRADESH
APGB0004020,Andhra Pragathi Grameena Bank,APGB0004020,,UTKUR,"UTUKURU – 524318
VIDAVALURU MANDAL
NELLORE DISTRICT",08622- 229377,UTKUR,NELLORE,ANDHRA PRADESH
APGB0004021,Andhra Pragathi Grameena Bank,APGB0004021,,TALAHANCHI,"TALAMANCHI – 524315
KODAVALURU MANDAL
NELLORE DISTRICT",08622- 277185,TALAHANCHI,NELLORE,ANDHRA PRADESH
APGB0004022,Andhra Pragathi Grameena Bank,APGB0004022,,EDURU,"EDURU – 524311
T.P.GUDUR MANDAL
NELLORE DISTRICT",0861- 2371722,EDURU,NELLORE,ANDHRA PRADESH
APGB0004023,Andhra Pragathi Grameena Bank,APGB0004023,,KONDAPURAM,"KONDAPURAM (N) – 524239
KONDAPURAM MANDAL
NELLORE DISTRICT",08626- 257434,KONDAPURAM,NELLORE,ANDHRA PRADESH
APGB0004025,Andhra Pragathi Grameena Bank,APGB0004025,,GUNAPADU,"GUNAPADU – 524492
CHITTAMURU MANDAL
NELLORE DISTRICT",08624- 227833,GUNAPADU,NELLORE,ANDHRA PRADESH
APGB0004026,Andhra Pragathi Grameena Bank,APGB0004026,,MANGA NELLORE,"MANGANELLORE – 524121 
SULLURUPETA MANDAL
NELLORE DISTRICT",08623- 276631,MANGA NELLORE,NELLORE,ANDHRA PRADESH
APGB0004027,Andhra Pragathi Grameena Bank,APGB0004027,,VEGURU,"VEGURU –524137
KOVURU MANDAL
NELLORE DISTRICT",08622- 282007,VEGURU,NELLORE,ANDHRA PRADESH
APGB0004028,Andhra Pragathi Grameena Bank,APGB0004028,,"MALAVYA NAGAR BRANCH, GUDUR","GUDUR   (N) MALAVYA  NAGAR BRANCH
M.V.NAGAR, 
GUDUR MANDAL
NELLORE DISTRICT.   PIN – 524101",08624- 253642,GUDUR,NELLORE,ANDHRA PRADESH
APGB0004030,Andhra Pragathi Grameena Bank,APGB0004030,,DAKKILI,"DAKKILI – 524132
DAKKILI MANDAL
NELLORE DISTRICT",08625- 258132,DAKKILI,NELLORE,ANDHRA PRADESH
APGB0004032,Andhra Pragathi Grameena Bank,APGB0004032,,ADURUPALLI,"ADURUPALLI -524342
(SO) DACHURU 
CHEJARLA MANDAL
NELLORE DISTRICT",08621- 228456,ADURUPALLI,NELLORE,ANDHRA PRADESH
APGB0004033,Andhra Pragathi Grameena Bank,APGB0004033,,GUDUR(N),"GUDURU (N) MAIN BRANCH
ICS ROAD, 
GUDUR MANDAL
NELLORE DISTRICT.  PIN  524101",08624- 251706,GUDUR,NELLORE,ANDHRA PRADESH
APGB0004034,Andhra Pragathi Grameena Bank,APGB0004034,,KULLUR,"KULLURU – 524343
KALUVOY MANDAL
NELLORE DISTRICT",08628- 213440,KULLUR,NELLORE,ANDHRA PRADESH
APGB0004035,Andhra Pragathi Grameena Bank,APGB0004035,,MAMUDURU,"MAMUDURU – 524309
CHEJARLA MANDAL
NELLORE DISTRICT",08628- 239018,MAMUDURU,NELLORE,ANDHRA PRADESH
APGB0004036,Andhra Pragathi Grameena Bank,APGB0004036,,NANDI PADU,"NANDIPADU –524230
DUTTALURU MANDAL
NELLORE DISTRICT",08620- 227228,NANDI PADU,NELLORE,ANDHRA PRADESH
APGB0004037,Andhra Pragathi Grameena Bank,APGB0004037,,MOHAMMADAPURAM,"MOHAMADAPURAM – 524309, VIRUR (S.O.), 
PODALAKURU MANDAL
NELLORE DISTRICT",08627- 222428,MOHAMMADAPURAM,NELLORE,ANDHRA PRADESH
APGB0004038,Andhra Pragathi Grameena Bank,APGB0004038,,GUNDEMADAKALA,"GUNDEMADAKALA-524228
VINJAMURU MANDAL
NELLORE DISTRICT",08629- 259020,GUNDEMADAKALA,NELLORE,ANDHRA PRADESH
APGB0004039,Andhra Pragathi Grameena Bank,APGB0004039,,ALLUR,"ALLURU -524315
ALLURU MANDAL
NELLORE DISTRICT",08622- 276606,SINGAPETA,NELLORE,ANDHRA PRADESH
APGB0004040,Andhra Pragathi Grameena Bank,APGB0004040,,CHINTALAPALEM,"CHINTALAPALEM – 524332
JALADANKI MANDAL
NELLORE DISTRICT",08626- 211553,CHINTALAPALEM,NELLORE,ANDHRA PRADESH
APGB0004042,Andhra Pragathi Grameena Bank,APGB0004042,,PEDAPUTTEDU,"PEDAPUTTEDU – 524317
DAGADARTHI MANDAL
NELLORE DISTRICT",08622- 289190,PEDAPUTTEDU,NELLORE,ANDHRA PRADESH
APGB0004043,Andhra Pragathi Grameena Bank,APGB0004043,,RUDRAKOTA,"RUDRAKOTA – 524203
KAVALI MANDAL
NELLORE DISTRICT",08626- 258050,RUDRAKOTA,NELLORE,ANDHRA PRADESH
APGB0004044,Andhra Pragathi Grameena Bank,APGB0004044,,VASILI,"VASILI – 524308
(VIA) SANGAM, 
ATMAKURU MANDAL
NELLORE DISTRICT",08627- 242026,VASILI,NELLORE,ANDHRA PRADESH
APGB0004045,Andhra Pragathi Grameena Bank,APGB0004045,,NIDIGUNTAPALEM,"NIDIGUNTAPALEM – 524323 
VENKATACHALAM MANDAL
NELLORE DISTRICT",0861- 2386668,NIDIGUNTAPALEM,NELLORE,ANDHRA PRADESH
APGB0004047,Andhra Pragathi Grameena Bank,APGB0004047,,DUVUURU,"DUVVURU – 524306
SANGAM MANDAL
NELLORE DISTRICT",08622- 281136,DUVUURU,NELLORE,ANDHRA PRADESH
APGB0004048,Andhra Pragathi Grameena Bank,APGB0004048,,JONNAWADA,"JONNAWADA – 524331 
BUCHIREDDYPALEM MANDAL
NELLORE DISTRICT",08622- 212648,JONNAWADA,NELLORE,ANDHRA PRADESH
APGB0004049,Andhra Pragathi Grameena Bank,APGB0004049,,INDUKURPET,"INDUKURPET – 524314
INDUKURPET MANDAL
NELLORE DISTRICT",0861- 2384276,INDUKURPET,NELLORE,ANDHRA PRADESH
APGB0004050,Andhra Pragathi Grameena Bank,APGB0004050,,KAVALI,"KAVALI – 524201
KAVALI MANDAL
NELLORE DISTRICT",08626- 243736,KAVALI,NELLORE,ANDHRA PRADESH
APGB0004065,Andhra Pragathi Grameena Bank,APGB0004065,,NAIDUPET,"NAIDUPETA –524126
NAIDUPETA MANDAL
NELLORE DISTRICT",08623- 248128,NAIDUPET,NELLORE,ANDHRA PRADESH
APGB0004066,Andhra Pragathi Grameena Bank,APGB0004066,,VENKATAGIRI,"VENKATAGIRI – 524132
VENKATAGIRI MANDAL
NELLORE DISTRICT","08625- 257105, 08625-255665",VENKATAGIRI,NELLORE,ANDHRA PRADESH
APGB0004067,Andhra Pragathi Grameena Bank,APGB0004067,,RAPUR,"RAPURU – 524408
RAPURU MANDAL
NELLORE DISTRICT",08621- 226126,RAPUR,NELLORE,ANDHRA PRADESH
APGB0004071,Andhra Pragathi Grameena Bank,APGB0004071,,VINJAMUR,"VINJAMOOR – 524228
VINJAMOOR MANDAL
NELLORE DISTRICT",08629- 249363,VINJAMUR,NELLORE,ANDHRA PRADESH
APGB0004072,Andhra Pragathi Grameena Bank,APGB0004072,,NARRAWADA,"NARRAWADA – 524222
DUTTALURU MANDAL
NELLORE DISTRICT",08629- 240621,NARRAWADA,NELLORE,ANDHRA PRADESH
APGB0004073,Andhra Pragathi Grameena Bank,APGB0004073,,UDAYAGIRI,"UDAYAGIRI – 524226
UDAYAGIRI MANDAL
NELLORE DISTRICT",08620- 229246,UDAYAGIRI,NELLORE,ANDHRA PRADESH
APGB0004074,Andhra Pragathi Grameena Bank,APGB0004074,,KOVUR,"KOVURU – 524137
KOVURU MANDAL
NELLORE DISTRICT",08622- 271010,KOVUR,NELLORE,ANDHRA PRADESH
APGB0004075,Andhra Pragathi Grameena Bank,APGB0004075,,BADDEVOLU,"BADDEVOLU - 524405
MANUBOLU MANDAL
NELLORE DISTRICT",0861- 2394443,BADDEVOLU,NELLORE,ANDHRA PRADESH
APGB0004083,Andhra Pragathi Grameena Bank,APGB0004083,,TIKKAVARAM,"TIKKAVARAM – 524412
CHILLAKURU MANDAL
NELLORE DISTRICT",08624- 255828,TIKKAVARAM,NELLORE,ANDHRA PRADESH
APGB0004084,Andhra Pragathi Grameena Bank,APGB0004084,,BUTCHIREDDIPALEM,"BUTCHIREDDYPALEM –524305
BUTCHIREDDYPALEM MANDAL
NELLORE DISTRICT",08622- 273937,VAVVURU,NELLORE,ANDHRA PRADESH
APGB0004087,Andhra Pragathi Grameena Bank,APGB0004087,,SULLURPET,"SULLURPET * – 524121
SULLURUPETA MANDAL
NELLORE DISTRICT",08623- 241003,SULLURPET,NELLORE,ANDHRA PRADESH
APGB0004093,Andhra Pragathi Grameena Bank,APGB0004093,,ATMAKUR(N),"ATMAKURU (N) -524322
ATMAKURU MANDAL
NELLORE DISTRICT",08627- 221681,ATMAKUR,NELLORE,ANDHRA PRADESH
APGB0004097,Andhra Pragathi Grameena Bank,APGB0004097,,RAJUPALEM,"NORTH RAJUPALEM – 524366
NORTH RAJUPALEM MANDAL
NELLORE DISTRICT",08622- 275858,RAJUPALEM,NELLORE,ANDHRA PRADESH
APGB0004098,Andhra Pragathi Grameena Bank,APGB0004098,,PODALAKUR,"PODALAKURU  - 524345
PODALAKURU MANDAL
NELLORE DISTRICT",08621- 225962,PODALAKUR,NELLORE,ANDHRA PRADESH
APGB0004100,Andhra Pragathi Grameena Bank,APGB0004100,,KALUVOY,"KALUVOY – 524643
KALUVOY MANDAL
NELLORE DISTRICT",08628- 235456,KALUVOY,NELLORE,ANDHRA PRADESH
APGB0004101,Andhra Pragathi Grameena Bank,APGB0004101,,"STONEHOUSEPET BRANCH, NELLORE","NELLORE  STONE HOUSE PET BRANCH
STONE HOUSE PET, 
NELLORE 
NELLORE DISTRICT   PIN 524002",0861- 2339123,NELLORE,NELLORE,ANDHRA PRADESH
APGB0004103,Andhra Pragathi Grameena Bank,APGB0004103,,MUTHUKUR,"MUTHUKURU –524344
MUTHUKURU MANDAL
NELLORE DISTRICT",0861- 2377619,MUTHUKUR,NELLORE,ANDHRA PRADESH
APGB0004104,Andhra Pragathi Grameena Bank,APGB0004104,,CHEJERLA,"CHEJARLA – 524341
CHEJARLA MANDAL
NELLORE DISTRICT",08628- 234938,CHEJERLA,NELLORE,ANDHRA PRADESH
APGB0004111,Andhra Pragathi Grameena Bank,APGB0004111,,KALIGIRI,"KALIGIRI - 524224
KALIGIRI MANDAL
NELLORE DISTRICT",08626- 248652,KALIGIRI,NELLORE,ANDHRA PRADESH
APGB0004112,Andhra Pragathi Grameena Bank,APGB0004112,,"A.K.NAGAR , NELLORE","NELLORE  A.K. NAGAR BRANCH
OPP: DISTRICT HEAD QUARTERTS HOSPITAL,
NELLORE,
NELLORE DISTRICT.  PIN 524004",0861-2326814,NELLORE,NELLORE,ANDHRA PRADESH
APGB0004113,Andhra Pragathi Grameena Bank,APGB0004113,,TADA,"TADAKANDRIGA
D.NO.210, RD STREET
NELLORE DISTRICT",08623-249170,TADA,NELLORE,ANDHRA PRADESH
APGB0004114,Andhra Pragathi Grameena Bank,APGB0004114,,"NELLORE, SANGHA MITRA VIDYALAYA","NELLORE-SMV BRANCH-524004, D.NO. 26-1-831, BHAKTHAVATSALA NAGAR, NELLORE, NELLORE DISTRICT.",0861-2318927,NELLORE,NELLORE,ANDHRA PRADESH
APGB0004115,Andhra Pragathi Grameena Bank,APGB0004115,,MULUMUDI BUS STAND NELLORE,"MULUMUDI BUS STAND -524002,             D.NO:9-744-745, 1ST FLOOR, MULUMUDI BUS STAND, GVR TOWERS, SANTHAPETA, NELLORE",0861-2313344,NELLORE,NELLORE,ANDHRA PRADESH
APGB0004116,Andhra Pragathi Grameena Bank,APGB0004116,,KOTA,"KOTA
MAIN ROAD
NEAR GOPAL  REDDY STATUE
KOTA
NELLORE DISTRICT
PIN- 524 411
",08624-229422,KOTA,NELLORE,ANDHRA PRADESH
APGB0004117,Andhra Pragathi Grameena Bank,APGB0004117,,JALADANKI,"H. NO. 2-33,
JALADANKI VIL & PO,
JALADANKI  MANDAL,
NELLORE DISTRICT,
PIN-524 228.
",08626-247255,JALADANKTI,NELLORE,ANDHRA PRADESH
APGB0004118,Andhra Pragathi Grameena Bank,APGB0004118,,JANATHAPETA-KAVALI,"NEAR MASJID COMPLEX, 1ST FLOOR, PEDDA PAVANI ROAD, KAVALI NELLORE DIST. PIN-524 201",,KAVALI,NELLORE,ANDHRA PRADESH
APGB0004119,Andhra Pragathi Grameena Bank,APGB0004119,,DUVVUR RAMANAMMA WOMEN'S COLLEGE,"DUVVUR RAMANAMMA WOMEN'S COLLEGE,                                      GUDUR,                                                      NELLORE DT.-524101",08624-250707,GUDUR,NELLORE,ANDHRA PRADESH
APGB0004120,Andhra Pragathi Grameena Bank,APGB0004120,,VENKATAGIRI CROSS ROADS,"D.NO.9/242, CROSS ROADS,
VENKATAGIRI,
VENKATAGIRI MANDAL
NELLORE DISTRICT
PIN-524 132
",0,VENKATAGIRI,NELLORE,ANDHRA PRADESH
APGB0004125,Andhra Pragathi Grameena Bank,APGB0004125,,"NELLORE, BALAJI NAGAR","D. NO. 27/1/642,
BALAJI NAGAR,
NELLORE TOWN,
NELLORE DISTRICT, 
PIN-524 002
",0,NELLORE,NELLORE,ANDHRA PRADESH
APGB0004126,Andhra Pragathi Grameena Bank,APGB0004126,,"NELLORE, KISAN NAGAR","D. NO. 28/1/1160,
KISAN NAGAR,
NELLORE TOWN,
NELLORE DISTRICT, 
PIN-524002

",0,NELLORE,NELLORE,ANDHRA PRADESH
APGB0005044,Andhra Pragathi Grameena Bank,APGB0005044,,ARTHAVEEDU,"ARTHAVEEDU – 523355
MAIN ROAD, (VIA) CUMBUM, 
ARTHAVEEDU MANDAL
PRAKASAM DISTRICT",08406-235322,ARDHAVEEDU,PRAKASAM,ANDHRA PRADESH
APGB0005045,Andhra Pragathi Grameena Bank,APGB0005045,,RACHERLA,"RACHERLA-523368
RACHERLA MANDAL
PRAKASAM DISTRICT",08405-247444,RACHERLA,PRAKASAM,ANDHRA PRADESH
APGB0005046,Andhra Pragathi Grameena Bank,APGB0005046,,MARKAPUR,"MARKAPUR-523316
NEHRU BAZAR, 
MARKAPUR MANDAL
PRAKASAM DISTRICT",08596-222633,MARKAPUR,PRAKASAM,ANDHRA PRADESH
APGB0005051,Andhra Pragathi Grameena Bank,APGB0005051,,EDUGUNDLAPADU,"EDUGUNDLAPADU – 523269 
MADDIPADU MANDAL
PRAKASAM DISTRICT",08592- 247305,EDUGUNDLAPADU,PRAKASAM,ANDHRA PRADESH
APGB0005052,Andhra Pragathi Grameena Bank,APGB0005052,,BESTAVARIPET,"BESTAVARIPET – 523334
BESTAVARIPET MANDAL
PRAKASAM DISTRICT",08406-237283,BESTAVARAPETA,PRAKASAM,ANDHRA PRADESH
APGB0005053,Andhra Pragathi Grameena Bank,APGB0005053,,MUNDLAMUR,"MUNDLAMURU – 523264
MUNDLAMURU MANDAL
PRAKASAM DISTRICT",08407- 257027,MUNDLAMUR,PRAKASAM,ANDHRA PRADESH
APGB0005054,Andhra Pragathi Grameena Bank,APGB0005054,,TETTU(MOCHERLA),"TETTU – 523291
GUDLUR MANDAL
PRAKASAM DISTRICT",08599- 278246,TETTU(MOCHERLA),PRAKASAM,ANDHRA PRADESH
APGB0005055,Andhra Pragathi Grameena Bank,APGB0005055,,DRONADULA,"DRONADULA – 523190
MARTUR MANDAL
PRAKASAM DISTRICT",08404- 279255,DRONADULA,PRAKASAM,ANDHRA PRADESH
APGB0005056,Andhra Pragathi Grameena Bank,APGB0005056,,MADDULUR,"MADDULURU – 523226 
SANTHANUTHALAPADU MANDAL
PRAKASAM DISTRICT",08592- 254356,MADDULUR,PRAKASAM,ANDHRA PRADESH
APGB0005057,Andhra Pragathi Grameena Bank,APGB0005057,,PEDACHERLOPALLI,"PEDACHERLOPALLI -523111
PEDACHERLO PALLI MANDAL
PRAKASAM DISTRICT",08490- 241183,PEDACHERLOPALLI,PRAKASAM,ANDHRA PRADESH
APGB0005058,Andhra Pragathi Grameena Bank,APGB0005058,,YERRAGONDAPALEM,"YERRAGONDAPALEM-523327
2/168-1, JNR COMPLEX, 
BRAHMAMGARI TEMPLE STREET,
 YERRAGONDAPALEM MANDAL
PRAKASAM DISTRICT",08403-254239,YERRAGONDAPALEM,PRAKASAM,ANDHRA PRADESH
APGB0005059,Andhra Pragathi Grameena Bank,APGB0005059,,GIDDALUR,"GIDDALUR-523357
GIDDALUR MANDAL
PRAKASAM DISTRICT",08405-242012,GIDDALUR,PRAKASAM,ANDHRA PRADESH
APGB0005060,Andhra Pragathi Grameena Bank,APGB0005060,,BALLIKURAVA,"BALLIKURAVA -523301
BALLIKURAVA MANDAL
PRAKASAM DISTRICT",08404- 274426,BALLIKURAVA,PRAKASAM,ANDHRA PRADESH
APGB0005061,Andhra Pragathi Grameena Bank,APGB0005061,,CHODAVARAM,"CHODAVARAM – 523279
KONDEPI MANDAL
PRAKASAM DISTRICT",08598- 249319,CHODAVARAM,PRAKASAM,ANDHRA PRADESH
APGB0005062,Andhra Pragathi Grameena Bank,APGB0005062,,KUNDURU,"KUNDURU – 523303              SANTHAMAGULUR MANDAL
PRAKASAM DISTRICT",08404- 273221,KUNDURU,PRAKASAM,ANDHRA PRADESH
APGB0005063,Andhra Pragathi Grameena Bank,APGB0005063,,VEMULAPADU,"VEMULAPADU – 523246 
HANUMANTHUNIPADU MANDAL
PRAKASAM DISTRICT",08402- 270222,VEMULAPADU,PRAKASAM,ANDHRA PRADESH
APGB0005064,Andhra Pragathi Grameena Bank,APGB0005064,,KARUMANCHI,"KARUMANCHI – 523272
TANGUTUR MANDAL
PRAKASAM DISTRICT",08592- 277090,KARUMANCHI,PRAKASAM,ANDHRA PRADESH
APGB0005069,Andhra Pragathi Grameena Bank,APGB0005069,,CUMBUM,"CUMBUM-523333
14-12, MARKET STREET, 
CUMBUM MANDAL
PRAKASAM DISTRICT",08406-232282,CUMBUM,PRAKASAM,ANDHRA PRADESH
APGB0005070,Andhra Pragathi Grameena Bank,APGB0005070,,PAMIDIPADU,"PAMIDIPADU – 523216
KORISAPADU MANDAL
PRAKASAM DISTRICT",08593- 256430,PAMIDIPADU,PRAKASAM,ANDHRA PRADESH
APGB0005078,Andhra Pragathi Grameena Bank,APGB0005078,,EEDUMUDI,"EEDUMUDI – 523186
NAGULUPPALAPADU MANDAL
PRAKASAM DISTRICT",08592- 275262,EEDUMUDI,PRAKASAM,ANDHRA PRADESH
APGB0005080,Andhra Pragathi Grameena Bank,APGB0005080,,BODDIKURAPADU,"BODDIKURAPADU -523253
(VIA)UPPALAPADU, 
TALLURU MANDAL
PRAKASAM DISTRICT",08407- 259100,BODDIKURAPADU,PRAKASAM,ANDHRA PRADESH
APGB0005082,Andhra Pragathi Grameena Bank,APGB0005082,,KOPPERAPADU,"KOPPERAPADU – 523303
BALLIKURAVA MANDAL
PRAKASAM DISTRICT",08404- 278202,KOPPERAPADU,PRAKASAM,ANDHRA PRADESH
APGB0005085,Andhra Pragathi Grameena Bank,APGB0005085,,CHIMAKURTHI,"CHIMAKURTHI – 523226
CHIMAKURTHI MANDAL
PRAKASAM DISTRICT",08592- 272660,CHIMAKURTHI,PRAKASAM,ANDHRA PRADESH
APGB0005086,Andhra Pragathi Grameena Bank,APGB0005086,,GALIZERUGULLA,"GALIZERUGULLA-523346
BESTAVARIPET  MANDAL
PRAKASAM DISTRICT",08466-200088,GALIZERUGULLA,PRAKASAM,ANDHRA PRADESH
APGB0005088,Andhra Pragathi Grameena Bank,APGB0005088,,AMMANAGUDIPADU,"AMMANAGUDIPADU – 523330
DUPADU(S.O.) 
YERRAGONDAPALEM MANDAL,
PRAKASAM DISTRICT",08596-228341,AMMANAGUDIPADU,PRAKASAM,ANDHRA PRADESH
APGB0005089,Andhra Pragathi Grameena Bank,APGB0005089,,KONDAPI,"KONDAPI – 523270
KONDAPI MANDAL
PRAKASAM DISTRICT",08598- 225210,KONDAPI,PRAKASAM,ANDHRA PRADESH
APGB0005090,Andhra Pragathi Grameena Bank,APGB0005090,,PODILI,"PODILI – 523240
PODILI MANDAL
PRAKASAM DISTRICT",08499- 243786,PODILI,PRAKASAM,ANDHRA PRADESH
APGB0005091,Andhra Pragathi Grameena Bank,APGB0005091,,PULLALACHERUVU,"PULLALACHERUVU-523328
PULLALACHERUVU MANDAL
PRAKASAM DISTRICT",08403-252257,PULLALACHERUVU,PRAKASAM,ANDHRA PRADESH
APGB0005092,Andhra Pragathi Grameena Bank,APGB0005092,,ONGOLE MARKET CENTRE,"ONGOLE   MARKET CENTRE  BRANCH
SANTHAPETA, 
ONGOLE,
PRAKASAM DISTRICT.  PIN  523002",08592- 227500,ONGOLE,PRAKASAM,ANDHRA PRADESH
APGB0005094,Andhra Pragathi Grameena Bank,APGB0005094,,MEDARAMETLA BRANCH,"MEDARAMETLA –523212
KORISAPDU MANDAL
PRAKASAM DISTRICT",08593- 252996,KORISAPADU,PRAKASAM,ANDHRA PRADESH
APGB0005095,Andhra Pragathi Grameena Bank,APGB0005095,,ULAVAPADU,"ULAVAPADU – 523292
ULAVAPADU MANDAL
PRAKASAM DISTRICT",08599- 274921,ULAVAPADU,PRAKASAM,ANDHRA PRADESH
APGB0005096,Andhra Pragathi Grameena Bank,APGB0005096,,PAMUR,"PAMURU – 523108
PAMURU MANDAL
PRAKASAM DISTRICT",08490- 246888,PAMUR,PRAKASAM,ANDHRA PRADESH
APGB0005098,Andhra Pragathi Grameena Bank,APGB0005098,,GAJJALAKONDA,"GAJJALAKONDA-523315
MARKAPUR MANDAL
PRAKASAM DISTRICT",08499-247234,GAJJALAKONDA,PRAKASAM,ANDHRA PRADESH
APGB0005099,Andhra Pragathi Grameena Bank,APGB0005099,,KURICHEDU,"KURICHEDU – 523304
KURICHEDU MANDAL
PRAKASAM DISTRICT",08408- 276131,KURICHEDU,PRAKASAM,ANDHRA PRADESH
APGB0005102,Andhra Pragathi Grameena Bank,APGB0005102,,SINGARAYAKONDA,"SINGARAYAKONDA –523101 
SINGARAYAKONDA MANDAL
PRAKASAM DISTRICT",08598- 238107,SINGARAYAKONDA,PRAKASAM,ANDHRA PRADESH
APGB0005105,Andhra Pragathi Grameena Bank,APGB0005105,,MARTURU,"MARTURU – 523301
MARTURU MANDAL
PRAKASAM DISTRICT",08404- 272211,MARTURU,PRAKASAM,ANDHRA PRADESH
APGB0005106,Andhra Pragathi Grameena Bank,APGB0005106,,DARSI,"DARSI – 523247
DARSI MANDAL
PRAKASAM DISTRICT",08407- 253570,DARSI,PRAKASAM,ANDHRA PRADESH
APGB0005107,Andhra Pragathi Grameena Bank,APGB0005107,,KARAMCHEDU,"KARAMCHEDU – 523168
KARAMCHEDU MANDAL
PRAKASAM DISTRICT",08594- 242155,KARAMCHEDU,PRAKASAM,ANDHRA PRADESH
APGB0005108,Andhra Pragathi Grameena Bank,APGB0005108,,PANDILLA  PALLE,"PANDILLAPALLI – 523184
VETAPALEM MANDAL
PRAKASAM DISTRICT",08594- 247142,PANDILLA  PALLE,PRAKASAM,ANDHRA PRADESH
APGB0005109,Andhra Pragathi Grameena Bank,APGB0005109,,PARCHOOR,"PARCHURU – 523169
PARCHURU MANDAL
PRAKASAM DISTRICT",08594- 243599,PARCHOOR,PRAKASAM,ANDHRA PRADESH
APGB0005110,Andhra Pragathi Grameena Bank,APGB0005110,,"MUNGAMUR ROAD, ONGOLE BRANCH","ONGOLE  MUNGAMUR ROAD BRANCH
MUNGAMUR  ROAD, 
ONGOLE 
PRAKASAM DISTRICT.  PIN 523002",08592- 235290,ONGOLE,PRAKASAM,ANDHRA PRADESH
APGB0005111,Andhra Pragathi Grameena Bank,APGB0005111,,THIPPAYAPALEM,"THIPPAYAPALEM-523329
MARKAPUR MANDAL
PRAKASAM DISTRICT",08596-220110,THIPPAYAPALEM,PRAKASAM,ANDHRA PRADESH
APGB0005130,Andhra Pragathi Grameena Bank,APGB0005130,,NAIDU PALEM,"NAIDUPALEM-523327
PULLALACHERUVU MANDAL
PRAKASAM DISTRICT",08403-205050,NAIDU PALEM,PRAKASAM,ANDHRA PRADESH
APGB0005132,Andhra Pragathi Grameena Bank,APGB0005132,,TRIPURANTAKAM,"TRIPURANTHAKAM-523326
TRIPURANTAKAM MANDAL
PRAKASAM DISTRICT",08403-256221,TRIPURANTHAKAM,PRAKASAM,ANDHRA PRADESH
APGB0005152,Andhra Pragathi Grameena Bank,APGB0005152,,NUTHALAPADU,"NUTHALAPADU – 523169
PARCHUR MANDAL
PRAKASAM DISTRICT",08594- 249220,NUTHALAPADU,PRAKASAM,ANDHRA PRADESH
APGB0005158,Andhra Pragathi Grameena Bank,APGB0005158,,MARRIPUDI,"MARRIPUDI - 523242
MARRIPUDI MANDAL
PRAKASAM DISTRICT",08499- 240619,MARRIPUDI,PRAKASAM,ANDHRA PRADESH
APGB0005159,Andhra Pragathi Grameena Bank,APGB0005159,,AVULAMANDA,"AVULAMANDA -523304
KURICHEDU MANDAL
PRAKASAM DISTRICT",08408- 275108,AVULAMANDA,PRAKASAM,ANDHRA PRADESH
APGB0005168,Andhra Pragathi Grameena Bank,APGB0005168,,ONGOLE- MAIN,"ONGOLE  MAIN BRANCH
OPP: RTC BUS STAND, 
ONGOLE
PRAKASAM DISTRICT. PIN 523002",08592- 233067,ONGOLE,PRAKASAM,ANDHRA PRADESH
APGB0005169,Andhra Pragathi Grameena Bank,APGB0005169,,ADDANKI,"ADDANKI -523201
ADDANKI MANDAL
PRAKASAM DISTRICT",08593- 223214,ADDANKI,PRAKASAM,ANDHRA PRADESH
APGB0005186,Andhra Pragathi Grameena Bank,APGB0005186,,KANDUKUR,"KANDUKURU – 523105
KANDUKURU MANDAL
PRAKASAM DISTRICT",08598- 223907,KANDUKUR,PRAKASAM,ANDHRA PRADESH
APGB0005188,Andhra Pragathi Grameena Bank,APGB0005188,,CHIRALA,"CHIRALA – 523155
CHIRALA MANDAL
PRAKASAM DISTRICT",08594- 237303,CHIRALA,PRAKASAM,ANDHRA PRADESH
APGB0005191,Andhra Pragathi Grameena Bank,APGB0005191,,KANIGIRI,"KANIGIRI –523230
KANIGIRI MANDAL
PRAKASAM DISTRICT",08402- 274004,KANIGIRI,PRAKASAM,ANDHRA PRADESH
APGB0005193,Andhra Pragathi Grameena Bank,APGB0005193,,KOMAROLE,"KOMAROLU-523 373
D.NO.5-243, SRIRAM NAGAR, 
KOMAROLU MANDAL,
PRAKASAM DISTRICT",08405-248001,KOMAROLE,PRAKASAM,ANDHRA PRADESH
APGB0005194,Andhra Pragathi Grameena Bank,APGB0005194,,MUPPAVARAM,"MUPPAVARAM-523 261
J. PANGALURU MANDAL
PRAKASAM DISTRICT",08593-257100,MUPPAVARAM,PRAKASAM,ANDHRA PRADESH
APGB0005197,Andhra Pragathi Grameena Bank,APGB0005197,,VALAPARLA,"D.NO.5-31, I FLOOR
VALAPARLA, 
MARTUR MANDAL,
PRAKASAM DISTRICT,
 PIN- 523 260
",08404-275199,VALAPARLA,PRAKASAM,ANDHRA PRADESH
APGB0005198,Andhra Pragathi Grameena Bank,APGB0005198,,KAMEPALLY,"D.NO.3/70,
KAMEPALLI,  
JARUGUMILLI MANDAL,
PRAKASAM DISTRICT,
PIN-523 271
",08598-231369,KAMEPALLY,PRAKASAM,ANDHRA PRADESH
APGB0005199,Andhra Pragathi Grameena Bank,APGB0005199,,INKOLLU,"INKOLLUU - 523186                            D.NO:11-121, PARUCHURU ROAD            INKOLLU (V) & (M), PRAKASAM (DIST).",08594-244170,INKOLLU,PRAKASAM,ANDHRA PRADESH
APGB0005200,Andhra Pragathi Grameena Bank,APGB0005200,,UPPUGUNDUR,"D.NO.5-41/1,
UPPUGUNDURU VILLAGE,
NAGULUPPALAPADU MANDAL,
PRAKASAM DISTRICT
PIN-523 186
",08592-275155,UPPUGUNDUR,PRAKASAM,ANDHRA PRADESH
APGB0005201,Andhra Pragathi Grameena Bank,APGB0005201,,CHINAGANJAM,"D.NO.2/128,
1 FLOOR,
MAIN ROAD,
CHINAGANJAM (VIL & MANDAL),
PRAKASAM DISTRICT
PIN-523 135
",08594-241170,CHINAGANJAM,PRAKASAM,ANDHRA PRADESH
APGB0005202,Andhra Pragathi Grameena Bank,APGB0005202,,TANGUTURU,"G.T. ROAD,
TANGUTURU VILLAGE & MANDAL,
PRAKASAM DISTRICT
PIN-523 274
",08592-242075,TANGUTURU,PRAKASAM,ANDHRA PRADESH
APGB0005203,Andhra Pragathi Grameena Bank,APGB0005203,,SANTHANUTHALAPADU,"D.NO.3-33,
SANTHANUTHALAPADU VILLAGE & POST,
SANTHANUTHALAPADU MANDAL
PRAKASAM DISTRICT
PIN-523 225
",08592-276559,SANTHANUTHALAPADU,PRAKASAM,ANDHRA PRADESH
APGB0005204,Andhra Pragathi Grameena Bank,APGB0005204,,"GANDHI BAZAR, ONGOLE","GANDHI BAZAR-523001,                  D.NO:26-1-67/68, PAPPU BAZAR, GANDHI ROAD, ONGOLE,   PRAKASAM(DIST)",08592-281369,ONGOLE,PRAKASAM,ANDHRA PRADESH
APGB0005207,Andhra Pragathi Grameena Bank,APGB0005207,,CHIRALA (RURAL),"D.NO 8/31-156/1, VODAREVU ROAD, PERALA , CHIRALA (RURAL) VILLAGE &POST, CHIRALA MANDAL, PRAKASAM DIST -523  155",0,CHIRALA,PRAKASAM,ANDHRA PRADESH
APGB0005208,Andhra Pragathi Grameena Bank,APGB0005208,,J. PANGULURU,"D.NO.2/54,
J. PANGULURU,
J. PANGULURU  MANDAL,
PRAKASAM DISTRICT
PIN- 523 261
",08593-258115,PANGULURU,PRAKASAM,ANDHRA PRADESH
APGB0005209,Andhra Pragathi Grameena Bank,APGB0005209,,YADDANAPUDI,"D.NO.1-178,
YADDANAPUDI  VIL 
YADDANAPUDI   PO& MANDAL,
PRAKASAM DISTRICT
PIN- 523 301
",0,YADDANAPUDI,PRAKASAM,ANDHRA PRADESH
APGB0005210,Andhra Pragathi Grameena Bank,APGB0005210,,"KANDUKUR, KANIGIRI ROAD","H.NO.20-4-87,
SWARNA COMPLEX,
NANDAVARI STREET,
KANIGIRI ROAD,
KANDUKURU MANDAL,
PRAKASAM DISTRICT
PIN-523 105
",0,KANDUKUR,PRAKASAM,ANDHRA PRADESH
APGB0005215,Andhra Pragathi Grameena Bank,APGB0005215,,"ONGOLE, KAMMAPALEM","D. NO. 42-1-194/14,
EAST KAMMAPALEM,
ONGOLE TOWN,
PRAKASAM DISTRICT,
 PIN-523001
",0,ONGOLE,PRAKASAM,ANDHRA PRADESH