ID,BANK,IFSC_CODE,MICR_CODE,BRANCH_NAME,ADDRESS,CONTACT,CITY,DISTRICT,STATE
BCBM0000002,The Bharat Cooperative Bank Ltd,BCBM0000002,400112002,MAIN BRANCH,"MEGHDOOT CHAMBERS, 85, MODY STREET, FORT,MUMBAI-400001","2267 9152,2269 0738",MUMBAI,GREATER BOMBAY,MAHARASHTRA
BCBM0000003,The Bharat Cooperative Bank Ltd,BCBM0000003,400112003,BHANDUP BRANCH,"GAUTAM UDYOG BHAVAN,1ST FLOOR,  L.B.S.MARG, BHANDUP(WEST),MUMBAI-400078","2594 7345,2594 7427",MUMBAI,GREATER BOMBAY,MAHARASHTRA
BCBM0000004,The Bharat Cooperative Bank Ltd,BCBM0000004,400112004,GOREGAON BRANCH," 'SHIVGIRI' PLOT NO.11, GROUND FLOOR, SAMANT ESTATE, GOREGAON (EAST), MUMBAI-400063.","2686 2707,2686 2705",MUMBAI,GREATER BOMBAY,MAHARASHTRA
BCBM0000005,The Bharat Cooperative Bank Ltd,BCBM0000005,400112005,CHEMBUR BRANCH,"GANGANGIRI COMPLEX, 18TH ROAD, NEAR AMBEDKAR GARDEN, CHEMBUR, MUMBAI-400071.","2528 5066,2528 7273",MUMBAI,GREATER BOMBAY,MAHARASHTRA
BCBM0000006,The Bharat Cooperative Bank Ltd,BCBM0000006,400112006,MULUND BRANCH,"NEELAM NAGAR, BLDG. NO.7, GAVANPADA, MULUND (EAST) MUMBAI-400081","2163 5597,2163 6558",MUMBAI,GREATER BOMBAY,MAHARASHTRA
BCBM0000007,The Bharat Cooperative Bank Ltd,BCBM0000007,400112007,BORIVALI BRANCH,"B(6 TO 8),  MANDAPESHWAR INDL.  PREMISES  CO-OP. SOCIETY LTD., S.V.P. ROAD, BORIVILI(WEST), MUMBAI-400092.","2892 6300,2890 6679",MUMBAI,GREATER BOMBAY,MAHARASHTRA
BCBM0000008,The Bharat Cooperative Bank Ltd,BCBM0000008,400112008,ANDHERI(WEST) BRANCH,"GALA NO. 4-E, LAXMI INDUSTRIAL ESTATE, OFF.J.P. ROAD, (NEW LINK ROAD) ANDHERI(WEST), MUMBAI 400058.","2674 2234,2674 2235",MUMBAI,GREATER BOMBAY,MAHARASHTRA
BCBM0000009,The Bharat Cooperative Bank Ltd,BCBM0000009,400112009,ANDHERI(EAST) BRANCH,"B-28, MITTAL INDUSTRIAL ESTATE, SANJAY BLDG. NO.5, M. VASANJI ROAD MAORL, ANDHERI(EAST), MUMBAI-400059.","6451 1798, 2850 4074",MUMBAI,GREATER BOMBAY,MAHARASHTRA
BCBM0000010,The Bharat Cooperative Bank Ltd,BCBM0000010,400112010,GHATKOPAR BRANCH,"103 TO 106, JYOTI CHAMBERS, 1ST FLOOR, JUNCTION OF J.V. RD. & HIRACHAND DESAI RD., GHATKOPAR (WEST) MUMBAI-400086.","2515 5347,2516 6908",MUMBAI,GREATER BOMBAY,MAHARASHTRA
BCBM0000011,The Bharat Cooperative Bank Ltd,BCBM0000011,400112011,DAHISAR BRANCH,"102, 'SAGAR', PRABHAT INDL. ESTATE, BEFORE CHECK NAKA, W.E. HIGHWAY, DAHISAR (EAST), MUMBAI-400068.","2896 3793,2896 1930",MUMBAI,GREATER BOMBAY,MAHARASHTRA
BCBM0000012,The Bharat Cooperative Bank Ltd,BCBM0000012,400112012,KALINA BRANCH,"GEESE CO-OP.HOUSING SOCIETY LTD. OPP. VIDYANAGRI UNIVERSITY COMPLEX, KALINA, SANTACRUZ (EAST), MUMBAI-400098","2665 2258,2667 0822",MUMBAI,GREATER BOMBAY,MAHARASHTRA
BCBM0000013,The Bharat Cooperative Bank Ltd,BCBM0000013,400112013,VILE PARLE BRANCH,"VIRESHWAR CHAMBERS, NEXT TO SHAAN TALKIES, OPP.PARLE BISCUIT COMPANY, VILE PARLE (EAST), MUMBAI-400057.","2616 9814, 2616 6583",MUMBAI,GREATER BOMBAY,MAHARASHTRA
BCBM0000014,The Bharat Cooperative Bank Ltd,BCBM0000014,400112014,BANDRA BRANCH,"NADABRAMHA MANDIR, GROUND FLOOR,  MADHUSUDAN KALEKAR MARG. KALANAGAR, BANDRA (EAST) MUMBAI-400051",2659 0742,MUMBAI,GREATER BOMBAY,MAHARASHTRA
BCBM0000015,The Bharat Cooperative Bank Ltd,BCBM0000015,400112015,GOVANDI BRANCH,"SAGAR APARTMENT SHOP NO.1-6, GROUND FLOOR, STATION ROAD, GOVANDI MUMBAI-400088.",2557 9505,MUMBAI,GREATER BOMBAY,MAHARASHTRA
BCBM0000016,The Bharat Cooperative Bank Ltd,BCBM0000016,400112016,KANDIVLI BRANCH,"BALAJI ARCADE, NEXT TO BUBNA HOUSE, S.V. ROAD, KANDIVILI(WEST), MUMBAI-400067.","2863 7020,2863 7059",MUMBAI,GREATER BOMBAY,MAHARASHTRA
BCBM0000017,The Bharat Cooperative Bank Ltd,BCBM0000017,400112017,THANE BRANCH,"360, NETAJI SUBHASH CHANDRA ROAD, OPP. NAGRIK STORES, THANE (WEST) 400601.","2537 6552,2537 8332",THANE,THANE,MAHARASHTRA
BCBM0000018,The Bharat Cooperative Bank Ltd,BCBM0000018,400112018,MIRAROAD BRANCH,"218, (A), A-WING, SHANTI COMMERCIAL COMPLEX, MIRA ROAD, (EAST), DIST THANE 401107.",2810 6193,THANE,THANE,MAHARASHTRA
BCBM0000019,The Bharat Cooperative Bank Ltd,BCBM0000019,400112019,BHANDUP VILLAGE ROAD BRANCH,"SIKA APARTMENTS, ORIENTAL COMPOUND, VILLAGE ROAD, BHANDUP (WEST) MUMBAI-400078.",2566 1386,MUMBAI,GREATER BOMBAY,MAHARASHTRA
BCBM0000020,The Bharat Cooperative Bank Ltd,BCBM0000020,400112020,VASHI BRANCH,"2,'F' TYPE BUILDING,SECTOR 6, VASHI, NAVI MUMBAI-400703.",2782 4385,MUMBAI,GREATER BOMBAY,MAHARASHTRA
BCBM0000021,The Bharat Cooperative Bank Ltd,BCBM0000021,400112021,DOMBIVLI BRANCH,"VIJ PRABHA COMPLEX, NEAR RLY. STATION, PATKAR ROAD, DOMBIVILI (EAST) 421201.",(95251) 2861 403,DOMBIVLI,THANE,MAHARASHTRA
BCBM0000022,The Bharat Cooperative Bank Ltd,BCBM0000022,560112002,K.H. ROAD BRANCH,"MONEY TERRACE, K.H ROAD (DOUBLE ROAD), BANGALORE 560027.",(080) 229 1942,BANGALORE,BANGALORE URBAN,KARNATAKA
BCBM0000023,The Bharat Cooperative Bank Ltd,BCBM0000023,560112003,MALLESHWARAM BRANCH,"17, VICTORIA ROAD, VICTORIA LAYOUT , BANGALORE 560047",(080) 233 47755,BANGALORE,BANGALORE URBAN,KARNATAKA
BCBM0000024,The Bharat Cooperative Bank Ltd,BCBM0000024,560112004,INDIRA NAGAR BRANCH,"VARSPROMENADE, 1ST FLOOR, 548, CHINMAYA MISSION HOSPITAL ROAD, INDIRA NAGAR, BANGALORE 560038",(080) 2528 1785,BANGALORE,BANGALORE URBAN,KARNATAKA
BCBM0000025,The Bharat Cooperative Bank Ltd,BCBM0000025,400112022,VASAI ROAD BRANCH,"VARUN, 1ST FLOOR, PLOT NO.8, AMBADI MAIN ROAD, VASAI (WEST), 401202, DIST THANE",(95250) 2330 300,THANE,THANE,MAHARASHTRA
BCBM0000026,The Bharat Cooperative Bank Ltd,BCBM0000026,575112002,HAMPANKATTA BRANCH,"CLASSIQUE ARCADE, K.S.RAO ROAD, HAMPANKATTA , MANAGALORE 575001.",(0824) 421 076,MANGALORE,DAKSHINA KANNADA,KARNATAKA
BCBM0000027,The Bharat Cooperative Bank Ltd,BCBM0000027,400112023,BHIWANDI BRANCH,"NANDAN ARCADE, 1ST FLOOR ASHOK NAGAR , AGRA ROAD, BHIWANDI-421302, DIST- THANE.",(952522) 220 444,THANE,THANE,MAHARASHTRA
BCBM0000028,The Bharat Cooperative Bank Ltd,BCBM0000028,400112024,MALAD BRANCH,"MONALISA APARTMENT , KASTURBA ROAD, MALAD (WEST), MUMBAI-400064.",2880 3811,MUMBAI,GREATER BOMBAY,MAHARASHTRA
BCBM0000029,The Bharat Cooperative Bank Ltd,BCBM0000029,400112025,SANTACRUZ BRANCH,"RIZVI PARK, S.V. ROAD, SANTCRUZ(WEST), MUMBAI-400054.","2614 1980, 2660 4465",MUMBAI,GREATER BOMBAY,MAHARASHTRA
BCBM0000030,The Bharat Cooperative Bank Ltd,BCBM0000030,400112026,LAMINGTON ROAD,"251, AMIR HOUSE, LAMINGTON ROAD MUMBAI-400007.",2309 0235,MUMBAI,GREATER BOMBAY,MAHARASHTRA
BCBM0000031,The Bharat Cooperative Bank Ltd,BCBM0000031,400112027,DADAR BRANCH,"SHOP NO.2 & 3, GROUND FLOOR, PRIYADARSHINI MAHILA CO-OP HSG. LTD., BHAWANI SHANKAR ROAD, DADAR (WEST) MUMBAI-400028.",2438 5155,MUMBAI,GREATER BOMBAY,MAHARASHTRA
BCBM0000032,The Bharat Cooperative Bank Ltd,BCBM0000032,411026252,"DHANKAWADI, PUNE","GR. FLOOR, PANCHARATNA HEIGHTS, CHAITANYA NAGAR, PUNE-SATARA ROAD, DHANKAWADI, PUNE - 411043",020-24362698/24362699,PUNE,PUNE,MAHARASHTRA
BCBM0000033,The Bharat Cooperative Bank Ltd,BCBM0000033,576112002,UDIPI,"GROUND FLOOR, VASUKI, NEAR TALUK OFFICE, (BEHIND DISTRICT COURT, NEXT TO VISHWAS COMMERCIALS), UDIPI - 576 101.",0820 - 2525620 / 2525621,UDIPI,UDUPI,KARNATAKA
BCBM0000034,The Bharat Cooperative Bank Ltd,BCBM0000034,400112028,PANVEL BRANCH,"SHOP NO. 1, 2 & 3 GR. FLOOR, SHREE SAHAY GALAXY, PLOT NO. 205/74, PANVEL - 410 206",26857627/26857766,MUMBAI,RAIGAD,MAHARASHTRA
BCBM0000035,The Bharat Cooperative Bank Ltd,BCBM0000035,560112005,JAYANAGAR,"SHIVA SADAN, 9TH MAIN ROAD, 5TH BLOCK, JAYANAGAR, BANGALORE - 560 041. ",26857627/26857766,BANGALORE,BANGALORE,KARNATAKA
BCBM0000036,The Bharat Cooperative Bank Ltd,BCBM0000036,NA,SURATKAL,"VEENU COMPLEX, NATIONAL HIGHWAY, NEXT TO NATRAJ THEATRE, SURATKAL, MANGALORE - 574158",SHOBHA DAYANAND               26857660/ 26857777,SURATKAL,MANGALORE,KARNATAKA
BCBM0000040,The Bharat Cooperative Bank Ltd,BCBM0000040,400112032,JOGESHWARI (EAST),"DINBHAI CHS LTD., NEAR SBI, CAVES ROAD, JOGESHWARI (EAST), MUMBAI 400 060",28310527/28310547,MUMBAI,GREATER BOMBAY,MAHARASHTRA
BCBM0000041,The Bharat Cooperative Bank Ltd,BCBM0000041,400112033,KALYAN,"GROUND FLOOR, SUCHAK HOSPITAL BUILDING, AGRA ROAD, KALYAN 421301",0251-2310011/2310021,KALYAN,THANE,MAHARASHTRA
BCBM0000042,The Bharat Cooperative Bank Ltd,BCBM0000042,575112004,PUTTUR BRANCH,"PUTTUR BRANCH, OM ARCADE 1-659A, NEAR MAYURA TALKIES, BOLVAR, PUTTUR-574201, DAKSHINA KANNADA.",08251-233241 08251-233242,MANGALORE,DAKSHIN KANNADA,KARNATAKA
BCBM0000043,The Bharat Cooperative Bank Ltd,BCBM0000043,400112034,KANDIVALI (EAST),"4,GROUND FLOOR,SVITLAND,NEAR SAIDHAM, NR WESTERN EXPRESS HIGHWAY,KANDIVALI (E) MUMBAI-400101","28543356, 28543350 ",MUMBAI,GREATER BOMBAY,MAHARASHTRA
BCBM0000044,The Bharat Cooperative Bank Ltd,BCBM0000044,400112035,GHODBUNDER ROAD,"GROUND FLOOR ""DISPLAY SHOP C "" SOLITAIRE TOWERS, CHITALSAT, MANPADA, GHODBUNDER ROAD, THANE (W) 400 607","25892531,25892540",MUMBAI,THANE,MAHARASHTRA
BCBM0000045,The Bharat Cooperative Bank Ltd,BCBM0000045,411026265,PIMPRI CHINCHWAD,"SHOP NO B/17 & 18, EMPIRE ESTATE, CHINCHWAD, PUNE 411 019","020-27443535,27443536",PIMPRI CHINCHWAD,PUNE,MAHARASHTRA
BCBM0000046,The Bharat Cooperative Bank Ltd,BCBM0000046,560112006,PEENYA,"1ST CROSS,1ST  STAGE, PEENYA INDUSTRIAL  ESTATE, BENGALURU","0802-8391995,8391996",PEENYA,BANGALORE,KARNATAKA
BCBM0000047,The Bharat Cooperative Bank Ltd,BCBM0000047,575112005,MOODABIDRI,"HOTEL VEENU SKY PLAZA, MOODBIDRI KARKALA ROAD, TAL MANGALORE, KARNATAKA STATE 574227","08258-238700, 238701",MOODABIDRI,MOODABIDRI,KARNATAKA
BCBM0000048,The Bharat Cooperative Bank Ltd,BCBM0000048,400112036,KALWA,"GR. FLOOR, KAVERI HEIGHTS, OLD BOMBAY PUNE ROAD, KHAREGAON, KALWA (WEST), THANE 400605",25366238/25366239,THANE,THANE,MAHARASHTRA
BCBM0000037,The Bharat Cooperative Bank Ltd,BCBM0000037,,GOREGAON WEST,"SHREE CHINTAMANI CHS LTD., M. G. ROAD, NEAR WAMAN HARI PETHE JEWELLERS, GOREGAON (WEST) MUMBAI -62",SHOBHA DAYANAND 26857660/ 26857777,MUMBAI,GREATER BOMBAY,MAHARASHTRA
BCBM0000038,The Bharat Cooperative Bank Ltd,BCBM0000038,400112031,BHAYANDER (EAST),"SHOP NO. 5 & 11, ANIL NIWAS, B. P. ROAD, GODDEV NAKA, BHAYANDER [EAST), DIST THANE – 401 101.
",28152265/28152275,MUMBAI,THANE,MAHARASHTRA
BCBM0000039,The Bharat Cooperative Bank Ltd,BCBM0000039,400112030,GHANSOLI,"SHIV COMPLEX, PLOT NO.14/15, SECTOR-4, GHANSOLI, NAVI MUMBAI 400 701
",27548341/27548342,NAVI MUMBAI,THANE,MAHARASHTRA
BCBM0000049,The Bharat Cooperative Bank Ltd,BCBM0000049,575112006,KARKALA,"1ST FLOOR, SOVEREIGN BLDG., OPP. MANNAGOPURA, A.S.ROAD, KARKALA 574104",08258-235780 / 235781,KARKALA,UDIPI,KARNATAKA
BCBM0000050,The Bharat Cooperative Bank Ltd,BCBM0000050,576112202,KUNDAPURA,"VEENU COMPLEX, MAIN RAOD, NEAR BUS STAND, OPP CANARA BANK, DIST: UDUPI, KARNATAKA STATE 576 201",08254-234620/ 234621,UDUPI,UDIPI,KARNATAKA
BCBM0000051,The Bharat Cooperative Bank Ltd,BCBM0000051,575112007,BUNTWAL,"VEENU PUNDALIK ENCLAVE, MITTABAIL, MAIN ROAD,B.C ROAD, BANTWAL, DIST- DAKSHINA KANNADA, KARNATAKA STATE  574 219",08255-230176/ 230184,BANTVAL,DAKSHIN KANNAD,KARNATAKA
BCBM0000052,The Bharat Cooperative Bank Ltd,BCBM0000052,422112002,NASHIK,"GROUND FLOOR, RUSHIRAJ ANNEX,D'SOUZA COLONY,OPP. COLLEGE ROAD, NASHIK 422 005

","0253 2340455, 2340456",NASHIK,NASIK,MAHARASHTRA
BCBM0000053,The Bharat Cooperative Bank Ltd,BCBM0000053,400112037,MULUND WEST,"GROUND FLOOR, HANSA VILLA, J. N. ROAD, NEAR APNA BAZAR, MULUND (WEST), MUMBAI 400 080
","022 25646574, 25690574",MUMBAI,GREATER BOMBAY,MAHARASHTRA
BCBM0000054,The Bharat Cooperative Bank Ltd,BCBM0000054,575112008,MULKI,"SHAMBHAVI COMPLEX, NEAR BUS STAND, MULKY 574154","0824 2294001, 2294002",MULKI,DAKSHIN KANNAD,KARNATAKA