ID,BANKNAME,IFSC_CODE,MICR,BRANCH,POSTAL ADDRESS,CONTACT,CENTRE,DISTRICT,STATE
SVBL0000001,The Seva Vikas Co-Operative Bank Ltd (SVB),SVBL0000001,411412002,PUNE,"SEVA BHAWAN , NEAR SADHU VASWANI GARDEN,
PIMPRI KALEWADI ROAD
PIMPRI  PUNE- 411017
SEVA BHAWAN , NEAR SADHU VASWANI GARDEN,
PIMPRI KALEWADI ROAD
PIMPRI  PUNE- 411017
DISTRICT : PUNE
STATE : MAHARASHTRA
SEVA BHAWAN,NEAR SADHU VASWANI GARDEN,PIMPRI KALEWADI ROAD,PIMPRI PUNE-411017.
PIMPRI KALEWADI ROAD
PIMPRI  PUNE- 411017
DISTRICT : PUNE
STATE : MAHARASHTRA
SEVA BHAWAN , NEAR SADHU VASWANI GARDEN,
PIMPRI KALEWADI ROAD
PIMPRI  PUNE- 411017
DISTRICT : PUNE
STATE : MAHARASHTRA
SEVA BHAWAN , NEAR SADHU VASWANI GARDEN,
PIMPRI KALEWADI ROAD
PIMPRI  PUNE- 411017
DISTRICT : PUNE
STATE : MAHARASHTRA
SEVA BHAWAN , NEAR SADHU VASWANI GARDEN,
PIMPRI KALEWADI ROAD
PIMPRI  PUNE- 411017
DISTRICT : PUNE
STATE : MAHARASHTRA
SEVA BHAWAN , NEAR SADHU VASWANI GARDEN,
PIMPRI KALEWADI ROAD
PIMPRI  PUNE- 411017
",Ramesh Hinduja            rameshhinduja@sevavikasbank.com         9763721176,PUNE,PUNE,MAHARASHTRA