ID,BANK NAME,IFSC_CODE,MICR_CODE,BRANCH_NAME,POSTAL ADDRESS,CONTACT NO/FAX NO,CENTRE/CITY,DISTRICT,STATE
KACE0000001,The Kangra Central Cooperative Bank Ltd,KACE0000001,,HEAD OFFICE,CIVIL LINES DHARMSALA DISTT KANGRA H.P. 176215,SH. J.S. RANA,DHARAMSALA,KANGRA,HIMACHAL PRADESH
KACE0000002,The Kangra Central Cooperative Bank Ltd,KACE0000002,176850052,DHARAMSHALA,CIVIL LINES DHARMSALA DISTT KANGRA H.P. 176215,SH. KULDEEP BHARDWAJ,DHARAMSALA,KANGRA,HIMACHAL PRADESH
KACE0000003,The Kangra Central Cooperative Bank Ltd,KACE0000003,176850074,NURPUR,TEHSIL NURPUR DISTT. KANGRA 176202,SH. BALBIR SINGH,NURPUR,KANGRA,HIMACHAL PRADESH
KACE0000004,The Kangra Central Cooperative Bank Ltd,KACE0000004,176850102,MAIN BAZAR PALAMPUR,MAIN BAZAR PALAMPUR DISTT. KANGRA H.P.,SH. KULBHUSAN,PALAMPUR,KANGRA,HIMACHAL PRADESH
KACE0000005,The Kangra Central Cooperative Bank Ltd,KACE0000005,177850002,HAMIRPUR,TEHSIL & DISTT. HAMIRPUR H.P.177001,DH. VINOD KUMAR,HAMIRPUR,HAMIRPUR,HIMACHAL PRADESH
KACE0000006,The Kangra Central Cooperative Bank Ltd,KACE0000006,175850002,KULLU,TEHSIL & DISTT KULLU H.P. 175101,SH. MAN SINGH,KULLU,KULLU,HIMACHAL PRADESH
KACE0000007,The Kangra Central Cooperative Bank Ltd,KACE0000007,,KEYLONG,TEHSIL KEYLONG DISTT LAHUL & SPITI 175132,SH. RAGHUBIR SINGH,KEYLONG,LAHUL & SPITI,HIMACHAL PRADESH
KACE0000008,The Kangra Central Cooperative Bank Ltd,KACE0000008,176850157,DEHRA,TEHSIL DEHRA DISTT. KANGRA H.P.177101,SH. SANJEEVAN KUMAR,DEHRA,KANGRA,HIMACHAL PRADESH
KACE0000009,The Kangra Central Cooperative Bank Ltd,KACE0000009,,AMB,VPO AMB TEHSIL AMB DISTT UNA H.P. 177203,SH. MANOJ BAROTIA,AMB,UNA,HIMACHAL PRADESH
KACE0000010,The Kangra Central Cooperative Bank Ltd,KACE0000010,175850004,BANJAR,"NEAR OLD BUS STAND,V.P.O:- BANJAR,TEHSIL:- BANJAR, DISTRICT:- KULLU. (H.P). PIN:- 175123",SH.BASANT SINGH CHAUHAN.,BANJAR,KULLU,HIMACHAL PRADESH
KACE0000011,The Kangra Central Cooperative Bank Ltd,KACE0000011,177850011,BARSAR,V.P.O. BARSAR DISTT. HAMIRPUR,SH. HANS RAJ,BARSAR,HAMIRPUR,HIMACHAL PRADESH
KACE0000012,The Kangra Central Cooperative Bank Ltd,KACE0000012,176850173,NAGROTA BAGWAN,V.P.O NAGROTA BAGWAN DISTT. KANGRA 176047,SH. S.M. DHIMAN,NAGROTA BAGWAN,KANGRA,HIMACHAL PRADESH
KACE0000013,The Kangra Central Cooperative Bank Ltd,KACE0000013,174850102,UNA,TEHSIL & DISTT. UNA H.P. 174303,SH. ASHOK PURI,UNA,UNA,HIMACHAL PRADESH
KACE0000014,The Kangra Central Cooperative Bank Ltd,KACE0000014,,DAULTPUR CHOWK,VPO DAULATPUR CHOWK TEHSIL AMB DISTT. UNA 177204,SH. RAKESH KUMAR,DAULATPUR,UNA,HIMACHAL PRADESH
KACE0000015,The Kangra Central Cooperative Bank Ltd,KACE0000015,176850054,KANDRORI,TEHSIL INDORA DISTT. KANGRA 176402,SH. ANIL SHARMA,KANDROORI,KANGRA,HIMACHAL PRADESH
KACE0000016,The Kangra Central Cooperative Bank Ltd,KACE0000016,176850103,BAIJNATH,TEHSIL BAIJNATH DISTT. KANGRA 176225,SH. VIPUL KUMAR,BAIJNATH,KANGRA,HIMACHAL PRADESH
KACE0000017,The Kangra Central Cooperative Bank Ltd,KACE0000017,,CHINTPURNI,VPO CHINTPURNI TEHSIL AMB DISTT. UNA H.P. 177110,SH. MALOOK SINGH,CHINTPURNI,UNA,HIMACHAL PRADESH
KACE0000018,The Kangra Central Cooperative Bank Ltd,KACE0000018,177850012,NADAUN,TEHSIL NADAUN DISTT. HAMIRPUR H.P. 177033,SH. MANOHAR LAL,NADAUN,HAMIRPUR,HIMACHAL PRADESH
KACE0000019,The Kangra Central Cooperative Bank Ltd,KACE0000019,176850104,LAMBAGAON,TEHSIL JAISINGHPUR DISTT KANGRA H.P. 176096,SH. BENI CHAND,LAMBAGAON,KANGRA,HIMACHAL PRADESH
KACE0000020,The Kangra Central Cooperative Bank Ltd,KACE0000020,175850005,ANI," V.P.O:- ANNI, TEHSIL:- ANNI, DISTRICT:- KULLU.(H.P).PIN:- 172026.",SH. KHIALA RAM SHARMA.,ANI,KULLU,HIMACHAL PRADESH
KACE0000021,The Kangra Central Cooperative Bank Ltd,KACE0000021,176850158,HARIPUR,TEHSIL DEHRA DISTT. KANGRA H.P. 176028,SH. VINOD KUMAR,HARIPUR,KANGRA,HIMACHAL PRADESH
KACE0000022,The Kangra Central Cooperative Bank Ltd,KACE0000022,176850055,DHAMETA,TEHSIL FATEHPUR DISTT. KANGRA H.P. 176025,SH. RAJESHWAR SINGH,DHAMETA,KANGRA,HIMACHAL PRADESH
KACE0000023,The Kangra Central Cooperative Bank Ltd,KACE0000023,176850053,DADA-SIBA,TEHSIL JASWAN DISTT. KANGRA H.P 177106,SH. APRMODH SINGH,DADA SIBA,KANGRA,HIMACHAL PRADESH
KACE0000024,The Kangra Central Cooperative Bank Ltd,KACE0000024,176850177,JAWALI,VPO JAWALI DISTT. KANGRA H.P.,SH. RANJIT PARIHAR,JAWALI,KANGRA,HIMACHAL PRADESH
KACE0000025,The Kangra Central Cooperative Bank Ltd,KACE0000025,177850021,BHORANJ,TESHIL BHORANJ DISTT. HAMIRPUR H.P. 176045,SH. SURESH CHAND`,BHORANJ,HAMIRPUR,HIMACHAL PRADESH
KACE0000026,The Kangra Central Cooperative Bank Ltd,KACE0000026,174850116,SANTOKHGARH,TESHIL & DISTT. UNA H.P. 174301,SMT. RAMAN RANI,SANTOKHGARH,UNA,HIMACHAL PRADESH
KACE0000027,The Kangra Central Cooperative Bank Ltd,KACE0000027,176850178,NAGROTA SURIAN,TEHSIL JAWALI DISTT. KANGRA H.P. 176027,SH. PARDEEP SINGH,NAGROTA SURIAN,KANGRA,HIMACHAL PRADESH
KACE0000028,The Kangra Central Cooperative Bank Ltd,KACE0000028,176850056,LOHARA,TEHSIL FATEHPUR DISTT. KANGRA H.P. 176053,SH. RAJINDER SINGH,FATEHPUR,KANGRA,HIMACHAL PRADESH
KACE0000030,The Kangra Central Cooperative Bank Ltd,KACE0000030,176850179,RAJA-KA-TALAB,TESHIL JAWALI DISTT. KANGRA H.P. 176051,SH. SURESH KUMAR,RAJA KA TALAB,KANGRA,HIMACHAL PRADESH
KACE0000031,The Kangra Central Cooperative Bank Ltd,KACE0000031,176850075,GANGATH,TEHSIL NURPUR DISTT. KANGRA H.P. 176204,SH. N.K PATHANIA,GANGATH,KANGRA,HIMACHAL PRADESH
KACE0000032,The Kangra Central Cooperative Bank Ltd,KACE0000032,176850076,JASSUR,TEHSIL NURPUR DISTT. KANGRA H.P. 176201,SH. ASWANI KUMAR,JASUR,KANGRA,HIMACHAL PRADESH
KACE0000033,The Kangra Central Cooperative Bank Ltd,KACE0000033,176850152,KANGRA,RAJPUT BHAWANKANGRAPO KANGRA DISTT KANGRA H.P.,SH SWROOOP SAINI,KANGRA,KANGRA,HIMACHAL PRADESH
KACE0000034,The Kangra Central Cooperative Bank Ltd,KACE0000034,174850104,BANGANA,TESHIL BANGANA DIST. UNA H.P. 174307,SH. GURDIAL SINGH,BANGANA,UNA,HIMACHAL PRADESH
KACE0000035,The Kangra Central Cooperative Bank Ltd,KACE0000035,175850052,MANALI,TEHSIL MANALI DISTT. KULLU 175131,SH. SARAN JEET SINGH,MANALI,KULLU,HIMACHAL PRADESH
KACE0000036,The Kangra Central Cooperative Bank Ltd,KACE0000036,177850013,BHIJARI,VPO BIJHARI TEHSIL BARSAR DISTT. KANGRA H.P.,SH. VINOD KUMAR,BIJHARI,HAMIRPUR,HIMACHAL PRADESH
KACE0000037,The Kangra Central Cooperative Bank Ltd,KACE0000037,,GAGRET,VPO GAGRET TEHSIL AMB DISTT UNA H.P. 177201,SH. INDERJIT,GAGRET,UNA,HIMACHAL PRADESH
KACE0000038,The Kangra Central Cooperative Bank Ltd,KACE0000038,175850006,NIRMAND,TESHIL NIRMAND DISTT. KULLU 172023,SH. NARINDER KUMAR,NIRMAND,KULLU,HIMACHAL PRADESH
KACE0000039,The Kangra Central Cooperative Bank Ltd,KACE0000039,176850180,BHARMAR,TEHSIL JAWALI DSITT. KANGRA H.P. 176021,SH. BHUPINDER KUMAR,BHARMAR,KANGRA,HIMACHAL PRADESH
KACE0000040,The Kangra Central Cooperative Bank Ltd,KACE0000040,176850066,RAIT,V PO RAITDISTT KANGRA H.P.,SHHEM RAJ,RAIT,KANGRA,HIMACHAL PRADESH
KACE0000041,The Kangra Central Cooperative Bank Ltd,KACE0000041,175850007,BHUNTER,TESHIL & DSITT. KULLU 175125,SH. LAL CHNAD,BHUNTAR,KULLU,HIMACHAL PRADESH
KACE0000042,The Kangra Central Cooperative Bank Ltd,KACE0000042,177850003,SUJANPUR TIRA,TESHIL SUJANPUR TIRA DISTT. HAMIRPUT 176314,SH. ASHOK KUMAR,SUJANPUR TIRA,HAMIRPUR,HIMACHAL PRADESH
KACE0000043,The Kangra Central Cooperative Bank Ltd,KACE0000043,176850181,HARSAR,TESHIL JAWALI DSITT. KANGRA,SH. CHANDER SHEKHAR,HARSAR,KANGRA,HIMACHAL PRADESH
KACE0000044,The Kangra Central Cooperative Bank Ltd,KACE0000044,176850160,RAKKAR,TEHAIL DEHRA DISTT. KANGRA H.P. 177043,SH. DAVINDER SINGH,RAKKAR,KANGRA,HIMACHAL PRADESH
KACE0000045,The Kangra Central Cooperative Bank Ltd,KACE0000045,177850014,DHANETA,VPO DHANETA TEHSIL NADAUN DISTT HAMIRPUR,SH. KISHORI LAL,DHANETA,HAMIRPUR,HIMACHAL PRADESH
KACE0000046,The Kangra Central Cooperative Bank Ltd,KACE0000046,177850015,GALORE,VPO GALORE DISTT. HAMIRPUR,SH. VINOD PAL,GALORE,HAMIRPUR,HIMACHAL PRADESH
KACE0000048,The Kangra Central Cooperative Bank Ltd,KACE0000048,174850110,HAROLI,TEHSIL HAROLI DISTT. UNA H.P. 177220,SH. SUKH RAM,HAROLI,UNA,HIMACHAL PRADESH
KACE0000049,The Kangra Central Cooperative Bank Ltd,KACE0000049,176850118,DHEERA,TEHSIL PALAMPUR DISTT. KANGRA H.P. 176101,SH. SUNIL RANA,DHEERA,KANGRA,HIMACHAL PRADESH
KACE0000050,The Kangra Central Cooperative Bank Ltd,KACE0000050,176850077,KOTLA,TEHSIL NURPUR DISTT. KANGRA H.P. 176205,SH. SARAVJIT SHARMA,KOTLA,KANGRA,HIMACHAL PRADESH
KACE0000051,The Kangra Central Cooperative Bank Ltd,KACE0000051,176850057,REHAN,TEHSIL NURPUR DISTT. KANGRA H.P. 176022,SH. KRISHAN CHAND,REHAN,KANGRA,HIMACHAL PRADESH
KACE0000052,The Kangra Central Cooperative Bank Ltd,KACE0000052,176850058,BADUKHAR,TESHIL INDORA DISTT KANGRA,SMT. TRIPTA DEVI,BADUKHAR,KANGRA,HIMACHAL PRADESH
KACE0000053,The Kangra Central Cooperative Bank Ltd,KACE0000053,176850154,JOURBAR,VILL JOURBAR PO TIPRI TEHSIL JASWAN DISTT. KANGRA H.P. 177112,SH. SANJEEV RANA,BATHU-TIPRI,KANGRA,HIMACHAL PRADESH
KACE0000054,The Kangra Central Cooperative Bank Ltd,KACE0000054,176850119,PANCHRUKHI,TEHSIL PALAMPUR DISTT. KANGRA H.P. 176103,SH. SURINDER MOHAN,PANCHRUKHI,KANGRA,HIMACHAL PRADESH
KACE0000055,The Kangra Central Cooperative Bank Ltd,KACE0000055,174850114,RAIPUR MAIDAN,TESHIL & DSITT. UNA H.P.,SH. SOHAN SINGH,RAIPUR MAIDAN,UNA,HIMACHAL PRADESH
KACE0000056,The Kangra Central Cooperative Bank Ltd,KACE0000056,176850161,JWALAMUKHI,TEHSILDEHRA DISTT. KANGRA H.P. 176031,SH. BHURI SINGH,JWALAMUKHI,KANGRA,HIMACHAL PRADESH
KACE0000057,The Kangra Central Cooperative Bank Ltd,KACE0000057,176850174,DANOA,VILL DANOA P.O. BAROH DISTT KANGRA 176054,SH. KIKKAR SINGH,DANOA,KANGRA,HIMACHAL PRADESH
KACE0000058,The Kangra Central Cooperative Bank Ltd,KACE0000058,176850168,GAGGAL,V PO GAGGAL DISTT KANGRA H.P.,SMT PUSHAP RENU,GAGGAL,KANGRA,HIMACHAL PRADESH
KACE0000059,The Kangra Central Cooperative Bank Ltd,KACE0000059,176850120,THURAL,TESHIL PALAMPUR DISTT. KANGRA H.P. 176107,SH. ASWANI KUMAR,THURAL,KANGRA,HIMACHAL PRADESH
KACE0000060,The Kangra Central Cooperative Bank Ltd,KACE0000060,176850155,SANSARPUR TERRACE,VPO SANSARPUR TERRACE TEHSIL JASWAN DISTT. KANGRA H.P.176501,SH. SANJEEV SINGH,SANSARPUR TERRACE,KANGRA,HIMACHAL PRADESH
KACE0000061,The Kangra Central Cooperative Bank Ltd,KACE0000061,177850004,BHOTA,VPO BHOTA DISTT. HAMIRPUR H.P.,SH. RAJ KUMAR SHARMA,BHOTA,HAMIRPUR,HIMACHAL PRADESH
KACE0000062,The Kangra Central Cooperative Bank Ltd,KACE0000062,175850008,SAINJ,"SAINJ, V.P.O:- SAINJ, TEHSIL:- SAINJ, DISTRICT:- KULLU. (H.P). PIN:- 175134.",SH. ANOOP RAM,SAINJ,KULLU,HIMACHAL PRADESH
KACE0000063,The Kangra Central Cooperative Bank Ltd,KACE0000063,177850005,ANOO,VPO ANOO DISTT. HAMIRPUR,SH. RIKHI RAM,ANOO,HAMIRPUR,HIMACHAL PRADESH
KACE0000064,The Kangra Central Cooperative Bank Ltd,KACE0000064,,SHANSHA,TESHIL KEYLONG DISTT. LAHUL & SPITI H.P.,SH. SON DEV.,SHANSHA,LAHUL & SPITI,HIMACHAL PRADESH
KACE0000065,The Kangra Central Cooperative Bank Ltd,KACE0000065,177850016,BARA,VPO BARA DISTT. KANGRA H.P.,SH. BASHIR MOHMMAD,BARA,HAMIRPUR,HIMACHAL PRADESH
KACE0000066,The Kangra Central Cooperative Bank Ltd,KACE0000066,176850162,CHANOUR,TESHIL DEHRA DISTT. KANGRA H.P. 177113,SH. BALDEV SINGH,CHANAUR,KANGRA,HIMACHAL PRADESH
KACE0000067,The Kangra Central Cooperative Bank Ltd,KACE0000067,,PANJAWAR,VPO PANJAWAR TEHSIL HAROLI DISTT UNA H.P. 177208,SH. BALDEV SINGH,PANJAWAR,UNA,HIMACHAL PRADESH
KACE0000069,The Kangra Central Cooperative Bank Ltd,KACE0000069,176850078,SADWAN,TEHSIL NURPUR DISTT.KANGRA H.P. 176202,SH. SURJEET SINGH,SADWAN,KANGRA,HIMACHAL PRADESH
KACE0000070,The Kangra Central Cooperative Bank Ltd,KACE0000070,176850105,BIR,TESHIL BAIJNATH DSITT. KANGRA H.P. 175041,SH. DESH RAJ,BIR,KANGRA,HIMACHAL PRADESH
KACE0000071,The Kangra Central Cooperative Bank Ltd,KACE0000071,176850059,SATHANA,TESHIL FATEHPUR DISTT. KANGRA H.P. 176025,SH. ONKAR CHAND,SATHANA,KANGRA,HIMACHAL PRADESH
KACE0000072,The Kangra Central Cooperative Bank Ltd,KACE0000072,177850006,LAMBLOO,TEHSIL & DISTT. HAMIRPUR H.P. 177029,SH. JOGINDER PAL,LAMBLOO,HAMIRPUR,HIMACHAL PRADESH
KACE0000073,The Kangra Central Cooperative Bank Ltd,KACE0000073,176850163,PRAGPUR,TESHIL DEHRA DISTT. KANGRA H.P. 177107,SH. BHUBAN CHANDER,PRAGPUR,KANGRA,HIMACHAL PRADESH
KACE0000074,The Kangra Central Cooperative Bank Ltd,KACE0000074,175850009,DALASH,"DALASH, V.P.O:- DALASH, TEHSIL:- ANNI, DISTRICT:- KULLU. (H.P). PIN:- 172025.",SH. RAMESH CHAND VERMA,DALASH,KULLU,HIMACHAL PRADESH
KACE0000075,The Kangra Central Cooperative Bank Ltd,KACE0000075,176850071,KB DHARAMSHALA,KOTWALI BAZAR DHARMSALA DISTT KANGRA 176215,SH. N.K. CHADHA,DHARAMSALA,KANGRA,HIMACHAL PRADESH
KACE0000076,The Kangra Central Cooperative Bank Ltd,KACE0000076,176850060,INDORA,TESHIL INDORA DISTT. KANGRA H.P. 176401,SMT. NEETA CHAUHAN,INDORA,KANGRA,HIMACHAL PRADESH
KACE0000077,The Kangra Central Cooperative Bank Ltd,KACE0000077,175850017,KATRIAN,TEHSIL & DISTT. KULLU H.P. 175129,SMT. KUSUM LATA,KATRAIN,KULLU,HIMACHAL PRADESH
KACE0000079,The Kangra Central Cooperative Bank Ltd,KACE0000079,174850152,MEHATPUR,TESHIL & DISTT. UNA H.P. 174315,SMT. NEELAM SHARMA,MEHATPUR,UNA,HIMACHAL PRADESH
KACE0000081,The Kangra Central Cooperative Bank Ltd,KACE0000081,176850121,NAGRI,TESHIL PALAMPUR DISTT. KANGRA H.P. 176059,SH. O.P.MEHTA,CHICHIAN,KANGRA,HIMACHAL PRADESH
KACE0000082,The Kangra Central Cooperative Bank Ltd,KACE0000082,176850106,DEOL,TESHIL BAIJNATH DSITT. KANGRA H.P. 176125,SMT. SUMAN KUMARI,DEOL KHAS,KANGRA,HIMACHAL PRADESH
KACE0000083,The Kangra Central Cooperative Bank Ltd,KACE0000083,176850115,KHUNDIAN,TESHIL KHUNDIAN DISTT. KANGRA H.P. 176030,SH. VINAY KUMAR,KHUNDIAN,KANGRA,HIMACHAL PRADESH
KACE0000084,The Kangra Central Cooperative Bank Ltd,KACE0000084,176850122,WAHE-DA-PATT,TEHSIL PALAMPUR DIST. KANGRA H.P.176086,SH. ISHWAR DASS,KHAIRA,KANGRA,HIMACHAL PRADESH
KACE0000085,The Kangra Central Cooperative Bank Ltd,KACE0000085,177850022,PATTA,TESHIL & DISTT. HAMIRPUR H.P. 173233,SH. SUNIL KUMAR,PATTA,HAMIRPUR,HIMACHAL PRADESH
KACE0000086,The Kangra Central Cooperative Bank Ltd,KACE0000086,176850107,JAISINGHPUR,TESHIL JAISINGHPUR DISTT. KANGRA H.P. 176095,SH. BALWINDER SINGH,JAISINGHPUR,KANGRA,HIMACHAL PRADESH
KACE0000087,The Kangra Central Cooperative Bank Ltd,KACE0000087,174850106,DUSHARA,TESHIL & DISTT. UNA 174302,SH. KAMALJIT,UNA,UNA,HIMACHAL PRADESH
KACE0000088,The Kangra Central Cooperative Bank Ltd,KACE0000088,176850067,SHAHPUR,V PO SHAHPUR DISTT KANGRA H.P.,SH AMODH GURANG,SHAHPUR,KANGRA,HIMACHAL PRADESH
KACE0000089,The Kangra Central Cooperative Bank Ltd,KACE0000089,177850023,TAUNI DEVI,TEHSIL & DISTT. HAMIRPUR 177023,SH. NAND KISHORE,TAUNIDEVI,HAMIRPUR,HIMACHAL PRADESH
KACE0000091,The Kangra Central Cooperative Bank Ltd,KACE0000091,176850108,PAPROLA,TESHIL BAIJNATH DISTT. KANGRA H.P. 176115,SH. ASWANI KUMAR,PAPROLA,KANGRA,HIMACHAL PRADESH
KACE0000092,The Kangra Central Cooperative Bank Ltd,KACE0000092,176850062,DAMTAL,TESHIL INDORA DISTT KANGRA H.P. 176403,SH. VINAY KAPOOR,DAMTAL,KANGRA,HIMACHAL PRADESH
KACE0000093,The Kangra Central Cooperative Bank Ltd,KACE0000093,176850123,BHAWARNA,TESHIL PALAMPUR DISTT. KANGRA H.P. 176083,SH. RAJAN MEHTA,BHAWARNA,KANGRA,HIMACHAL PRADESH
KACE0000094,The Kangra Central Cooperative Bank Ltd,KACE0000094,177850024,PANJOT,TEHSIL & DISTT. HAMIRPUR H.P. 177029,SH. YOGESH KUMAR,PANJOT,HAMIRPUR,HIMACHAL PRADESH
KACE0000096,The Kangra Central Cooperative Bank Ltd,KACE0000096,174850109,GOVT. COLLEGE UNA,TEHSIL & DISTT. UNA H.P. 174303,SH. DILBAG SINGH,UNA,UNA,HIMACHAL PRADESH
KACE0000097,The Kangra Central Cooperative Bank Ltd,KACE0000097,176850169,BAGLI,V POBAGLI DISTT KANGRA H.P.,SH ARUN PARASHAR,BAGLI,KANGRA,HIMACHAL PRADESH
KACE0000098,The Kangra Central Cooperative Bank Ltd,KACE0000098,177850018,BANI,VPO BANI DISTT HAMIRPUR,SH. DALIP SINGH,BANI,HAMIRPUR,HIMACHAL PRADESH
KACE0000099,The Kangra Central Cooperative Bank Ltd,KACE0000099,175850018,GANDHI NAGAR,KULLU DISTT. KULLU H.P.,SH. RAJINDER SINGH,KULLU,KANGRA,HIMACHAL PRADESH
KACE0000100,The Kangra Central Cooperative Bank Ltd,KACE0000100,176850068,CHARRI,V PO CHARRI DISTT KANGRA H.P.,SH KULTAR MANKOTIA,CHARI,KANGRA,HIMACHAL PRADESH
KACE0000101,The Kangra Central Cooperative Bank Ltd,KACE0000101,177850007,DIDWIN TIKKAR,TEHSIL BARSAR DSITT. HAMIRPUR H.P.177401,SH. BIKRAM CHAUHAN,DIDHWIN,HAMIRPUR,HIMACHAL PRADESH
KACE0000102,The Kangra Central Cooperative Bank Ltd,KACE0000102,176850109,CHADIAR,TEHSIL BAIJNATH DISTT. KANGRA 176088,SH. HARISH KUMAR,CHADIHYAR,KANGRA,HIMACHAL PRADESH
KACE0000105,The Kangra Central Cooperative Bank Ltd,KACE0000105,176850175,PATHIAR,V.P.O. PATHIAR DISTT. KANGRA H.P. 176047,SH. AYODHYA KUMAR,PATHIAR,KANGRA,HIMACHAL PRADESH
KACE0000107,The Kangra Central Cooperative Bank Ltd,KACE0000107,175850019,RAISON,TEHSIL & DISTT KULLU H.P. 175128,SH. NARESH KUMAR,RAISON,KULLU,HIMACHAL PRADESH
KACE0000108,The Kangra Central Cooperative Bank Ltd,KACE0000108,175850012,BAJAURA,TEHSIL & DISTT KULLU H.P. 175125,SMT NAWANG DOLMA,BAJAURA,KULLU,HIMACHAL PRADESH
KACE0000110,The Kangra Central Cooperative Bank Ltd,KACE0000110,175850020,SAJALA AT KHAKNAL,TEHSIL & DISTT. KANGRA H.P. 175143,SH. HARI SINGH,SAJLA,KULLU,HIMACHAL PRADESH
KACE0000111,The Kangra Central Cooperative Bank Ltd,KACE0000111,176850170,GHAHLIAN,TEHSIL & DISTT. KANGRA H.P.176029,S. PARMINDER PATIYAL,GAHLIAN,KANGRA,HIMACHAL PRADESH
KACE0000112,The Kangra Central Cooperative Bank Ltd,KACE0000112,177850019,KANGOO,VPO KANGOO TEHSIL NADAUN DISTT. HAMIRPUR,SH. VARINDER KUMAR,KANGOO,HAMIRPUR,HIMACHAL PRADESH
KACE0000113,The Kangra Central Cooperative Bank Ltd,KACE0000113,176850110,RAKKAR-BHERI,TEHSIL BAIJNATH DISTT. KANGRA H.P. 176063,SH. DINESH SOOD,RAKKAR BHERI,KANGRA,HIMACHAL PRADESH
KACE0000114,The Kangra Central Cooperative Bank Ltd,KACE0000114,174850103,AJOULI,TEHSIL & DISTT. UNA 174301,SH. SITA RAM SHARMA,AJOULI,UNA,HIMACHAL PRADESH
KACE0000115,The Kangra Central Cooperative Bank Ltd,KACE0000115,176850164,PAISA,PAISA ROAD TEHSIL DEHRA DISTT. KANGRA H.P. 177101,SH. RAKESH SOOD,PAISA,KANGRA,HIMACHAL PRADESH
KACE0000116,The Kangra Central Cooperative Bank Ltd,KACE0000116,176850171,PURANA KANGRA,TEHSIL & DISTT. KANGRA H.P. 176002,SH. ATUL KUMAR,KANGRA,KANGRA,HIMACHAL PRADESH
KACE0000118,The Kangra Central Cooperative Bank Ltd,KACE0000118,176850079,CHOUGAN NURPUR,TEHSIL NURPUR DISTT. KANGRA H.P. 176202,SH. RAKESH SINGH,NURPUR,KANGRA,HIMACHAL PRADESH
KACE0000119,The Kangra Central Cooperative Bank Ltd,KACE0000119,176850111,UPPER LAMBAGAON,TEHSIL JAISINGHPUR DISTT KANGRA H.P. 176096,SH. SURJEET SINGH,LAMBAGAON,KANGRA,HIMACHAL PRADESH
KACE0000120,The Kangra Central Cooperative Bank Ltd,KACE0000120,176850064,DHANGU PIR,TEHSIL INDORA DIST. KANGRA H.P. 176403,SH. KULDEEP SINGH,,KANGRA,HIMACHAL PRADESH
KACE0000121,The Kangra Central Cooperative Bank Ltd,KACE0000121,176850072,YOL CAMP,YOL CAMP DISTT. KANGRA H.P. 176052,SH. RAJAN GUPTA,YOL CAMP,KANGRA,HIMACHAL PRADESH
KACE0000122,The Kangra Central Cooperative Bank Ltd,KACE0000122,176850165,NEHRAN PUKHAR,TEHSIL DEHRA DISTT. KANGRA H.P. 177104,SH. NARINDER KUMAR,PRAGPUR,KANGRA,HIMACHAL PRADESH
KACE0000123,The Kangra Central Cooperative Bank Ltd,KACE0000123,177850025,JAHU,TESHIL BHORANJ DISTT. HAMIRPUR H.P. 176048,SH. JIWAN KUMAR,JAHU,HAMIRPUR,HIMACHAL PRADESH
KACE0000124,The Kangra Central Cooperative Bank Ltd,KACE0000124,176850126,SULAH,TESHIL PALAMPUR DISTT. KANGRA H.P. 176085,SH. PAWAN DHIMAN,SULAH,KANGRA,HIMACHAL PRADESH
KACE0000125,The Kangra Central Cooperative Bank Ltd,KACE0000125,176850125,RAJPURA,TEHSIL PALAMPUR DISTT. KANGRA H.P. 176051,SMT. MANJU NAG,RAJPUR,KANGRA,HIMACHAL PRADESH
KACE0000126,The Kangra Central Cooperative Bank Ltd,KACE0000126,176850176,RAJIANA,V.P.O. RAJIANA (53 MILES) DISTT. KANGRA H.P. 176056,SH. RAJINDER SHARMA,SUNEHAR,KANGRA,HIMACHAL PRADESH
KACE0000127,The Kangra Central Cooperative Bank Ltd,KACE0000127,176850156,KASBA KOTLA,VPO KASBA KOTLA TEHSIL JASWAN DISTT. KANGRA H.P. 177111,SMT. SATISH KUMARI,KASBA KOTLA,KANGRA,HIMACHAL PRADESH
KACE0000128,The Kangra Central Cooperative Bank Ltd,KACE0000128,,MUBARAKPUR,VPO MUBARIKPUR TEHSIL AMB DISTT.UNA H.P. 177202,SH. SUKH CHAIN,MUBARAKPUR,UNA,HIMACHAL PRADESH
KACE0000129,The Kangra Central Cooperative Bank Ltd,KACE0000129,176850073,DARI,VILL . BAROL P.O. DARI DISTT. KANGRA H.P.176057,SMT. KAMINI SOOD,DARI,KANGRA,HIMACHAL PRADESH
KACE0000130,The Kangra Central Cooperative Bank Ltd,KACE0000130,175850021,BHUTTI COLONY,TEHSIL & DISTT. KULLU H.P. 175126,SH. AMAR SINGH,KULLU,KULLU,HIMACHAL PRADESH
KACE0000132,The Kangra Central Cooperative Bank Ltd,KACE0000132,,SHASTRI MARKET DAULATPUR CHOWK,DAULATPUR CHOWK TEHSIL AMB DISTT UNA H.P. 177204,SH. SAMAR VIJAY SINGH,DAULATPUR,UNA,HIMACHAL PRADESH
KACE0000133,The Kangra Central Cooperative Bank Ltd,KACE0000133,177850008,BIR BHAGERHA,VPO BIR BAGHERA DISTT HAMIRPUR,SH. NITIN MAHAJAN,BIR BAGHERA,HAMIRPUR,HIMACHAL PRADESH
KACE0000134,The Kangra Central Cooperative Bank Ltd,KACE0000134,177850026,BHARERI,TEHSIL BHORANJ DISTT. HAMIRPUR H.P.177024,SH. HARI CHAND,BHARERI,HAMIRPUR,HIMACHAL PRADESH
KACE0000135,The Kangra Central Cooperative Bank Ltd,KACE0000135,177850020,SALAUNI,VPO SALAUNI TEHSIL BARSAR DISTT HAMIRPUR H.P.,SH. SANJAY NEGI,SALAUNI,HAMIRPUR,HIMACHAL PRADESH
KACE0000136,The Kangra Central Cooperative Bank Ltd,KACE0000136,176850166,BANKHANDI,TESHIL DEHRA DISTT. KANGRA H.P. 177114,SH. DEV RAJ,BANKHANDI,KANGRA,HIMACHAL PRADESH
KACE0000137,The Kangra Central Cooperative Bank Ltd,KACE0000137,177850017,CHAKMOH,VPO CHAKMOH DISTT. HAMIRPUR H.P.,SH. K.C .DOGRA,CHHAKMOH,KANGRA,HIMACHAL PRADESH
KACE0000138,The Kangra Central Cooperative Bank Ltd,KACE0000138,176850116,DARANG,V.P.O.DARANG TEHSIL PALAMPUR DISTT. KANGRA 176060,SH. NARESH MEHTA,DARANG,KANGRA,HIMACHAL PRADESH
KACE0000139,The Kangra Central Cooperative Bank Ltd,KACE0000139,175850014,JARI,TESHIL & DISTT. KULLU,SH. HARI RAM,JARI,KULLU,HIMACHAL PRADESH
KACE0000140,The Kangra Central Cooperative Bank Ltd,KACE0000140,176850114,CHOUGAN BIR,TIBETAN COLONY BIR TEHSIL BAIJNATH DSITT. KANGRA H.P. 176077,SH. SHASHI BHUSHAN,BIR,KANGRA,HIMACHAL PRADESH
KACE0000141,The Kangra Central Cooperative Bank Ltd,KACE0000141,176850127,SYNDICATE AREA PALAMPUR,NEAR SHEETLA MATA MANDIR . SY. AREA PALAMPUR DISTT KANGRA H.P.,SH. MOHINDER RANA,PALAMPUR,KANGRA,HIMACHAL PRADESH
KACE0000142,The Kangra Central Cooperative Bank Ltd,KACE0000142,176850080,BHADWAR,TEHSIL NURPUR DISTT. KANGRA H.P.,SH. SUSHIL KUMAR,BHADWAR,KANGRA,HIMACHAL PRADESH
KACE0000143,The Kangra Central Cooperative Bank Ltd,KACE0000143,177850028,LADROUR,TEHSIL BHORANJ DISTT HAMIRPUR H.P.,SH. CHANDER SHEKHAR,LADRAUR,HAMIRPUR,HIMACHAL PRADESH
KACE0000144,The Kangra Central Cooperative Bank Ltd,KACE0000144,177850027,SAMIRPUR,TESHIL BHORANJ DISTT. HAMIRPUR H.P.,SH. NARESH KUMAR,SAMIRPUR,HAMIRPUR,HIMACHAL PRADESH
KACE0000145,The Kangra Central Cooperative Bank Ltd,KACE0000145,177850010,LOWER BAZAR HAMIRPUR,TEHSIL & DISTT. HAMIRPUR H.P. 177001,SH. RAJIV SHARMA,HAMIRPUR,HAMIRPUR,HIMACHAL PRADESH
KACE0000146,The Kangra Central Cooperative Bank Ltd,KACE0000146,176850172,JAMANABAD,V.P.O. JAMANABAD DISTT KANGRA H.P.,SH AJAY PARMAR,ZAMANABAD,KANGRA,HIMACHAL PRADESH
KACE0000147,The Kangra Central Cooperative Bank Ltd,KACE0000147,176850069,RAJOL,V.P.O. RAJOL DISTT KANGRA H.P.,SHRAVINDER CHHETRI,RAJOL,KANGRA,HIMACHAL PRADESH
KACE0000148,The Kangra Central Cooperative Bank Ltd,KACE0000148,176850128,DAROH,TEHSIL PALAMPUR DISTT. KANGRA H.P.176107,SJ. KRISHAN KUMAR,DAROH,KANGRA,HIMACHAL PRADESH
KACE0000149,The Kangra Central Cooperative Bank Ltd,KACE0000149,177850029,CHOURI,TESHIL SUJANPUR TIRA DISTT. HAMIRPUT 176111,SH. CHANDERBHUSHAN,PANOH,HAMIRPUR,HIMACHAL PRADESH
KACE0000150,The Kangra Central Cooperative Bank Ltd,KACE0000150,177850009,RANGAS,TESHIL NADAUN DIST. HAMIRPUR H.P. 177048,SH. YASHBIR SINGH,RANGAS,HAMIRPUR,HIMACHAL PRADESH
KACE0000152,The Kangra Central Cooperative Bank Ltd,KACE0000152,174850108,DULLEHAR,TEHSIL HAROLI DISTT UNA H.P. 176601,SH. DALBIR SINGH,DULEHAR,UNA,HIMACHAL PRADESH
KACE0000153,The Kangra Central Cooperative Bank Ltd,KACE0000153,176850113,MAHAKAAL,TESHIL BAIJNATH DISTT. KANGRA H.P. 176125,SH. R.S MINHAS,MAHAKAL,KANGRA,HIMACHAL PRADESH
KACE0000154,The Kangra Central Cooperative Bank Ltd,KACE0000154,,BHARWAIN,VPO BHARWAIN TEHSIL AMB DISTT UNA H.P.177109,SH. OM PARKASH,BHARWAIN,UNA,HIMACHAL PRADESH
KACE0000155,The Kangra Central Cooperative Bank Ltd,KACE0000155,176850167,SANTALA,TESHIL DEHRA DISTT. KANGRA H.P. 177034,SH. RAKESH KUMAR,SHANTLA,KANGRA,HIMACHAL PRADESH
KACE0000156,The Kangra Central Cooperative Bank Ltd,KACE0000156,176850182,LUBH,TESHIL JAWALI DISTT. KANGRA H.P. 176023,SH. RAVINDER SINGH,LUBH,KANGRA,HIMACHAL PRADESH
KACE0000157,The Kangra Central Cooperative Bank Ltd,KACE0000157,174850112,LATHIANI,TEHSIL BANGANA DISTT. UNA H.P.,SH. JAGDEV SINGH,LATHIANI,HAMIRPUR,HIMACHAL PRADESH
KACE0000158,The Kangra Central Cooperative Bank Ltd,KACE0000158,176850065,MAKROLI,TESHIL INDORA DISTT. KANGRA H.P. 176022,SH. SUBHASH CHAND,MAKROLI,KANGRA,HIMACHAL PRADESH
KACE0000159,The Kangra Central Cooperative Bank Ltd,KACE0000159,177850030,TIKKER KHATRIAN,TESHIL BHORANJ DISTT. HAMIRPUR H.P. 177025,SH. NEERAJ KUMAR,TIKKERBUHLA,HAMIRPUR,HIMACHAL PRADESH
KACE0000161,The Kangra Central Cooperative Bank Ltd,KACE0000161,,UDAIPUR,TESHIL UDAIPUR DISTT. LAHUL & SPITI H.P. 175142,SJH. JAI CHAND,UDAIPUR,LAHUL & SPITI,HIMACHAL PRADESH
KACE0000162,The Kangra Central Cooperative Bank Ltd,KACE0000162,174850115,REGIONAL HOSPITAL UNA,TESHIL & DISTT.UNA H.P. 174303,SH. DIBAGH SINGH,UNA,UNA,HIMACHAL PRADESH
KACE0000164,The Kangra Central Cooperative Bank Ltd,KACE0000164,176850070,MCLEODGANJ,BHAGSU ROAD P.O. MCLEODGANJ DISTT. KANGRA H.P.176219,SH.RAVI KANT,MCLEODGANJ,KANGRA,HIMACHAL PRADESH
KACE0000165,The Kangra Central Cooperative Bank Ltd,KACE0000165,176850153,CHALWARA,TESHIL NURPUR DISTT. KANGRA H.P.,SH. GURBAX SINGH,CHALWARA,KANGRA,HIMACHAL PRADESH
KACE0000166,The Kangra Central Cooperative Bank Ltd,KACE0000166,177850031,KUTHERA,TESHIL & DISTT. HAMIRPUR H.P.,SH. KARTAR CHAND,KUTHERA BUHLA,HAMIRPUR,HIMACHAL PRADESH
KACE0000167,The Kangra Central Cooperative Bank Ltd,KACE0000167,177850032,AWAHDEVI,TESHIL & DISTT. HAMIRPUR H.P.,SH. SUSHIL KUMAR,AWAH BUHLA,HAMIRPUR,HIMACHAL PRADESH
KACE0000168,The Kangra Central Cooperative Bank Ltd,KACE0000168,177850033,PUCA BAROH,TESHIL & DISTT. HAMIRPUR H.P.,SMT. SHIWANI,HAMIRPUR,HAMIRPUR,HIMACHAL PRADESH
KACE0000169,The Kangra Central Cooperative Bank Ltd,KACE0000169,177850034,KALE AMB,TESHIL & DISTT. HAMIRPUR H.P.,SH. LALIT KUMAR,SWAHAL,HAMIRPUR,HIMACHAL PRADESH
KACE0000170,The Kangra Central Cooperative Bank Ltd,KACE0000170,176850081,BARANDA,TESHIL NURPUR DISTT. KANGRA H.P. 176201,SH. DINESH KUMAR,VARANDA,KANGRA,HIMACHAL PRADESH
KACE0000171,The Kangra Central Cooperative Bank Ltd,KACE0000171,176850130,PAHRA,TESHIL PALAMPUR DISTT. KANGRA H.P.176087,SH. RAJESH KUMAR,PAHRA,KANGRA,HIMACHAL PRADESH
KACE0000172,The Kangra Central Cooperative Bank Ltd,KACE0000172,176850129,THAKURDWARA,TESHIL PALAMPUR DISTT. KANGRA H.P.176102,SH. SANJAY KUMAR,THKURDWARA,KANGRA,HIMACHAL PRADESH
KACE0000173,The Kangra Central Cooperative Bank Ltd,KACE0000173,176850131,BHERI,TESHIL JAISINGHPUR DISTT. KANGRA H.P.176082,SH. AJEET RANA,BHERI,KANGRA,HIMACHAL PRADESH
KACE0000174,The Kangra Central Cooperative Bank Ltd,KACE0000174,177850036,UKHLI,TESHIL & DISTT. HAMIRPUR H.P. 176042,SH. HEMANT KUMAR,UKHALI,HAMIRPUR,HIMACHAL PRADESH
KACE0000175,The Kangra Central Cooperative Bank Ltd,KACE0000175,177850035,JALARI,TESHIL NADAUN DIST. HAMIRPUR H.P. 177042,SH. DINESH KUAMR,JALARI SAUNKLIAN,HAMIRPUR,HIMACHAL PRADESH
KACE0000178,The Kangra Central Cooperative Bank Ltd,KACE0000178,176850082,GANOH,TESHIL NURPUR DISTT. KANGRA H.P. 176051,SH. SUDHIR DUTT GOUTAM,GUNOH,KANGRA,HIMACHAL PRADESH
KACE0000180,The Kangra Central Cooperative Bank Ltd,KACE0000180,174850117,TAHLIWAL,TESHIL & DISTT. UNA H.P.,SH. KRISHAN PAL SINGH,TAHLIWALA,UNA,HIMACHAL PRADESH