ID,BANK,IFSC_CODE,MICR_CODE,BRANCH_NAME,ADDRESS,CONTACT,CITY,DISTRICT,STATE
PJSB0000002,Parsik Janata Sahakari Bank Ltd,PJSB0000002,400312002,HEAD OFFICE,"NASHEMAN BUILDING ,1ST FLOOR, NEAR KALWA MARKET KALWA THANE 400 605",,25376706-32420955,THANE,THANE
PJSB0000003,Parsik Janata Sahakari Bank Ltd,PJSB0000003,400312003,KALWA BRANCH,"KALWA BRANCH, CREEK VIEW APARTMENT, 1ST FLOOR, BOMBAY PUNE ROAD,KALWA, THANE - 400 605.",,25348350,THANE,THANE
PJSB0000004,Parsik Janata Sahakari Bank Ltd,PJSB0000004,400312004,BELAPUR BRANCH,"BELAPUR BRANCH, BHAU PATIL BUILDING, BELAPUR - 400 614.",,27572628,NEW MUMBAI,THANE
PJSB0000005,Parsik Janata Sahakari Bank Ltd,PJSB0000005,400312005,KOPARKHAIRNE BRANCH,"KOPARKHAIRNE BRANCH, PLOT NO. 80, SECTOR NO. 5, KOPARKHAIRNE - 400 709.",,27541916,NEW MUMBAI,THANE
PJSB0000006,Parsik Janata Sahakari Bank Ltd,PJSB0000006,400312006,MAJIWADE BRANCH,"MAJIWADE BRANCH, LAXMI APT, 1ST FLR, KAPURBAWDI NAKA, MAJIWADE, THANE - 400 607.",,25340359,THANE,THANE
PJSB0000007,Parsik Janata Sahakari Bank Ltd,PJSB0000007,400312007,KHARKAR ALI BRANCH,"KHARKAR ALI BRANCH, VAISHNAV MANDIR BUILDING, GR.FLOOR, JAMBHALI NAKA, KHARKAR ALI, THANE.",,25369037,THANE,THANE
PJSB0000008,Parsik Janata Sahakari Bank Ltd,PJSB0000008,400312008,BHIWANDI BRANCH,"BHIWANDI BRANCH, DHAMANKAR NAKA, BHIWANDI. PIN CODE - 421 302.",,27707654,BHIWANDI,THANE
PJSB0000009,Parsik Janata Sahakari Bank Ltd,PJSB0000009,400312009,NERUL NAGAR BRANCH,"NERUL NAGAR BRANCH, PLOT NO. 4B, SECTOR NO. 3, NERUL, NAVI MUMBAI - 400 706.",,952522-225257/229540,NEW MUMBAI,THANE
PJSB0000010,Parsik Janata Sahakari Bank Ltd,PJSB0000010,400312010,LOUISWADI BRANCH,"LOUISWADI BRANCH, SURABHI APARTMENT, GROUND FLOOR, LOUISWADI, THANE.",,25811096,THANE,THANE
PJSB0000011,Parsik Janata Sahakari Bank Ltd,PJSB0000011,400312011,A.P.M.C. MARKET BRANCH,"A.P.M.C. MARKET BRANCH, CENTRAL FACILITY BUILDING,  A.P.M.C.MARKET, SECTOR  19, VASHI, NAVI MUMBAI.",,27654035,NEW MUMBAI,THANE
PJSB0000012,Parsik Janata Sahakari Bank Ltd,PJSB0000012,400312012,KHARIGAON BRANCH,"KHARIGAON BRANCH, JAY BHARAT SPORTS CLUB BUILDING, KHARIGOON, PAKHADI, POST. KALWA, DIST. THANE- 400 605.",,25413268,THANE,THANE
PJSB0000013,Parsik Janata Sahakari Bank Ltd,PJSB0000013,400312013,AIROLI SECTOR - 1 BRANCH,"AIROLI SECTOR - 1 BRANCH, OM SHANTI COMMERCIAL PREMISES CO.OP. HSG. SOCIETY, SECTOR NO.1, AIROLI, NAVI MUMBAI - 400 708.",,27693662,NEW MUMBAI,THANE
PJSB0000014,Parsik Janata Sahakari Bank Ltd,PJSB0000014,400312014,SANPADA BRANCH,"SANPADA BRANCH, PLOT NO. 7, SECTOR - 5, SANPADA, NAVI MUMBAI - 400 705.",,27546051,NEW MUMBAI,THANE
PJSB0000015,Parsik Janata Sahakari Bank Ltd,PJSB0000015,400312015,KOPARKHAIRNE EXT. COUNTER,"KOPARKHAIRNE EXT. COUNTER, SECTOR NO. 17, DYAN VIKAS SANSTHA, VIDYALAYA, KOPARKHAIRNE VILLAGE-400 701.",,952524-222183 / 202542,NEW MUMBAI,THANE
PJSB0000016,Parsik Janata Sahakari Bank Ltd,PJSB0000016,400312016,AIROLI SECTOR - 5 BRANCH,"AIROLI SECTOR - 5 BRANCH, PLOT NO. 32, SECTOR NO. 5, AIROLI, NAVI MUMBAI - 400 708.",,27694883,NEW MUMBAI,THANE
PJSB0000017,Parsik Janata Sahakari Bank Ltd,PJSB0000017,400312017,NAUPADA BRANCH,"NAUPADA BRANCH, HEMENDRA SHOPPING CENTRE, 1ST FLOOR, GOKHALE ROAD, NAUPADA, THANE - 400 602.",,25364707,THANE,THANE
PJSB0000018,Parsik Janata Sahakari Bank Ltd,PJSB0000018,400312018,PARSIK NAGAR BRANCH,"PARSIK NAGAR BRANCH, CHAVANDAI COMPLEX, GROUND FLOOR, BOMBAY PUNE  ROAD, PARSIK NAGAR, KALWA, THANE - 400 605.",,25383688,THANE,THANE
PJSB0000019,Parsik Janata Sahakari Bank Ltd,PJSB0000019,400312019,NERUL PHASE - II BRANCH,"NERUL PHASE - II BRANCH, PLOT NO. 28/B, SECTOR NO. 10, NERUL, OPP. SARSOLE BUS STOP, NAVI MUMBAI - 400 708.",,27716864,NEW MUMBAI,THANE
PJSB0000020,Parsik Janata Sahakari Bank Ltd,PJSB0000020,400312020,KASARVADAVALI BRANCH,"KASARVADAVALI BRANCH, SATNAM APARTMENT, GROUND FLOOR, GHODBANDAR ROAD, OPP. POLICE STATION KASARWADAVALI, THANE - 400 607.",,25970629,THANE,THANE
PJSB0000021,Parsik Janata Sahakari Bank Ltd,PJSB0000021,400312021,KALYAN BRANCH,"KALYAN BRANCH, PYARA-DECK BUILDING, GALA NO. 5 & 6, OPP. BIRLA COLLEGE, MHADA PLOT NO. C - 1, S.  NO.42/A, TAL. KALYAN, DIST. THANE - 421 301.",,95251 - 2316846,KALYAN,THANE
PJSB0000022,Parsik Janata Sahakari Bank Ltd,PJSB0000022,400312022,BHIWANDI EXTENSION COUNTER,"BHIWANDI EXTENSION COUNTER, SHETKARI UNNATI MANDAL, PARSHURAM DHONDU TAWARE VIDYALAY, AT.POST.KALHER TAL.BHIWANDI, DIST-THANE. PIN-421 302.",,952522-274050,BHIWANDI,THANE
PJSB0000025,Parsik Janata Sahakari Bank Ltd,PJSB0000025,,BHAYANDAR,"HALL NO1 & 2, SHREE VINAYAK BUILDING 1ST FLOOR, SARVODAYA COMPEX, BHAYANDAR (E) DIST.- THANE 401 107",,28556500,THANE,THANE
PJSB0000026,Parsik Janata Sahakari Bank Ltd,PJSB0000026,,URAN,"HOUSE NO.72, 1ST FLOOR, KOT NAKA, URAN.  DIST. RAIGAD 400 702",,,URAN,RAIGAD
PJSB0000028,Parsik Janata Sahakari Bank Ltd,PJSB0000028,N A,PANVEL,"GB NEABY107, SAI ARCADE GROUND FLOOR OPP.PANVEL BUS STAND PANVEL DIST. RAIGAD",,,PANVEL,RAIGAD
PJSB0000029,Parsik Janata Sahakari Bank Ltd,PJSB0000029,N A,KAMOTHE,"SHOP NO.1,2 & 3 GROUND FLOOR, SHIVPARVATI BUILDING PLOT NO 5-A SECTOR -11 KAMOTHE NAVI MUMBAI",,,THANE,THANE
PJSB0000030,Parsik Janata Sahakari Bank Ltd,PJSB0000030,N A,SHAHAPUR,"SAIPLAZA BUILDING, 1ST FLOOR, SHAHAPUR BUS STAND (PANDIT NAKA) SHAHAPUR (GOTHEGHAR) TAL SHAHAPUR DIST. THANE.",,,SHAHAPUR,THANE
PJSB0000031,Parsik Janata Sahakari Bank Ltd,PJSB0000031,N A,KHARGHAR,"SHOP NO 21, GROUND FLOOR, SHREE BALAJI KRUPA CO-OP. SOC.PLOT NO. 19A SECTOR 20 KHARGHAR NAVI MUMBAI ",,,KHARGHAR,THANE
PJSB0000032,Parsik Janata Sahakari Bank Ltd,PJSB0000032,N A,GHANSOLI,"HOUSE NO  0336, SECTOR GHA NODE GHANSOLI, NAVI MUMBAI 400701 ",,,GHANSOLI,THANE
PJSB0000034,Parsik Janata Sahakari Bank Ltd,PJSB0000034,,BADLAPUR,"SHREEJI BUILDING SHOP NO 8,9,32-CBLOCK, VILLAGE KATRAP , KULGAON BADLAPUR, TAL. AMBERNAH, DIST. THANE.",0251-2691225,BADLAPUR,THANE,MAHARASHTRA
PJSB0000051,Parsik Janata Sahakari Bank Ltd,PJSB0000051,NON MICR,MURBAD BRANCH,"MURBAD BRANCH, CONGRESS BHAVAN BUILDING, 1ST FLOOR, MURBAD, THANE.",,27614939,KALYAN,THANE
PJSB0000052,Parsik Janata Sahakari Bank Ltd,PJSB0000052,NON MICR,PADAGHA BRANCH,"PADAGHA BRANCH, MASAHEB MEENATAI THAKARE COMPLEX, PADAGHA BAZAR PETH, TAL. BHIWANDI, DIST. THANE. 421101",,952522- 268203 / 267424,BHIWANDI,THANE
PJSB0000054,Parsik Janata Sahakari Bank Ltd,PJSB0000054,,PUNE BRANCH,"SHOP NO J/8-9, TREASURE PARK, SURVEY NO 61, PARVATI SAHAKAR NAGAR, PUNE 411009",,020-24203344,PUNE,PUNE
PJSB0000055,Parsik Janata Sahakari Bank Ltd,PJSB0000055,,NASHIK BRANCH," 6 /A RUSHIRAJ REGENCY, NEAR VIDYA VIKAS HOSPITAL CIRCLE, GANGAPUR ROAD, NASHIK 422005",,0253-2232345,NASHIK,NASHIK
PJSB0000035,Parsik Janata Sahakari Bank Ltd,PJSB0000035,VASIND,400312035,"SHOP NO.7 TO 10 GROUND FLOOR, ROHINI APARTMENT PADMASHRI TARMALE NAGAR, VASIND, TAL SHAHAPUR, DIST. THANE",,SHAHAPUR,THANE,MAHARASHTRA
PJSB0000201,Parsik Janata Sahakari Bank Ltd,PJSB0000201,ICHALKARANJI,416312201,"DEVKI BUILDING, ADAT PETH MAIN ROAD, ICHALKARANJI, DIST. KOLHAPUR 416115",,ICHALKARANJI,KOLHAPUR,MAHARASHTRA
PJSB0000202,Parsik Janata Sahakari Bank Ltd,PJSB0000202,KOROCHI,NON MICR,AT POST KOROCHI TAL. HATKANANGALE DIST. KOLHAPUR,,ICHALKARANJI,KOLHAPUR,MAHARASHTRA
PJSB0000023,Parsik Janata Sahakari Bank Ltd,PJSB0000023,400312023,KALBADEVI MUMBAI BRANCH,"KALBADEVI MUMBAI BRANCH 30 BY 32 RAMVADI,PRABHU SUNDAR COOP HSGSOC KALBADEVI ROAD,MUMBAI 400 002",022-22037080 022-22057080,KALBADEVI,MUMBAI,MAHARASHTRA
PJSB0000027,Parsik Janata Sahakari Bank Ltd,PJSB0000027,400312027,"Mankoli,BHIVANDI",02522-266600," Saiprasad Building, 1st Floor Post Anjur, Mankoli, Tal. Bhiwandi. Thane  421302",BHIVANDI,THANE,MAHARASHTRA
PJSB0000036,Parsik Janata Sahakari Bank Ltd,PJSB0000036,,WAGHBIL,"SHOP NO 1 & 2 , GROUND FLOOR R-PLAZIA, NEAR SWASTIK RIGALIA, KAVESAR GHODBUNDER ROAD, WAGHBIL THANE 400615.",25975108,THANE,THANE,MAHARASHTRA
PJSB0000053,Parsik Janata Sahakari Bank Ltd,PJSB0000053,400402052,VADKHAL BRANCH,"VADKHAL BRANCH SAI ASHIRWAD COMPLEX,1ST FLOOR VADKHAL NAKA,TAL PEN DIST RAIGAD",02143-269138,WADKHAL,RAIGAD,MAHARASHTRA
PJSB0000037,Parsik Janata Sahakari Bank Ltd,PJSB0000037,400312037,SHILGAON,"SHIVKRUPA BUILDING, 1ST FLOOR, SURVEY NO 210/7,8 SHILGAON TAL. & DIST. THANE 421204","022-25858064,022-25858056",THANE,THANE,MAHARASHTRA
PJSB0000038,Parsik Janata Sahakari Bank Ltd,PJSB0000038,400312038,"SHIVAJI CHOWK, BHIWANDI",AT A-101 PRESIDENT PLAZA SHIVAJI CHOWK BHIWANDI DIST. THANE,"02522-225255,02522-225256",BHIWANDI,THANE,MAHARASHTRA