ID,BANK,IFSC_CODE,MICR_CODE,BRANCH_NAME,ADDRESS,CONTACT,CITY,DISTRICT,STATE
KARB0000002,Karnataka Bank Ltd,KARB0000002,575052501,ADYANADKA,"KEPU VILLAGE,POST ADYANADKA,BANTWAL TALUK-574260",,NA,DAKSHINA KANNADA,KARNATAKA
KARB0000003,Karnataka Bank Ltd,KARB0000003,576052501,AIRODY,"NH-17 HIGHWAY,AIRODY-576226,UDUPI DIST",,NA,UDUPI,KARNATAKA
KARB0000004,Karnataka Bank Ltd,KARB0000004,577052521,AJJAMPURA,"1ST FLOOR,ANANDA NILAYA,T.H ROAD,D NO200 BY 2,TARIKERE TALUK,AJJAMPURA-577547",,NA,CHICKMAGALUR,KARNATAKA
KARB0000005,Karnataka Bank Ltd,KARB0000005,586052501,ALMEL,SS GUNDAGI BLDG MAIN ROAD ALMEL 586202 BIJAPUR DIST,,NA,BIJAPUR,KARNATAKA
KARB0000006,Karnataka Bank Ltd,KARB0000006,577052522,ANAVATTI,"IST FLOOR,KAMAKSHI KRIPA, MAIN ROAD, ANAVATTI 577 413, SORABA TALUK, DIST SHIMOGA",,SORABA,SHIMOGA,KARNATAKA
KARB0000007,Karnataka Bank Ltd,KARB0000007,573052501,AREHALLI,"AL SADIQ COMPLEX,SAKLESHPUR ROAD, AREHALLI 573 101",,BEGUR,HASSAN,KARNATAKA
KARB0000008,Karnataka Bank Ltd,KARB0000008,573052502,ARKALGUD,"NO1, 1ST FLOOR, K ABDUL JABBAR BUILDING HOLENARASIPUR ROAD, ARKALGUD 573 102",,ARKALGUD,HASSAN,KARNATAKA
KARB0000009,Karnataka Bank Ltd,KARB0000009,573052002,ARSIKERE MAIN,"LAKSHMI PB 38, B H ROAD, ARSIKERE 573103, HASSAN DIST",,ARSIKERE,HASSAN,KARNATAKA
KARB0000010,Karnataka Bank Ltd,KARB0000010,577052523,AYANUR,"SITE NO 47 AND  48,HARNAHALLY ROAD, AYANUR-577211,SHIMOGA DIST,KARNATAKA",,NA,SHIMOGA,KARNATAKA
KARB0000011,Karnataka Bank Ltd,KARB0000011,575052502,AMTADY,1ST FLOOR  LOURDES COMPLEX AMTADY  LORETTO POST  BANTWAL TALUK 574211 D K   KARNATAKA,,NA,DAKSHINA KANNADA,KARNATAKA
KARB0000012,Karnataka Bank Ltd,KARB0000012,575052022,AIKALA,"POST KINIGOLI, PB 18, AIKALA 574 150, DAKSHINA KANNAD DIST",,AIKALA,DAKSHINA KANNADA,KARNATAKA
KARB0000013,Karnataka Bank Ltd,KARB0000013,576052502,AMASEBAIL,"ABHIRAM BUILDING,MAIN ROADUDUPI DIST,AMASEBAIL",,NA,UDUPI,KARNATAKA
KARB0000014,Karnataka Bank Ltd,KARB0000014,515052663,AGALI,VASAVI TEMPLE BLDG VASAVI TEMPLE STREET AGALI 515311 ANANTHAPUR DIST,,NA,ANANTPUR,ANDHRA PRADESH
KARB0000015,Karnataka Bank Ltd,KARB0000015,575052503,ALADANGADY,1 161 1ST FLOOR NEHRU SANKURNA MAIN ROAD BELTHANGADY TALUK 574217,,NA,DAKSHINA KANNADA,KARNATAKA
KARB0000016,Karnataka Bank Ltd,KARB0000016,576052002,ADI UDUPI KARNATAKA,"IST FLOOR,DURGA INTERNATIONAL BUILDINGS, NEAR CITY BUS STAND, UDUPI 576 101",,UDUPI,UDUPI,KARNATAKA
KARB0000017,Karnataka Bank Ltd,KARB0000017,403052003,ALTO BETIM GOA,"823, NEAR TEEN BLDG, ALTO POROVIM, GOA 403 521, BARDEZ TALUK",,GOA,NORTH GOA,GOA
KARB0000018,Karnataka Bank Ltd,KARB0000018,576052003,AMBAGILU UDUPI,"FIRST FLOOR, AJITH COMPLEX, POST UDUPI PUTTUR, AMBAGILU 576 105, UDUPI DIST",,UDUPI,UDUPI,KARNATAKA
KARB0000019,Karnataka Bank Ltd,KARB0000019,591052402,ATHANI,"JAGDALMATH BUILDING, MAIN ROAD,ATHANI 591 304",,ATHANI,BELGAUM,KARNATAKA
KARB0000020,Karnataka Bank Ltd,KARB0000020,518052202,ADONI ANDRAPRADESH,"DOOR NO 19 BY 418 2, I FLOOR, PB NO 1, RAWJEES COMPLEX,MUNICIPAL MAIN RD ADONI 518301 KU",,ADONI,KURNOOL,ANDHRA PRADESH
KARB0000021,Karnataka Bank Ltd,KARB0000021,380052002,AHMEDABAD MAIN SARANGPUR,"SHRI GHANTHKARNA MAHAVIR COMMERCIAL MARKET, SARANGPUR 380 002",,AHMEDABAD,AHMEDABAD,GUJARAT
KARB0000022,Karnataka Bank Ltd,KARB0000022,688052002,ALAPPUZHA,"D.NO. 1660 BY B, R.N.A. COMPLEX, CHURCH ROAD,ALAPPUZHA-688011",,NA,ALAPUZZHA,KERALA
KARB0000023,Karnataka Bank Ltd,KARB0000023,577052524,ANAJI,"GRAM PANCHAYAT BLDG,MAIN ROAD,ANAJI-577512,DAVANGERE DIST",,NA,DAVANAGARE,KARNATAKA
KARB0000024,Karnataka Bank Ltd,KARB0000024,577052525,ANTHARAGATTE,TEMPLE ROAD ANTHARGATTE KADUR TALUK  577547,,NA,CHICKMAGALUR,KARNATAKA
KARB0000025,Karnataka Bank Ltd,KARB0000025,515052002,ANANTHAPUR,"D NO 13 3 304, THAKAI TOWERS, RAILWAY FEEDER RD, ANANTAPUR 515001",,ANANTHAPUR,ANANTPUR,ANDHRA PRADESH
KARB0000026,Karnataka Bank Ltd,KARB0000026,380052003,MEMNAGAR AHMEDABAD,"RAJ PLAZA COMPLEX,GURUKUL ROAD,MEMNAGAR,AHMEDABAD 380052",,AHMEDABAD,AHMEDABAD,GUJARAT
KARB0000027,Karnataka Bank Ltd,KARB0000027,143052002,AMRITSAR PUNJAB,"R K BUILDING, 37 A, THE MALL, NEAR NOVELTY CHOWK, AMRITSAR 143001",,PUNJAB,AMRITSAR,PUNJAB
KARB0000028,Karnataka Bank Ltd,KARB0000028,573052002,ARSIKERE-H.C (E.C),"HOYSALESHWARA COLLEGE, B H ROAD, ARSIKERE - 573103",,ARSIKERE,HASSAN,KARNATAKA
KARB0000029,Karnataka Bank Ltd,KARB0000029,211052002,ALLAHABAD,23 M G MARG CIVIL LINES ALLAHABAD,,ALLAHABAD,ALLAHABAD,UTTAR PRADESH
KARB0000030,Karnataka Bank Ltd,KARB0000030,282052002,AGRA,"NO. 76, HERITAGE TOWER, NEHRU NAGAR, MAHATMA GANDHI ROAD, AGRA - 282002, UTTAR PRADESH",,AGRA,AGRA,UTTAR PRADESH
KARB0000031,Karnataka Bank Ltd,KARB0000031,431052003,AURANGABAD,"SHOP NO. 4 GROUND FLOOR, TAPADIA TERRACES, ADALAT ROAD, AURANGABAD-431 001, MAHARASHTRA",,AURANGABAD,AURANGABAD,MAHARASHTRA
KARB0000032,Karnataka Bank Ltd,KARB0000032,700052009,AMTALA,"DAG. NO. 167,""PITRY ASISH"", N.D. ROAD,AMTALA - 743398.",,AMTALA,SOUTH 24 PARGANAS,WEST BENGAL
KARB0000033,Karnataka Bank Ltd,KARB0000033,759052102,ANGUL,"1ST FLOOR, PLOT NO. 1270, SHANTI BAZAAR, ANGUL - 759122.",,ANGUL,ANGUL,ORISSA
KARB0000034,Karnataka Bank Ltd,KARB0000034,577052556,ARAKERE,"GROUND FLOOR, SRI LAXMIRANGANATHA NILAYA, HARIHARA ROAD, ARAKERE - 577217, DAVANGERE DIST.",,ARAKERE,DAVANGERE,KARNATAKA
KARB0000051,Karnataka Bank Ltd,KARB0000051,587052102,BAGALKOT,"RAICGUR BELGAUM ROAD, BAGALKOT, PB 62, PIN 587101",,BAGALKOT,BAGALKOT,KARNATAKA
KARB0000052,Karnataka Bank Ltd,KARB0000052,577052526,BALEHONNUR,"SOMESHWARA COMPLEX, MAIN RD, BALEHONNUR 577112",,BALEHONNUR,CHICKMAGALUR,KARNATAKA
KARB0000053,Karnataka Bank Ltd,KARB0000053,560052003,ASHOK NAGAR BANGALORE,"16 BY 2, WOOD STREET, ASHOKNAGAR, BANGALORE 560025",,BANGALORE,BANGALORE URBAN,KARNATAKA
KARB0000054,Karnataka Bank Ltd,KARB0000054,560052002,INDUSTRIAL FINANCE BRANCH,"NO. 94 BY A,INFANTRY ROAD BANGALORE-560001",,BANGALORE,BANGALORE URBAN,KARNATAKA
KARB0000055,Karnataka Bank Ltd,KARB0000055,560052015,MALLESHWARAM BANGALORE,"NO197,SAMPIGE ROAD,MALLESHWARAM,PB301,BANGALORE 560003",,BANGALORE,BANGALORE URBAN,KARNATAKA
KARB0000056,Karnataka Bank Ltd,KARB0000056,560052008,CHICKPET BANGALORE,"551,552,OTC ROAD,NEAR BALEPET POST OFFICE,CHICKPET,PB7638,BANGALORE 560053",,BANGALORE,BANGALORE URBAN,KARNATAKA
KARB0000057,Karnataka Bank Ltd,KARB0000057,560052009,CITY MARKET BANGALORE,"1ST FLOOR,SRIKRISHNA MANDIR,GUNDOPANTH STREET,CITY MARKET,PB6718,BANGALORE 560002",,BANGALORE,BANGALORE URBAN,KARNATAKA
KARB0000058,Karnataka Bank Ltd,KARB0000058,560052006,CHAMRAJPET BANGALORE,"BELVET ,8 BY 1,5TH MAIN,PB1832,BANGALORE 560018",,BANGALORE,BANGALORE URBAN,KARNATAKA
KARB0000059,Karnataka Bank Ltd,KARB0000059,560052017,MURPHY TOWN BANGALORE,"NO109,OLD MADRAS ROAD,ULSOOR,BANGALORE 560008",,BANGALORE,BANGALORE URBAN,KARNATAKA
KARB0000060,Karnataka Bank Ltd,KARB0000060,560052012,K G ROAD BANGALORE,"1ST FLOOR,FKCCI BLDG,KEMPE GOWDA ROAD,PB9719,BANGALORE 560009",,BANGALORE,BANGALORE URBAN,KARNATAKA
KARB0000061,Karnataka Bank Ltd,KARB0000061,560052011,JAYANAGAR IX BLOCK BANGALORE,"SHRI KSHETRA COMPLEX NO911,39TH CROSS,28TH MAIN,9TH BLOCK,JAYANAGAR 9TH BLOCK,BANGALORE",,BANGALORE,BANGALORE URBAN,KARNATAKA
KARB0000062,Karnataka Bank Ltd,KARB0000062,560052016,MINERVA CIRCLE BANGALORE,"PB163,RAJESHWARI COMPLEX,RV PURAM,MINERVA CIRCLE,BANGALORE 560004",,BANGALORE,BANGALORE URBAN,KARNATAKA
KARB0000063,Karnataka Bank Ltd,KARB0000063,560052018,NEHRU NAGAR BANGALORE,"NO45 BY 46,NAGAPPA STREET,SHESHADRIPURAM,NEHRUNAGAR,PB2036,BANGALORE 560020",,BANGALORE,BANGALORE URBAN,KARNATAKA
KARB0000064,Karnataka Bank Ltd,KARB0000064,560052019,RAJAJI NAGAR BANGALORE,"OPP PRASANN TALKIES,6TH BLOCK,RAJAJINAGAR,BANGALORE 560010",,BANGALORE,BANGALORE URBAN,KARNATAKA
KARB0000065,Karnataka Bank Ltd,KARB0000065,560052020,SRIRAMPURAM BANGALORE,"NO37,MAHAKAVI KUVEMPU ROAD,NEAR DEVAIAH PARK,SRIRAMPURAM POST,BANGALORE 560021",,BANGALORE,BANGALORE URBAN,KARNATAKA
KARB0000066,Karnataka Bank Ltd,KARB0000066,560052023,YESHWANTHPURA BANGALORE,"NO 33, PIPELINE ROAD,BEHIND CORPORATION COMPLEX,1ST MAIN,YESHWANTPUR, BANGALORE 560027",,BANGALORE,BANGALORE URBAN,KARNATAKA
KARB0000067,Karnataka Bank Ltd,KARB0000067,560052021,WILSON GARDEN BANGALORE,"NO279,10TH CROSS,WILSON GARDEN, BANGALORE 560027",,BANGALORE,BANGALORE URBAN,KARNATAKA
KARB0000068,Karnataka Bank Ltd,KARB0000068,587052311,BANHATTI,PB 3 1ST FLOOR  SRIRAM NIVAS  TAMMANAPPA ROAD  BANHATTI 587311,,NA,BAGALKOT,KARNATAKA
KARB0000069,Karnataka Bank Ltd,KARB0000069,577052527,BANAKAL,"KADUR MANGALORE ROAD, BANAKAL 577113, CHICKMAGALUR DIST",,BANAKAL,CHICKMAGALUR,KARNATAKA
KARB0000070,Karnataka Bank Ltd,KARB0000070,571052523,BANNUR,PB 31ST FLOOR PRASANN HUCHAMMANILAYA NARASIPURA BANNUR 571101 KARNATAKA,,NA,MYSORE,KARNATAKA
KARB0000071,Karnataka Bank Ltd,KARB0000071,575052021,BC ROAD BANTWAL MUDA,"1ST FLOOR, KARTHIK COMPLEX, BANTWAL MUDA, PO JODUMARGA, BANTWAL TALUK 574 219",,BANTWAL,DAKSHINA KANNADA,KARNATAKA
KARB0000072,Karnataka Bank Ltd,KARB0000072,577052528,BEGAR,"GOVUNDASHRAYA BLDG,TM ROAD,BEGAR-577120,CHIKMAGALUR DIST",,NA,CHICKMAGALUR,KARNATAKA
KARB0000073,Karnataka Bank Ltd,KARB0000073,590052002,BELGAUM MAIN,"1ST FLOOR, RADIO COMPLEX, SHIVAJI ROAD, PB117, BELGAUM 590001",,BELGAUM,BELGAUM,KARNATAKA
KARB0000074,Karnataka Bank Ltd,KARB0000074,583052102,BELLARY,"1ST FLOOR, MEENAKSHI LODGE BUILDING, BANGALORE ROAD, BELLARY 583101",,BELLARY,BELLARY,KARNATAKA
KARB0000075,Karnataka Bank Ltd,KARB0000075,577052302,BHADRAVATHI,"RADHAKRISHNA COMPLEX, IST FLOOR, B H ROAD, PB NO 12, BHADRAVATHI 577 301",,BHADRAVATHI,SHIMOGA,KARNATAKA
KARB0000076,Karnataka Bank Ltd,KARB0000076,585052102,BIDAR,"INDIRA MARKET COMPLEX, NEAR OLD BUS STAND, NEW HOUSING COLONY, BIDAR 585401",,BIDAR,BIDAR,KARNATAKA
KARB0000077,Karnataka Bank Ltd,KARB0000077,586052002,BIJAPUR,"CTS NO 425 BY B1 B2 C MALHAR CHAMBERS, TRIPURA SUNDARA TALKIES RD, BIJAPUR 586101",,BIJAPUR,BIJAPUR,KARNATAKA
KARB0000078,Karnataka Bank Ltd,KARB0000078,573052504,BICCODU,"21, MAIN ROAD, BELAGODU- 573222,SHAKLESPUR TALUK,DIST HASSAN",,NA,HASSAN,KARNATAKA
KARB0000079,Karnataka Bank Ltd,KARB0000079,400052002,FORT MUMBAI,"294 A, HAROON HOUSE, PERIN NARIMAN STREET, BEHIND R B I, FORT, MUMBAI 400001",,MUMBAI,GREATER MUMBAI,MAHARASHTRA
KARB0000080,Karnataka Bank Ltd,KARB0000080,581052352,BHATKAL,"NEAR KAMAKSHI PETROL BUNK, NH 17, PB 11, BHATKAL 581320",,BHATKAL,DAKSHINA KANNADA,KARNATAKA
KARB0000081,Karnataka Bank Ltd,KARB0000081,400052003,BORIVLI WEST MUMBAI,"LIC SHOPPING COMPLEX, JEEVAN BIMA NAGAR, BORIVILI W , PO MANDAPESWAR, MUMBAI 400103",,MUMBAI,GREATER MUMBAI,MAHARASHTRA
KARB0000082,Karnataka Bank Ltd,KARB0000082,574052521,BANTAKAL,1ST FLOOR NISHA COMPLEX MAIN ROAD BANTAKAL 574115 UDUPI DIST KARNATAKA,,NA,UDUPI,KARNATAKA
KARB0000083,Karnataka Bank Ltd,KARB0000083,560052013,KASTURBA ROAD BANGALORE,"83, MOHAN MANSION, KASTURBA ROAD, PB5171, BANGALORE 560001",,BANGALORE,BANGALORE URBAN,KARNATAKA
KARB0000084,Karnataka Bank Ltd,KARB0000084,560052010,JAYANAGAR IV BLOCK BANGALORE,"NO 204 BY C,6TH MAIN,27TH CROSS,4TH BLOCK,JAYANAGAR,BANGALORE 560001",,BANGALORE,BANGALORE URBAN,KARNATAKA
KARB0000085,Karnataka Bank Ltd,KARB0000085,400052007,SION EAST MUMBAI,"239 A, TAMIL SANGAM ROAD, SION EAST , MUMBAI 400022",,MUMBAI,GREATER MUMBAI,MAHARASHTRA
KARB0000086,Karnataka Bank Ltd,KARB0000086,400052006,BANDRA WEST MUMBAI,"PLOT NO333 BY 334, PRIM SAGAR CHS LTD, DR AMBEDKAR RD, BANDRA W , MUMBAI 400050",,MUMBAI,GREATER MUMBAI,MAHARASHTRA
KARB0000087,Karnataka Bank Ltd,KARB0000087,581052521,BABRUWADA,"BANDI BAZAR, ANKOLA, PIN-581314",,NA,UTTARA KANNADA,KARNATAKA
KARB0000088,Karnataka Bank Ltd,KARB0000088,573052503,BELAGODU,"21, MAIN ROAD, BELAGODU- 573222,SHAKLESPUR TALUK, DIST HASSAN",,NA,HASSAN,KARNATAKA
KARB0000089,Karnataka Bank Ltd,KARB0000089,560052022,SUBHASH NAGAR BANGALORE,"RBDGT ROAD,NEAR CITY RAILWAY STATION,SUBHASHNAGAR,BANGALORE 560023",,BANGALORE,BANGALORE URBAN,KARNATAKA
KARB0000090,Karnataka Bank Ltd,KARB0000090,560052005,B LORE BASAVANAGUDI,"52,IST FLOOR,DINESH COMPLEX,SUBBARAMA CHETTYROAD,NETKALAPPA CIRCLE,BSAVANAGUDI",,BANGALORE,BANGALORE URBAN,KARNATAKA
KARB0000091,Karnataka Bank Ltd,KARB0000091,400052004,ANDHERI WEST MUMBAI,"1ST FLOOR,MANISH NAGAR SHOPPING CENTRE,AZAD NAGAR PO,MUMBAI 400053",,MUMBAI,GREATER MUMBAI,MAHARASHTRA
KARB0000092,Karnataka Bank Ltd,KARB0000092,515052562,BOMMANHAL,"1ST FLOOR,BELLARY KANEKAL ROAD,KANEKAL  S.O,BOMMANHAL POST-515871,ANANTHAPUR DIST",,NA,ANANTPUR,ANDHRA PRADESH
KARB0000093,Karnataka Bank Ltd,KARB0000093,400052005,KANDIVILI WEST MUMBAI,"B BY 13, MATRU ASISH, NEXT TO BALBHARATI, SV ROAD, KANDIVLI 400067",,MUMBAI,GREATER MUMBAI,MAHARASHTRA
KARB0000094,Karnataka Bank Ltd,KARB0000094,560052014,KORAMANGALA BANGALORE,"652,17TH MAIN,3RD BLOCK,KORAMANGALA LAYOUT,PB3424,BANGALORE 560034",,BANGALORE,BANGALORE URBAN,KARNATAKA
KARB0000095,Karnataka Bank Ltd,KARB0000095,590052003,MALA MARUTI EXTENSION BELGAUM,"1ST FLOOR,LIG 2,GOWDAR BLDG,MAHANTESH NAGAR,MALAMARUTHI EXTN,BELGAUM 590016",,BELGAUM,BELGAUM,KARNATAKA
KARB0000096,Karnataka Bank Ltd,KARB0000096,577052529,BELAGUTHI,BELAGUTTI MILK PRODUCERS COOP SOCIETY  BMPCS  BUILDING  NYAMATHI ROAD  BELAGUTTI 577223,,NA,DAVANAGARE,KARNATAKA
KARB0000097,Karnataka Bank Ltd,KARB0000097,560052004,BANASHANKARI III STAGE BANGALORE,"650, II PHASE, VII BOLCK, BANASHAMKARI III STAGE, HOSAKEREHALLI CROSS, BANGALORE 560085",,BANGALORE,BANGALORE URBAN,KARNATAKA
KARB0000098,Karnataka Bank Ltd,KARB0000098,560052024,SARAKKI LAYOUT BANGALORE,"452,9TH CORSS,SARAKKI,2ND PHASE,SARAKKI LAYOUT,JP NAGAR,BANGALORE 560078",,BANGALORE,BANGALORE URBAN,KARNATAKA
KARB0000099,Karnataka Bank Ltd,KARB0000099,560052025,SRINAGAR BANGALORE,"NO504 BY 33,50 FEET RD,SRINAGAR, BANGALORE 560050",,BANGALORE,BANGALORE URBAN,KARNATAKA
KARB0000100,Karnataka Bank Ltd,KARB0000100,560052001,SERVICE BRANCH BANGALORE,"P.B.NO. 5171, 50/1, PRASANNA GANAPATHI TEMPLE ANNEXE, KASTURBA ROAD, BANGALORE - 560001",,BANGALORE,BANGALORE,KARNATAKA
KARB0000101,Karnataka Bank Ltd,KARB0000101,400052009,OVERSEAS MUMBAI,"104 106,1ST FLOOR,EMBASSY CENTRE,JAMANLAL BAJAJ MARG,NARIMAN POINT,MUMBAI 400021",,MUMBAI,GREATER MUMBAI,MAHARASHTRA
KARB0000102,Karnataka Bank Ltd,KARB0000102,400052001,SERVICE BRANCH MUMBAI,"5TH FLOOR,501,VARDHAMAN CHAMBERS,17-G,CAWASJI PATEL STREET,FORT,MUMBAI.",,MUMBAI,MUMBAI,MAHARASHTRA
KARB0000104,Karnataka Bank Ltd,KARB0000104,560052026,BASAVESWARNAGAR BANGALORE,"NO 323, 1ST CROSS, 4TH BLOCK, 3RD STAGE, BASAVESHWARANAGAR, WOC, BANGALORE 560079",,BANGALORE,BANGALORE URBAN,KARNATAKA
KARB0000105,Karnataka Bank Ltd,KARB0000105,560052027,VIJAYANAGAR BANGALORE,"NO3,1ST FLOOR,1ST MAIN,RPC LAYOUT, RPC LAYOUT,VIJAYNAGAR, BANGALORE 560040",,BANGALORE,BANGALORE URBAN,KARNATAKA
KARB0000106,Karnataka Bank Ltd,KARB0000106,400052010,BHAYANDER EAST MUMBAI,"SHOP NO12, OSTWAL ORNATE, JESAL PARK ROAD, BHAYANDER E 401105, THANE DIST",,MUMBAI,GREATER MUMBAI,MAHARASHTRA
KARB0000107,Karnataka Bank Ltd,KARB0000107,560052029,BANASHANKARI II STAGE BANGALORE,"NO 979,13TH CROSS, 19TH MAIN, BANASHAMKARI 2ND STAGE, BANGALORE 560070",,BANGALORE,BANGALORE URBAN,KARNATAKA
KARB0000108,Karnataka Bank Ltd,KARB0000108,751052002,BHUBANESHWAR ORISSA,"B 63, SAVITHRI TOWERS, 1ST FLOOR, RUPALI SQUARE, JANAPATH ROAD, SAHEED NAGAR, BHUBANESHW",,BHUVANESHWAR,KHURDA,ORISSA
KARB0000109,Karnataka Bank Ltd,KARB0000109,560052028,INDIRA NAGAR BANGALORE,"485,1ST FLOOR,CMH ROAD,INDIRANAGAR,BANGALORE 560038",,BHUVANESHWAR,KHURDA,KARNATAKA
KARB0000110,Karnataka Bank Ltd,KARB0000110,590052005,TILAKAWADI BELGAUM,"DEV SUDHA BUILDING,1ST FLOOR,D NO CCB 3, SHUKRAWARPET,TILAKWADI,BELGAUM 590006",,BANGALORE,BANGALORE URBAN,KARNATAKA
KARB0000111,Karnataka Bank Ltd,KARB0000111,560052030,B T M LAYOUT BANGALORE,"NO18,6TH MAIN ROAD,1ST CROSS,BTM LAYOUT,2ND STAGE,BANGALORE 560076",,BELGAUM,BELGAUM,KARNATAKA
KARB0000112,Karnataka Bank Ltd,KARB0000112,560052032,MAHALAKSHMIPURAM BANGALORE,"NO271,4TH MAIN,12TH CROSS,MAHALAKSHMI LAYOUT,BANGALORE 560086",,BANGALORE,BANGALORE URBAN,KARNATAKA
KARB0000113,Karnataka Bank Ltd,KARB0000113,560052031,SANJAYA NAGAR BANGALORE,"SITE NO21,GROUND FLOOR,50FEET MAIN ROAD,CORPORATION DIV 100,SANJAYNAGAR,BANGALORE 560094",,BANGALORE,BANGALORE URBAN,KARNATAKA
KARB0000114,Karnataka Bank Ltd,KARB0000114,560052033,K H ROAD BANGALORE,"NO113,KENGAL HANUMANTHAIAH ROAD,BANGALORE 560027",,BANGALORE,BANGALORE URBAN,KARNATAKA
KARB0000115,Karnataka Bank Ltd,KARB0000115,560052035,GOKULA BANGALORE,"1ST FLOOR,12 NS BLDG,MSR ROAD,GOKUL,BANGALORE 560054,BANGALORE URBAN DIST",,BANGALORE,BANGALORE URBAN,KARNATAKA
KARB0000116,Karnataka Bank Ltd,KARB0000116,590052004,UDYAMBAG,"G.I.T. ROAD, UDYAMBAG, BELGAUM - 590008",,BELGAUM,BELGAUM,KARNATAKA
KARB0000117,Karnataka Bank Ltd,KARB0000117,560052042,K.G.ROAD (E.C),"CIVIL COURT COMPLEX, K.G.ROAD, BANGLAORE - 560009",,BANGALORE,BANGALORE,KARNATAKA
KARB0000118,Karnataka Bank Ltd,KARB0000118,560052034,OVERSEAS BANGALORE,"1ST FLOOR,MOHAN MANSION,105,KASTURBA ROAD,BANGALORE 560001",,BANGALORE,BANGALORE URBAN,KARNATAKA
KARB0000119,Karnataka Bank Ltd,KARB0000119,NOT APPLICABLE,DATA CENTRE,"NO. 113, FIRST FLOOR, K H ROAD, DATA CENTRE, BANGALORE - 560027",,BANGALORE,BANGALORE,KARNATAKA
KARB0000120,Karnataka Bank Ltd,KARB0000120,560052036,R T NAGAR BANGALORE,"NO10,1ST FLOOR,HMT LAYOUT,RT NAGAR,MAIN ROAD,BANGALORE 560032",,BANGALORE,BANGALORE URBAN,KARNATAKA
KARB0000121,Karnataka Bank Ltd,KARB0000121,560052037,SAHKARNAGAR BANGALORE,"NO2257,E BLOCK,KODIGEHALLY MAIN ROAD,SAHAKARA NAGAR,BANGALORE 560092",,BANGALORE,BANGALORE URBAN,KARNATAKA
KARB0000122,Karnataka Bank Ltd,KARB0000122,NOT APPLICABLE,CUSTOMER CARE CENTRE,"NO.50, K.H.ROAD, OPPOSIT BMTC, BANGALORE - 560027",,BANGALORE,BANGALORE,KARNATAKA
KARB0000123,Karnataka Bank Ltd,KARB0000123,560052040,VIDYARANYAPURA,"704, HTM LAYOUOT,VIDYARANYAPURA, MAIN ROAD, BANGALORE",,BANGALORE,BANGALORE URBAN,KARNATAKA
KARB0000124,Karnataka Bank Ltd,KARB0000124,560052039,AMARJYOTHI NAGAR,"NO 1, II MAIN, AMARAJYOTHI NAGAR, NAGAR BHAVI ROAD, M C LAYOUT, BANGALORE 560040",,BANGALORE,BANGALORE URBAN,KARNATAKA
KARB0000125,Karnataka Bank Ltd,KARB0000125,560052041,MAGISTRATE COURT (E.C),"METROPOLITAN MAGISTRATE COURT COMPLEX, NRUPATHUNGA ROAD, BANGALORE - 560001",,BANGALORE,BANGALORE,KARNATAKA
KARB0000126,Karnataka Bank Ltd,KARB0000126,560052043,BANASAWADI,"NO 963, BANASAWADI OUTER RING ROAD,HRBR LAYOUT, BLOCK 1, KALYAN NAGAR,BANGALORE 560043",,BANGALORE,BANGALORE URBAN,KARNATAKA
KARB0000127,Karnataka Bank Ltd,KARB0000127,462052002,BHOPAL,"GROUND FLOOR, SADANA TOWERS,2A, ZONE-II, M P NAGAR,BHOPAL 462011",,BANGALORE,BHOPAL,MADHYA PRADESH
KARB0000128,Karnataka Bank Ltd,KARB0000128,560052044,HSR LAYOUT,NO  417  27TH MAIN SECTOR I  H S R LAYOUT BANGALORE   560034,,BANGALORE,BANGALORE URBAN,KARNATAKA
KARB0000129,Karnataka Bank Ltd,KARB0000129,495052002,BILASPUR,LINK ROAD BILASPUR 492009,,NA,BILASPUR,CHHATTISGARH
KARB0000130,Karnataka Bank Ltd,KARB0000130,560052045,BANGALORE,"NO.83,ANANDANAGAR,NEAR BUSSTOP,RING ROAD, BANGALORE-56000037",,BANGALORE,BANGALORE URBAN,KARNATAKA
KARB0000131,Karnataka Bank Ltd,KARB0000131,571052524,CHERAMBANE,KUSHALAPPA S BLDG CHERAMBANE MADIKERI 571257,,NA,MADIKERI,KARNATAKA
KARB0000132,Karnataka Bank Ltd,KARB0000132,571052525,CHEYANDANE,"NARIANDADA VILLAGE,CHEYYANDANE-571212,KODAGU DIST",,NA,MADIKERI,KARNATAKA
KARB0000133,Karnataka Bank Ltd,KARB0000133,577052102,CHIKMAGALUR,"SARAGODU BLDG,INDIRA GANDHI ROAD,PB2,CHICKMAGALUR 577101",,CHICKMAGALUR,CHICKMAGALUR,KARNATAKA
KARB0000134,Karnataka Bank Ltd,KARB0000134,571052526,CHILKUNDA,"VIA HUNSUR,CHILKUNDA 571 133,DIST MYSORE",,MYSORE,MYSORE,KARNATAKA
KARB0000135,Karnataka Bank Ltd,KARB0000135,585052502,CHITGUPPA,D NO2-72 BY A 1ST FLOOR DSG COMPLEX ARYA SAMAJ ROAD GANDHI CHOWK CHITGUPPA-585412 BIDAR,,NA,BIDAR,KARNATAKA
KARB0000136,Karnataka Bank Ltd,KARB0000136,577052502,CHITRADURGA KARNATAKA,"REDDY JANASANGHA BLDG,SRI YOGI VEMANA COMPLEX,BD ROAD,PB11,CHITRADURGA 577501",,CHITRADURGA,CHITRADURGA,KARNATAKA
KARB0000137,Karnataka Bank Ltd,KARB0000137,576052503,CHITRAPADY,1ST FLOOR  SRINIKETNA COMPLEX UDUPI TALUQ PIN 576225,,NA,UDUPI,KARNATAKA
KARB0000138,Karnataka Bank Ltd,KARB0000138,571052252,CHODULU SOMWARPET,"STATE BANK ROAD,PB31,SOMWARPET 571236,KODAGU DIST,KARNATAKA",,SOMWARPET,MADIKERI,KARNATAKA
KARB0000139,Karnataka Bank Ltd,KARB0000139,641052002,OPPANAKARA ST COIMBATORE,"194,RAJA MARKET,PB255 OPPANAKARA STREET,COIMBATORE 641001",,COIMBATORE,COIMBOTORE,TAMIL NADU
KARB0000140,Karnataka Bank Ltd,KARB0000140,576052202,KUNDAPUR MAIN KUNDAPUR,"SRI LATHA MAHAL BLDG, MAIN ROAD, PB15,KUNDAPURA 576201, UDUPI DIST,KARNATAKA",,KUNDAPUR,UDUPI,KARNATAKA
KARB0000141,Karnataka Bank Ltd,KARB0000141,673052002,CALICUT KOZHIKODE,"ROOM NO4,1ST FLOOR,JAYANTHI BLDGS,PALAYAM,PB140,KOZHIKODE 673001",,KOZHIKODE,KOZHIKODE,KERALA
KARB0000142,Karnataka Bank Ltd,KARB0000142,563052302,CHINTAMANI,"SRI VIDYA GANAPATHI TEMPLE,TRUST BLDG,OLD BUSSTAND,PB4,CHINTAMANI 563125,KOLAR DIST",,CHINTAMANI,KOLAR,KARNATAKA
KARB0000143,Karnataka Bank Ltd,KARB0000143,571052602,CHANNAPATNA,"D NO1005,1ST FLOOR,PARVATHI TALKIES ROAD,CHANNAPATNA 571501",,CHANNAPATNA,BANGALORE RURAL,KARNATAKA
KARB0000144,Karnataka Bank Ltd,KARB0000144,670052002,CANNANORE KANNUR,"CC,1613,1ST FLOOR,KANNAN S ARCADE,BANK ROAD,PB53,KANNUR 670001",,KANNUR,KANNUR,KERALA
KARB0000145,Karnataka Bank Ltd,KARB0000145,577052530,CHOWLAHIRIYUR,"SHIVA NILAYA,MAIN ROAD,CHOWLAHIRIYUR-577180,KADUR TALUK",,NA,CHICKMAGALUR,KARNATAKA
KARB0000146,Karnataka Bank Ltd,KARB0000146,160052001,CHANDIGARH PUNJAB,"SCO NO2917 18,SECTOR 22 C,CHANDIGARH 160022",,CHANDIGARH,CHANDIGARH,PUNJAB
KARB0000147,Karnataka Bank Ltd,KARB0000147,700052002,PARK STREET KOLKATA,"1ST FLOOR,SHUBHAM,1,SAROJINI NAIDU SARANI,PARK STREET,KOLKATA 700017",,KOLKOTA,KOLKATA,WEST BENGAL
KARB0000148,Karnataka Bank Ltd,KARB0000148,641052003,R S PURAM COIMBATORE,"346,DB ROAD,RS PURAM,PB1182,COIMBATORE 641002,TN",,COIMBATORE,COIMBOTORE,TAMIL NADU
KARB0000149,Karnataka Bank Ltd,KARB0000149,573052149,CHANNARAYAPATNA,"1ST FLOOR,PRABATH COMPLEX,OPP KSRTC BUSTAND,BM ROAD,PB132,CHANNARAYAPATNA 573116,KARNATA",,CHANNARAYAPATNA,HASSAN,KARNATAKA
KARB0000150,Karnataka Bank Ltd,KARB0000150,600052009,R A PURAM CHENNAI,"77,FREEN WAYS ROAD,RAJA ANAMALAIPURAM,CHENNAI 600028",,CHENNAI,CHENNAI,TAMIL NADU
KARB0000151,Karnataka Bank Ltd,KARB0000151,516052002,CUDDAPAH A P,"1ST FLOOR,RAJARAM COMPLEX,3 BY 303,CHRISTIAN LANE,PB30,CUDDAPAH 516001",,CUDDAPAH,CUDDAPAH,ANDHRA PRADESH
KARB0000152,Karnataka Bank Ltd,KARB0000152,600052010,PORUR CHENNAI,"3 BY 13,MOUNT POONAMALLEE HIGH ROAD,PORUR,CHENNAI 600116",,CHENNAI,CHENNAI,TAMIL NADU
KARB0000153,Karnataka Bank Ltd,KARB0000153,641052004,RAMANATHAPURAM COIMBATORE,"924,TRICHY ROAD,RAMANATHAPURAM,COIMBATORE 641045",,COIMBATORE,COIMBOTORE,TAMIL NADU
KARB0000154,Karnataka Bank Ltd,KARB0000154,643052102,COONOOR TN,"KNM COMPOUND,OOTY ROAD,COONOOR 643102,NILGIRIS DIST,TN",,COONOOR,NILGIRIS,TAMIL NADU
KARB0000155,Karnataka Bank Ltd,KARB0000155,600052001,SERVICE BRANCH CHENNAI,"P.B.NO. 4906, VADIRAJA BUILDING, DOOR NO. 351, 2ND FLOOR, AVVAI SHANMUGAM ROAD, GOPALPURAM CHENNAI - 600086",,CHENNAI,CHENNAI,TAMIL NADU
KARB0000156,Karnataka Bank Ltd,KARB0000156,600052011,BESANT NAGAR CHENNAI,"T 32,A BY B,7TH AVENUE,BESANT NAGAR,CHENNAI 600090",,CHENNAI,CHENNAI,TAMIL NADU
KARB0000157,Karnataka Bank Ltd,KARB0000157,600052012,K K NAGAR CHENNAI,DNO 10 P T RAJAN SALAI K K NAGAR CHENNAI 600078,,CHENNAI,CHENNAI,TAMIL NADU
KARB0000158,Karnataka Bank Ltd,KARB0000158,600052013,CHENNAI MOGAPPIAR,"OLD NO. 402, NEW NO. 78, PANNEERNAGAR, THIRUVALLUVAR ROAD, MOGAPPIAR",,CHENNAI,CHENNAI,TAMIL NADU
KARB0000159,Karnataka Bank Ltd,KARB0000159,600052014,CHENNAI  AYANAVARAM,"NO.4  OLD NO.22, 3RD CROSS STREET, VENKATESAPURAM COLONY, AYANAVARAM, CHENNAI 600 023",,CHENNAI,CHENNAI,TAMIL NADU
KARB0000160,Karnataka Bank Ltd,KARB0000160,753052002,CUTTACK,"NO. 22 AND 22 BY 1507, RASHMI PLAZA, LINK ROAD, CUTTACK-753012 ORISSA STATE",,CUTTACK,CUTTAK,ORISSA
KARB0000161,Karnataka Bank Ltd,KARB0000161,600052015,WEST MAMBALAM,"NO12,2ND STREET,CHENNAI WEST MAMBALAM,CHENNAI600033",,CHENNAI,CHENNAI,TAMIL NADU
KARB0000162,Karnataka Bank Ltd,KARB0000162,600052018,ANNA NAGAR WEST,"GROUND FLOOR, W-582, SBOA SCHOOL ROAD, ANNANAGAR WEST EXTENSION, CHENNAI - 6000101",,ANNANAGAR,CHENNAI,TAMIL NADU
KARB0000163,Karnataka Bank Ltd,KARB0000163,600052019,VELACHERY,"D/NO-3, PLOT NO.14, SASHI NAGAR, VELACHERY BYE PASS ROAD, VELACHERY - 600042, GUINDY TALUK, CHENNAI DIST.",,VELACHERY,CHENNAI,TAMILNADU
KARB0000181,Karnataka Bank Ltd,KARB0000181,581052502,DANDELI,"1ST FLOOR,HIREMATH BLDG,JN ROAD,DANDELI-581325, HALIYUR TALUK",,NA,UTTARA KANNADA,KARNATAKA
KARB0000182,Karnataka Bank Ltd,KARB0000182,577052002,DAVANAGERE MAIN,"BHM ENCLAVE,D NO651,HM ROAD,PB63,DAVANGERE 577001",,DAVANGERE,DAVANAGARE,KARNATAKA
KARB0000183,Karnataka Bank Ltd,KARB0000183,580052302,VIJAYA ROAD DHARWAD MAIN,"REGIS COMPLEX,1ST FLOOR, VIJAYA ROAD, CBT, DHARWAD 580001, KARNATAKA",,DHARWAD,DHARWAD,KARNATAKA
KARB0000184,Karnataka Bank Ltd,KARB0000184,573052505,DUDDA,"SANTOSH COMPLEX, MAIN ROAD,DUDDA-573118,HASSAN DIST,KARNATAKA",,NA,HASSAN,KARNATAKA
KARB0000185,Karnataka Bank Ltd,KARB0000185,575052006,DEREBAIL MANGALORE,"1ST FLOOR,VISHWASHREE BLDG,CHURCH ROAD,MANGALORE 575008",,MANGALORE,DAKSHINA KANNADA,KARNATAKA
KARB0000186,Karnataka Bank Ltd,KARB0000186,581052522,DHARESHWARA,NH 17 DHARESHWAR-581442 UTTAR KANNADA DIST,,NA,UTTARA KANNADA,KARNATAKA
KARB0000187,Karnataka Bank Ltd,KARB0000187,561052501,DOMMATHAMARY,"HINDUPUR-PAVGADA RD, DOMMATHAMARI - 561202,DIST TUMKUR",,NA,TUMKUR,KARNATAKA
KARB0000188,Karnataka Bank Ltd,KARB0000188,585052501,DUBALGUNDI,"SHOP 1-37,MAIN ROAD,DUBALGUNDI,HUMNABAD TALUK-585418",,NA,BIDAR,KARNATAKA
KARB0000189,Karnataka Bank Ltd,KARB0000189,110052003,CHANDNI CHOWK NEW DELHI,"1ST FLOOR,GANTAGHAR,OPP TOWN HALL,PB739,CHANDNI CHOWK,DELHI 110006",,DELHI,NEW DELHI,DELHI
KARB0000190,Karnataka Bank Ltd,KARB0000190,577052003,K B EXTENSION DAVANAGERE,"DAVABGERE KB EXTN BRANCH,1ST FLOOR,SRI MURUGARAJENDRA COMPLEX,HADADI ROAD,PB236,DAVANGER",,DAVANGERE,DAVANAGARE,KARNATAKA
KARB0000191,Karnataka Bank Ltd,KARB0000191,580052306,SHIVANANDANAGAR DHARWAD,"HUGGI BUILDING,NEAR NTTF PB ROAD,SHIVANANDNAGAR,DHARWAD 580001,KARNATAKA",,DHARWAD,DHARWAD,KARNATAKA
KARB0000192,Karnataka Bank Ltd,KARB0000192,580052305,KUD CIRCLE DHARWAD,"PLOT NO2,CTS 17A,221 13,HALIYAL ROAD,KUD CIRCLE,SRINAGAR,DHARWAD 580003,KARNATAKA",,DHARWAD,DHARWAD,KARNATAKA
KARB0000193,Karnataka Bank Ltd,KARB0000193,400052012,DOMBIVLI MUMBAI,"1ST FLOOR, SHREE COMPLEX, OPP MAHAVEER NAGAR, MANPADA ROAD, DOMBIVLI EAST 421201",,MUMBAI,GREATER MUMBAI,MAHARASHTRA
KARB0000194,Karnataka Bank Ltd,KARB0000194,110052008,LAXMI NAGAR NEW DELHI,"DR CHAWLA COMPLEX,1 BY 17,LALITHA PARK,VIKAS MARG,LAXMINAGAR,DELHI 110092",,DELHI,NEW DELHI,DELHI
KARB0000195,Karnataka Bank Ltd,KARB0000195,580052302,DHARWAD-SDMC (E.C),"S.D.M.COLLEGE OF ENG. & TECHNOLOGY CAMPUS, VIJAYA ROAD, DHARWAD - 580001",,DHARWAD,DHARWAD,KARNATAKA
KARB0000196,Karnataka Bank Ltd,KARB0000196,248052002,DEHRADUN UTTRANCHAL,"NO 2GND FLR,NEWCANTT ROAD,ADJ RAIPUR ROAD,DEHRADUN,DEHRADUN,U P 248001",,DEHRADUN,DEHRADUN,UTTARAKHAND
KARB0000197,Karnataka Bank Ltd,KARB0000197,560052046,DEVANAHALLI BANGALORE,"NO.24, SURABHI COMPLEX , B B ROAD NH 7,DEVANAHALLI,BLORE",,BANGALORE,BANGALORE URBAN,KARNATAKA
KARB0000198,Karnataka Bank Ltd,KARB0000198,560052056,DODDABALLAPUR,"NO. 2777, M G CIRCLE, LIONS BHAVAN ROAD, SHENGARPET, DODDABALLAPURA - 56",,BANGALORE,KOLAR,KARNATAKA
KARB0000199,Karnataka Bank Ltd,KARB0000199,826052002,DHANBAD,"COMMERCIAL HOUSE LL, SHASTRI NAGAR, DHANSAR POST, DHANBAD - 828106, JHARKHAND",,DHANBAD,DHANBAD,JHARKHAND
KARB0000200,Karnataka Bank Ltd,KARB0000200,400052011,INTERNATIONAL DIVISION,"P.B.NO. 11517, 107-109, IST FLOOR, RAHEJA CENTRE, FREE PRESS JOURNAL MARG, NARIMAN POINT, MUMBAI - 400021",,MUMBAI,MUMBAI,MAHARASHTRA
KARB0000201,Karnataka Bank Ltd,KARB0000201,682052002,ERNAKULAM KERALA,"XXX BY 512,CHELUR BLDG,1ST FLOOR,MG ROAD,PALLIMUKKU,PB1795,ERNAKULAM 682016",,ERNAKULAM,ERNAKULAM,KERALA
KARB0000202,Karnataka Bank Ltd,KARB0000202,638052002,ERODE,"15A,GANDHIJI ROAD,PB192,ERODE 638001",,ERODE,ERODE,TAMIL NADU
KARB0000203,Karnataka Bank Ltd,KARB0000203,638052003,TEACHERS COLONY ERODE T N,"NO18,PALANIAPPA COMPLEX,1ST FLOOR,DR RADHAKRISHNA ROAD,TEACHERS COLONY,ERODE 638011,TN",,ERODE,ERODE,TAMIL NADU
KARB0000204,Karnataka Bank Ltd,KARB0000204,491052002,DURG,"GROUND FLOOR, ""JOIN HAND"", STATION ROAD, DURG - 491001, CHHATTISGARH",,DURG,DURG,CHHATTISGARH
KARB0000225,Karnataka Bank Ltd,KARB0000225,110052013,FARIDABAD HARYANA,"SCO 143,GROUND FLOOR,SECTOR 21C,SHOPPING CENTRE,FARIDABAD 121002,HARYANA",,FARIDABAD,FARIDABAD,HARYANA
KARB0000250,Karnataka Bank Ltd,KARB0000250,NOT APPLICABLE,RO DELHI,"M13(A)PUNJ HOUSE,1ST FLOOR,CONNAUGHT CIRCUS,NEW DELHI",,DELHI,DELHI,DELHI
KARB0000251,Karnataka Bank Ltd,KARB0000251,582052002,GADAG,"CTS NO 3787 BY 15A BY 12A,1ST FLOOR,MAHENDRAKAR CIRCLE,STATION ROAD,PB 52,GADAG 582101,K",,GADAG,GADAK,KARNATAKA
KARB0000252,Karnataka Bank Ltd,KARB0000252,581052523,GOKARNA,"HOUSE NO 12A, OPP OM HOTEL NEAR BUS STAND, THARAMUKKI ROAD, GOKARNA 581 326",,GOKARNA,UTTARA KANNADA,KARNATAKA
KARB0000253,Karnataka Bank Ltd,KARB0000253,577052531,GONIBEEDU,"MAIN ROAD,GONIBEEDU 577 151,MUDIGERE TALUK, DIST CHICKMAGALUR",,MUDIGERE,CHICKMAGALUR,KARNATAKA
KARB0000254,Karnataka Bank Ltd,KARB0000254,585052002,GULBARGA,"BLOCK NO 22 AND 43,SUPER MARKET COMPLEX,PB 23,GULBARGA 585101,KARNATAKA",,GULBARGA,GULBERGA,KARNATAKA
KARB0000255,Karnataka Bank Ltd,KARB0000255,520052102,GUNTUR AP,"BEHIND HINDU COLLEGE,GT ROAD,PB 191,GUNTUR 522003,AP",,GUNTUR,GUNTUR,ANDHRA PRADESH
KARB0000256,Karnataka Bank Ltd,KARB0000256,577052532,GAJANOOR,"MAIN ROAD,GAJANOOR-577202,SHIMOGA DIST",,NA,SHIMOGA,KARNATAKA
KARB0000257,Karnataka Bank Ltd,KARB0000257,572052522,GUBBI,"B SIDDARAMANNA BLDG,NEAR BUS STAND,BH ROAD,GUBBI 572216,TUMKUR DIST,KARNATAKA",,GUBBI,TUMKUR,KARNATAKA
KARB0000258,Karnataka Bank Ltd,KARB0000258,580052303,GOPALPURA DHARWAD,"MANOHAR NIVAS BLDG,NEAR RLY STATION,GOPALPURA,DHARWAD 580007,KARNATAKA",,GOPALPURA,DHARWAD,KARNATAKA
KARB0000259,Karnataka Bank Ltd,KARB0000259,591052502,GOKAK,"SATISH COMPLEX,MAIN ROAD,PB 8,GOKAK 591307,BELGAUM DIST",,GOKAK,BELGAUM,KARNATAKA
KARB0000260,Karnataka Bank Ltd,KARB0000260,571052527,GONIKOPPAL,"1ST FLOOR, RONICA COMPLEX, MAIN ROAD,GONIKOPPAL-571213,COORG DIST,KARNATAKA",,NA,MADIKERI,KARNATAKA
KARB0000261,Karnataka Bank Ltd,KARB0000261,110052005,GURGAON HARYANA,"PLOT NO14,GROUND FLOOR,SCO 14,SECTOR 14,DELHI GURGOAN ROAD,GURGAON 122001",,DELHI,NEW DELHI,DELHI
KARB0000262,Karnataka Bank Ltd,KARB0000262,583052302,GANGAVATHI,"DEVASIRI COMPLEX,L G ROAD GANGAVATHI 583227",,GANGAVATHI,KOPPAL,KARNATAKA
KARB0000263,Karnataka Bank Ltd,KARB0000263,403052006,GOA PONDA,"HOTEL MENINO BUILDING, BELGAUM PONDA ROADPONDA",,GOA,NORTH GOA,GOA
KARB0000264,Karnataka Bank Ltd,KARB0000264,781052002,GUWAHATI,"I FLOOR,GANGA BHAVAN,OPP SB DEORAH COLLEGE,GS ROAD,ULUBARI,GUWAHATI - 781007",,GUWAHATI,KAMRUP,ASSAM
KARB0000265,Karnataka Bank Ltd,KARB0000265,571052652,GUNDLUPET,"NO.40/41, FIRST FLOOR, N.H. 212, MYSORE-OOOTY ROAD, GUNDLUPET - 571111",,GUNDLUPET,GUNDLUPET,KARNATAKA
KARB0000266,Karnataka Bank Ltd,KARB0000266,110052022,GHAZIABAD,"GROUND FLOOR, GAUR GRAVITY MALL, 8, VAIBHAV KHAND, INDIRAPURAM, GHAZIABAD - 201014, U.P.",,GHAZIABAD,GHAZIABAD,UTTAR PRADESH
KARB0000267,Karnataka Bank Ltd,KARB0000267,474052001,GWALIOR,"GROUND FLOOR, BKG HOUSE, OPP. SANJAY COMPLEX, JAYENDRAGANJ, GWALIOR - 474009",,GWALIOR,GWALIOR,MADHYA PRADESH
KARB0000300,Karnataka Bank Ltd,KARB0000300,NOT APPLICABLE,RO SHIMOGA,"IST FLOOR,KARNATAKA BANK BUILDING,SAVALANGA ROAD,SHIMOGA.",,SHIMOGA,SHIMOGA,KARNATAKA
KARB0000301,Karnataka Bank Ltd,KARB0000301,573052506,HANBAL,"PRAKYATH COMPLEX,SAKLESHPUR ROAD SAKLESHPUR EX.,HANBAL - 577119",,NA,HASSAN,KARNATAKA
KARB0000302,Karnataka Bank Ltd,KARB0000302,581052524,HANGAL,"TMC NO 3366 BY 4 BY A,I FLOOR,GOKAVI BLDG,NEAR NEW KSRTC BUSSTAND CIRCLE,HANGAL-581104",,NA,HAVERI,KARNATAKA
KARB0000303,Karnataka Bank Ltd,KARB0000303,577052602,HARIHARA,"OLD PB ROAD, HARIHARA 577601,DAVANGERE DIST,KARNATAKA",,HARIHARA,DAVANAGARE,KARNATAKA
KARB0000304,Karnataka Bank Ltd,KARB0000304,573052302,HASSAN,"GANAPATHI SEVA BLDG,1ST FLOOR,BUS STAND ROAD,PB 31,HASSAN 573201,KARNATAKA",,HASSAN,HASSAN,KARNATAKA
KARB0000305,Karnataka Bank Ltd,KARB0000305,581052052,HAVERI,"LAXMI COMPLEX,POONA BANGALORE ROAD,PB2,HAVERI 581110,KARNATAKA",,HAVERI,HAVERI,KARNATAKA
KARB0000306,Karnataka Bank Ltd,KARB0000306,577052533,HEGGODU,"PO HONNESARA,HEGGODU SAGAR TALUK-577417,SHIMOGA DIST",,NA,SHIMOGA,KARNATAKA
KARB0000307,Karnataka Bank Ltd,KARB0000307,572052302,HIRIYUR,"106 1633, IST FLOOR,NEAR POST OFFICE, MAIN ROAD, HIRIYUR 572 143",,HIRIYUR,CHITRADURGA,KARNATAKA
KARB0000308,Karnataka Bank Ltd,KARB0000308,577052534,HOLEHONNUR,"1ST FLOR,ANJANEYA BLDG,CN ROAD, HOLEHONNUR-577227,SHIMOGA DIST",,NA,SHIMOGA,KARNATAKA
KARB0000309,Karnataka Bank Ltd,KARB0000309,573052152,HOLENARSIPURA,"MUNICIPAL COMMERCIAL COMPLEX, GANDHI CHOWK, P B NO 4,HOLENARASIPURA 573 211, DIST HASSAN",,HOLENARSIPURA,HASSAN,KARNATAKA
KARB0000310,Karnataka Bank Ltd,KARB0000310,577052535,HONNALI,"SITE NO 249,NYAMATHI ROAD,HONNALI 577217,DAVANGERE DIST,KARNATAKA",,HONNALI,DAVANAGARE,KARNATAKA
KARB0000311,Karnataka Bank Ltd,KARB0000311,572052523,HONNAVALI,OLD POST OFFICE ROAD HONNAVALLY 572217 TUMKUR DIST KARNATAKA,,NA,TUMKUR,KARNATAKA
KARB0000312,Karnataka Bank Ltd,KARB0000312,572052521,HOSDURGA,"SUDARSHAN BUILDING, HH ROAD, HOSADURGA 577 527, DIST CHITRADURGA",,HOSADURGA,CHITRADURGA,KARNATAKA
KARB0000313,Karnataka Bank Ltd,KARB0000313,577052536,HOSANAGAR,"SHRI ANJANEYA NILAYA,NEAR POST OFFICE, CHANNAGIRI RD, HOLEHONNUR 577 227,DIST SHIMOGA",,HOLEHONNUR,SHIMOGA,KARNATAKA
KARB0000314,Karnataka Bank Ltd,KARB0000314,583052202,HOSPET,"BALA COMPLEX, STATION ROAD HOSPET 583 201",,HOSPET,BELLARY,KARNATAKA
KARB0000315,Karnataka Bank Ltd,KARB0000315,580052002,DURGAD BAIL HUBLI,"TABIB MANSION,OPP CBT PB90,HUBLI 580020",,HUBLI,DHARWAD,KARNATAKA
KARB0000316,Karnataka Bank Ltd,KARB0000316,580052003,NEW COTTON MARKET HUBLI,"NEELIGIN ROAD,NEW COTTON MARKET, HUBLI 580029,KARNATAKA",,HUBLI,DHARWAD,KARNATAKA
KARB0000317,Karnataka Bank Ltd,KARB0000317,580052005,OLD HUBLI,"KASBAPETH,OLD HUBLI 580024,KARNATAKA",,HUBLI,DHARWAD,KARNATAKA
KARB0000318,Karnataka Bank Ltd,KARB0000318,577052537,HUMCHA,1ST FLOOR DEVENDRAPPA BUILDING MAIN ROAD HUMCHA 577436 SHIMOGA DIST,,NA,SHIMOGA,KARNATAKA
KARB0000319,Karnataka Bank Ltd,KARB0000319,571052052,HUNSUR,"3577 BY A,BM ROAD,PB5,HUNSUR,MYSORE DIST",,HUNSUR,MYSORE,KARNATAKA
KARB0000320,Karnataka Bank Ltd,KARB0000320,500052002,HYDERABAD MAIN NAMPALLY,"5 4 424,NAMPALLY STATION ROAD,PB254,HYDERABAD 500001",,HYDERABAD,HYDERABAD URBAN,ANDHRA PRADESH
KARB0000321,Karnataka Bank Ltd,KARB0000321,576052504,HANGLUR,HANGLUR   576 217 VIA KUNDAPURA  DIST UDUPI,,NA,UDUPI,KARNATAKA
KARB0000322,Karnataka Bank Ltd,KARB0000322,577052538,HARIHARAPURA,"SBS COMPLEX,SRINGERI ROAD,HOSAKOPPA-577120",,NA,CHICKMAGALUR,KARNATAKA
KARB0000323,Karnataka Bank Ltd,KARB0000323,581052525,HOSAKULI,"POST ARENGADI,HONNAVAR TALUK-581430",,NA,UTTARA KANNADA,KARNATAKA
KARB0000324,Karnataka Bank Ltd,KARB0000324,585052503,HUNSAGI,"MAIN ROAD,HUNSAGI PIN 585215,DIST GULBARGA",,HUNSAGI,GULBERGA,KARNATAKA
KARB0000325,Karnataka Bank Ltd,KARB0000325,560052038,HUNASEMARANAHALLI BLORE,"PANCHAYAT OFFICE BLDG,HUNSEMARANAHALLI,BANAGLORE NORTH DIST 562157",,NA,HASSAN,KARNATAKA
KARB0000326,Karnataka Bank Ltd,KARB0000326,573052507,ALUR,"B M ROAD,ALUR - 573213, DIST HASSAN",,HUNSEMARANAHALLI,BANGALORE URBAN,KARNATAKA
KARB0000327,Karnataka Bank Ltd,KARB0000327,515052102,HINDUPUR A P,"17 3 632 BY 4,1ST FLOOR,JEELANI COMPLEX,KL ROAD,PB22,HINDUPUR 515201,AP",,HINDUPUR,ANANTPUR,ANDHRA PRADESH
KARB0000328,Karnataka Bank Ltd,KARB0000328,580052006,NAVANAGAR HUBLI,"KURATTI COMPLEX,M G RD,OPP TO K C T R I NAVANAGAR HUBLI 580025",,HUBLI,DHARWAD,KARNATAKA
KARB0000329,Karnataka Bank Ltd,KARB0000329,500052004,BANJARA HILLS HYDERABAD,"PLOT NO50,SRINAGAR COLONY,BANJARA HILLS,HYDERABAD 500073",,HYDERABAD,HYDERABAD URBAN,ANDHRA PRADESH
KARB0000330,Karnataka Bank Ltd,KARB0000330,580052004,GOKUL ROAD HUBLI,"PLOT NO37,CTS NO610 BY D,1ST FLOOR,NEHRUNAGAR,GOKUL ROAD,HUBLI 580030",,HUBLI,DHARWAD,KARNATAKA
KARB0000331,Karnataka Bank Ltd,KARB0000331,500052005,DILSUKHNAGAR HYDERABAD,"18 BY 89,1ST FLOOR,CHAITANYAPURI CROSS ROAD,KAMALANAGAR,DILSUKH NAGAR,HYDERABAD 500060",,HYDERABAD,HYDERABAD URBAN,ANDHRA PRADESH
KARB0000332,Karnataka Bank Ltd,KARB0000332,580052007,MADHURA ESTATE HUBLI,"PLOT NO39,MADHURA ESTATE,KESHWAPUR, HUBLI 580023",,HUBLI,DHARWAD,KARNATAKA
KARB0000333,Karnataka Bank Ltd,KARB0000333,500052008,UMA NAGAR HYDREBAD,"6 3 1219 BY 24,UMANAGAR,BEGUMPET,HYDERABAD 500016",,HYDERABAD,HYDERABAD URBAN,ANDHRA PRADESH
KARB0000334,Karnataka Bank Ltd,KARB0000334,500052007,RAJBHAVAN ROAD HYDREBAD,"6 3 1090 BY A,BHUPAL TOWERS,RAJBHAVAN ROAD,SOMAJIGUDA,HYDERABAD 500082",,HYDERABAD,HYDERABAD URBAN,ANDHRA PRADESH
KARB0000335,Karnataka Bank Ltd,KARB0000335,249052002,HARIDWAR,"MAHANT STHAL NEAR VAN PRASTHA ASHRAM, JWALAPUR ROAD, HARIDWAR 249407 UTTARAKHAND STATE",,HARIDWAR,HARIDWAR,UTTARAKHAND
KARB0000336,Karnataka Bank Ltd,KARB0000336,500052009,KUKATPALLY,"NO 42,PRATHIMA ARCADE PHASE 6,KPHB COLONY,KUKATPALLY,HYDERABAD500072",,HYDERABAD,HYDERABAD URBAN,ANDHRA PRADESH
KARB0000337,Karnataka Bank Ltd,KARB0000337,560052057,HOSKOTE,"1273/2540/22, COLLEGE ROAD, M.V. EXTENSION, HOSKOTE - 562114, BANGALORE RURAL.",,BANGALORE,BANGALORE-RURAL,KARNATAKA
KARB0000338,Karnataka Bank Ltd,KARB0000338,577052556,HORANADU,"MAIN ROAD, BESIDES YAATHRI NIVAS, HARANADU - 577181, MUDIGERE TALUK, CHICKMAGALUR DIST.",,577181,HORANADU,CHICKMAGALUR
KARB0000350,Karnataka Bank Ltd,KARB0000350,NOT APPLICABLE,RO HYDERABAD,"PLOT NO.50, IST FLOOR. ROAD NO.3, SRINAGAR COLONY, BANJARA HILLS HYDERABAD-500073",,HYDERABAD,HYDERABAD,ANDHRA PRADESH
KARB0000351,Karnataka Bank Ltd,KARB0000351,575052008,SURATKAL IDDYA,"1ST FLOOR,SHANKER SADANA,IDDYA SURATHKAL BRANCH,MAIN ROAD,PB2,SURATHKAL 575014",,SURATHKAL,DAKSHINA KANNADA,KARNATAKA
KARB0000352,Karnataka Bank Ltd,KARB0000352,452052002,INDORE MP,"8 BY 2,GROUND FLOOR,RAFEL TOWERS,GREATER KAILASH ROAD,OLD PALASIA,INDORE 452001,MP",,INDORE,INDORE,MADHYA PRADESH
KARB0000353,Karnataka Bank Ltd,KARB0000353,586052504,INDI,"PLOT NO. 11, SHANTESWARA BUILDING, BEERAPPA NAGAR, BIJAPUR ROAD, INDI-586209, BIJAPUR DIST.",,586209,INDI,BIJAPUR
KARB0000361,Karnataka Bank Ltd,KARB0000361,587052302,JAMKHANDI,"BASAVESHWAR ROAD,PB4,JAMKHANDI 587301,BAGALKOT DIST",,JAMKHANDI,BAGALKOT,KARNATAKA
KARB0000362,Karnataka Bank Ltd,KARB0000362,577052539,JAYAPURA,"JAYAPURA, PIN 577123 KOPPA TALUK, DIST CHICKMAGALUR",,KOPPA,CHICKMAGALUR,KARNATAKA
KARB0000363,Karnataka Bank Ltd,KARB0000363,577052652,MUDIGERE,"1ST FLOOR , S G TOWERS, K M ROAD, P B NO 48, MUDIGERE 577132",,MUDIGERE,CHICKMAGALUR,KARNATAKA
KARB0000364,Karnataka Bank Ltd,KARB0000364,302052002,JAIPUR RAJASTHAN,"SHOP NO72 74,1ST FLOOR,GANAPATHI PLAZA,MI ROAD,PB84,JAIPUR 302001",,JAIPUR,JAIPUR,RAJASTHAN
KARB0000365,Karnataka Bank Ltd,KARB0000365,144052002,JALANDHAR PUNJAB,"MODEL TOWN ROAD,NEAR HOTEL SKYLARK,CIVIL LINES,JALANDHAR 144001,PUNJAB",,JALANDHAR,JALANDHAR,PUNJAB
KARB0000366,Karnataka Bank Ltd,KARB0000366,342052002,JODHPUR,"ANAND BHAVAN,GROUND FLOOR,MAIN CHOPASINI ROAD,SHANICHARGI KA THAN,JODHPUR-342001",,JODHPUR,JODHPUR,RAJASTHAN
KARB0000367,Karnataka Bank Ltd,KARB0000367,755052102,JAJPUR ROAD,"FIRST FLOOR, GATE NO. 1, MUKTA MARKET COMPLEX, GOPABANDHU CHHAK, JAJPUR ROAD, JAJPUR DIST. ORISSA",,JAJPUR,JAJPUR,ORISSA
KARB0000400,Karnataka Bank Ltd,KARB0000400,NOT APPLICABLE,RO HUBLI,"CTS,122/108,2ND FLOOR,NEELIGIN ROAD,NEW COTTON ROAD,HUBLI",,HUBLI,HUBLI,KARNATAKA
KARB0000401,Karnataka Bank Ltd,KARB0000401,575052028,KABAKA,"RASHID MANZIL BLDG,MAIN RD, KABAKA,PUTUR TALUK-574220,DK DIST",,NA,DAKSHINA KANNADA,KARNATAKA
KARB0000402,Karnataka Bank Ltd,KARB0000402,577052540,KALASA,"SRI ANNAPOORNA COMPLEX,MAIN ROAD,KALASA 577124,CHICKMAGALUR DIST",,KALASA,CHICKMAGALUR,KARNATAKA
KARB0000403,Karnataka Bank Ltd,KARB0000403,577052541,KAMMARDI,1ST FLOOR GANESH BHAT COMPLEX BEGAR  KALMANE ROAD  KAMMARDI 577125 CHICKMAGALUR,,NA,CHICKMAGALUR,KARNATAKA
KARB0000404,Karnataka Bank Ltd,KARB0000404,575052027,KARKALA,"NEAR BUS STAND,KARLA COMPLEX,1ST FLOOR,PB 19,KARKALA 574104,UDUPI DIST",,KARKALA,UDUPI,KARNATAKA
KARB0000405,Karnataka Bank Ltd,KARB0000405,581052526,KARKI,D NO1228 A 1 ST FLOOR  DEVARA AATA COMPLEX  N H 17 KARKI  PIN   581 341 HONNAVAR TALUK,,NA,UTTARA KANNADA,KARNATAKA
KARB0000406,Karnataka Bank Ltd,KARB0000406,671052002,KASARGOD KERALA,"1ST FLOOR,BENDICHAL BLDG,BANK ROAD,PB14,KASARGOD 671121",,KASARGOD,KASARAGOD,KERALA
KARB0000407,Karnataka Bank Ltd,KARB0000407,577052542,KATTEHAKLU,"KATTEHAKLU,THIRTHAHALLI TALUK-577415,SHIMOGA DIST",,NA,SHIMOGA,KARNATAKA
KARB0000408,Karnataka Bank Ltd,KARB0000408,581052203,KODIBAG KARWAR,"FIRST FLOOR,NEAR KANNADA PRIMARY SCHOOL,MAIN RD,KODIBAG,KARWAR-581303",,NA,UTTARA KANNADA,KARNATAKA
KARB0000409,Karnataka Bank Ltd,KARB0000409,571052528,KODLIPET,GANDHI CHOWK KODLIPET  PIN 571231 DIST KODAGU,,NA,MADIKERI,KARNATAKA
KARB0000410,Karnataka Bank Ltd,KARB0000410,577052702,KOPPA,"GANESH COMPLEX,TM ROAD,PB10,KOPPA 577126, CHICKMAGALUR DIST",,KOPPA,CHICKMAGALUR,KARNATAKA
KARB0000411,Karnataka Bank Ltd,KARB0000411,572052524,KORATAGERE,119 MAIN ROAD  KORATAGERE 572129 TUMKUR   KARNATAKA,,NA,TUMKUR,KARNATAKA
KARB0000412,Karnataka Bank Ltd,KARB0000412,576052505,KOTA,1ST FLOOR  AITHAL COMPLEX  NH 17 KOTA PIN 576221 UDUPI DIST KARNATAKA,,NA,UDUPI,KARNATAKA
KARB0000413,Karnataka Bank Ltd,KARB0000413,571052002,K R NAGAR MYSORE,"2579 BY 1483,7TH ROAD,PB26,K R NAGAR MYSORE DIST 571602",,MYSORE,MYSORE,KARNATAKA
KARB0000414,Karnataka Bank Ltd,KARB0000414,571052529,KUDIGE,1ST FLOOR NEAR FARM GATE MAIN ROAD KUDIGE 571232 KODAGU DIST,,NA,MADIKERI,KARNATAKA
KARB0000415,Karnataka Bank Ltd,KARB0000415,576052506,KUMBHASHI,1ST FLOOR  PRABHU BUILDING NH 17  KUMBHASHI  UDUPI   KARNATAKA,,NA,UDUPI,KARNATAKA
KARB0000416,Karnataka Bank Ltd,KARB0000416,581052652,KUMTA,"1ST FLOOR,KUMBHESHWAR ROAD,BASTIPET,KUMTA 581343,UK DIST",,KUMTA,UTTARA KANNADA,KARNATAKA
KARB0000417,Karnataka Bank Ltd,KARB0000417,581052527,KUNDGOL,"NADGIRWADA,MAIN ROAD, KUNDGOL-581113,DHARWAD DIST",,NA,DHARWAD,KARNATAKA
KARB0000418,Karnataka Bank Ltd,KARB0000418,575052023,KURNAD MUDIPU,PADMASHREE COMPLEX  MUDIPU POST KURNAD  PIN 574153 BANTWAL TALUK  DIST  D K,,NA,DAKSHINA KANNADA,KARNATAKA
KARB0000419,Karnataka Bank Ltd,KARB0000419,581052202,KARWAR MAIN,"USKV COMPLEX,KAIKINI ROAD,PB 36,KARWAR 581301,UK DIST,KARNATAKA",,KARWAR,UTTARA KANNADA,KARNATAKA
KARB0000420,Karnataka Bank Ltd,KARB0000420,577052543,KUDREGUNDI,"1ST FLOOR,ABHILASH COMPLEX,KUDREGUNDI,KOPPA TALUK-577127,CHICKMAGALUR DIST",,NA,CHICKMAGALUR,KARNATAKA
KARB0000421,Karnataka Bank Ltd,KARB0000421,576052507,KATTINGERI,"D NO 1 9, GOKULDAM COMPLEX, MAIN ROAD, KATTINGERI 576 120",,KATTINGERI,UDUPI,KARNATAKA
KARB0000422,Karnataka Bank Ltd,KARB0000422,576052508,KIRIMANJESHWARA,SHREE GANAPATHI KRIPA  NAGOOR  KIRIMANJESHWAR   576 253 DIST UDUPI,,NA,UDUPI,KARNATAKA
KARB0000423,Karnataka Bank Ltd,KARB0000423,416052002,KOLHAPUR MAHARASTRA,"665 BY E,3RD LANE,SHAHUPURI,PB244,KOLHAPUR 416001",,KOLHAPUR,KOLHAPUR,MAHARASHTRA
KARB0000424,Karnataka Bank Ltd,KARB0000424,563052102,KOLAR,"BIG BAZAR, PB NO 40, KOLAR, PIN 563 101",,KOLAR,KOLAR,KARNATAKA
KARB0000425,Karnataka Bank Ltd,KARB0000425,573052508,KOUSHIKA,MAIN ROAD KOWSHIKA 573212 HASSAN,,NA,HASSAN,KARNATAKA
KARB0000426,Karnataka Bank Ltd,KARB0000426,577052544,KUNDUR,"1ST FLOOR,VEENA NILAYA,8 BY 8 MAIN ROAD,KUNDUR-577219,DAVANGERE DIST",,NA,DAVANAGARE,KARNATAKA
KARB0000427,Karnataka Bank Ltd,KARB0000427,400052008,KALYAN MUMBAI,"NH 83,SUCHAK CHAMBERS,NEAR MAHAVEER COMPLEX,PB250,KALYAN WEST 421301THANE DIST",,MUMBAI,GREATER MUMBAI,MAHARASHTRA
KARB0000428,Karnataka Bank Ltd,KARB0000428,518052002,KURNOOL AP,"D NO4 BY 29 F,MMM COMPLEX,1ST FLOOR,PARK ROAD, PB5,KURNOOL 518001,AP",,KURNOOL,KURNOOL,ANDHRA PRADESH
KARB0000429,Karnataka Bank Ltd,KARB0000429,533052002,KAKINADA AP,"D NO34 1 13,1ST FLOOR,SRI KRISHNA KIRTHI COMPLEX,TEMPLE STREET,KAKINADA 533001,EAST GODA",,KAKINADA,EAST GODAVARI,ANDHRA PRADESH
KARB0000430,Karnataka Bank Ltd,KARB0000430,639052002,KARUR TN,"NO 806,WHITE COMPLEX,1ST FLOOR,JAWAHAR BAZAR,PB107,KARUR 639001,TN",,KARUR,KARUR,TAMIL NADU
KARB0000431,Karnataka Bank Ltd,KARB0000431,507052002,KHAMMAM AP,"11 1 22 BY A,1ST FLOOR,DR R JAYACHANDRA REDDY COMPLEX,WYRA ROAD,MAYURI CENTRE,KHAMMAN 50",,KHAMMAM,KHAMMAM,ANDHRA PRADESH
KARB0000432,Karnataka Bank Ltd,KARB0000432,671052052,KANHANGAD,"MADAN S ARCADE,MAIN ROAD,HOSDURG,KANHANGAD 671315,KASARGOD DIST",,KANHANGAD,KASARAGOD,KERALA
KARB0000433,Karnataka Bank Ltd,KARB0000433,416052003,KOLHAPUR SIBER CAMPUS,"CHH SHAHU CENTRAL,BUSINESS EDUCATION AND RESEARCH UNIVERSITY ROAD,KOLHAPUR 416004",,KOLHAPUR,KOLHAPUR,MAHARASHTRA
KARB0000434,Karnataka Bank Ltd,KARB0000434,700052003,CENTRAL AVENUE KOLKATA,"CENTRAL AVENUE BRANCH,7,KHETRA DAS LANE,NEAR BOW BAZAR POLICE STATION,KOLKOTA 700012",,KOLKOTA,KOLKATA,WEST BENGAL
KARB0000435,Karnataka Bank Ltd,KARB0000435,700052004,SALT LAKE KOLKATTA,"NO CJ 161, JANAKI KUNJ SECTOR II SALT LAKE CITY PARA  KOLKATTA 700091",,KOLKOTA,KOLKATA,WEST BENGAL
KARB0000436,Karnataka Bank Ltd,KARB0000436,700052005,RASH BEHARI AVENUE,NO  112A  GROUND FLOOR  NEAR LAKE MARKET RASH BEHARI AVENUE KOLKATA   700026,,KOLKOTA,KOLKATA,WEST BENGAL
KARB0000437,Karnataka Bank Ltd,KARB0000437,208052002,KANPUR,24 BY 13 GROUND FLOOR MALL PLAZA KANPUR 208001,,KANPUR,KANPUR NAGAR,UTTAR PRADESH
KARB0000438,Karnataka Bank Ltd,KARB0000438,700052006,BELIAGHATTA,"32,GROUND FLOOR,HEMACHANDRA NASKAR ROAD,BELIAGHATTA,KOLKOTTA700010",,KOLKATA,KOLKATA,WEST BENGAL
KARB0000439,Karnataka Bank Ltd,KARB0000439,700052007,BHOWANIPORE,"NO.40, ASHUTOSH MUKHERJEE ROAD, BHOWANIPORE, LALA LAJPAT RAI SARANI POST OFFICE, KOLKATA - 700020",,KOLKATA,KOLKATA,WEST BENGAL
KARB0000440,Karnataka Bank Ltd,KARB0000440,560052061,KANAKAPURA,"GROUND FLOOR, 619 A / 597-581, KODI HALLI ROAD, KANAKAPURA, RAMANAGARAM DIST. PIN-562117",,KANAKAPURA,RAMANAGARAM,KARNATAKA
KARB0000441,Karnataka Bank Ltd,KARB0000441,600052017,KANCHEEPURAM,"GROUND FLOOR, DOOR NO.28A, VALLAL PACHAYAPPAN STREET, KANCHEEPURAM - 631501, TAMILNADU",,KANCHEEPURAM,KANCHEEPURAM,TAMIL NADU
KARB0000442,Karnataka Bank Ltd,KARB0000442,577052555,KADUR,"GROUND FLOOR, “SRI KALI COMPLEX”, N.H.206, KADUR – 577548 (CHICKMAGALUR DIST.) ",,KADUR,CHICKMAGALUR,KARNATAKA
KARB0000443,Karnataka Bank Ltd,KARB0000443,505052002,KARIMNAGAR,"FIRST FLOOR,7-2-1125,VEMULAVADA ROAD,MANKAMMA THOTA, KARIMNAGAR - 505001",,505001,KARIMNAGAR,KARIMNAGAR
KARB0000444,Karnataka Bank Ltd,KARB0000444,572052529,KUNIGAL,"OPP: POST OFFICE, KRS AGRAHARA, KUVEMPUNAGARA, B M ROAD, KUNIGAL - 572130",,KUNIGAL,TUMKUR,KARNATAKA
KARB0000445,Karnataka Bank Ltd,KARB0000445,583052503,KAMPLI,"D/NO 249 & 248, M.R.PLAZA, MAIN ROAD, KAMPLI - 583132, HOSPET TALUK, BELLARY DIST.",,583132,KAMPLI,BELLARY
KARB0000446,Karnataka Bank Ltd,KARB0000446,575052031,KAIRANGALA,"GROUND FLOOR, PANDIT COMPLEX, DUGGAJJARA KATTE, VIA., KURNAD, KAIRANGALA - 574153",,574153,MANGALORE,SOUTH KANARA
KARB0000451,Karnataka Bank Ltd,KARB0000451,575052504,UJIRE KARNATAKA,"1ST FLOOR, SUDHARSHAN COMMERCIAL COMPLEX, UJJIRE 574240, D K DIST, KARNATAKA",,BELTHANGADY,DAKSHINA KANNADA,KARNATAKA
KARB0000452,Karnataka Bank Ltd,KARB0000452,141052002,LUDHIANA PUNJAB,"B 15 BY 179,1ST FLOOR,SONA COMPLEX,NIRANKARI KUCHA NO4,GT ROAD,MILLERGANJ,PB789,LUDHIANA",,LUDHIANA,LUDHIANA,PUNJAB
KARB0000453,Karnataka Bank Ltd,KARB0000453,226052002,LUCKNOW UP,"G 3 BY 5,SHALIMAR SQUARE,126 BY 31,BN ROAD,LALBAGH,LUCKNOW 226001",,LUCKNOW,LUCKNOW,UTTAR PRADESH
KARB0000454,Karnataka Bank Ltd,KARB0000454,500052012,L B NAGAR,"PLOT NO.70,SHIVA GANGA COLONY,L B NAGAR - 500074,",,500074,L B NAGAR,RANGA REDDY
KARB0000461,Karnataka Bank Ltd,KARB0000461,572052102,MADHUGIRI,"P B NO 9, GHS BUILDING, HIGH SCHOOL ROAD, MADHUGIRI 572 132 DIST TUMKUR",,MADHUGIRI,TUMKUR,KARNATAKA
KARB0000462,Karnataka Bank Ltd,KARB0000462,600052002,GT CHENNAI TC STREET,"324,TC STREET,PB 1612,CHENNAI 600001",,CHENNAI,CHENNAI,TAMIL NADU
KARB0000463,Karnataka Bank Ltd,KARB0000463,600052004,MOUNT ROAD CHENNAI,"839,MOUNT ROAD,PB2710,CHENNAI 600002",,CHENNAI,CHENNAI,TAMIL NADU
KARB0000464,Karnataka Bank Ltd,KARB0000464,600052006,CATHEDRAL CHENNAI,"NO351,AVVAI SHANMUGHAM LOYDS ROAD,GOPALAPURAM,CHENNAI 600086",,CHENNAI,CHENNAI,TAMIL NADU
KARB0000465,Karnataka Bank Ltd,KARB0000465,574052524,MANCHI,"2 50,MAIN ROAD,MANCHI KATTE, BANTWAL TALUK 574323",,BANTWAL,DAKSHINA KANNADA,KARNATAKA
KARB0000466,Karnataka Bank Ltd,KARB0000466,571052502,MANDYA,"MADHAVACHAR COMPLEX,OPP RAILWAY STATION,MC ROAD,PB26,MANDYA 571401",,MANDYA,MANDYA,KARNATAKA
KARB0000467,Karnataka Bank Ltd,KARB0000467,671052801,MANGALPADY,"VAIDYAR COMPLEX, KAIKAMBA JUNCTION,UPPALA POST, MANGALPADY 671322",,MANGALAPADY,KASARAGOD,KERALA
KARB0000468,Karnataka Bank Ltd,KARB0000468,573052509,MAGGE,"SRI KENCHAMBA NILAYA, MAIN ROAD,MAGGE, PIN 573146, ALUR TALUK,DIST HASSAN",,NA,HASSAN,KARNATAKA
KARB0000469,Karnataka Bank Ltd,KARB0000469,587052501,MAHALINGPUR,"BASAVESHWAR CIRCLE,PB4,MAHALINGPUR 587312,BAGALKOT DIST,KARNATAKA",,MAHALINGPUR,BAGALKOT,KARNATAKA
KARB0000470,Karnataka Bank Ltd,KARB0000470,577052545,MALEBENNUR,"1ST FLOOR, IRANI COMPLEX,SH ROAD,MALEBENNUR-577530,DAVANGERE DIST",,NA,DAVANAGARE,KARNATAKA
KARB0000471,Karnataka Bank Ltd,KARB0000471,575052007,HAMPANKATTA MANGALORE,"1ST FLOOR,STONE LAND TOWERS,MAIDAN NORTH ROAD,HAMPANKATTA,MANGALORE 575001",,MANGALORE,DAKSHINA KANNADA,KARNATAKA
KARB0000472,Karnataka Bank Ltd,KARB0000472,575052005,BUNDER MANGALORE,"HIBA TOWERS,1ST FLOOR,AZIZUDDIN ROAD,BUNDER,MANAGLORE 575001",,MANGALORE,DAKSHINA KANNADA,KARNATAKA
KARB0000473,Karnataka Bank Ltd,KARB0000473,575052004,BOLAR MANGALORE,"1ST FLOOR,SRI KRISHNA BLDG,JEPPU MARKET JUNCTION,BOLAR,MANGALORE 575001",,MANGALORE,DAKSHINA KANNADA,KARNATAKA
KARB0000474,Karnataka Bank Ltd,KARB0000474,575052009,KANKANADY MANGALORE,"1ST FLOOR,RED BLDG,KANKANADY NAGORI,MANGALORE 575002",,MANGALORE,DAKSHINA KANNADA,KARNATAKA
KARB0000475,Karnataka Bank Ltd,KARB0000475,575052020,DONGERKERY MANGALORE,"DONGERKERY,PB715,MANGALORE 575003",,MANGALORE,DAKSHINA KANNADA,KARNATAKA
KARB0000476,Karnataka Bank Ltd,KARB0000476,575052010,KODIALBAIL MANGALORE,"PVS ROAD,KODIALBAIL PB708,MANGALORE 575003",,MANGALORE,DAKSHINA KANNADA,KARNATAKA
KARB0000477,Karnataka Bank Ltd,KARB0000477,575052011,KUDROLI MANGALROE,"1ST FLOOR,GT OAD,NEAR ALKE BRIDGE,KUDROLI,MANGALORE 575003",,MANGALORE,DAKSHINA KANNADA,KARNATAKA
KARB0000478,Karnataka Bank Ltd,KARB0000478,575052003,BEJAI MANGALORE,"CHURCH ROAD,BEJAI,MANGALORE 575004",,MANGALORE,DAKSHINA KANNADA,KARNATAKA
KARB0000479,Karnataka Bank Ltd,KARB0000479,575052012,MANNAGUDDA MANGALORE,"1ST FLOOR,ANUGRAHA BLDG,NEAR MANNAGUDDA BUS STOP,MANNAGUDDA,MANGALORE 575003",,MANGALORE,DAKSHINA KANNADA,KARNATAKA
KARB0000480,Karnataka Bank Ltd,KARB0000480,577052546,MELPAL,"MANU KAVYA,MAIN ROAD,MELPAL-577112,NR PURA TALUK,CHIKMAGALUR DIST",,NA,CHICKMAGALUR,KARNATAKA
KARB0000481,Karnataka Bank Ltd,KARB0000481,571052152,MADIKERI,"PB NO. 31, KOHINOOR ROAD,MADIKERI - 571 201",,NA,MADIKERI,KARNATAKA
KARB0000482,Karnataka Bank Ltd,KARB0000482,575052024,MOODBIDRI KARNATAKA,"1ST FLOOR,TRIBHUVAN BLDG,NEAR BUST STAND,PB10,MOODABIDRI 574227,DK DIST,KARNATAKA",,MOODBIDRI,DAKSHINA KANNADA,KARNATAKA
KARB0000483,Karnataka Bank Ltd,KARB0000483,582052501,MULGUND,"MVCC  BANK BLDG.,FIRST FLOOR,MAIN RD.,MULGUND-582117,GADAG DIST.",,NA,GADAK,KARNATAKA
KARB0000484,Karnataka Bank Ltd,KARB0000484,570052002,DEVARAJ URS ROAD MYSORE,"D NO82 85,1ST FLOOR,DEVARAJ URS ROAD,PB92,MYSORE 570001",,MYSORE,MYSORE,KARNATAKA
KARB0000485,Karnataka Bank Ltd,KARB0000485,570052004,CHAMUNDIPURAM MYSORE,"NO2954,K 12 BY 4,JLB ROAD,CHAMUNDIPURAM,MYSORE 570004",,MYSORE,MYSORE,KARNATAKA
KARB0000486,Karnataka Bank Ltd,KARB0000486,625052002,MADURAI TN,"39 41,TOWN HALL ROAD,PB78,MADURAI 625001",,MADURAI,MADURAI,TAMIL NADU
KARB0000487,Karnataka Bank Ltd,KARB0000487,575052017,URVA MARKET,"1ST FLOOR,VEENU PLAZA, SRI MARIAMMA TEMPLE RD, URVA MARKET, MANGALORE 575006",,MANGALORE,DAKSHINA KANNADA,KARNATAKA
KARB0000488,Karnataka Bank Ltd,KARB0000488,600052005,TRIPLICANE CHENNAI,"132 A,TRIPLICANE HIGH ROAD, CHENNAI 600005",,CHENNAI,CHENNAI,TAMIL NADU
KARB0000489,Karnataka Bank Ltd,KARB0000489,515052662,MADAKSHIRA,"DOOR NO 5 172,TUMKUR BELLARY ROAD, MADAKASIRA 515 301",,MADAKSIRA,ANANTPUR,ANDHRA PRADESH
KARB0000490,Karnataka Bank Ltd,KARB0000490,403052004,MARGAO GOA,"MABAI HOTEL BLDG,OPP MUNICIPAL GARDEN,PB 294,MARGOA 403601,GOA",,MARGOA,NORTH GOA,GOA
KARB0000491,Karnataka Bank Ltd,KARB0000491,600052008,ANNA NAGAR CHENNAI,"W123,3RD AVENUE,ANNANAGAR,CHENNAI 600040",,CHENNAI,CHENNAI,TAMIL NADU
KARB0000492,Karnataka Bank Ltd,KARB0000492,575052002,BALMATTA ROAD MANGALORE,"1ST FLOOR,HEMAVATHI BLDG,BALMATTA ROAD,MANGALORE 575001",,MANGALORE,DAKSHINA KANNADA,KARNATAKA
KARB0000493,Karnataka Bank Ltd,KARB0000493,581052528,MUROOR,D NO 186  MURUR ALVALLI ROAD  MUROOR 581362  UTTAR KANNAD DISTRICT,,NA,UTTARA KANNADA,KARNATAKA
KARB0000494,Karnataka Bank Ltd,KARB0000494,600052003,MINT STREET CHENNAI,"D NO311,1ST FLOOR,MINT STREET,SOWKARPET,CHENNAI 600003",,CHENNAI,CHENNAI,TAMIL NADU
KARB0000495,Karnataka Bank Ltd,KARB0000495,575052013,P M RAO ROAD MANGALORE,"1ST FLOOR, KELLE COURT,PM RAO ROAD,MANGALORE 575001",,MANGALORE,DAKSHINA KANNADA,KARNATAKA
KARB0000496,Karnataka Bank Ltd,KARB0000496,600052007,KODAMBAKKAM CHENNAI,"D NO68,2ND MAIN ROAD,UNITED INDIA COLONY,KODAMBAKKAM,CHENNAI 600024",,CHENNAI,CHENNAI,TAMIL NADU
KARB0000497,Karnataka Bank Ltd,KARB0000497,572052525,MEDIGESHI,MEDIGESHI  MADHUGITI TALUK  PIN 572133 TUMKUR DIST KARNATAKA,,NA,TUMKUR,KARNATAKA
KARB0000498,Karnataka Bank Ltd,KARB0000498,585052504,MATALA,MAIN MARKET DHARMPET MATALA 585419 BIDAR DIST,,NA,BIDAR,KARNATAKA
KARB0000499,Karnataka Bank Ltd,KARB0000499,570052005,SARASWATHIPURAM MYSORE,"AJANTHA COMPLEX,D NO2767 BY B,KANTHARAJ URS ROAD, SARASWATHIPURAM,PB10,MYSORE 570009",,MYSORE,MYSORE,KARNATAKA
KARB0000500,Karnataka Bank Ltd,KARB0000500,NOT APPLICABLE,RO CHENNAI,"IST FLOOR,NO 324,IST FLOOR,KARNATAKA BANK BUILDING,THAMBU CHETTY STREET,GEORGE TOWN, CHENNAI",,CHENNAI,CHENNAI,TAMIL NADU
KARB0000501,Karnataka Bank Ltd,KARB0000501,580052304,KOPPADAKERE DHARWAD,"MARATHA COLONY ROAD,KOPPADAKERE,DHARWAD 580008",,DHARWAD,DHARWAD,KARNATAKA
KARB0000502,Karnataka Bank Ltd,KARB0000502,575052505,MANILA,"260,1ST FLOOR,SHANKARA NARAYANA,MANILA VILLAGE-574243,DAKSHIN KANNADA DIST",,NA,DAKSHINA KANNADA,KARNATAKA
KARB0000503,Karnataka Bank Ltd,KARB0000503,160052003,MOHALI PUNJAB,"SCF 43,PHASE 3 B II,SECTOR 59,SAS NAGAR,MOHALI 160059",,MOHALI,RUPNAGAR,PUNJAB
KARB0000504,Karnataka Bank Ltd,KARB0000504,570052007,KUVEMPUNAGAR MYSORE,"SITE NO561,GROUND FLOOR,NEW KANTHARAJA URS ROAD,KUVEMPUNAGAR,MYSORE 570023",,MYSORE,MYSORE,KARNATAKA
KARB0000505,Karnataka Bank Ltd,KARB0000505,570052003,V V MOHALLA MYSORE,"D NO70,SUBHODA,1ST FLOOR,12TH CROSS,KALIDASA RD, VV MOHALLA, MYSORE 570002",,MYSORE,MYSORE,KARNATAKA
KARB0000506,Karnataka Bank Ltd,KARB0000506,575052018,KADRI ROAD MANGALORE,"KSN ADIGA SMARAKA BHAVANA,KADRI ROAD,MANGALORE 575003",,MANGALORE,DAKSHINA KANNADA,KARNATAKA
KARB0000507,Karnataka Bank Ltd,KARB0000507,570052006,SIDHARTHNAGAR MYSORE,"NO831, 1ST FLOOR, VINAYA MARGA, SIDDHARTHNAGAR, MYSORE 570 011",,MYSORE,MYSORE,KARNATAKA
KARB0000508,Karnataka Bank Ltd,KARB0000508,570052008,VIVEKANANDANAGAR MYSORE,"M 4,NEAR VIVEKANANDA CIRCLE, VIVEKANANDNAGAR, MYSORE 570023",,MYSORE,MYSORE,KARNATAKA
KARB0000509,Karnataka Bank Ltd,KARB0000509,400052021,"MUMBAI-VAZIRA NAKA, BORIVLI(W)","GROUND FLOOR, DONBOSCO HIGHSCHOOL BUILDING,VAZIR NAKA, BORIVILI (W),MUMBAI - 400 091",,MUMBAI,GREATER MUMBAI,MAHARASHTRA
KARB0000510,Karnataka Bank Ltd,KARB0000510,400052013,KANDIVLI EAST MUMBAI,"GAYATRI CORNER, 90 FEET RD, ASHA NAGAR, OPP THAKUR POLYTECHNIC, KANDIVLI EAST , MUMBAI 4",,MUMBAI,GREATER MUMBAI,MAHARASHTRA
KARB0000511,Karnataka Bank Ltd,KARB0000511,570052009,VIJAYANAGAR II MYSORE,"SRIVARA COMPLEX, SITE NO4586,2ND STAGE, VIJAYNAGAR 2ND STAGE, MYSORE 570017",,MYSORE,MYSORE,KARNATAKA
KARB0000512,Karnataka Bank Ltd,KARB0000512,400052014,POWAI,"GROUND FLOOR, GATEWAY PLAZA, CENTRAL AVENUE, HIRANANDANI GARDENS, MUMBAI POWAI 400076",,MUMBAI,GREATER MUMBAI,MAHARASHTRA
KARB0000513,Karnataka Bank Ltd,KARB0000513,575052019,HO COMPLEX BR MAHAVEERACIRCLE,"KARNATAKA BANK HEAD OFFICE COMPLEX, MAHAVEER CIRCLE, KANKANADY 575 002",,MANGALORE,DAKSHINA KANNADA,KARNATAKA
KARB0000514,Karnataka Bank Ltd,KARB0000514,400052015,OSHIWARA MUMBAI,"20 21, OSHIWARA LINK PLAZA, MHADA COMPLEX, OSHIWARA, JOGESHWARI W 400102, DIST OSHIWARA",,MUMBAI,GREATER MUMBAI,MAHARASHTRA
KARB0000515,Karnataka Bank Ltd,KARB0000515,400052016,KOPAR KHAIRANE NAVI MUMBAI,"LIONS SERVICE CENTRE,PLOT NO101,SECTOR 7,KOPARKHAIRANE,NAVI MUMBAI 400709",,MUMBAI,GREATER MUMBAI,MAHARASHTRA
KARB0000516,Karnataka Bank Ltd,KARB0000516,400052017,THAKUR VILLAGE MUMBAI,"SHOP NO34 39,EVERSHINE COMPLEX,THAKUR VILLAGE,KANDIVLI E ,MUMBAI 400101",,MUMBAI,GREATER MUMBAI,MAHARASHTRA
KARB0000517,Karnataka Bank Ltd,KARB0000517,400052018,NERUL SEAWOODS,BADRI KEDAR PLOT NO 35 36 SECTOR 40 SEAWOODS NEERUL NAVI MUMBAI 400706,,MUMBAI,GREATER MUMBAI,MAHARASHTRA
KARB0000518,Karnataka Bank Ltd,KARB0000518,400052019,SANTACRUZ MUMBAI,ROSE MANOR GARDEN SCHOOL CENTRAL AVENUE SANTACRUZ MUMBAI 400054,,MUMBAI,GREATER MUMBAI,MAHARASHTRA
KARB0000519,Karnataka Bank Ltd,KARB0000519,570052010,BOGADI MYSORE,"439, SPNS SADANA, BOGADI MAIN ROAD BOGADI MYSORE 570026",,MYSORE,MYSORE,KARNATAKA
KARB0000520,Karnataka Bank Ltd,KARB0000520,400052020,MULUND WEST,"GND FLR,MUNDADA HOSTEL , BUILDING,NR BMC T WARD OFFICE,DEVIDAYAL RD, MULUND W",,MUMBAI,GREATER MUMBAI,MAHARASHTRA
KARB0000521,Karnataka Bank Ltd,KARB0000521,575052001,SERVICE BRANCH MANGALORE,"KARNATAKA BANK BUILDING, KODIALBAIL, MANGALORE - 575003",,MANGALORE,DAKSHINA KANNADA,KARNATAKA
KARB0000522,Karnataka Bank Ltd,KARB0000522,400052022,NAVIMUM BAIBELAPUR,"SECTOR 15,PALM BEACH ROAD,CBD,BELAPUR,MUMBAI,MAHARASHTRA400614",,MANGALORE,DAKSHINA KANNADA,KARNATAKA
KARB0000523,Karnataka Bank Ltd,KARB0000523,400052023,MIRAROADEAST,"MIRA BHAYANDAR ROAD,MIRAROAD EAST,MUMBAI,MAHARASHTRA401107",,MUMBAI,THANE,MAHARASHTRA
KARB0000524,Karnataka Bank Ltd,KARB0000524,244052002,MORADABAD,"AE-34, RAM GANGA VIHAR, PHASE I, KANTH ROAD, MORADABAD - 244001 UTTAR PRADESH",,MORADABAD,MORADABAD,UTTAR PRADESH
KARB0000525,Karnataka Bank Ltd,KARB0000525,400052024,VILE – PARLE (E),SHOP NO. 18 & 19 KADAMGIRI COMPLEX HANUMAN ROAD VILE-PARLE (E) MUMBAI - 400057,,MORADABAD,MORADABAD,MAHARASHTRA
KARB0000526,Karnataka Bank Ltd,KARB0000526,570052011,J P NAGAR,"C A NO. 1, “C” BLOCK, AKKAMAHADEVI ROAD, J P NAGAR, MYSORE - 570008",,MYSORE,MYSORE,KARNATAKA
KARB0000527,Karnataka Bank Ltd,KARB0000527,400052028,DADAR(W),"FIRST FLOOR, RAJ ADITYA BUILDING,KASHINATH DHURU ROAD,AGAR BAZAR, DADAR (W),MUMBAI – 400028.",,MUMBAI,MUMBAI,MAHARASHTRA
KARB0000528,Karnataka Bank Ltd,KARB0000528,587052502,MUDHOL,"GROUND FLOOR, RANNA CIRCLE, LOKAPUR ROAD, MUDHOL - 587313.",,MUDHOL,BAGALKOT,KARNATAKA
KARB0000529,Karnataka Bank Ltd,KARB0000529,570052501,SIDDALINGAPURA,"GROUND FLOOR,NO. 587/2,""SREEYA COMFORTS"" BUILDING, MYSORE - BANGALORE HIGHWAY,SIDDALINGAPURA, MYSORE - 570003",,SIDDALINGAPURA,MYSORE,KARNATAKA
KARB0000530,Karnataka Bank Ltd,KARB0000530,713052601,MEMARI,"PLOT 119 & 118/2822, KHATAN 7482, NEAR BUS STAND, MEMARI - 713146, BARDHAMAN DIST.",,713146,MEMARI,BARDHAMAN
KARB0000531,Karnataka Bank Ltd,KARB0000531,582052502,NAVALGUND,P N DHARWAD COMMERCIAL COMPLEX  1ST FLOOR  MAIN MARKET ROAD  P B NO 24  NAVALGUND   5822,,NA,DHARWAD,KARNATAKA
KARB0000532,Karnataka Bank Ltd,KARB0000532,671052802,NEERCHAL,MAHALINGA DHAM MAIN ROAD  NEERCHAL 671321 KASARGOD DIST,,NA,KASARAGOD,KERALA
KARB0000533,Karnataka Bank Ltd,KARB0000533,572052526,NONAVINAKERE,GOPALKRISHNASWAMY TEMPLE ROAD NONAVINAKERE   572 224 TIPTUR TALUK DIST TUMKUR,,NA,TUMKUR,KARNATAKA
KARB0000534,Karnataka Bank Ltd,KARB0000534,577052547,NYAMATHI,1ST FLOOR  LINGESHWARA COMPLEX  MAHANTESH ROAD  NYAMATHI 577223 DIST DAVANGERE,,NA,DAVANAGARE,KARNATAKA
KARB0000535,Karnataka Bank Ltd,KARB0000535,524052002,NELLORE A P,"D NO W 15 BY 201,GOTURUVANI STREET,BRINDAVAN,PB54,NELLORE 524001, AP",,NELLORE,NELLORE,ANDHRA PRADESH
KARB0000536,Karnataka Bank Ltd,KARB0000536,577052548,NARVE,"MAIN ROAD,NARVE,KOPPA TALUK-577126",,NA,CHICKMAGALUR,KARNATAKA
KARB0000537,Karnataka Bank Ltd,KARB0000537,110052002,NEW DELHI,"45,REGAL BUILDING,PB703,NEW DELHI 110001",,DELHI,NEW DELHI,DELHI
KARB0000538,Karnataka Bank Ltd,KARB0000538,577052549,NIDUVALE,"NIDUVALE,MUDIGERE TALUKNIDUVALE,CHICKMAGALUR DISTRICT",,NA,CHICKMAGALUR,KARNATAKA
KARB0000539,Karnataka Bank Ltd,KARB0000539,581052529,NAVILGAON,"MAIN ROAD,NAVILGON-581425",,NA,UTTARA KANNADA,KARNATAKA
KARB0000540,Karnataka Bank Ltd,KARB0000540,572052527,NELEKERE,"DASEGOWDA BLDG,MAIN ROAD,NELLIKERE-572224,TUMKUR DIST,KARNATAKA",,NA,TUMKUR,KARNATAKA
KARB0000541,Karnataka Bank Ltd,KARB0000541,440052002,NAGPUR MAHARASTRA,"JAISHREE, 365A, 1ST FLOOR, NEAR LAD COLLEGE SQUARE, GANDHI NAGAR, NAGPUR 440010",,NAGPUR,NAGPUR,MAHARASHTRA
KARB0000542,Karnataka Bank Ltd,KARB0000542,110052004,OVERSEAS NEW DELHI,"K 2,CHOUDHARY BUILDING,1ST FLOOR,MIDDLE CIRCLE,CANNOUGHT CIRCUS,NEW DELHI 110001",,DELHI,NEW DELHI,DELHI
KARB0000543,Karnataka Bank Ltd,KARB0000543,518052102,NANDYALA AP,"D NO 2 BY 398, NK ROAD, SOWJANYA COMPLEX, SRINIVAS NAGAR, NANDYAL 518501, A P",,NANDYAL,KURNOOL,ANDHRA PRADESH
KARB0000544,Karnataka Bank Ltd,KARB0000544,110052006,SAVITHA VIHAR NEW DELHI,"NO13,NEELKANTH CHAMBERS,LOCAL SHOPPING CENTRE,SAVITHA VIHAR,DELHI 110092",,DELHI,NEW DELHI,DELHI
KARB0000545,Karnataka Bank Ltd,KARB0000545,110052007,NOIDA UTTAR PRADESH,"G 22 BY 23, 1ST FLOOR, SECTOR 18, NOIDA 201301, U P",,NOIDA,GAUTAM BODDA NAGAR,UTTAR PRADESH
KARB0000546,Karnataka Bank Ltd,KARB0000546,110052009,WEST PATEL NAGAR NEW DELHI,"11 BY 8,UPPER GROUND FLOOR,WEST PATEL NAGAR, NEW DELHI 110008",,DELHI,NEW DELHI,DELHI
KARB0000547,Karnataka Bank Ltd,KARB0000547,110052010,LAJPAT NAGAR NEW DELHI,"E 108 BY 109,LAJPAT NAGAR,NEW DELHI 110024",,DELHI,NEW DELHI,DELHI
KARB0000548,Karnataka Bank Ltd,KARB0000548,110052011,SHALIMAR BAGH NEW DELHI,"AGGARWAL PLAZA,1ST FLOOR,BN BLOCK WEST ,SHALIMARBHAGH DELHI110088",,DELHI,NEW DELHI,DELHI
KARB0000549,Karnataka Bank Ltd,KARB0000549,110052012,ROHINI NEW DELHI,"PLOT NO6,AGGARWAL CENTRAL PLAZA,1ST FLOOR,COMMUNITY CENTRE,DC CHOUK,SECTOR9,ROHINI NEWDE",,DELHI,NEW DELHI,DELHI
KARB0000550,Karnataka Bank Ltd,KARB0000550,110052014,R K PURAM NEW DELHI,"DELHI KARNATAKA SANGHA BUILDING, RAO TULARAM MARG,SECTOR 12 R K PURAM DELHI CITY 110022",,DELHI,NEW DELHI,DELHI
KARB0000551,Karnataka Bank Ltd,KARB0000551,110052015,DWARAKA NEW DELHI,PLOT NO 6 HL SAUARE SECTOR 5 DWARAKA DELHI CITY 110075,,DELHI,NEW DELHI,DELHI
KARB0000552,Karnataka Bank Ltd,KARB0000552,422052002,NASHIK,CANADA CORNER OPP VASANT MARKET GANGAPUR LINK ROAD NASIK 422005,,NASHIK,NASHIK,MAHARASHTRA
KARB0000553,Karnataka Bank Ltd,KARB0000553,110052017,G T KARNAL ROAD NEWDELHI,"NO.6,GND FLOOR, JAIN CLOLONYVEER NAGAR,G.T KARNAL ROAD",,DELHI,NEW DELHI,DELHI
KARB0000554,Karnataka Bank Ltd,KARB0000554,110052016,PASCHIM VIHAR NEWDELHI,"A-4 BY 45, PASCHIM VIHAR,NEWDELHI",,DELHI,NEW DELHI,DELHI
KARB0000555,Karnataka Bank Ltd,KARB0000555,110052001,SERVICE BRANCH NEW DELHI,"45, REGAL BUILDING, CONNAUGHT PLACE, NEW-DELHI - 110001",,DELHI,DELHI,DELHI
KARB0000556,Karnataka Bank Ltd,KARB0000556,110052018,JANAKPURI,"D/A/A1, GROUND FLOOR, SATGURU RAMSING MARG, JANAKPURI D BLOCK, NEW DELHI 110058",,DELHI,NEW DELHI,DELHI
KARB0000557,Karnataka Bank Ltd,KARB0000557,560052047,NELAMANGALA,"NO. 5006/5011, 1ST FLOOR, LAKSHMI COMPLEX,SUBHASH NAGAR, NELAMANGALA, BANGALORE,KARNATAK",,NELAMANGALA,BANGALORE RURAL,KARNATAKA
KARB0000558,Karnataka Bank Ltd,KARB0000558,110052019,NEW DELHI KAROL BAGH,"PLOT NO. 5439/71, GROUND FLOOR, MAIN ARYA SAMAJ ROAD, KAROL BAGH, NEW DELHI - 110005",,DELHI,NEW DELHI,DELHI
KARB0000559,Karnataka Bank Ltd,KARB0000559,560052059,NAGANATHAPAURA,"NO.87, MICO MAIN ROAD, VINAYAKA NAGAR, OPP: RTO, NAGANATHAPURA, BANGALORE-560100",,NAGANATHAPURA,BANGALORE,KARNATAKA
KARB0000560,Karnataka Bank Ltd,KARB0000560,110052020,EAST OF KAILASH,"D-59, SAPNA ROAD, EAST OF KAILASH, NEW DELHI - 110065",,DELHI,DELHI,DELHI
KARB0000561,Karnataka Bank Ltd,KARB0000561,110052021,ASHOK VIHAR,"A-1, NEAR SATHYAVATHI COLLEGE, PHASE LL, GROUND FLOOR, ASHOK VIHAR, DELHI-110052",,DELHI,DELHI,DELHI
KARB0000562,Karnataka Bank Ltd,KARB0000562,110052023,NEW DELHI - VIKASPURI,"GROUND FLOOR, F-119,VIKASPURI, NEW DELHI -110018",,NEW DELHI,NEW DELHI,DELHI
KARB0000563,Karnataka Bank Ltd,KARB0000563,585052302,NIPPANI,"GROUND FLOOR, D/NO.690/B, ASHOK NAGAR, NIPPANI-591263, CHIKKODI TALUK, BELGAUM DIST.",,591263,NIPPANI,BELGAUM
KARB0000564,Karnataka Bank Ltd,KARB0000564,508052102,MIRYALAGUDA,"GROUND FLOOR, SAGAR ROAD, NEAR HANUMANPET, MIRYALAGUDA-58207, NALGONDA DIST.",,MIRYALAGUDA,NALGONDA,ANDHRA PRADESH
KARB0000600,Karnataka Bank Ltd,KARB0000600,NOT APPLICABLE,RO MANGALORE,"D.NO.13-10-1271,KARNATAKA BANK BUILDING,REGIONAL OFFICE,PVS ROAD, KODIALBAIL, MANGALORE",,MANGALORE,SOUTH KANARA,KARNATAKA
KARB0000601,Karnataka Bank Ltd,KARB0000601,403052002,PANJIM GOA,"NEAR CACULO ISLAND,MG ROAD,PB374,PANAJI,GOA 403001",,PANJIM,NORTH GOA,GOA
KARB0000602,Karnataka Bank Ltd,KARB0000602,575052015,PANAMBUR MANGALORE,"1ST FLOOR,ADDL MARKET COMPLEX,NMPT BLDG,PANAMBUR,MANGALORE 575010",,MANGALORE,DAKSHINA KANNADA,KARNATAKA
KARB0000603,Karnataka Bank Ltd,KARB0000603,561052002,PAVAGADA,"1901 BY A, SSK SANGHA BUILDING, PB NO 2,OLD BUS STAND, PAVAGADA 561202",,PAVAGADA,TUMKUR,KARNATAKA
KARB0000604,Karnataka Bank Ltd,KARB0000604,575052026,PUTTUR,"BONANTHAYA HOSPITAL BLDG, OPP POLICE STATION, MAIN RD,PB5, PUTTUR 574201,D K DIST",,PUTTUR,DAKSHINA KANNADA,KARNATAKA
KARB0000605,Karnataka Bank Ltd,KARB0000605,575052014,PACHANADY MANGALORE,"PACHANADY,KONCHADI POST,PB1008,MANGALORE 575008",,MANGALORE,DAKSHINA KANNADA,KARNATAKA
KARB0000606,Karnataka Bank Ltd,KARB0000606,605052002,PONDICHERRY,"NO 137, MISSION STREET, PB132, PONDICHERRY, PIN 605001",,PONDICHERRY,PONDICHERRY,PONDICHERRY
KARB0000607,Karnataka Bank Ltd,KARB0000607,411052002,PUNE MAIN,"SHREE MAA BUILDING, NEAR APPA BALWANT CHOWK, 10, BUDHWARPET, BAJIRAO ROAD, PB562,PUNE 41",,PUNE,PUNE,MAHARASHTRA
KARB0000608,Karnataka Bank Ltd,KARB0000608,160052002,PANCHKULA HARYANA,"S C O 66, SECTOR 11, PANCHAKULA 134109, HARYANA",,PANCHKULA,PANCHKULA,HARYANA
KARB0000609,Karnataka Bank Ltd,KARB0000609,411052003,HADAPSAR PUNE,"DOOR NO 84 BY 14,1ST FLOOR,EVEREST HOUSE,TUPE COMPLEX,NEAR VAIBHAV THEATRE,HADAPSAR,PUNE",,PUNE,PUNE,MAHARASHTRA
KARB0000610,Karnataka Bank Ltd,KARB0000610,574052522,PODUBIDRI,"FIRST FLOOR, AMRUTHA TOWERS, MAIN ROAD,PADUBIDRI 574217",,PADUBIDRI,UDUPI,KARNATAKA
KARB0000611,Karnataka Bank Ltd,KARB0000611,132052002,PANIPAT,"OPP DAYAL VELVET,NEAR SANJAY CHOWK,GT ROAD,HARYANA STATE,PANIPET 132103",,NA,PANIPAT,HARYANA
KARB0000612,Karnataka Bank Ltd,KARB0000612,411052004,DHANKAWADI,"SHOP NO. 7 TO 11, RAJDHANI COMPLEX, NEXT TO SHANKAR MAHARAJ MUTT, PUNE SATARA ROAD, PUNE - 411043",,PUNE,PUNE,MAHARASHTRA
KARB0000613,Karnataka Bank Ltd,KARB0000613,800052002,PATNA,"SR-01 DUKHAN RAM PLAZA, EXHIBITION ROAD, NEAR GANDHI MAIDHAN PIR BHOR, PATNA - 800001",,PATNA,PATNA,BIHAR
KARB0000641,Karnataka Bank Ltd,KARB0000641,691052002,KOLLAM QUILON KERALA,"1ST FLOOR,RUKIYA COMPLEX,BEACH ROAD,PB309,KOLLAM 691001",,KOLLAM,KOLLAM,KERALA
KARB0000651,Karnataka Bank Ltd,KARB0000651,584052002,RAICHUR,"PATEL ROAD, BRESTWARPET, PB18, RAICHUR 584101, KARNATAKA",,RAICHUR,RAICHUR,KARNATAKA
KARB0000652,Karnataka Bank Ltd,KARB0000652,571052552,RAMANAGARAM,"490 BY 1731, I FLOOR,DR S L THIMMAIAH COMPLEXOLD BUS STAND,RAMNAGARAM,BANGALORE-RURAL",,RAMANAGARAM,BANGALORE RURAL,KARNATAKA
KARB0000653,Karnataka Bank Ltd,KARB0000653,581052530,RATTIHALLI,1ST FLOOR SREE LAKSHMI VENKATESH NEAR BUSSTAND RATTIHALLI 581116 HAVERI DIST,,NA,HAVERI,KARNATAKA
KARB0000654,Karnataka Bank Ltd,KARB0000654,573052510,RUDRAPATNA,NAGA NILAYA RUDRAPATNA 573150 HASSAN DIST,,NA,HASSAN,KARNATAKA
KARB0000655,Karnataka Bank Ltd,KARB0000655,577052550,RAMAKRISHNAPURA,NEAR KASARVALLI KAIMARA BEGAR KALMANE ROAD RAMAKRISHNAPURA 577415 THIRHAMUTTUR POST,,NA,SHIMOGA,KARNATAKA
KARB0000656,Karnataka Bank Ltd,KARB0000656,581052102,RANEBENNUR,"D NO 1837,STATION ROAD,RANEBENNUR 581115,HAVERI DIST,KARNATAKA",,RANEBENNUR,HAVERI,KARNATAKA
KARB0000657,Karnataka Bank Ltd,KARB0000657,533052102,RAJMUNDRY AP,"D NO 2 42 7, 1ST FLOOR, RATHNA BHASKAR APTS, ILTD ROAD, SWARAJNAGAR, RAJAHMUNDRY 533101,",,RAJAHMUNDRY,EAST GODAVARI,ANDHRA PRADESH
KARB0000658,Karnataka Bank Ltd,KARB0000658,360052002,RAJKOT,"GROUND FLOOR, MANGAL KIRAN COMPLEX, RAMDHAM PLOT, KALAWAD ROAD, RAJKOT 360 005",,RAJKOT,RAJKOT,GUJARAT
KARB0000659,Karnataka Bank Ltd,KARB0000659,492052002,RAIPUR CHATTISGARH,"PLOT NO2, FAFADIH CHOWK, JAIL ROAD, RAIPUR 492009",,RAIPUR,RAIPUR,CHHATTISGARH
KARB0000660,Karnataka Bank Ltd,KARB0000660,834052002,RANCHI JHARKAND,NO 5 MAIN ROAD OPP RANCHI CLUB RANCHI 834001,,RANCHI,RANCHI,JHARKHAND
KARB0000661,Karnataka Bank Ltd,KARB0000661,496052001,RAIGARH,"PLOT NO 529,GOWRISHANKAR MANDIR ROAD,RAIGARH 496001",,NA,RAIGARH,JHARKHAND
KARB0000662,Karnataka Bank Ltd,KARB0000662,700052008,RAJARHAT,"FIRST FLOOR, ATGHORA, NEAR CHINAR PARK, RAJARHAT NEW TOWN ROAD, P.O. RAJARHAT GOPALPUR, PS BAGUIATI, KOLKATA - 700136, W.B.",,KOLKATA,KOLKATA,WEST BENGAL
KARB0000663,Karnataka Bank Ltd,KARB0000663,769052002,ROURKELA,"NEAR GRAND BAZAR, KACHERY ROAD, ROURKELA-769012, ODISHA",,ROURKELA,ROURKELA,ORISSA
KARB0000700,Karnataka Bank Ltd,KARB0000700,NOT APPLICABLE,RO MYSORE,"#561,NEW KANTHARAJE URS ROAD,KUVEMPUNAGAR,MYSORE",,MYSORE,MYSORE,KARNATAKA
KARB0000701,Karnataka Bank Ltd,KARB0000701,571052532,SALIGRAMA,D NO 1 BY 156 SRI GANESH KRIPA CANAL STREET KR NAGAR SALIGRAMA MYSORE DIST KARNATAKA,,NA,MYSORE,KARNATAKA
KARB0000702,Karnataka Bank Ltd,KARB0000702,571052522,SATHANUR,451A 1ST FLOOR SDS BUILDING SANTHAMELA MAIN ROAD SATHANUR 562126,,NA,BANGALORE RURAL,KARNATAKA
KARB0000703,Karnataka Bank Ltd,KARB0000703,581052531,SAVANUR,1ST FLOOR RS HAVANGI BLDG  MARKET ROAD SAVANUR 581118,,NA,HAVERI,KARNATAKA
KARB0000704,Karnataka Bank Ltd,KARB0000704,577052152,SHIKARIPURA,"PB8,SADGURU COMPLEX,MS ROAD, SHIKARIPURA-577427,SHIMOGA DIST",,NA,SHIMOGA,KARNATAKA
KARB0000705,Karnataka Bank Ltd,KARB0000705,577052202,SHIMOGA MAIN NEHRU ROAD,"PB28,D NO5 BY 105,MG PALACE,GOPI CIRCLE,SHIMOGA 577201,KARNATAKA",,SHIMOGA,SHIMOGA,KARNATAKA
KARB0000706,Karnataka Bank Ltd,KARB0000706,576052509,SIDDAPURA,1ST FLOOR  MAIN ROAD  SIDDHAPURA 576229 UDUPI   KARNATAKA,,NA,UDUPI,KARNATAKA
KARB0000707,Karnataka Bank Ltd,KARB0000707,581052402,SIRSI,"SHREE MAHAMAYA, CP BAZAR,PB27,SIRSI 581401,UK DIST,KARANTAKA",,SIRSI,UTTARA KANNADA,KARNATAKA
KARB0000708,Karnataka Bank Ltd,KARB0000708,577052551,SRINGERI,"BHARATHI STREET,SRINGERI 577139, CHICKMAGALUR DIST,KARNATAKA",,SRINGERI,CHICKMAGALUR,KARNATAKA
KARB0000709,Karnataka Bank Ltd,KARB0000709,571052530,SRIRANGAPATNA,"MAIN ROAD,PB2,SRIRANGAPATNA 571438",,SRIRANGAPATNA,MANDYA,KARNATAKA
KARB0000710,Karnataka Bank Ltd,KARB0000710,560052060,SULIBELE,"1ST FLOOR, PRAKASH COMPLEX, MAIN ROAD,SULIBELE,HOSKOTE TALUK-562129",,NA,BANGALORE RURAL,KARNATAKA
KARB0000711,Karnataka Bank Ltd,KARB0000711,571052531,SUNTIKOPPA,"MADAPUR STREET,PB8,SUNTICOPPA 571237,KODAGU DIST, KARNATAKA",,SUNTICOPPA,MADIKERI,KARNATAKA
KARB0000712,Karnataka Bank Ltd,KARB0000712,577052042,SAGAR KARNATAKA,"UDUCHANADA BASAPPA COMPLEX, MARKET RD, PB 6, SAGAR 577401, SHIMOGA DIST,KARNATAKA",,SAGAR,SHIMOGA,KARNATAKA
KARB0000713,Karnataka Bank Ltd,KARB0000713,585052302,SHORAPUR,"KRISHNA COMPLEX, IST FLOOR,NEW DARBAR MAIN ROAD PB NO 1, SHORAPUR 585224 DIST GULBARGA",,SHORAPUR,GULBERGA,KARNATAKA
KARB0000714,Karnataka Bank Ltd,KARB0000714,574052302,SULLIA,"SHREE SATHYA SAI COMPLEX, MS RAO, SULLIA 574239 , KARNATAKA",,SULLIA,DAKSHINA KANNADA,KARNATAKA
KARB0000715,Karnataka Bank Ltd,KARB0000715,413052002,SOLAPUR MAHARASHTRA,"BALI VES,D NO1,TALE BUILDING,WEST,PB173,MANGALWARPET,SOLAPUR 413002,MAHARASHTRA",,SOLAPUR,SHOLAPUR,MAHARASHTRA
KARB0000716,Karnataka Bank Ltd,KARB0000716,636052002,SALEM FORT MAIN TAMILNADU,"DIVYA TOWERS,FORT MAIN ROAD,SALEM MAIN BRANCH,PB1,SALEM 636001",,SALEM,SALEM,TAMIL NADU
KARB0000717,Karnataka Bank Ltd,KARB0000717,576052006,UPPINAKOTE,"1ST FLOOR,SRI LAXMI TOWERS,UPPINAKOTE-576213,UDUPI DIST",,NA,UDUPI,KARNATAKA
KARB0000718,Karnataka Bank Ltd,KARB0000718,403052005,SANGUEM GOA,"MORAJKAR S BUILDING,BEHIND OUR LADY OF MIRACLES CHURCH,SANGUEM GOA 403704",,SANGUEM,NORTH GOA,GOA
KARB0000719,Karnataka Bank Ltd,KARB0000719,577052552,SASVEHALLI,"SHARADA NILAYA,NEAR BUS STAND,SASVEHALLI-577224,DAVANGERE DIST.",,NA,DAVANAGARE,KARNATAKA
KARB0000720,Karnataka Bank Ltd,KARB0000720,415052001,SATARA,"531 BY A BY 1A,YASHODHAN COMPLEX,OPP YC SCIENCE COLLEGE,KOLHAPUR ROAD,SADAR BAZAR,PB32,S",,SATARA,SATARA,MAHARASHTRA
KARB0000721,Karnataka Bank Ltd,KARB0000721,500052003,SECUNDERABAD,"MCH NO 1 1 39, SEVEN HILLS,SAROJINI DEVI ROAD,PB1723,SECUNDERABAD 500003",,SECUNDERABAD,HYDERABAD URBAN,ANDHRA PRADESH
KARB0000722,Karnataka Bank Ltd,KARB0000722,577052553,SHIRVASE,"NO 1 BY 102,SHIRVASE-577130,CHIKMAGALUR DIST",,NA,CHICKMAGALUR,KARNATAKA
KARB0000723,Karnataka Bank Ltd,KARB0000723,574052523,SHIRLAL,PO HADIANGADY SHIRLAL-574101 UDUPI DIST,,NA,UDUPI,KARNATAKA
KARB0000724,Karnataka Bank Ltd,KARB0000724,577052203,RMC YARD SHIMOGA,"1ST FLOOR,APMC YARD,SAGAR ROAD,PB NO78,SHOMOGA 577204, KARNATAKA",,SHIMOGA,SHIMOGA,KARNATAKA
KARB0000726,Karnataka Bank Ltd,KARB0000726,395052002,SURAT GUJARAT,"KG CHAMBERS, UDDHNA DARWAJA, OPP GUJARAT SAMACHAR PRESS, RING ROAD, SURAT 395002",,SURAT,SURAT,GUJARAT
KARB0000727,Karnataka Bank Ltd,KARB0000727,585052505,SHAHAPUR,"DOOR NO 1 1 21 IST FLOOR,BASAVESHWARA CHOWK, SHAHAPUR 585223 DIST GULBARGA",,SHAHPUR,GULBERGA,KARNATAKA
KARB0000728,Karnataka Bank Ltd,KARB0000728,573052102,SAKLESHPUR,"GANDHARVA BUILDING, B M ROAD, SAKLESHPUR 573134,DIST HASSAN",,SAKLESHPUR,HASSAN,KARNATAKA
KARB0000729,Karnataka Bank Ltd,KARB0000729,416052151,SANGLI,"369,DAMODAR COMPLEX,OPP MARKET YARD,MIRAJ ROAD,PB41,SANGLI 416416",,SANGLI,SANGLI,MAHARASHTRA
KARB0000730,Karnataka Bank Ltd,KARB0000730,636052003,SALEM FAIRLANDS,"ANNOOPAM TOWERS,307,BRINDAVAN ROAD,7TH CROSS,SALEM FAIRLANDS 636004,TN",,SALEM,SALEM,TAMIL NADU
KARB0000731,Karnataka Bank Ltd,KARB0000731,574052302,SULLIA-N M C (E.C),"NEHRU MEMORIAL COLLEGE CAMPUS, KURUNJE BAGH, SULLIA - 574423",,SULLIA,DAKSHINA KANNADA,KARNATAKA
KARB0000732,Karnataka Bank Ltd,KARB0000732,577052204,SAVALANGA ROAD SHIMOGA,"PB132,SAVALANGA ROAD,SHIMOGA 577201, KARNATAKA",,SHIMOGA,SHIMOGA,KARNATAKA
KARB0000733,Karnataka Bank Ltd,KARB0000733,500052006,A S RAO NAGAR HYDERABAD,1 19 69 BY 5 BY 1 DR A S RAO NAGAR SAINIKPURI SECUNDERABAD DIST HYDERABAD SECUNDERABAD 5,,HYDERABAD,HYDERABAD URBAN,ANDHRA PRADESH
KARB0000734,Karnataka Bank Ltd,KARB0000734,575052025,SAJIPAMUDA,"SUBASHNAGAR,SAJIPAMUDA POST,BANTWAL TALUK,SAJIPA-574231",,NA,DAKSHINA KANNADA,KARNATAKA
KARB0000735,Karnataka Bank Ltd,KARB0000735,734052002,SILIGURI,"PRATAP MARKET, 2ND MILE, SEVOKE ROAD, SILIGURI - 734001",,NA,JALPAIGURI,WEST BENGAL
KARB0000736,Karnataka Bank Ltd,KARB0000736,500052011,SERILINGAMPALLY,"PLOT NO.12, KRUTHIKA LAYOUT, OPP. IMAGE GARDEN FUNCTION HALL, MADHAPUR, SERILINGAMPALLY, HYDERABAD - 500081.",,HYDERABAD,HYDERABAD,ANDHRA PRADESH
KARB0000737,Karnataka Bank Ltd,KARB0000737,586052503,SINDAGI,"GROUND FLOOR, ""BHAGYAVANTHI COMPLEX"",SITE NO.2329, BIJAPUR - SINDAGI ROAD, SINDAGI - 586128",,SINDAGI,BIJAPUR,KARNATAKA
KARB0000738,Karnataka Bank Ltd,KARB0000738,583052502,SIRUGUPPA,"FIRST FLOOR,SRINIVAS TOURIST HOME,ADONI ROAD,SIRUGUPPA-583121, BELLARY DISTRICT",,SIRUGUPPA,BELLARY,KARNATAKA
KARB0000739,Karnataka Bank Ltd,KARB0000739,576052513,SHIROOR,"N.H.66, NAGAPPA KAMATH COMPLEX, SHIROOR-576228, KUNDAPUR TALUK, UDUPI DIST.",,SHIROOR,UDUPI,KARNATAKA
KARB0000740,Karnataka Bank Ltd,KARB0000740,572052172,SIRA,"GROUND FLOOR, RAJA COMPLEX, DR. B.R. AMBEDKAR ROAD, K.R.EXTENSION, SIRA - 572137, TUMKUR DIST.",,SIRA,TUMKUR,KARNATAKA
KARB0000751,Karnataka Bank Ltd,KARB0000751,586052502,TALIKOTI,1ST FLOOR  VITHAL MANDIR COMPLEX  MAIN ROAD  PB NO 6  TALIKOTI 586214  DIST BIJAPUR,,NA,BIJAPUR,KARNATAKA
KARB0000752,Karnataka Bank Ltd,KARB0000752,577052554,TARIKERE,PB 2 SRINGERI SHARADHA MUTT BLDG  BH ROAD TARIKERE 577228    CHICKMAGALUR KARNATAKA,,NA,CHICKMAGALUR,KARNATAKA
KARB0000753,Karnataka Bank Ltd,KARB0000753,575052016,THOKKOTTU ULLAL,"MANCHILA BUILDING, THOKKOTU ULLAL 575020, KARNATAKA",,THOKKOTU,DAKSHINA KANNADA,KARNATAKA
KARB0000754,Karnataka Bank Ltd,KARB0000754,572052202,TIPTUR MAIN,"1ST FLOOR, ALLAMMAJJI COMPLEX, BH ROAD, PB12, TIPTUR 572201,TUMKUR DIST, KARNATAKA",,TIPTUR,TUMKUR,KARNATAKA
KARB0000755,Karnataka Bank Ltd,KARB0000755,576052511,TRASI,"DON COMPLEX, MAIN ROAD,TRASI - 576 235,DIST UDUPI",,NA,UDUPI,KARNATAKA
KARB0000756,Karnataka Bank Ltd,KARB0000756,572052002,VIVEKANANDA ROAD TUMKUR MAIN,"G MUNDAPPA COMPLEX,VIVEKANANDA ROAD, PB10, TUMKUR 572101",,TUMKUR,TUMKUR,KARNATAKA
KARB0000757,Karnataka Bank Ltd,KARB0000757,572052003,SOMESHWARAPURAM TUMKUR,"MUNICIPAL NO2656 BY 1,MAIN RD,SOMESHWARAPURAM PB117,TUMKUR 572102",,TUMKUR,TUMKUR,KARNATAKA
KARB0000758,Karnataka Bank Ltd,KARB0000758,695052002,THIRUVANANTHAPURAM KERALA,"S NO703 BY 1,1ST FLOOR,MUTUPPA BUILDING, THAKARAPARAMBU RD,PAZHAVANGADI,THIRUVANANTHAPUR",,THIRUVANANTHAPURAM,TRIVANDRUM,KERALA
KARB0000759,Karnataka Bank Ltd,KARB0000759,572052528,TURUVEKERE,"SIDDARAMANNA COMPLEX, DABBEGATTA ROAD, TURUVEKERE 572227, TUMKUR DIST, KARNATAKA",,TURUVEKERE,TUMKUR,KARNATAKA
KARB0000760,Karnataka Bank Ltd,KARB0000760,515052402,TADAPATRI AP,"13 BY 256, KANCHANI COMPLEX, C B ROAD, TADAPATRI 515411, ANANTPUR",,TADAPATRI,ANANTPUR,ANDHRA PRADESH
KARB0000761,Karnataka Bank Ltd,KARB0000761,620052002,TIRUCHIRAPALLI,"73, MADURA ROAD, GANDHI MARKET, PALAKKARI BIG BAZAR STREET, TRICHY 620008, T N",,TRICHY,TIRUCHIORAPPALLI,TAMIL NADU
KARB0000762,Karnataka Bank Ltd,KARB0000762,577052452,THIRTHAHALLI,"SRINGERI SHARADA MUTT BULDG, BH ROAD, PB2, TARIKERE 577228, KARNATAKA",,THIRTHAHALLI,SHIMOGA,KARNATAKA
KARB0000763,Karnataka Bank Ltd,KARB0000763,689052002,TIRUVALLA,"KUNNATHUPARAMBIL SHOPPING CENTRE, TK ROAD, PB52, TIRUVALLA 689101, KERALA",,TIRUVALLA,PATHANAMTHITTA,KERALA
KARB0000764,Karnataka Bank Ltd,KARB0000764,641052102,TIRUPUR MAIN,"184, ESWARAN KOVIL STREET, TIRUPUR 641604, PB 460, T N",,TIRUPUR,COIMBOTORE,TAMIL NADU
KARB0000765,Karnataka Bank Ltd,KARB0000765,517052002,TIRUPATI,"EBSR COMPLEX, 19 8 85, RAYALA CHERAVU ROAD, TIRUPATI 517501, CHITOOR DIST, AP",,TIRUPATHI,CHITTOR,ANDHRA PRADESH
KARB0000766,Karnataka Bank Ltd,KARB0000766,641052103,TIRUPUR PERAMANALLUR ROAD,"D NO37, PERUMANALLUR ROAD, LAKSHMI NAGAR P O, TIRUPUR 641602, T N",,TIRUPUR,COIMBOTORE,TAMIL NADU
KARB0000767,Karnataka Bank Ltd,KARB0000767,572052203,TIPTUR EXTENSION COUNTER,"KR EXTENSION, TIPTUR 572201 TUMKUR DIST",,TIPTUR,TUMKUR,KARNATAKA
KARB0000768,Karnataka Bank Ltd,KARB0000768,572052005,TUMKUR SIT (E.C),"SIDDHAGANGA INSTITUTE OF TECHNOLOGY CAMPUS, TUMKUR - 572102",,NA,TUMKUR,KARNATAKA
KARB0000769,Karnataka Bank Ltd,KARB0000769,572052004,TUMKUR HMS,"HMS EDUCATION SOCIETY CAMPUS,SHETTIHALLI ROAD,TUMKUR 572103",,TUMKUR,TUMKUR,KARNATAKA
KARB0000770,Karnataka Bank Ltd,KARB0000770,400052025,THANE,"SHOP NO.12, VIHANG GARDEN, POKARAN ROAD, NO.1 VARTHAK NAGAR, THANE (W) 400606",,TUMKUR,TUMKUR,MAHARASHTRA
KARB0000771,Karnataka Bank Ltd,KARB0000771,600052016,TAMBARAM,"11/19, ALUMALAI STREET, WEST TAMBARAM, CHENNAI - 600045",,TAMBARAM,KANCHEEPURAM,TAMIL NADU
KARB0000772,Karnataka Bank Ltd,KARB0000772,583052501,TORANAGALLU,"GROUND FLOOR, NEAR VITTA SERVICE STATION COMPLEX, BELLARY - HOSPET ROAD, TORANAGALLU - 583123",,TORANAGALLU,BELLARY,KARNATAKA
KARB0000773,Karnataka Bank Ltd,KARB0000773,534052202,TANUKU,"D. NO. 30-16-17, SHOP NO. 1,2 & 8, GROUND FLOOR, CRSS TOWERS, VELPUR ROAD, TANUKU - 534211",,TANUKU,WEST GODAWARI,ANDHRA PRADESH
KARB0000774,Karnataka Bank Ltd,KARB0000774,571052102,T. NARASIPURA,"D. NO.393, 1ST FLOOR, VIDYODAYA COLLEGE ROAD, T.NARASIPURA - 574124",,574124,T.NARASIPURA,MYSORE
KARB0000791,Karnataka Bank Ltd,KARB0000791,520052001,VIJAYAWADA MAIN AP,"NO11 25 21, OPP HINDU HIGH SCHOOL, SUBBARAMIAH STREET, PB168, VIJAYAWADA 520001, KRISHNA",,VIJAYAWADA,KRISHNA,ANDHRA PRADESH
KARB0000792,Karnataka Bank Ltd,KARB0000792,530052001,VISHAKAPATNAM MAIN AP,"9 1 221 BY A, CBM COMPOUND, NEAR RAMA TALKIES JUCTION, MADDILAPALEM ROAD",,VISAKAPATNAM,VISHAKAPATNAM,ANDHRA PRADESH
KARB0000793,Karnataka Bank Ltd,KARB0000793,390052002,VADODARA GUJARAT,"SURYA KIRAN COMPLEX, OLD PADRA ROAD, NEAR TAGORE NAGAR, VADODARA 390015",,VADODARA,VADODARA,GUJARAT
KARB0000794,Karnataka Bank Ltd,KARB0000794,638052004,VELLAKOVIL TN,"D NO 27 12 5, ALI BAIG STREET, GOVERNORPET, PB303, VIJAYAWADA 520002, KRISHNA DIST, AP",,VELLAKOVIL,ERODE,TAMIL NADU
KARB0000795,Karnataka Bank Ltd,KARB0000795,520052002,GOVERNORPET VIJAYAWADA,"D NO27 12 5,ALI BAIG STREET,GOVERNORPET,PB303,VIJAYAWADA 520002",,VIJAYAWADA,KRISHNA,ANDHRA PRADESH
KARB0000796,Karnataka Bank Ltd,KARB0000796,530052002,CBM COMPOUND VISHAKAPATNAM,"9 1 221 BY A,CBM COMPOUND,NEAR RAMA TALKIES JUNCTION,MADDILAPALEM ROAD,VISAKHAPATNAM 530",,VISAKAPATNAM,VISHAKAPATNAM,ANDHRA PRADESH
KARB0000797,Karnataka Bank Ltd,KARB0000797,535052002,VIZIANAGARAM AP,"SRI SAI COMPLEX, 1ST FLOOR, MAYUR JUNCTION, OPP APSRTC BUS STAND, PB13, VIZIANAGARAM 535",,VIZIANAGARAM,VIZIANAGARAM,ANDHRA PRADESH
KARB0000798,Karnataka Bank Ltd,KARB0000798,530052003,SHANTIPURAM VIZAG,"49 52 4 PLOT NO 26 SHOP NO 37 SHANKARMATTAM RD,SHANTIPURAM DIAMOND PARK VISAKAPATNAM 530",,VIZIANAGARAM,VIZIANAGARAM,ANDHRA PRADESH
KARB0000799,Karnataka Bank Ltd,KARB0000799,221052002,VARANASI,"D37 BY 37 SPICE KCM COMPLEX BADADEV,GODOWLIA VARANASI 221001",,VARNASI,VARANASI,UTTAR PRADESH
KARB0000800,Karnataka Bank Ltd,KARB0000800,NOT APPLICABLE,RO MUMBAI,"2ND E BLOCK,""THE METROPOLITAN"",PLOT NO.C26 & 27,BANDRA KURLA COMPLEX,BANDRA EAST,MUMBAI",,MUMBAI,MUMBAI,MAHARASHTRA
KARB0000801,Karnataka Bank Ltd,KARB0000801,576052512,UPPUNDA,MOHANA PADMA NILAYA UPPUNDA  KUNDAPUR TALUK 576232  DIST UDUPI,,NA,UDUPI,KARNATAKA
KARB0000802,Karnataka Bank Ltd,KARB0000802,576052004,CAR STREET UDUPI,"1ST FLOOR,BHIMANAKATTE BLDG,CAR STREET,UDUPI 576101",,UDUPI,UDUPI,KARNATAKA
KARB0000803,Karnataka Bank Ltd,KARB0000803,576052005,KUNJIBETTU UDUPI,"LAKSHMI GANESH COMPOUND,UDUPI MANIPAL ROAD,KUNJIBETTU, UDUPI 576102",,UDUPI,UDUPI,KARNATAKA
KARB0000804,Karnataka Bank Ltd,KARB0000804,313052002,UDAIPUR,"NO 79,GOVIND BHAVAN,CHETAK MARG,CHETAK CIRCLE,UDAIPUR,RAJASTHAN313001",,UDAIPUR,UDAIPUR,RAJASTHAN
KARB0000805,Karnataka Bank Ltd,KARB0000805,500052010,UPPAL KALAN,"PLOT NO. 663, SLN ARCADE WARANGAL HIGHWAY, UPPAL KALAN - 500039, RANGAREDDY DISTRICT",,RANGA REDDY,RANGA REDDY,ANDHRA PRADESH
KARB0000806,Karnataka Bank Ltd,KARB0000806,632052002,VELLORE,"SUNDARAM COMPLEX, PHASE-11, TNHB, NEAR COLLECTOR OFFICE, SATUVECHERI, VELLORE-632009",,VELLORE,VELLORE,TAMIL NADU
KARB0000807,Karnataka Bank Ltd,KARB0000807,456052001,UJJAIN,"NO.22, SHANKAR MARG, FREEGANG, UJJAIN, MADYA PRADESH - 456010.",,UJJAIN,UJJAIN,MADHYA PRADESH
KARB0000808,Karnataka Bank Ltd,KARB0000808,575052029,UPPINANGADY,"GROUND FLOOR, NO. 8/4 A-2, SRI LAKSHMI ARCADE, N.H.48 UPPINANGADY - 574241",,UPPINANGADY,DAKSHINA KANNADA,KARNATAKA
KARB0000826,Karnataka Bank Ltd,KARB0000826,506052002,WARANGAL,"1226 AND 1228,1ST FLOOR,JADHYAM COMPLEX,SVN ROAD,WARANGAL 506002",,WARANGAL,WARANGAL,ANDHRA PRADESH
KARB0000851,Karnataka Bank Ltd,KARB0000851,563052521,YENIGADALE,YENIGADALE 563156  KOLAR,,NA,KOLAR,KARNATAKA
KARB0000852,Karnataka Bank Ltd,KARB0000852,581052532,YELLAPURA,"FIRST FLOOR,""DREAM CHAMBERS"", NEAR BUS STAND, YELLAPURA - 581359",,YELLAPURA,UTTARA KANNADA,KARNATAKA
KARB0000853,Karnataka Bank Ltd,KARB0000853,585052202,YADGIR,"GROUND FLOOR, SHOP NO.1 TO 5, NALWAR-CHITAPUR ROAD, SUBHASH CIRCLE, YADGIR - 588202",,588202,YADGIR,YADGIR
KARB0000901,Karnataka Bank Ltd,KARB0000901,560052048,UTTARAHALLI,"S NO26 BY 27 BY 28 UTTARAHALLI MAIN ROAD,UTTARAHALLI,BANGALORE560061",,BANGALORE,BANGALORE URBAN,KARNATAKA
KARB0000902,Karnataka Bank Ltd,KARB0000902,560052049,KENGERI,"NO 1103,1ST MAIN ROAD,KENGERI SATELLITE TOWN,BANGALORE560060",,BANGALORE,BANGALORE URBAN,KARNATAKA
KARB0000903,Karnataka Bank Ltd,KARB0000903,243052002,BAREILLY,"112 LUCKNOW DELHI MARG,CIVIL LINES,BAREILLY,UTTAR PRADESH243001",,NA,BAREILLY,UTTAR PRADESH
KARB0000904,Karnataka Bank Ltd,KARB0000904,560052051,HESARAGHATTA MAIN ROAD,"HESARAGHATTA MAIN ROAD,BAGALGUNTE NAGASANDRA,BANGALORE 560 073",,BANGALORE,BANGALORE URBAN,KARNATAKA
KARB0000905,Karnataka Bank Ltd,KARB0000905,560052050,BIDADI,"4067,NELLIGUDDA TANK ROAD,BIDADI RAMANAGARA TALUK,BIDADI,KARNATAKA562109",,RAMANAGARAM,BANGALORE RURAL,KARNATAKA
KARB0000906,Karnataka Bank Ltd,KARB0000906,560052052,BOMMASANDRA,"NO. 16A S.NO. 300, JIGANI ROAD, BOMMASANDRA INDUTRIAL AREA, BOMMASANDRA - 560099, BANGALORE URBAN",,BANGALORE,BANGALORE-URBAN,KARNATAKA
KARB0000907,Karnataka Bank Ltd,KARB0000907,560052053,CHANDRA LAYOUT,"NO. 18, II MAIN, 7TH CROSS, BASAVESHWAR SOCIETY, II STAGE, CHANDRA LAYOUT, BANGALORE - 560040",,BANGALORE,BANGALORE,KARNATAKA
KARB0000908,Karnataka Bank Ltd,KARB0000908,560052054,SADASHIVANAGAR,"NO. 393, 13TH CROSS, SADASHIVANAGAR, BANGALORE - 560080",,BANGALORE,BANGALORE,KARNATAKA
KARB0000909,Karnataka Bank Ltd,KARB0000909,560052055,YELAHANKA NEW TOWN,"1234, 7TH B CROSS, MOTHER DAIRY ROAD, YELAHANKA NEW TOWN, BANGALORE - 560064",,BANGALORE,BANGALORE,KARNATAKA
KARB0000910,Karnataka Bank Ltd,KARB0000910,560052058,BELLANDUR,"89/5, BELLANDUR MAIN ROAD, BELLANDUR-560035, VARTHUR HOBLI, BANGALORE URBAN",,BANGALORE,BANGALORE-URBAN,KARNATAKA
KARB0000911,Karnataka Bank Ltd,KARB0000911,760052002,BRAHMAPUR,"GROUND FLOOR, ALKAPURI MARKET COMPLEX, DHARMANAGAR MAIN ROAD, BRAHMAPUR - 760002, ORISSA",,BRAHMAPUR,GANJAM,ORISSA
KARB0000912,Karnataka Bank Ltd,KARB0000912,560052063,BANGALORE - RAGHUVANAHALLI,"GROUND FLOOR, NO. 13, J R PLAZA, NEAR SIDDAGANGA HIGH SCHOOL, KANAKAPURA ROAD, RAGHUVANAHALLI, BANGALORE - 560062",,BANGALORE,BANGALORE,KARNATAKA
KARB0000913,Karnataka Bank Ltd,KARB0000913,560052062,BANGALORE - VARTHUR,"GROUND FLOOR, SURVEY NO. 67, OPPOSITE TO DHARMARAYA SWAMY  TEMPLE, MUTHSANDRA ROAD, VARTHUR,  BANGALORE - 560087",,BANGALORE,BANGALORE,KARNATAKA
KARB0000914,Karnataka Bank Ltd,KARB0000914,560052064,BANGALORE - HEROHALLI,"GROUND FLOOR, ""SURYA COMPLEX"", S.1206, 1ST MAIN, BHARATH NAGAR 2ND STAGE, HEROHALLI WARD, MAGADI ROAD, BANGALORE -560091",,BANGALORE,BANGALORE,KARNATAKA
KARB0000915,Karnataka Bank Ltd,KARB0000915,700052010,BARUIPUR,"FIRST FLOOR, D. NO. 116/7, KULPI ROAD, PODAPUKUR,BARUIPUR - 700144",,BARUIPUR,SOUTH - 24 PARAGANAS,WEST BENGAL
KARB0000916,Karnataka Bank Ltd,KARB0000916,560052065,RAJARAJESHWARINAGAR,"GROUND FLOOR,NO.549,IDEAL HOMES, NEAR RAJARAJESHWARI TEMPLE,RAJARAJESHWARI NAGAR,BANGALORE - 560098",,560098,BANGALORE,BANGALORE
KARB0000917,Karnataka Bank Ltd,KARB0000917,751052003,JAYADEV VIHAR,"PLOT NO. 737/2, 1ST FLOOR, JAYADEV VIHAR, BHUBANESHWAR - 751013",,BHUBANESHWAR,BHUBANESHWAR,ORISSA
KARB0000918,Karnataka Bank Ltd,KARB0000918,585052506,BASAVAKALYAN,"MIG-2, CMC NO-8616/2, MAIN ROAD, NEAR HARALAYYA CHOWK, BASAVAKALYAN - 585327, BIDAR DIST.",,BASAVAKALYAN,BIDAR,KARNATAKA
KARB0000950,Karnataka Bank Ltd,KARB0000950,NOT APPLICABLE,RO BANGALORE,"MOHAN MANSION,  2ND FLOOR, 105,KASTURBAROAD, BANGALORE",,BANGALORE,BANGALORE,KARNATAKA
KARB0000339,Karnataka Bank Ltd,KARB0000339,580052008,VIDYANAGAR,"GROUND FLOOR, CHETTANA COLLEGE ROAD, SHIRUR PARK, VIDYANAGAR, HUBLI - 580021",,HUBLI,HUBLI,KARNATAKA
KARB0000741,Karnataka Bank Ltd,KARB0000741,577052206,VINOBANAGAR,"AMMA ARCADE, POLICE CHOWKI, VINOBANAGAR, SHIMOGA - 577204",,SHIMOGA,SHIMOGA,KARNATAKA
KARB0000919,Karnataka Bank Ltd,KARB0000919,560052067,KASAVANAHALLI,"OPPOSITE TO SILVER WOOD REGENCY, KASAVANAHALLI MAIN ROAD, OFF SARJAPURA ROAD, KASAVANAHALLI, BANGALORE - 560035",,BANGALORE,BANGALORE,KARNATAKA
KARB0000920,Karnataka Bank Ltd,KARB0000920,560052066,KASTURINAGAR,"NO. 303, GROUND FLOOR, 2ND MAIN ROAD, KASTURINAGAR, BANGALORE - 560043.",,BANGALORE,BANGALORE,KARNATAKA
KARB0000566,Karnataka Bank Ltd,KARB0000566,575052032,KULSHEKAR,"D/NO.15-10/3 & 10/4, KULSHEKAR ROAD, PADAVU VILLAGE, KULSHEKAR, MANGALORE - 575005",MANGALORE,,SOUTH KANARA,KARNATAKA
KARB0000664,Karnataka Bank Ltd,KARB0000664,500052013,RAJENDRANAGAR,"GROUND FLOOR, BESIDE PILLAR NO. 210, M Q SPLENDOUR, RAJENDRANAGAR, HYDERABAD - 500048",HYDERABAD,,RANGA REDDY,ANDRA PRADESH
KARB0000268,Karnataka Bank Ltd,KARB0000268,403052007,MAPUSA,"RIJIM PLAZA, MARKET ROAD, MAPUSA, GOA - 403507",MAPUSA,,GOA,GOA
KARB0000565,Karnataka Bank Ltd,KARB0000565,576052013,MANIPAL,"R S B SABHA BHAVANA, MANIPAL - ALEVOOR ROAD, MANIPAL - 576104",UDUPI,,UDUPI,KARNATAKA
KARB0000742,Karnataka Bank Ltd,KARB0000742,563052522,SRINIVASAPURA,"SRI BALAJI MILLENIUM, OPP: GOVT. WOMENS' COLLEGE, SRINIVASAPURA , KOLAR - 563135",KOLAR,,KOLAR,KARNATAKA
KARB0000164,Karnataka Bank Ltd,KARB0000164,562052002,CHIKKABALLAPURA,"GROUND FLOOR NO 483/432/1, WARD NO. 3, CSI HOSPITAL ROAD, CHIKKABALLAPURA - 562101",,CHIKKABALLAPURA,CHIKKABALLAPURA,KARNATAKA
KARB0000921,Karnataka Bank Ltd,KARB0000921,560052068,NAGARABHAVI,"80 FEET ROAD, OPP. BWSSB OFFICE, 6TH BLOCK, II STAGE, NAGARABHAVI, BANGALORE - 560072",,BANGALORE,BANGALORE URBAN,KARNATAKA
KARB0000924,Karnataka Bank Ltd,KARB0000924,590052006,BAILHONGAL,"MOTIBAG INDUSTRIES PVT LTD COMPOUND, OZONE COMPLEX, BELGAUM ROAD, BAILHONGAL - 591102",,BAILHONGAL,BELGAUM,KARNATAKA
KARB0000036,Karnataka Bank Ltd,KARB0000036,581052533,ALADAKATTI,"GROUND FLOOR, ALADAKATTI GRAMA PANCHAYATH, VILLAGE ALADAKATTI - 581110",,HAVERI,HAVERI,KARNATAKA
KARB0000270,Karnataka Bank Ltd,KARB0000270,110052024,GANAUR,"RAILWAY ROAD, GANAUR - 131101",,SONIPAT,SONIPAT,HARYANA
KARB0000340,Karnataka Bank Ltd,KARB0000340,585052507,HOTHPET,"MAIN ROAD, NEAR BUS STAND, HOTHPET GRAMA PANCHAYAT, VILLAGE HOTHPET - 585287",,YADGIR,YADGIR,KARNATAKA
KARB0000567,Karnataka Bank Ltd,KARB0000567,110052025,MALVIA NAGAR,"GROUND FLOOR, D/NO. B-1/13, MALVIA NAGAR, NEW DELHI - 110017",,DELHI,DELHI,DELHI
KARB0000341,Karnataka Bank Ltd,KARB0000341,577052557,HARAPANAHALLI,"KHUSMANDINI COMPLEX, HARIHARA - HOSPET ROAD, NEAR KSRTC BUS STAND, HARAPANAHALLI - 583131",,HARAPANAHALLI,DAVANGERE,KARNATAKA
KARB0000368,Karnataka Bank Ltd,KARB0000368,831052002,JAMSHEDPUR,"DHIREN TOWERS, Q ROAD, BISTUPUR, JAMSHEDPUR - 831001",,JAMSHEDPUR,PURBI SINGHBHUM,JHARKAND
KARB0000447,Karnataka Bank Ltd,KARB0000447,571052533,KRISHNARAJAPET,"K R PET - KIKKERI ROAD, 3RD CROSS, BASAVESHWARA NAGAR, KRISHNARAJAPET - 571426",,KRISHNARAJAPET,MANDYA,KARNATAKA
KARB0000590,Karnataka Bank Ltd,KARB0000590,523052002,ONGOLE,"CHITIRALA COMMERCIAL COMPLEX, KURNOOL ROAD, OPP. ST. XAVIER'S SCHOOL, ONGOLE - 523002",,ONGOLE,PRAKASAM,ANDRA PRADESH
KARB0000922,Karnataka Bank Ltd,KARB0000922,560052070,J P NAGAR 7TH PHASE,"KOTHANUR MAIN ROAD, WILSON GARDEN HOUSE BUILDING, CO-OPERATIVE SOCIETY LAYOUT, J P NAGAR 7TH PHASE, BANGALORE - 560078",,BANGALORE,BANGALORE URBAN,KARNATAKA
KARB0000923,Karnataka Bank Ltd,KARB0000923,560052069,BILEKAHALLI,"D.NO.856, BILEKAHALLI MAIN ROAD, OFF BANNERGHATTA ROAD, IIM POST, BILEKAHALLI, BANGALORE - 560076",,BANGALORE,BANGALORE URBAN,KARNATAKA
KARB0000343,Karnataka Bank Ltd,KARB0000343,571052535,HARADANAHALLI GP,"HARADANAHALLI GRAMA PANCHAYAT, SALIGRAMA RAMANATHAPURA ROAD, HARADANAHALLI - 571604",,K R NAGAR,MYSORE,KARNATAKA
KARB0000570,Karnataka Bank Ltd,KARB0000570,636052004,NAMAKKAL,"MOHANUR ROAD, NAMAKKAL - 637001",,NAMAKKAL,NAMAKKAL,TAMILNADU
KARB0000790,Karnataka Bank Ltd,KARB0000790,571052553,VIBHUTHIKERE GP,"B M ROAD, VIBHUTHIKERE GRAMA PANCHAYATH, ARCHAKARAHALLI - 571511, LJOOR (PO)",,RAMANAGARAM,RAMANAGARAM,KARNATAKA
KARB0000925,Karnataka Bank Ltd,KARB0000925,577052558,BIRUR,"KARGAL ROAD, BIRUR - 577116, KADUR TALUK",,BIRUR,CHIKMAGALUR,KARNATAKA
KARB0000929,Karnataka Bank Ltd,KARB0000929,577052555,BABBUR GP,"HIRIYUR-DARMAPURA MAIN ROAD, NEAR RANGANATHSWAMY TEMPLE, BABBUR-577598, HIRIYUR TALUK.",,HIRIYUR,CHITRADURGA,KARNATAKA
KARB0000035,Karnataka Bank Ltd,KARB0000035,713052002,ASANSOL,"D.NO. 259/62A, G.T.ROAD, EAST MURGASOL, ASANSOL - 713303",,ASANSOL,BURDWAN,WEST BENGAL
KARB0000037,Karnataka Bank Ltd,KARB0000037,573052512,ATTAVARA GP,"ATTAVARA GRAMA PANCHAYAT, SOMESHWARA COMPLEX, MAIN ROAD, ATTAVARA - 573118",,HASSAN,HASSAN,KARNATAKA
KARB0000165,Karnataka Bank Ltd,KARB0000165,582052503,CHINCHALLI GP,"NEAR PRIMARY HEALTH CENTRE, MAIN ROAD, CHINCHALLI - 582117",,GADAG,GADAG,KARNATAKA
KARB0000269,Karnataka Bank Ltd,KARB0000269,561052202,GAURIBIDANUR,"RAILWAY STATION ROAD, GAURIBIDANUR - 561208",,CHIKKABALLAPURA,CHIKABALLAPURA,KARNATAKA
KARB0000271,Karnataka Bank Ltd,KARB0000271,110052026,GURGAON SECTOR 31-32A,"SCO-28, SECTOR 31-32A, GURGAON - 122001",,GURGAON,GURGAON,HARYANA
KARB0000342,Karnataka Bank Ltd,KARB0000342,583052504,HOOVINA HADAGALLI,"SRI BALAJI COMPLEX, OPP. PWD OFFICE, HARAPANAHALLI ROAD, HOOVINA HADAGALI - 583219",,HOOVINA HADAGALLI,BELLARY,KARNATAKA
KARB0000369,Karnataka Bank Ltd,KARB0000369,482052001,JABALPUR,"SHIV MULA TOWER, NO.1553, MAIN ROAD, WRIGHT TOWN, JABALPUR - 482002",,JABALPUR,JABALPUR,MADYAPRADESH
KARB0000370,Karnataka Bank Ltd,KARB0000370,573052004,JAJUR GP,"SHIRDI SAI NIVAS, JAJUR VILLAGE AND POST, JAJUR - 573103",,HASSAN,HASSAN,KARNATAKA
KARB0000448,Karnataka Bank Ltd,KARB0000448,583052402,KOPPAL,"NEAR PRAMOD MANDIR KALYAN MANTAP, KINNAI ROAD, KOPPAL - 583231",,KOPPAL,KOPPAL,KARNATAKA
KARB0000456,Karnataka Bank Ltd,KARB0000456,560052071,KODIGEHALLI GP,"OBALAPURA VILLAGE AND POST, KODIGEHALLI GP - 562132",,BANGALORE,BANGALORE RURAL,KARNATAKA
KARB0000568,Karnataka Bank Ltd,KARB0000568,503052002,NIZAMABAD,"D.NO. 5-6-687/4, BLOCK NO.6, PHULONG CROSS ROAD, HYDERABAD ROAD, NIZAMABAD - 503001",,NIZAMABAD,NIZAMABAD,ANDRA PRADESH
KARB0000569,Karnataka Bank Ltd,KARB0000569,584052502,MANVI,"OPP. AXIS BANK, SINDHANUR ROAD, MANVI - 584123",,RAICHUR,RAICHUR,KARNATAKA
KARB0000571,Karnataka Bank Ltd,KARB0000571,570052012,MYSORE-NAZARBAD,"MAHALAKSHMI KRUPA, ZOO GARDEN ROAD, NAZARBAD, MYSORE - 570010",,MYSORE,MYSORE,KARNATAKA
KARB0000614,Karnataka Bank Ltd,KARB0000614,411052005,PIMPRI-CHINCHWAD,"SUNSHINE PLAZA, CTS NO. 4840, SHOP NO. 5 SND 6, OLD BOMBAY - PUNE HIGHWAY, PIMPRI-CHINCHWAD - 411018",,PIMPRI-CHINCHWAD,PUNE,MAHARASHTRA
KARB0000665,Karnataka Bank Ltd,KARB0000665,124052002,ROHTAK,"NARAIN COMPLEX, CIVIL LINES, ROHTAK-124001",,ROHTAK,ROHTAK,HARYANA
KARB0000666,Karnataka Bank Ltd,KARB0000666,560052072,REVA GROUP OF EDUCATIONAL INSTITUTIONS,"REVA GROUP OF EDUCATIONAL INSTITUTIONS, JALAHOBLI, BAGALUR CROSS, YELAHANKA, BANGALORE - 560064",,YELLAHANKA,BANGALORE,KARNATAKA
KARB0000775,Karnataka Bank Ltd,KARB0000775,680052002,THRISSUR,"CAPITAL RADHAS, NEAR PARAMEKKAV TEMPLE, ROUND EAST, THRISSUR - 680001",,THRISSUR,THRISSUR,KERALA
KARB0000927,Karnataka Bank Ltd,KARB0000927,571052534,BHARATHINAGAR,"K L GOWDA COMPLEX, BANGALORE-KOLLEGAL HIGHWAY ROAD, BHARATHINAGAR - 571422",,MANDYA,MANDYA,KARNATAKA
KARB0000166,Karnataka Bank Ltd,KARB0000166,600052020,VIRUGAMBAKKAM,"KALIAMMAN KOIL STREET, NATESAN NAGAR, VIRUGAMBAKKAM, CHENNAI - 600092",,CHENNAI,CHENNAI,TAMILNADU
KARB0000205,Karnataka Bank Ltd,KARB0000205,586052003,DEVARA HIPPARAGI,"PATIL COMPLEX, N H - 218, OPP. POLICE STATION, DEVARA HIPPARAGI - 586115",,BIJAPUR,BIJAPUR,KARNATAKA
KARB0000455,Karnataka Bank Ltd,KARB0000455,584052501,LINGSUGUR,"AMARESHWAR COLONY, BANGALORE ROAD, LINGSUGUR - 584122",,LINGSUGUR,RAICHUR,KARNATAKA