ID,BANK,IFSC_CODE,MICR_CODE,BRANCH_NAME,ADDRESS,CONTACT,CITY,DISTRICT,STATE
SBTR0000001,State Bank of Travancore,SBTR0000001,400009002,MUMBAI MAIN,"P.B.NO.1005, N.M.WADIA CHARITIES BLDGS, 125, MAHATMA GANDHI ROAD, FORT, MUMBAI, MAHARASHTRA, PIN-400023SERVICETRE",,MUMBAI,GREATER BOMBAY,MAHARASHTRA
SBTR0000002,State Bank of Travancore,SBTR0000002,600009002,CHENNAI (MAIN),"P.B.NO.7826, UNITED INDIA INSURANCE BLDGS, ESPLANADE P.O., CHENNAI, TAMILNADU, PIN-600108,SERVICE CENTRE 26445765/66",,CHENNAI,CHENNAI,TAMIL NADU
SBTR0000003,State Bank of Travancore,SBTR0000003,600009005,MOUNT ROAD- CHENNAI,"P.B.NO.2244 METRO PLAZA, 162 MOUNT ROAD, ANNA SALAI P.O., CHENNAI, TAMILNADU, PIN-600002",,CHENNAI,CHENNAI,TAMIL NADU
SBTR0000004,State Bank of Travancore,SBTR0000004,620009002,TIRUCHIRAPALLI,".NO.34, CHINNAKADAI STREET, TIRUCHIRAPALLI, TAMILNADU, PIN-620002",,TIRUCHIRAPPALLI,TIRUCHIORAPPALLI,TAMIL NADU
SBTR0000005,State Bank of Travancore,SBTR0000005,NON MICR,OOTACAMUND,"P.B.NO.22,, COMMERCIAL ROAD, OOTACAMUND P.O., NILGIRIS, TAMILNADU, PIN-643001",,UDHAGAMANDALAM,NILGIRIS,TAMIL NADU
SBTR0000006,State Bank of Travancore,SBTR0000006,641009002,COIMBATORE (MAIN),"P.B.NO.213, 282 OPPANAKKARA STREET, COIMBATORE, TAMILNADU, PIN-641001",,COIMBATORE,COIMBOTORE,TAMIL NADU
SBTR0000007,State Bank of Travancore,SBTR0000007,641009102,TIRUPUR,"P.B.NO.8, NO.32, RAILWAY FEEDER ROAD, (UTHUKULI ROAD), TIRUPUR, COIMBATORE, TAMILNADU, PIN-641601",,COIMBATORE,COIMBOTORE,TAMIL NADU
SBTR0000008,State Bank of Travancore,SBTR0000008,625009002,MADURAI (MAIN),"103, VAKKIL NEW  STREET,  MADURAI P.O., MADURAI, TAMILNADU, PIN-625001",,MADURAI,MADURAI,TAMIL NADU
SBTR0000009,State Bank of Travancore,SBTR0000009,NON MICR,SHENCOTTAH,"P.B NO. 2, 50, MAIN ROAD, SHENCOTTAH  P.O., TIRUNELVELI, TAMILNADU, PIN-627809",,SHENCOTTAH,TIRUNELVELI,TAMIL NADU
SBTR0000010,State Bank of Travancore,SBTR0000010,NON MICR,VALLIOOR,"P.B.NO.2, 78 MAIN ROAD, KESAVAPERUMAL & SONS BUILDING, VALLIOOR P.O., TIRUNELVELI, TAMILNADU, PIN-627117",,VALLIOOR,TIRUNELVELI,TAMIL NADU
SBTR0000011,State Bank of Travancore,SBTR0000011,NON MICR,NAGERCOIL,"P.B.NO.45, 149-JAWAHAR BUILDINGS, BALAMORE ROAD, NAGERCOIL P.O., KANYAKUMARI, TAMILNADU, PIN-629001",,NAGERCOIL,KANNIYAKUMARI,TAMIL NADU
SBTR0000012,State Bank of Travancore,SBTR0000012,NON MICR,COLACHEL,"P.B.NO.1, ASHIK BUILDINGS, MAIN ROAD, COLACHEL, KANYAKUMARI, TAMILNADU, PIN-629251",,COLACHEL,KANNIYAKUMARI,TAMIL NADU
SBTR0000013,State Bank of Travancore,SBTR0000013,NON MICR,KANYAKUMARI,"SHANKAR GUEST HOUSE, MAIN ROAD, KANYAKUMARI, KANYAKUMARI, TAMILNADU, PIN-629702",,KANYAKUMARI,KANNIYAKUMARI,TAMIL NADU
SBTR0000014,State Bank of Travancore,SBTR0000014,NON MICR,MARTHANDAM,"P.B.NO.5, KALYANI BUILDINGS, MARTHANDAM P.O., KANYAKUMARI, TAMILNADU, PIN-629165",,MARTHANDAM,KANNIYAKUMARI,TAMIL NADU
SBTR0000015,State Bank of Travancore,SBTR0000015,NON MICR,SUCHEENDRAM,"P.B.NO.1, ALAGAPPA BUILDINGS, CAPE ROAD, SUCHEENDRAM P.O., KANYAKUMARI, TAMILNADU, PIN-629704",,SUCHEENDRAM,KANNIYAKUMARI,TAMIL NADU
SBTR0000016,State Bank of Travancore,SBTR0000016,NON MICR,THIRUVITHAMCODE,"P.B.NO.1, T.P.13/74 MAIN ROAD, THIRUVITHAMCODE P.O., KANYAKUMARI, TAMILNADU, PIN-629174",,THIRUVITHAMCODE,KANNIYAKUMARI,TAMIL NADU
SBTR0000017,State Bank of Travancore,SBTR0000017,NON MICR,THIRUVATTAR,"30-20-A,SANTHINIKETHAN, M.K.ROAD, THIRUVATTAR P.O., KANYAKUMARI, TAMILNADU, PIN-629177",,TIRUVATTAR,KANNIYAKUMARI,TAMIL NADU
SBTR0000018,State Bank of Travancore,SBTR0000018,NON MICR,POTHENCODE,"P.B.NO.1, JISHA BUILDINGS, POTHENCODE P.O., THIRUVANANTHAPURAM, KERALA, PIN-695584",,THIRUVANANTHAPURAM,TRIVANDRUM,KERALA
SBTR0000019,State Bank of Travancore,SBTR0000019,NON MICR,VELLAYANI,"P.B.NO.1, AGRI.COLLEGE CAMPUS, VELLAYANI P.O., THIRUVANANTHAPURAM, KERALA, PIN-695522",,THIRUVANANTHAPURAM,TRIVANDRUM,KERALA
SBTR0000020,State Bank of Travancore,SBTR0000020,695009013,KOWDIAR(THIRUVANANTHAPURAM),"P.B.NO.813, SASTHA BUILDINGS, KOWDIAR P.O., THIRUVANANTHAPURAM, KERALA, PIN-695003",,THIRUVANANTHAPURAM,TRIVANDRUM,KERALA
SBTR0000021,State Bank of Travancore,SBTR0000021,695009004,CHALAI (THIRUVANANTHAPURAM),"P.B.NO.5122, 1ST FLOOR, KARIMS BUILDINGS, CHALAI P.O., THIRUVANANTHAPURAM, KERALA, PIN-695036",,THIRUVANANTHAPURAM,TRIVANDRUM,KERALA
SBTR0000022,State Bank of Travancore,SBTR0000022,695009026,THIRUMALA(THIRUVANANTHAPURAM),"T.C.37/1915 - 1, SHALOM  TOWERS, THIRUMALA P.O., THIRUVANANTHAPURAM, KERALA, PIN-695006",,THIRUVANANTHAPURAM,TRIVANDRUM,KERALA
SBTR0000023,State Bank of Travancore,SBTR0000023,695009023,SASTHAMANGALAM(THIRUVANANTHAPURAM),"P.B.2200, T.C. 9/2161, SASTHAMANGALAM P.O., THIRUVANANTHAPURAM, KERALA, PIN-695010",,THIRUVANANTHAPURAM,TRIVANDRUM,KERALA
SBTR0000024,State Bank of Travancore,SBTR0000024,695009014,MANACAUD(THIRUVANANTHAPURAM),"P.B NO. 1, NARAYANA NILAYAM, MANACAUD P.O., THIRUVANANTHAPURAM, KERALA, PIN-695009",,THIRUVANANTHAPURAM,TRIVANDRUM,KERALA
SBTR0000025,State Bank of Travancore,SBTR0000025,695009022,SHANGHUMUGHOM(THIRUVANANTHAPURAM),"P.B.NO.1803, VALLAKADAVU P.O., THIRUVANANTHAPURAM, KERALA, PIN-695008",,THIRUVANANTHAPURAM,TRIVANDRUM,KERALA
SBTR0000026,State Bank of Travancore,SBTR0000026,695009021,PUTHENCHANTHAI (THIRUVANANTHAPURAM),"P.B.NO.15, PRASANTHI MANSION, M.G.ROAD, THIRUVANANTHAPURAM, KERALA, PIN-695001",,THIRUVANANTHAPURAM,TRIVANDRUM,KERALA
SBTR0000027,State Bank of Travancore,SBTR0000027,NON MICR,IDUKKI,"P.B.NO.1, KSEB BUILDINGS, PAINAVU P.O., IDUKKI, KERALA, PIN-685603",,IDIKKI,IDUKKI,KERALA
SBTR0000028,State Bank of Travancore,SBTR0000028,695009002,THIRUVANANTHAPURAM (MAIN),"P.B.NO.22, ANACUTCHERY BUILDING, M.G.ROAD, THIRUVANANTHAPURAM, KERALA, PIN-695001",,THIRUVANANTHAPURAM,TRIVANDRUM,KERALA
SBTR0000029,State Bank of Travancore,SBTR0000029,695009015,MEDICAL COLLEGE- THIRUVANANTHAPURAM,"P.B.NO.2400, MEDICAL COLLEGE P.O., THIRUVANANTHAPURAM, KERALA, PIN-695011",,THIRUVANANTHAPURAM,TRIVANDRUM,KERALA
SBTR0000030,State Bank of Travancore,SBTR0000030,695009035,PAPPANAMCODE-THIRUVANANTHAPURAM,"P.B.NO.1, INDUSTRIAL ESTATE P.O., PAPPANAMCODE, THIRUVANANTHAPURAM, KERALA, PIN-695019",,THIRUVANANTHAPURAM,TRIVANDRUM,KERALA
SBTR0000031,State Bank of Travancore,SBTR0000031,695009009,KARAMANA(THIRUVANANTHAPURAM),"P.B.NO.600, T.C.20/1994(2)  T.N.ROAD, KARAMANA P.O., THIRUVANANTHAPURAM, KERALA, PIN-695002",,THIRUVANANTHAPURAM,TRIVANDRUM,KERALA
SBTR0000032,State Bank of Travancore,SBTR0000032,695009019,POOJAPURA (THIRUVANANTHAPURAM),"P B NO.2700, LAKSHMI CHAMBERS, OPP. PAREEKSHA BHAVAN, THIRUVANANTHAPURAM, KERALA, PIN-695012",,THIRUVANANTHAPURAM,TRIVANDRUM,KERALA
SBTR0000033,State Bank of Travancore,SBTR0000033,695009030,VAZHUTHACAUD(THIRUVANANTHAPURAM),"P.B.NO.409, VASARA BUILDINGS, TC 15/1509, THYCAUD P.O., THIRUVANANTHAPURAM, KERALA, PIN-695014",,THIRUVANANTHAPURAM,TRIVANDRUM,KERALA
SBTR0000035,State Bank of Travancore,SBTR0000035,695009045,BALARAMAPURAM,"P.B.NO.2, S.K.TOWERS, BALARAMAPURAM P.O., THIRUVANANTHAPURAM, KERALA, PIN-695501",,BALARAMAPURAM,TRIVANDRUM,KERALA
SBTR0000036,State Bank of Travancore,SBTR0000036,695009045,NEDUMANGAD,"P.B.NO.3, NEDUMANGAD P.O., THIRUVANANTHAPURAM, KERALA, PIN-695541",,NEDUMANGAD,TRIVANDRUM,KERALA
SBTR0000037,State Bank of Travancore,SBTR0000037,695009047,PARASSALA,"P.B.NO.1, AJITHA BUILDINGS, PARASSALA P.O., THIRUVANANTHAPURAM, KERALA, PIN-695502",,PARASSALA,TRIVANDRUM,KERALA
SBTR0000038,State Bank of Travancore,SBTR0000038,NON MICR,KADAKKAVOOR,"P.B.NO.1, AZHIKATHU BUILDINGS, KADAKKAVOOR P.O., THIRUVANANTHAPURAM, KERALA, PIN-695306",,THIRUVANANTHAPURAM,TRIVANDRUM,KERALA
SBTR0000039,State Bank of Travancore,SBTR0000039,695000944,ATTINGAL,"P.B.NO.1, PUSPAKESH BUILDINGS, ATTINGAL P.O., THIRUVANANTHAPURAM, KERALA, PIN-695101",,ATTINGAL,TRIVANDRUM,KERALA
SBTR0000040,State Bank of Travancore,SBTR0000040,NON MICR,KATTAKKADA,"P.B.NO.1, PRABHA SADANAM, KATTAKADA P.O., THIRUVANANTHAPURAM, KERALA, PIN-695572",,THIRUVANANTHAPURAM,TRIVANDRUM,KERALA
SBTR0000041,State Bank of Travancore,SBTR0000041,NON MICR,KILIMANOOR,"P.B.NO.751, FIVE STAR SHOPPING COMPLEX, KILIMANOOR P.O., THIRUVANANTHAPURAM, KERALA, PIN-695601",,THIRUVANANTHAPURAM,TRIVANDRUM,KERALA
SBTR0000042,State Bank of Travancore,SBTR0000042,695009046,NEYYATTINKARA,"P.B.NO.2, N.M.C.XI/1, NEYYATTINKARA P.O., THIRUVANANTHAPURAM, KERALA, PIN-695121",,NEYYATTINKARA,TRIVANDRUM,KERALA
SBTR0000043,State Bank of Travancore,SBTR0000043,695009040,KARYAVATTOM,"P.B.NO.1 SOUTH BLOCK, UNIVERSITY CAMPUS, KARYAVATTOM, THIRUVANANTHAPURAM, KERALA, PIN-695581",,THIRUVANANTHAPURAM,TRIVANDRUM,KERALA
SBTR0000044,State Bank of Travancore,SBTR0000044,NON MICR,CHIRAYINKEEZHU,"P.B.NO.402, SARAVANA BUILDINGS, CHIRAYINKEEZHU P.O., THIRUVANANTHAPURAM, KERALA, PIN-695304",,THIRUVANANTHAPURAM,TRIVANDRUM,KERALA
SBTR0000045,State Bank of Travancore,SBTR0000045,NON MICR,PALLITHURA,"P.B.NO.1, MOHAN VILLA, ST.XAVIER'S COLLEGE P.O., THIRUVANANTHAPURAM, KERALA, PIN-695586",,THIRUVANANTHAPURAM,TRIVANDRUM,KERALA
SBTR0000046,State Bank of Travancore,SBTR0000046,NON MICR,POOVAR,"P.B.NO.1,BHASURAM COMPLEX, NEAR KSRTC  BUS STAND , POOVAR P.O., THIRUVANANTHAPURAM, KERALA, PIN-695525",,THIRUVANANTHAPURAM,TRIVANDRUM,KERALA
SBTR0000047,State Bank of Travancore,SBTR0000047,NON MICR,PUTHUKURICHY,"P.B.NO.1, K.P.2/6, PUTHUKURICHY P.O., THIRUVANANTHAPURAM, KERALA, PIN-695303",,THIRUVANANTHAPURAM,TRIVANDRUM,KERALA
SBTR0000048,State Bank of Travancore,SBTR0000048,695009048,VARKALA,"P.B.NO.1, THAVAKKAL COMPLEX, VARKALA P.O., THIRUVANANTHAPURAM, KERALA, PIN-695141",,VARKALA,TRIVANDRUM,KERALA
SBTR0000049,State Bank of Travancore,SBTR0000049,NON MICR,VENGANOOR,"P.B.NO.1, V.P.14/95, VENGANOOR P.O., THIRUVANANTHAPURAM, KERALA, PIN-695523",,THIRUVANANTHAPURAM,TRIVANDRUM,KERALA
SBTR0000050,State Bank of Travancore,SBTR0000050,NON MICR,VAKKOM,"P.B.NO.1, NODESH BUILDINGS, VAKKOM  P.O., THIRUVANANTHAPURAM, KERALA, PIN-695308",,THIRUVANANTHAPURAM,TRIVANDRUM,KERALA
SBTR0000052,State Bank of Travancore,SBTR0000052,NON MICR,VAMANAPURAM,"P.B.NO.1, M.A.V.BUILDINGS, VAMANAPURAM P.O., THIRUVANANTHAPURAM, KERALA, PIN-695606",,THIRUVANANTHAPURAM,TRIVANDRUM,KERALA
SBTR0000053,State Bank of Travancore,SBTR0000053,NON MICR,KOLLAM CIVIL STATION,"P.B.NO.69, AMMAVEETTIL BUILDINGS, CUTCHERRY P.O., KOLLAM, KERALA, PIN-691013",,KOLLAM,KOLLAM,KERALA
SBTR0000054,State Bank of Travancore,SBTR0000054,NON MICR,KOLLAM (MAIN),"P.B.BOX.NO.54, BISHOP JEROME NAGAR COMMERCIAL, COMPLEX, KOLLAM, KERALA, PIN-691001",,KOLLAM,KOLLAM,KERALA
SBTR0000055,State Bank of Travancore,SBTR0000055,NON MICR,CHAVARA,"PATTURUTHOPPIL BUILDINGS, P.B.NO.1 SANGARAMANGALAM, CHAVARA P.O., KOLLAM, KERALA, PIN-691583",,KOLLAM,KOLLAM,KERALA
SBTR0000056,State Bank of Travancore,SBTR0000056,690009002,KARUNAGAPALLY,"P.B.NO.1, KARUNAGAPPALLY P.O., KOLLAM, KERALA, PIN-690518",,KARUNAGAPALLY,KOLLAM,KERALA
SBTR0000057,State Bank of Travancore,SBTR0000057,NON MICR,MAYYANAD,"P.B.NO.1, KUNNUMPADAM BUILDINGS, MAYYANAD P.O., KOLLAM, KERALA, PIN-691303",,MAYYANAD,KOLLAM,KERALA
SBTR0000058,State Bank of Travancore,SBTR0000058,689009008,PATHANAMTHITTA,"P.B.NO.3, SBT BUILDING, PATHANAMTHITTA, KERALA, PIN-689645",,PATHANAMTHITTA,PATHANAMTHITTA,KERALA
SBTR0000059,State Bank of Travancore,SBTR0000059,691009006,PUNALUR,"P.B.NO1, JAYABHARATHAM BUILDINGS, PUNALUR P.O., KOLLAM, KERALA, PIN-691305",,PUNALUR,KOLLAM,KERALA
SBTR0000060,State Bank of Travancore,SBTR0000060,691009003,ADOOR,"P.B.NO.51, PUNTHALA SHOPPING COMPLEX, ADOOR P.O., PATHANAMTHITTA, KERALA, PIN-691523",,ADOOR,PATHANAMTHITTA,KERALA
SBTR0000061,State Bank of Travancore,SBTR0000061,NON MICR,AYUR,"P.B.NO.1, AISWARYA BUILDINGS, AYUR P.O., KOLLAM, KERALA, PIN-691533",,KOLLAM,KOLLAM,KERALA
SBTR0000062,State Bank of Travancore,SBTR0000062,689009004,KONNI,"P.B.NO.1, MEPURATHU BUILDING, KONNI P.O., PATHANAMTHITTA, KERALA, PIN-689691",,KONNI,PATHANAMTHITTA,KERALA
SBTR0000063,State Bank of Travancore,SBTR0000063,691009004,KOTTARAKARA MAIN,"P.B.NO.1, GEETHA BHAVAN, MARKET JUNCTION, KOTTARAKKARA, KOLLAM, KERALA, PIN-691506",,KOTTARAKKARA,KOLLAM,KERALA
SBTR0000064,State Bank of Travancore,SBTR0000064,691009005,KUNDARA,"P.B.NO.6  RAJAN TOWERS, NO.XV/520A, KUNDARA P.O., KOLLAM, KERALA, PIN-691501",,KUNDARA,KOLLAM,KERALA
SBTR0000065,State Bank of Travancore,SBTR0000065,NON MICR,RANNI,"P.B.NO.1, MANIMALETHU BUILDING, ANGADI P.O., PATHANAMTHITTA, KERALA, PIN-689674",,RANNI,PATHANAMTHITTA,KERALA
SBTR0000066,State Bank of Travancore,SBTR0000066,NON MICR,SAKTHIKULANGARA,"P.B.NO.1, ALBICO BUILDINGS, SAKTHIKULANGARA P.O., KOLLAM, KERALA, PIN-691581",,SAKTHIKULANGARA,KOLLAM,KERALA
SBTR0000067,State Bank of Travancore,SBTR0000067,NON MICR,CHATHANOOR,"P.B.NO.1, LAKSHMI BUILDINGS, CHATHANOOR P.O., KOLLAM, KERALA, PIN-691572",,KOLLAM,KOLLAM,KERALA
SBTR0000068,State Bank of Travancore,SBTR0000068,689009005,KOZHENCHERRY,"P.B.NO.1,, KORUKATTU BLDGS, KOZHENCHERRY P.O., PATHANAMTHITTA, KERALA, PIN-689641",,KOZHENCHERRY,PATHANAMTHITTA,KERALA
SBTR0000069,State Bank of Travancore,SBTR0000069,NON MICR,NARANGANAM,"P.B.NO.1, ERATTOLIL BUILDINGS, NARANGANAM P.O., PATHANAMTHITTA, KERALA, PIN-689642",,NARANGANAM,PATHANAMTHITTA,KERALA
SBTR0000070,State Bank of Travancore,SBTR0000070,NON MICR,PARAKODE,"P.B.NO.1, KAVINTE THEKKETHIL, PARAKODE P.O., PATHANAMTHITTA, KERALA, PIN-691554",,PATHANAMTHITTA,PATHANAMTHITTA,KERALA
SBTR0000071,State Bank of Travancore,SBTR0000071,NON MICR,SOUTH PARAVOOR,"P.B.NO.1, VIDYADHARAN BUILDINGS, PARAVOOR P.O., KOLLAM, KERALA, PIN-691301",,KOLLAM,KOLLAM,KERALA
SBTR0000072,State Bank of Travancore,SBTR0000072,NON MICR,PATHANAPURAM,"P.B.NO.1  ABRAHAM COMPLEX, K.P. ROAD, PATHANAPURAM P.O., KOLLAM, KERALA, PIN-689695",,KOLLAM,KOLLAM,KERALA
SBTR0000073,State Bank of Travancore,SBTR0000073,NON MICR,POOYAPALLY,"P.B.NO.1, CHAMAVILA DUBY AUDITORIUM BLDG, POOYAPALLY P.O., KOLLAM, KERALA, PIN-691537",,POYAPALLY,KOLLAM,KERALA
SBTR0000074,State Bank of Travancore,SBTR0000074,NON MICR,PARIPALLY,"P.B.NO.1, CITY TOWERS, PARIPALLY P.O., KOLLAM, KERALA, PIN-691574",,PARIPALLY,KOLLAM,KERALA
SBTR0000075,State Bank of Travancore,SBTR0000075,NON MICR,ALAPPUZHA (MAIN),"P.B.NO.4404, SRINI BUILDINGS, C.C.S.B. ROAD, ALAPPUZHA, KERALA, PIN-688011",,ALAPPUZHA,ALAPUZZHA,KERALA
SBTR0000076,State Bank of Travancore,SBTR0000076,NON MICR,KARTHIKAPALLY,"P.B.NO.1, KP4/2A, VELIKKAKATHU BLDG, KARTHIKAPALLY P.O., ALAPPUZHA, KERALA, PIN-690516",,KORTHIKAPPALLY,ALAPUZZHA,KERALA
SBTR0000077,State Bank of Travancore,SBTR0000077,NON MICR,ERAVIPEROOR,"P.B.NO.1, THYKOODATHIL BLDGS, ERAVIPEROOR P.O., PATHANAMTHITTA, KERALA, PIN-689542",,ERAVIPEROOR,PATHANAMTHITTA,KERALA
SBTR0000078,State Bank of Travancore,SBTR0000078,690009015,KAYAMKULAM,"P.B.NO.2, MUTHOOT SHOPPING CENTRE, KAYAMKULAM P.O., ALAPPUZHA, KERALA, PIN-690502",,KAYAMKULAM,ALAPUZZHA,KERALA
SBTR0000079,State Bank of Travancore,SBTR0000079,689009009,PANDALAM,"P.B.NO.1, KINARVILAYIL BLDGS, PANDALAM P.O., PATHANAMTHITTA, KERALA, PIN-689501",,PANDALAM,PATHANAMTHITTA,KERALA
SBTR0000080,State Bank of Travancore,SBTR0000080,NON MICR,THUMPAMON,"P.B.NO.1, KADATHETHU BUILDINGS, THUMPAMON P.O., PATHANAMTHITTA, KERALA, PIN-689502",,PATHANAMTHITTA,PATHANAMTHITTA,KERALA
SBTR0000081,State Bank of Travancore,SBTR0000081,685009002,CHERTHALA,"P.B.NO.1, NEW BUILDINGS, CHERTHALA P.O., ALAPPUZHA, KERALA, PIN-685524",,CHERTHALA,ALAPUZZHA,KERALA
SBTR0000082,State Bank of Travancore,SBTR0000082,688009002,AMBALAPUZHA,"P.B.NO.1, SREE VALSOM SHOPPING COMPLEX, AMBALAPUZHA THAKAZHY ROAD, ALAPPUZHA, KERALA, PIN-688561",,AMBALAPUZHA,ALAPUZZHA,KERALA
SBTR0000083,State Bank of Travancore,SBTR0000083,NON MICR,AYIROOR,"P.B.NO.1, AP NO.IV/309-A, AYIROOR SOUTH P.O., PATHANAMTHITTA, KERALA, PIN-689611",,AYROOR,PATHANAMTHITTA,KERALA
SBTR0000084,State Bank of Travancore,SBTR0000084,NON MICR,CHAMPAKULAM,"P.B.NO.1, CHAMPAKULAM P.O., ALAPPUZHA, KERALA, PIN-688505",,CHAMPAKULAM,ALAPUZZHA,KERALA
SBTR0000085,State Bank of Travancore,SBTR0000085,689009003,CHENGANNUR,"P.B.NO.2   CM/XIV/534, VALUTHADATHIL COMPLEX, CHENGANNUR P.O., ALAPPUZHA, KERALA, PIN-689121",,CHENGANNUR,ALAPUZZHA,KERALA
SBTR0000086,State Bank of Travancore,SBTR0000086,690009002,HARIPAD,"P.B.NO.1, PANAVALIL BROTHERS BUILDING, TOWNHALL JUNCTION, HARIPAD P.O., ALAPPUZHA, KERALA, PIN-690514",,HARIPAD,ALAPUZZHA,KERALA
SBTR0000087,State Bank of Travancore,SBTR0000087,689009007,MALLAPPALLY,"P.B NO. 1, PANCHAYAT SHOPPING CENTRE, MALLAPPALLY WEST P.O., PATHANAMTHITTA, KERALA, PIN-689585",,MALLAPPALLY,PATHANAMTHITTA,KERALA
SBTR0000088,State Bank of Travancore,SBTR0000088,689009008,MANNAR,"DOOR NO.1009/VII, P.B.NO.2, PYNUMOOTTIL BUILDING, MANNAR-MAVELIKARA ROAD, MANNAR P.O., ALAPPUZHA, KERALA, PIN-689622",,MANNAR,ALAPUZZHA,KERALA
SBTR0000089,State Bank of Travancore,SBTR0000089,690009016,MAVELIKARA (MAIN),"P.B.NO.1, B.M.COMMERCIAL COMPLEX, MAVELIKKARA P.O., ALAPPUZHA, KERALA, PIN-690101",,MAVELIKKARA,ALAPUZZHA,KERALA
SBTR0000090,State Bank of Travancore,SBTR0000090,NON MICR,MONCOMPU,"P.B.NO.1, PALUPRA BUILDINGS, MONCOMPU P.O., ALAPPUZHA, KERALA, PIN-688501",,MONCOMPU,ALAPUZZHA,KERALA
SBTR0000091,State Bank of Travancore,SBTR0000091,NON MICR,NOORANAD,"P.B.NO.1, JABALNOOR PLAZA, NOORANAD P.O., ALAPPUZHA, KERALA, PIN-690504",,NOORANAD,ALAPUZZHA,KERALA
SBTR0000092,State Bank of Travancore,SBTR0000092,NON MICR,PAYIPAD,"P.B.NO.1, VIRUPIL BUILDINGS, PAYIPAD P.O., ALAPPUZHA, KERALA, PIN-690556",,PAYIPAD,ALAPUZZHA,KERALA
SBTR0000093,State Bank of Travancore,SBTR0000093,NON MICR,VADASSERIKARA,"P.B.NO.2, PULIVELIL BUILDINGS, VADASSERIKARA P.O., PATHANAMTHITTA, KERALA, PIN-689662",,VADASSERIKARA,PATHANAMTHITTA,KERALA
SBTR0000094,State Bank of Travancore,SBTR0000094,689009010,THIRUVALLA,"P.B.NO.3, ENNIKATTIL BUILDINGS, M.C.ROAD, THIRUVALLA P.O., PATHANAMTHITTA, KERALA, PIN-689101",,THIRUVALLA,PATHANAMTHITTA,KERALA
SBTR0000095,State Bank of Travancore,SBTR0000095,NON MICR,VENMONY,"P.B.NO.2, A.R.J.BUILDINGS, VENMONY P.O., ALAPPUZHA, KERALA, PIN-689509",,VENMONY,ALAPUZZHA,KERALA
SBTR0000096,State Bank of Travancore,SBTR0000096,689009003,EDATHUA,"P.B.NO.1, EDATHUA P.O., ALAPPUZHA, KERALA, PIN-689573",,EDATHUA,ALAPUZZHA,KERALA
SBTR0000097,State Bank of Travancore,SBTR0000097,NON MICR,RAMANKARY,"P.B NO. 1, 4/336, MANIMANDIRAM, RAMANKARY P.O., ALAPPUZHA, KERALA, PIN-689595",,RAMANKARY,ALAPUZZHA,KERALA
SBTR0000098,State Bank of Travancore,SBTR0000098,NON MICR,VENNIKULAM,"P.B.NO.1, KANJIRATHUMOOTTIL BUILDINGS, WARD NO-3, VENNIKULAM P.O., PATHANAMTHITTA, KERALA, PIN-689544",,PATHANAMTHITTA,PATHANAMTHITTA,KERALA
SBTR0000099,State Bank of Travancore,SBTR0000099,689009006,KUMBANAD,"P.B.NO.1, THOMSON BUILDINGS, KUMBANAD P.O., PATHANAMTHITTA, KERALA, PIN-689547",,PATHANAMTHITTA,PATHANAMTHITTA,KERALA
SBTR0000100,State Bank of Travancore,SBTR0000100,NON MICR,MEPRAL,"P.B.NO.1, CHANDAPEEDIKA, MEPRAL P.O., PATHANAMTHITTA, KERALA, PIN-689591",,THIRUVALLA,PATHANAMTHITTA,KERALA
SBTR0000101,State Bank of Travancore,SBTR0000101,NON MICR,KOTTAYAM CIVIL STATION,"P.B.NO.1102, PADINJAREKKARA CHAMBERS, COLLECTORATE P.O., KOTTAYAM, KERALA, PIN-686002",,KOTTAYAM,KOTTAYAM,KERALA
SBTR0000102,State Bank of Travancore,SBTR0000102,686009017,KOTTAYAM (MAIN),"P.B.NO.19, THIRUNAKKARA SOUTH, KOTTAYAM P.O., KOTTAYAM, KERALA, PIN-686001",,KOTTAYAM,KOTTAYAM,KERALA
SBTR0000103,State Bank of Travancore,SBTR0000103,686009010,CHANGANACHERRY (MAIN),"P.B.NO.3, SBT BLDGS, BANK STREET, VATTAPALLY, CHANGANCHERRY P.O., KOTTAYAM, KERALA, PIN-686101",,CHANGANASSERY,KOTTAYAM,KERALA
SBTR0000104,State Bank of Travancore,SBTR0000104,NON MICR,ELAPPARA,"P.B.NO.1, NEAR PANCHAYAT BUS STAND, ELAPPARA P.O., IDUKKI, KERALA, PIN-685501",,ELAPPARA,IDUKKI,KERALA
SBTR0000105,State Bank of Travancore,SBTR0000105,NON MICR,ERUMELI,"2P.B.NO.1, CHALAKUZHY CHAMBERS, ERUMELI P.O., KOTTAYAM, KERALA, PIN-686509",,ERUMELY,KOTTAYAM,KERALA
SBTR0000106,State Bank of Travancore,SBTR0000106,NON MICR,KIDANGOOR,"P.B.NO.1, KACHERIL BUILDINGS,  KIDANGOOR P.O., KOTTAYAM, KERALA, PIN-686572",,KOTTAYAM,KOTTAYAM,KERALA
SBTR0000107,State Bank of Travancore,SBTR0000107,NON MICR,PAIPAD (KOTTAYAM),"P.B.NO:1, PULIMOOTTIL BUILDINGS, PALLICKACHIRA KAVALA P.O., KOTTAYAM, KERALA, PIN-686537",,KOTTAYAM,KOTTAYAM,KERALA
SBTR0000108,State Bank of Travancore,SBTR0000108,686009006,PAMPADY,"P.B.NO.1, KADUVAMBHAGHOM BUILDINGS, PAMPADY P.O., KOTTAYAM, KERALA, PIN-686502",,PAMPADY,KOTTAYAM,KERALA
SBTR0000109,State Bank of Travancore,SBTR0000109,NON MICR,PEERMADE,"P.B.NO.1, K.K.ROAD, PEERMADE P.O., IDUKKI, KERALA, PIN-685531",,PEERMADE,IDUKKI,KERALA
SBTR0000110,State Bank of Travancore,SBTR0000110,NON MICR,VAKATHANAM,"P.B.NO.1, THUNJATH BUILDING, VAKATHANAM P.O., KOTTAYAM, KERALA, PIN-686538",,KOTTAYAM,KOTTAYAM,KERALA
SBTR0000111,State Bank of Travancore,SBTR0000111,NON MICR,MEDICAL COLLEGE - KOTTAYAM,"P.B.NO.1, MEDICAL COLLEGE CAMPUS, GANDHINAGAR P.O., KOTTAYAM, KERALA, PIN-686008",,KOTTAYAM,KOTTAYAM,KERALA
SBTR0000112,State Bank of Travancore,SBTR0000112,NON MICR,ATHIRAMPUZHA,"P.B.NO.1, ST.MARY'S FORANE CHURCH BLDGS, ATHIRAMPUZHA P.O., KOTTAYAM, KERALA, PIN-686562",,KOTTAYAM,KOTTAYAM,KERALA
SBTR0000113,State Bank of Travancore,SBTR0000113,686009010,ERATTUPETTA,"P.B.NO.2, ARUVITHURA P.O., KOTTAYAM, KERALA, PIN-686122",,KOTTAYAM,KOTTAYAM,KERALA
SBTR0000114,State Bank of Travancore,SBTR0000114,686009012,ETTUMANOOR,"P.B.NO.1, JOSE BAZAR SHOPPING COMPLEX, PALAI ROAD, ETTUMANOOR P.O., KOTTAYAM, KERALA, PIN-686631",,ETTUMANOOR,KOTTAYAM,KERALA
SBTR0000115,State Bank of Travancore,SBTR0000115,686009013,KANJIRAPALLY,"P.B.NO.1, BANK HOUSE, KANJIRAPALLY P.O., KOTTAYAM, KERALA, PIN-686507",,KANJIRAPPALLY,KOTTAYAM,KERALA
SBTR0000116,State Bank of Travancore,SBTR0000116,NON MICR,KUMARAKOM,"P.B.NO.1, ILLIKALAM CHAMBERS, KUMARAKOM  P.O., KOTTAYAM, KERALA, PIN-686563",,KOTTAYAM,KOTTAYAM,KERALA
SBTR0000117,State Bank of Travancore,SBTR0000117,NON MICR,MANIMALA,"P.B NO. 1, KOVOOR BUILDINGS, MANIMALA P.O., KOTTAYAM, KERALA, PIN-686543",,KOTTAYAM,KOTTAYAM,KERALA
SBTR0000118,State Bank of Travancore,SBTR0000118,NON MICR,NEDUMKUNNAM,"P.B.NO.1, ""ANKUSH"" BUILDINGS, NEDUMKUNNAM P.O., KOTTAYAM, KERALA, PIN-686542",,NEDUMKUNNAM,KOTTAYAM,KERALA
SBTR0000119,State Bank of Travancore,SBTR0000119,NON MICR,NEENDOOR,"P.B.NO.1, PANTHALLOORPARAMBIL BLDGS, NEENDOOR P.O., KOTTAYAM, KERALA, PIN-686601",,KOTTAYAM,KOTTAYAM,KERALA
SBTR0000120,State Bank of Travancore,SBTR0000120,686009005,PALA,"P.B.NO.6, VIII/130A, MAIN ROAD,, PALA P.O., KOTTAYAM, KERALA, PIN-686575",,PALAI,KOTTAYAM,KERALA
SBTR0000121,State Bank of Travancore,SBTR0000121,NON MICR,POOVARANY,"P.B.NO.1, PAIKA, POOVARANY P.O., KOTTAYAM, KERALA, PIN-686577",,KOTTAYAM,KOTTAYAM,KERALA
SBTR0000122,State Bank of Travancore,SBTR0000122,NON MICR,PUTHUPALLY,"P.B.NO.1, KANYAPARAMBIL BUILDINGS, PUTHUPALLY P.O., KOTTAYAM, KERALA, PIN-686011",,KOTTAYAM,KOTTAYAM,KERALA
SBTR0000123,State Bank of Travancore,SBTR0000123,NON MICR,RAMAPURAM,"P.B.NO.1, ST.AUGUSTINES CHURCH BLDGS, RAMAPURAM BAZAR P.O., KOTTAYAM, KERALA, PIN-686576",,KOTTAYAM,KOTTAYAM,KERALA
SBTR0000124,State Bank of Travancore,SBTR0000124,NON MICR,UZHAVOOR,"P.B.NO.1, THERAVATH BUILDINGS, UZHAVOOR P.O., KOTTAYAM, KERALA, PIN-686634",,KOTTAYAM,KOTTAYAM,KERALA
SBTR0000125,State Bank of Travancore,SBTR0000125,686009009,VAIKOM,"P.B.NO.3, SBT BUILDINGS, VAIKOM P.O., KOTTAYAM, KERALA, PIN-686141",,VAIKOM,KOTTAYAM,KERALA
SBTR0000126,State Bank of Travancore,SBTR0000126,NON MICR,VANDIPERIYAR,"P.B.NO.1, K.K.ROAD, VANDIPERIYAR P.O., IDUKKI, KERALA, PIN-685533",,VANDIPERIYAR,IDUKKI,KERALA
SBTR0000127,State Bank of Travancore,SBTR0000127,NON MICR,VECHOOR,"PB NO.1, N.S.S.KARAYOGAM BUILDINGS, VECHOOR P.O., KOTTAYAM, KERALA, PIN-686144",,KOTTAYAM,KOTTAYAM,KERALA
SBTR0000128,State Bank of Travancore,SBTR0000128,NON MICR,CHINGAVANAM,"P.B.NO.1, V.O.MARKOSE MEMORIAL HALL BLDG, CHINGAVANAM P.O., KOTTAYAM, KERALA, PIN-686531",,KOTTAYAM,KOTTAYAM,KERALA
SBTR0000129,State Bank of Travancore,SBTR0000129,NON MICR,DEVIKULAM,"P.B.NO.1, SBT BUILDING, DEVIKULAM P.O., IDUKKI, KERALA, PIN-685613",,DEVIKULAM,IDUKKI,KERALA
SBTR0000130,State Bank of Travancore,SBTR0000130,NON MICR,KALAKETTY,"P.B.NO.1, VELLATHOTTAM BUILDINGS, KALAKETTY P.O., KOTTAYAM, KERALA, PIN-686508",,KOTTAYAM,KOTTAYAM,KERALA
SBTR0000131,State Bank of Travancore,SBTR0000131,NON MICR,KOOTICKAL,"P.B.NO.1,BADAYIL BUILDINGS, KOOTICKAL P.O., KOTTAYAM, KERALA, PIN-686514",,KOTTAYAM,KOTTAYAM,KERALA
SBTR0000132,State Bank of Travancore,SBTR0000132,NON MICR,KUMILY,"P.B.NO.1, ROSAPPOOKANDAM ROAD, KUMILY P.O., IDUKKI, KERALA, PIN-685509",,KUMILY,IDUKKI,KERALA
SBTR0000133,State Bank of Travancore,SBTR0000133,686009018,MUNDAKAYAM,"P.B.NO.1, POTTAMKULAM BUILDINGS, K.K.ROAD, MUNDAKAYAM P.O., KOTTAYAM, KERALA, PIN-686513",,MUNDAKAYAM,KOTTAYAM,KERALA
SBTR0000134,State Bank of Travancore,SBTR0000134,NON MICR,MONIPALLY,"P.B.NO.1, RAMAKRISHNAN NAIR'S BUILDING, MONIPALLY P.O., KOTTAYAM, KERALA, PIN-686636",,KOTTAYAM,KOTTAYAM,KERALA
SBTR0000135,State Bank of Travancore,SBTR0000135,685009003,MUNNAR,"P.B.NO.1,, MUNNAR P.O., IDUKKI, KERALA, PIN-685612",,MUNNAR,IDUKKI,KERALA
SBTR0000136,State Bank of Travancore,SBTR0000136,NON MICR,KURUPPANTHARA,"P.B.NO.1, KANDARAPALLIL BUILDINGS, MANJOOR P.O., KOTTAYAM, KERALA, PIN-686603",,KOTTAYAM,KOTTAYAM,KERALA
SBTR0000137,State Bank of Travancore,SBTR0000137,686009007,PONKUNNAM,"P.B.NO.1, CHINLANKA SHOPPING COMPLEX, PONKUNNAM P.O., K.K.ROAD, KOTTAYAM, KERALA, PIN-686506",,PONKUNNAM,KOTTAYAM,KERALA
SBTR0000138,State Bank of Travancore,SBTR0000138,NON MICR,MELUKAVUMATTOM,"P.B.NO.1, CSI BUILDINGS, MELUKAVUMATTOM P.O., KOTTAYAM, KERALA, PIN-686652",,ERATTUPETTA,KOTTAYAM,KERALA
SBTR0000140,State Bank of Travancore,SBTR0000140,682009015,KOCHI-MATTANCHERRY,"P.B.NO.66, SANDO GOPALAN ROAD, KOOVAPADOM, MATTANCHERRY.P.O, ERNAKULAM, KERALA, PIN-682002",,KOCHI,ERNAKULAM,KERALA
SBTR0000141,State Bank of Travancore,SBTR0000141,682009016,THOPPUMPADY(ERNAKULAM),"P.B.NO.843, SHENOY BHAVAN, PALLURUTHY P.O., ERNAKULAM, KERALA, PIN-682005",,KOCHI,ERNAKULAM,KERALA
SBTR0000142,State Bank of Travancore,SBTR0000142,682009002,ERNAKULAM-M.G.ROAD,"P.B.NO.3624, JOY'S BUILDING, M.G.ROAD, ERNAKULAM, KERALA, PIN-682035",,KOCHI,ERNAKULAM,KERALA
SBTR0000143,State Bank of Travancore,SBTR0000143,682009003,ERNAKULAM-BROADWAY,"P.B.NO.2537, C.S.I.SHOPPING COMPLEX  BLDG, MENAKA P.O., ERNAKULAM, KERALA, PIN-682031",,KOCHI,ERNAKULAM,KERALA
SBTR0000144,State Bank of Travancore,SBTR0000144,682009021,HMT TOWNSHIP(KALAMASSERY),"P.B.NO.1, H.M.T.COLONY P.O., ERNAKULAM, KERALA, PIN-683503",,KALAMASSERY,ERNAKULAM,KERALA
SBTR0000145,State Bank of Travancore,SBTR0000145,682009017,KALAMASSERY-MAIN,"P.B.NO.102, MUNICIPAL SHOPPING COMPLEX, KALAMASSERY P.O., ERNAKULAM, KERALA, PIN-683104",,KALAMASSERY,ERNAKULAM,KERALA
SBTR0000146,State Bank of Travancore,SBTR0000146,682009029,VARAPUZHA,"P.B.NO.2, CHIRAKKAKOM, VARAPUZHA P.O., ERNAKULAM, KERALA, PIN-683517",,VARAPUZHA,ERNAKULAM,KERALA
SBTR0000147,State Bank of Travancore,SBTR0000147,682009019,ALUVA,"P.B.NO.3, CATHOLIC CENTRE, RAILAWAY STATION ROAD, ALUVA P.O, ERNAKULAM, KERALA, PIN-683101",,ALUVA,ERNAKULAM,KERALA
SBTR0000148,State Bank of Travancore,SBTR0000148,686009015,KOOTHATTUKULAM,"P.B.NO.1, PADINJAREYIL BUILDINGS, KOOTHATTUKULAM P.O., ERNAKULAM, KERALA, PIN-686662",,KOOTHATTUKULAM,ERNAKULAM,KERALA
SBTR0000149,State Bank of Travancore,SBTR0000149,686009016,KOTHAMANGALAM,"P B NO. 2, CLASSIC TOWERS, KOTHAMANGALAM P.O., ERNAKULAM, KERALA, PIN-686691",,KOTHAMANGALAM,ERNAKULAM,KERALA
SBTR0000150,State Bank of Travancore,SBTR0000150,682009027,KUMBALANGHI,"P.B.NO.1, KP XI/161  SKM BUILDINGS, KUMBALANGHI P.O., ERNAKULAM, KERALA, PIN-682007",,KUMBALANGY,ERNAKULAM,KERALA
SBTR0000151,State Bank of Travancore,SBTR0000151,686009004,MUVATTUPUZHA,"P.B.NO.1, MUNICIPAL SHOPPING COMPLEX BLDGS, KACHERITHAZHAM, MUVATTUPUZHA P.O., ERNAKULAM, KERALA, PIN-686661",,MUVATTUPUZHA,ERNAKULAM,KERALA
SBTR0000152,State Bank of Travancore,SBTR0000152,682009032,NARAKKAL,"P.B.NO.1, NO.8/42 HOSPITAL JUNCTION, NARAKKAL P.O., ERNAKULAM, KERALA, PIN-682505",,NARAKKAL,ERNAKULAM,KERALA
SBTR0000153,State Bank of Travancore,SBTR0000153,682009028,NORTH PARUR,"P.B.NO.1, MALIEKKAL SHOPPING COMPLEX, MAIN ROAD, NORTH PARUR P.O., ERNAKULAM, KERALA, PIN-683513",,PARUR-EZHIKKARA(PORTION),ERNAKULAM,KERALA
SBTR0000154,State Bank of Travancore,SBTR0000154,683009003,PERUMBAVOOR,"P.B.NO.1, IST FLOOR, CHRISTURAJ SHOPPING COMPLEX, PERUMBAVOOR P.O., ERNAKULAM, KERALA, PIN-683542",,PERUMBAVOOR,ERNAKULAM,KERALA
SBTR0000155,State Bank of Travancore,SBTR0000155,685009004,THODUPUZHA,"P.B.NO.1, SREEVALSAM SHOPPING COMPLEX, THODUPUZHA P.O., IDUKKI, KERALA, PIN-685584",,THODUPUZHA,IDUKKI,KERALA
SBTR0000156,State Bank of Travancore,SBTR0000156,682009018,TRIPUNITHURA,"P.B.NO.2, BALAJI BUILDINGS, TRIPUNITHURA P.O., ERNAKULAM, KERALA, PIN-682301",,TRIPPUNITHURA,ERNAKULAM,KERALA
SBTR0000157,State Bank of Travancore,SBTR0000157,683009002,ANGAMALLY,"P.B.NO.17 KALLOOKARAN TOWERS, NEAR MUNICIPAL OFFICE, ANGAMALLY P.O., ERNAKULAM, KERALA, PIN-683572",,ANGAMALY,ERNAKULAM,KERALA
SBTR0000158,State Bank of Travancore,SBTR0000158,682009026,UDYOGAMANDAL,"P.B.NO.6, FACT TOWNSHIP, UDYOGAMANDAL P.O., ERNAKULAM, KERALA, PIN-683501",,KOCHI,ERNAKULAM,KERALA
SBTR0000159,State Bank of Travancore,SBTR0000159,682009002,KOLENCHERRY,"P.B.NO.1, MCP BUILDINGS, KOLENCHERRY P.O., ERNAKULAM, KERALA, PIN-682311",,KOLENCHERRY,ERNAKULAM,KERALA
SBTR0000160,State Bank of Travancore,SBTR0000160,NON MICR,PIRAVOM,"P.B.NO.1, ST.MARY,S JACOBITE SYRIAN, CHURCH BUILDING, PIRAVOM, ERNAKULAM, KERALA, PIN-686664",,PIRAVOM,ERNAKULAM,KERALA
SBTR0000161,State Bank of Travancore,SBTR0000161,NON MICR,KARIMANNOOR,"P.B.NO.1, THUNDIYIL BUILDINGS, KARIMANNOOR P.O., THODUPUZHA, IDUKKI, KERALA, PIN-685581",,KARIMANNOOR,IDUKKI,KERALA
SBTR0000162,State Bank of Travancore,SBTR0000162,682009022,AMBALAMUGAL,"P.B.NO.3, NO.300/G MALOTH BUILDING, AMBALAMEDU P.O., ERNAKULAM, KERALA, PIN-682303",,AMBALAMEDU,ERNAKULAM,KERALA
SBTR0000163,State Bank of Travancore,SBTR0000163,NON MICR,PUNNAYURKULAM,"P.B.NO.1, LAKSHMI COMPLEX, ALTHARA, PUNNAYARKULAM P.O., THRISSUR, KERALA, PIN-679561",,PUNNAYUR,TRISSUR,KERALA
SBTR0000164,State Bank of Travancore,SBTR0000164,680009005,THRISSUR CIVIL STATION,"P.B.NO.1, PANCHAYAT BUILDINGS, AYYANTHOLE P.O., THRISSUR, KERALA, PIN-680003",,THRISSUR,TRISSUR,KERALA
SBTR0000165,State Bank of Travancore,SBTR0000165,680009004,THRISSUR ROUND SOUTH,"P.B.NO.118  PRESIDENT BAZAR, KURUPPAM ROAD, THRISSUR P.O., THRISSUR, KERALA, PIN-680001",,THRISSUR,TRISSUR,KERALA
SBTR0000166,State Bank of Travancore,SBTR0000166,680009002,THRISSUR(MAIN),"P.B.NO.56, PARUMEKKAVU DEVASWOM BLDGS, ROUND EAST, THRISSUR, KERALA, PIN-680001",,THRISSUR,TRISSUR,KERALA
SBTR0000167,State Bank of Travancore,SBTR0000167,680009003,CHAVAKKAD,"P.B.NO.5, CITY CENTRE, CHETTUVA ROAD, CHAVAKKAD P.O., THRISSUR, KERALA, PIN-680506",,CHAVAKKAD,TRISSUR,KERALA
SBTR0000168,State Bank of Travancore,SBTR0000168,680009002,CHALAKUDY,"P.B.NO.14, KALLELI ESTATE, NEAR SOUTH JUNCTION, CHALKUDY P.O., THRISSUR, KERALA, PIN-680307",,CHALAKUDY,TRISSUR,KERALA
SBTR0000169,State Bank of Travancore,SBTR0000169,680009005,KODUNGALLUR,"P.B.NO.1, VADAKKE NADA, KODUNGALLUR P.O., THRISSUR, KERALA, PIN-680664",,KODUNGALLUR,TRISSUR,KERALA
SBTR0000170,State Bank of Travancore,SBTR0000170,680009004,IRINJALAKUDA,"P.B.NO.12, GOVINDAMENON SMARAKA BULDGS, IRINJALAKUDA P.O., THRISSUR, KERALA, PIN-680121",,IRINJALAKUDA,TRISSUR,KERALA
SBTR0000171,State Bank of Travancore,SBTR0000171,680009006,KUNNAMKULAM,"P.B.NO.8,, WADAKKANCHERRY ROAD, AYYAPPANKUTTY MEMORIAL BLDGS, KUNNAMKULAM P.O., THRISSUR, KERALA, PIN-680503",,KUNNAMKULAM,TRISSUR,KERALA
SBTR0000172,State Bank of Travancore,SBTR0000172,680009008,WADAKKANCHERRY,"P.B.NO.2, MAIN ROAD, WADAKKANCHERRY P.O., THRISSUR, KERALA, PIN-680582",,WADAKANCHERRY,TRISSUR,KERALA
SBTR0000173,State Bank of Travancore,SBTR0000173,680009007,PUDUKAD,"P.B.NO.2, DILBARGH BUILDINGS, PUDUKKAD P.O., THRISSUR, KERALA, PIN-680301",,PUDUCAD,TRISSUR,KERALA
SBTR0000174,State Bank of Travancore,SBTR0000174,680009009,KOORKANCHERRY,"P.B.NO.1404, S.N.TRADE CENTRE, KOORKANCHERRY P.O., THRISSUR, KERALA, PIN-680007",,KURKANCHERRY,TRISSUR,KERALA
SBTR0000175,State Bank of Travancore,SBTR0000175,NON MICR,URAKOM,"P.B.NO.1, CHANDRA MOHAN BUILDINGS, UROKAM P.O., THRISSUR, KERALA, PIN-680562",,URAKAM,TRISSUR,KERALA
SBTR0000176,State Bank of Travancore,SBTR0000176,NON MICR,PUDUSSERRY,"P.B.NO.1, KANJIKODE WEST P.O., PALAKKAD, KERALA, PIN-678623",,PUDUSSERY WEST,PALAKKAD,KERALA
SBTR0000177,State Bank of Travancore,SBTR0000177,NON MICR,PALAKKAD,"P.B.NO.305, SURYA COMPLEX,, T.B.ROAD, PALAKKAD, KERALA, PIN-678014",,PALAKKAD,PALAKKAD,KERALA
SBTR0000178,State Bank of Travancore,SBTR0000178,678009006,CHITTUR(PALAKKAD),"P.B.NO.8, SANA COMPLEX, HOSPITAL JUNCTION, CHITTUR P.O., PALAKKAD, KERALA, PIN-678101",,CHITTUR,PALAKKAD,KERALA
SBTR0000179,State Bank of Travancore,SBTR0000179,678009006,ALATHUR,"P.B.NO.15, COURT ROAD, ALATHUR P.O., PALAKKAD, KERALA, PIN-678541",,ALATHUR,PALAKKAD,KERALA
SBTR0000180,State Bank of Travancore,SBTR0000180,NON MICR,KODUVAYUR,"P.B.NO.1, SANKAR PRASAD BUILDING, MAIN ROAD, KODUVAYUR P.O., PALAKKAD, KERALA, PIN-678501",,KODUVAYUR,PALAKKAD,KERALA
SBTR0000181,State Bank of Travancore,SBTR0000181,678009008,MANNARKKAD,"P.B.NO.1, NAMBOOTHIRIS ARCADE,  MANNARKKAD P.O., PALAKKAD, KERALA, PIN-678582",,MANNARKAD,PALAKKAD,KERALA
SBTR0000182,State Bank of Travancore,SBTR0000182,678009009,NEMMARA,"P.B.NO.3, NATARAJA BUILDINGS, MAIN ROAD, NEMMARA P.O., PALAKKAD, KERALA, PIN-678508",,NEMMARA,PALAKKAD,KERALA
SBTR0000183,State Bank of Travancore,SBTR0000183,NON MICR,PARLI,"P.B.NO.1, IX/547 A, KALYANA MANDIR, VILLAGE ROAD, PARLI, PALAKKAD, KERALA, PIN-678612",,PARLI,PALAKKAD,KERALA
SBTR0000184,State Bank of Travancore,SBTR0000184,678009007,KOLLENGODE,"P.B.NO.1, 1ST FLOOR,, GAYATHRI COMPLEX, KOLLENGODE P.O., PALAKKAD, KERALA, PIN-678506",,KOLLENGODE I,PALAKKAD,KERALA
SBTR0000185,State Bank of Travancore,SBTR0000185,NON MICR,KOZHINJAMPARA,"P.B.NO.1, 4/21 E, CHITOOR ROAD, KOZHINJAMPARA P.O., PALAKKAD, KERALA, PIN-678555",,KOZHINJAMPARA,PALAKKAD,KERALA
SBTR0000186,State Bank of Travancore,SBTR0000186,679009004,PATTAMBI,"P.B.NO:1, PATTAMBI P.O., PALAKKAD, KERALA, PIN-679303",,PATTAMBI,PALAKKAD,KERALA
SBTR0000187,State Bank of Travancore,SBTR0000187,NON MICR,VADAKKENCHERRY,"P.B.NO:1,IST FLOOR,, CVM COMPLEX BUILDING,, VADAKKENCHERRY P.O., PALAKKAD, KERALA, PIN-678683",,VADAKKANCHERI,PALAKKAD,KERALA
SBTR0000188,State Bank of Travancore,SBTR0000188,683009002,KOZHIKODE - MAIN,"P.B.NO.150, MEYOM PLACE, Y.M.C.A. ROAD, KOZHIKODE, KERALA, PIN-673001",,CALICUT,KOZHIKODE,KERALA
SBTR0000189,State Bank of Travancore,SBTR0000189,673009005,VADAKARA,"P.B.NO.6, THILLERI COMPLEX, CONVENT ROAD, VADAKARA P.O., KOZHIKODE, KERALA, PIN-673101",,VADAKARA,KOZHIKODE,KERALA
SBTR0000190,State Bank of Travancore,SBTR0000190,673009003,BEYPORE,"P.B.NO.1301, ALANKAR BUILDINGS, BEYPORE P.O., KOZHIKODE, KERALA, PIN-673015",,CALICUT,KOZHIKODE,KERALA
SBTR0000191,State Bank of Travancore,SBTR0000191,673009011,FEROKE,"P.B.NO.29, CDA SHOPPING CENTRE, MAIN ROAD, FEROKE P.O., KOZHIKODE, KERALA, PIN-673631",,CALICUT,KOZHIKODE,KERALA
SBTR0000192,State Bank of Travancore,SBTR0000192,673009002,KALPETTA,"P.B.NO.14, NO.VI/315/AKP, KALPETTA P.O., WAYANAD, KERALA, PIN-673121",,KALPETTA,WAYANAD,KERALA
SBTR0000193,State Bank of Travancore,SBTR0000193,673009004,SULTHAN BATHERY,"P.B.NO.1, A.E BUILDING, MYSORE ROAD, SULTAN BATHERY P.O., WAYANAD, KERALA, PIN-673592",,SULTHANBATHERY,WAYANAD,KERALA
SBTR0000194,State Bank of Travancore,SBTR0000194,679009003,NILAMBUR,"P.B.NO.1, HIGHLAND COMPLEX, PALACE ROAD, NILAMBUR P.O., MALAPPURAM, KERALA, PIN-679329",,NILAMBUR,MALAPURAM,KERALA
SBTR0000195,State Bank of Travancore,SBTR0000195,NON MICR,KUTTIPPURAM,"P.B.NO.1, KP1/702 A, CRESENT COMPLEX, NEAR BUS STAND, MALAPPURAM, KERALA, PIN-679571",,KUTTIPURAM,MALAPURAM,KERALA
SBTR0000196,State Bank of Travancore,SBTR0000196,NON MICR,MALAPPURAM,"P.B NO. 1, KATTUKULANGARA BUILDING, DOWN HILL P.O., MALAPPURAM, KERALA, PIN-676519",,MALAPPURAM,MALAPURAM,KERALA
SBTR0000197,State Bank of Travancore,SBTR0000197,676009004,MANJERI,"P.B.NO.1, NEAR DISTRICT HOSPITAL, MANJERI P.O., MALAPPURAM, KERALA, PIN-676121",,MANJERI,MALAPURAM,KERALA
SBTR0000198,State Bank of Travancore,SBTR0000198,679009005,PERINTHALMANNA,"P.B.NO.4, PERINTHALMANNA P.O., MALAPPURAM, KERALA, PIN-679322",,PERINTALMANNA,MALAPURAM,KERALA
SBTR0000199,State Bank of Travancore,SBTR0000199,679009006,PONNANI,"P.B.NO.20, R.V.COMPLEX, CHANDAPPADI, PONNANI P.O., MALAPPURAM, KERALA, PIN-679577",,PONNANI,MALAPURAM,KERALA
SBTR0000200,State Bank of Travancore,SBTR0000200,NON MICR,TENJIPALAM,"P.B.NO.1501, CALICUT UNIVERSITY P.O., TENJIPALAM, MALAPPURAM, KERALA, PIN-673635",,CALICUT,KOZHIKODE,KERALA
SBTR0000201,State Bank of Travancore,SBTR0000201,671009002,KASARAGOD,"P.B.NO.27, MANSOOR MANSION, KASARAGOD P.O., KASARGOD, KERALA, PIN-671121",,KASARAGOD,KASARAGOD,KERALA
SBTR0000202,State Bank of Travancore,SBTR0000202,NON MICR,PAPPINISSERRI,"P.B.NO.2, RAHIM BUILDING COMPLEX, PAPPINISSERI P.O., KANNUR, KERALA, PIN-670561",,PAPPINISSERI,KANNUR,KERALA
SBTR0000203,State Bank of Travancore,SBTR0000203,NON MICR,TRIKARPUR,"P.B.NO.1, AHMED HAJI BUILDINGS, TRIKARPUR P.O., KASARGOD, KERALA, PIN-671310",,TRIKKARIPPUR NORTH,KASARAGOD,KERALA
SBTR0000204,State Bank of Travancore,SBTR0000204,NON MICR,KALLOORKAD,"P.B.NO.1, UNION BUILDINGS, KALOORKAD P.O., ERNAKULAM, KERALA, PIN-686668",,KALLOORKAD,ERNAKULAM,KERALA
SBTR0000205,State Bank of Travancore,SBTR0000205,NON MICR,EDAMUTTOM,"P.B.NO.1, K.K.MANOHARAN SHOPPING COMPLEX, EDAMUTTOM P.O., THRISSUR, KERALA, PIN-680568",,KODUNGALLUR,TRISSUR,KERALA
SBTR0000206,State Bank of Travancore,SBTR0000206,NON MICR,KORATTY,"P.B.NO.2, MARIYAN SHOPPPING COMPLEX, KORATTY P.O., THRISSUR, KERALA, PIN-680308",,THRISSUR,TRISSUR,KERALA
SBTR0000207,State Bank of Travancore,SBTR0000207,680009010,CHERUR,"P.B.NO.1601, K M MANI MEMORIAL BLDGS, CHERUR P.O., THRISSUR, KERALA, PIN-680008",,THRISSUR,TRISSUR,KERALA
SBTR0000208,State Bank of Travancore,SBTR0000208,NON MICR,MATTANNUR,"MALABAR PLAZA COMPLEX, NEAR MUNICIPAL BUS STAND, MATTANNUR P.O., KANNUR, KERALA, PIN-670702",,CANNUR,KANNUR,KERALA
SBTR0000209,State Bank of Travancore,SBTR0000209,NON MICR,KALAKKAD,"P.B.NO.1, MAIN ROAD, KALAKKAD P.O., TIRUNELVELI, TAMILNADU, PIN-627501",,TIRUNELVELI,TIRUNELVELI,TAMIL NADU
SBTR0000210,State Bank of Travancore,SBTR0000210,680009008,OLLUKKARA,"P.B.NO.2, KFPSA BUILDINGS, MANNURUTHY P.O., THRISSUR, KERALA, PIN-680651",,THRISSUR,TRISSUR,KERALA
SBTR0000211,State Bank of Travancore,SBTR0000211,676009005,TANUR,"P.B.NO.1, RAILWAY STATION ROAD, TANUR P.O., MALAPPURAM, KERALA, PIN-676302",,TANUR,MALAPURAM,KERALA
SBTR0000212,State Bank of Travancore,SBTR0000212,695009016,PATTOM(THIRUVANANTHAPURAM),"P.B.NO.1002, ROHINI BUILDINGS, PATTOM PALACE P.O., THIRUVANANTHAPURAM, KERALA, PIN-695004",,THIRUVANANTHAPURAM,TRIVANDRUM,KERALA
SBTR0000213,State Bank of Travancore,SBTR0000213,695009018,PETTAH(THIRUVANANTHAPURAM),"P.B.NO:5210, PALLIMUKKU, PETTAH P.O., THIRUVANANTHAPURAM, KERALA, PIN-695024",,THIRUVANANTHAPURAM,TRIVANDRUM,KERALA
SBTR0000214,State Bank of Travancore,SBTR0000214,NON MICR,VITHURA,"P.B.NO.1, VITHURA P.O., THIRUVANANTHAPURAM, KERALA, PIN-695551",,THIRUVANANTHAPURAM,TRIVANDRUM,KERALA
SBTR0000215,State Bank of Travancore,SBTR0000215,NON MICR,PUNNAPRA,"P.B NO.1, MUNDUKATTIL BUILDINGS, PUNNAPRA P.O., ALAPPUZHA, KERALA, PIN-688004",,PUNNAPRA,ALAPUZZHA,KERALA
SBTR0000216,State Bank of Travancore,SBTR0000216,685009004,NEDUMKANDAM,"P.B.NO.2, KARIKKATTU PARAMBIL BLDGS, KUMILY-MUNNAR ROAD, NEDUMKANDAM P.O., IDUKKI, KERALA, PIN-685553",,NEDUMKANDAM,IDUKKI,KERALA
SBTR0000217,State Bank of Travancore,SBTR0000217,NON MICR,PALLOM,"P.B.NO.1, PAKKIL P.O., PALLOM, KOTTAYAM, KERALA, PIN-686012",,KOTTAYAM,KOTTAYAM,KERALA
SBTR0000218,State Bank of Travancore,SBTR0000218,682009005,EDAPPALLY,"P.B.NO.1, MASA BUILDINGS, EDAPPALLY P.O., ERNAKULAM, KERALA, PIN-682024",,KOCHI,ERNAKULAM,KERALA
SBTR0000219,State Bank of Travancore,SBTR0000219,NON MICR,KOTTAPPURAM,"P.B.NO.1, ""SREEPADAM"", KOTTAPPURAM P.O., THRISSUR, KERALA, PIN-680667",,TIRUCHIRAPPALLI,TIRUCHIORAPPALLI,TAMIL NADU
SBTR0000220,State Bank of Travancore,SBTR0000220,NON MICR,MELATTUR,"II/315-I, NEW BANK BUILDING,  MELATTUR P.O., MALAPPURAM, KERALA, PIN-679326",,MELATTUR,MALAPURAM,KERALA
SBTR0000221,State Bank of Travancore,SBTR0000221,NON MICR,KALLAMBALAM,"P.B.NO.1, MEDAYIL BUILDINGS, KALLAMBALAM P.O., THIRUVANANTHAPURAM, KERALA, PIN-695605",,KALLAMBALAM,TRIVANDRUM,KERALA
SBTR0000222,State Bank of Travancore,SBTR0000222,NON MICR,KANJIKUZHY,"P.B.NO.1, NO.124 C/C.K.G.TOWERS, K.K.ROAD, KOTTAYAM, KERALA, PIN-686004",,KOTTAYAM,KOTTAYAM,KERALA
SBTR0000223,State Bank of Travancore,SBTR0000223,NON MICR,THIRUVARPU,"AMBAKUZHY TRADE CENTRE, ILLIKKAL, KILIROOR NORTH P.O., KOTTAYAM DIST., KERALA - 686 020, KOTTAYAM, KERALA, PIN-686020",,KOTTAYAM,KOTTAYAM,KERALA
SBTR0000224,State Bank of Travancore,SBTR0000224,NON MICR,KARIMKUNNAM,"P.B.NO.1, ST.AUGUSTINES CHURCH BUILDINGS, KARIMKUNNAM P.O., IDUKKI, KERALA, PIN-686586",,KARIMKUNNAM,IDUKKI,KERALA
SBTR0000225,State Bank of Travancore,SBTR0000225,673009005,THAMARASSERRY,"P.B.NO.2, RUBY PLAZA, THAMARASSERY P.O., KOZHIKODE, KERALA, PIN-673573",,TAMARASSERY,KOZHIKODE,KERALA
SBTR0000226,State Bank of Travancore,SBTR0000226,575009002,MANGALORE,"P.B.NO.19, NEW MILAGRES MANSION, HAMPANKATTAH, MANGALORE P.O., SOUTH CANARA, KARNATAKA, PIN-575001",,MANGALORE,DAKSHINA KANNADA,KARNATAKA
SBTR0000227,State Bank of Travancore,SBTR0000227,NON MICR,KADAKKAL,"P.B.NO.2, K.P.VI/673, SYAM NIKETAN, KADAKKAL P.O., KOLLAM, KERALA, PIN-691536",,KADAKKAL,KOLLAM,KERALA
SBTR0000228,State Bank of Travancore,SBTR0000228,NON MICR,NILAMEL,"P.B.NO.1, NILAMEL GRAMAPANCHAYAT BLDG, NILAMEL P.O., KOLLAM, KERALA, PIN-691535",,NILAMEL,KOLLAM,KERALA
SBTR0000229,State Bank of Travancore,SBTR0000229,NON MICR,KAVALAM,"P.B.NO.2,MUNDAKAPADAM BUILDINGS, THAMARASSERY JUNCTION, KAVALAM P.O., ALAPPUZHA, KERALA, PIN-688506",,KAVALAM,ALAPUZZHA,KERALA
SBTR0000230,State Bank of Travancore,SBTR0000230,NON MICR,INDUSTRIAL ESTATE- CHANGANACHERRY,"P.B.NO.1, INDUSTRIAL NAGAR P.O., CHANGANACHERRY, KOTTAYAM, KERALA, PIN-686106",,KOTTAYAM,KOTTAYAM,KERALA
SBTR0000231,State Bank of Travancore,SBTR0000231,686009008,THALAYOLAPARAMBU,"P.B.NO.1, OLIPARAMBIL BUILDINGS, IST FLOOR, BLDG NO.VI/6894, THALAYOLAPARAMBU P.O., KOTTAYAM, KERALA, PIN-686605",,THALAYOLAPARAMBU,KOTTAYAM,KERALA
SBTR0000232,State Bank of Travancore,SBTR0000232,NON MICR,AYMANAM,"P.B.NO.1, AP-422/A, AYMANAM P.O., KOTTAYAM, KERALA, PIN-686015",,KOTTAYAM,KOTTAYAM,KERALA
SBTR0000233,State Bank of Travancore,SBTR0000233,NON MICR,MANARCADU,"P.B. NO. 1, FAIZAL BLDGS, MANARCADU P.O., KOTTAYAM, KERALA, PIN-686019",,KOTTAYAM,KOTTAYAM,KERALA
SBTR0000234,State Bank of Travancore,SBTR0000234,NON MICR,MARANGATTUPALLY,"KUNNUMPURATH BUILDINGS, MARANGATTUPALLY P.O., KOTTAYAM, KERALA, PIN-686635",,KOTTAYAM,KOTTAYAM,KERALA
SBTR0000235,State Bank of Travancore,SBTR0000235,682009013,COCHIN UNIVERSITY CAMPUS BRANCH,"P.B.NO.1, COCHIN UNIVERSITY P.O., ERNAKULAM, KERALA, PIN-682022",,KOCHI,ERNAKULAM,KERALA
SBTR0000236,State Bank of Travancore,SBTR0000236,NON MICR,TRIPRAYAR,"LEEBAS CENTRE, TRIPRAYAR  JUNCTION,  NATTIKA  P.O., THRISSUR, KERALA, PIN-680566",,TIRUCHIRAPPALLI,TIRUCHIORAPPALLI,TAMIL NADU
SBTR0000237,State Bank of Travancore,SBTR0000237,NON MICR,PATHIRIPALA,"KALPATHARU BUILDING, NAGARIPURAM P.O., MANNUR, PALAKKAD, KERALA, PIN-678642",,PALAKKAD,PALAKKAD,KERALA
SBTR0000238,State Bank of Travancore,SBTR0000238,NON MICR,KANNUR-MAIN,"P.B.NO.1, PLATINUM CENTRE, BANK ROAD  KANNUR P.O., KANNUR, KERALA, PIN-670001",,CANNUR,KANNUR,KERALA
SBTR0000239,State Bank of Travancore,SBTR0000239,NON MICR,THALASSERY,"P.B.NO.55, DOOR NO.13/389, NARANGAPURAM, THALASSERY P.O., KANNUR, KERALA, PIN-670101",,THALASSERY,KANNUR,KERALA
SBTR0000240,State Bank of Travancore,SBTR0000240,NON MICR,MADAI(PUTHIANGADI),"P.B.NO.1,, FATHIMA BUILDINGS, KOYI BAZAR, MADAI P.O., KANNUR, KERALA, PIN-670304",,PUTHIYANGADI,KANNUR,KERALA
SBTR0000241,State Bank of Travancore,SBTR0000241,NON MICR,KOTTARAKARA ADB,"P.B.NO.12, KAZHAPAVA BUILDINGS, KP.VII/117 A, KOTTARAKKARA P.O., KOLLAM, KERALA, PIN-691506",,KOTTARAKKARA,KOLLAM,KERALA
SBTR0000242,State Bank of Travancore,SBTR0000242,560009002,BANGALORE CITY,"P.B.NO.1808, TIPPUSULTAN PALACE ROAD, CHAMARAJPET P.O., BANGALORE, KARNATAKA, PIN-560018",,BANGALORE,BANGALORE URBAN,KARNATAKA
SBTR0000243,State Bank of Travancore,SBTR0000243,NON MICR,ELAVINTHITTA,"P.B.NO.1, MURUPPEL BUILDINGS, ELAVINTHITTA P.O., PATHANAMTHITTA, KERALA, PIN-689625",,ELANTHUR,PATHANAMTHITTA,KERALA
SBTR0000244,State Bank of Travancore,SBTR0000244,NON MICR,THADIYOOR,"P.B.NO.1, INDIRA BUILDINGS, THADIYOOR P.O., PATHANAMTHITTA, KERALA, PIN-689545",,PATHANAMTHITTA,PATHANAMTHITTA,KERALA
SBTR0000245,State Bank of Travancore,SBTR0000245,NON MICR,ANCHAL,"P.B.NO.1, THOPPIL BUILDINGS, ANCHAL P.O., KOLLAM, KERALA, PIN-691306",,ANCHAL,KOLLAM,KERALA
SBTR0000246,State Bank of Travancore,SBTR0000246,NON MICR,TUTICORIN,"P.B.NO.21, 6-C NORTH COTTON ROAD, TUTICORIN P.O., TUTICORIN, TAMILNADU, PIN-628001",,TUTICORIN,THOOTHKUDI,TAMIL NADU
SBTR0000247,State Bank of Travancore,SBTR0000247,NON MICR,PALLICKATHODE,"P.B.NO.1, ANICKADU P.O., KOTTAYAM, KERALA, PIN-686503",,KOTTAYAM,KOTTAYAM,KERALA
SBTR0000248,State Bank of Travancore,SBTR0000248,700009003,KOLKATA-MAIN,"P.B.NO.9036, 36, CHOWRINGHEE ROAD, MIDDLE TOWN ROW P.O., KOLKATA, WEST BENGAL, PIN-700071",,KOLKATA,KOLKATA,WEST BENGAL
SBTR0000249,State Bank of Travancore,SBTR0000249,NON MICR,CHALISSERRY,"P.B.NO.1, SALAMATH BUILDINGS, CHALISSERY P.O., PALAKKAD, KERALA, PIN-679536",,CHALISSERY,PALAKKAD,KERALA
SBTR0000251,State Bank of Travancore,SBTR0000251,679009002,CHERPLASSERRY,"P.B.NO.51, SICO TOWERS, CHERPLASSERY, PALAKKAD, KERALA, PIN-679503",,CHERPALACHERRY,PALAKKAD,KERALA
SBTR0000252,State Bank of Travancore,SBTR0000252,695009027,TREASURY BRANCH THIRUVANANTHAPURAM,"P.B NO. 91, GROUND FLOOR, ANACUTCHERY BUILDINGS, M.G.ROAD,, THIRUVANANTHAPURAM, KERALA, PIN-695001",,THIRUVANANTHAPURAM,TRIVANDRUM,KERALA
SBTR0000253,State Bank of Travancore,SBTR0000253,680009003,THRISSUR ADB,"P.B.NO.17, PODUVAL BUILDING, KURUPPAM ROAD, THRISSUR P.O., THRISSUR, KERALA, PIN-680001",,TIRUCHIRAPPALLI,TIRUCHIORAPPALLI,TAMIL NADU
SBTR0000254,State Bank of Travancore,SBTR0000254,NON MICR,VENJARAMOODU,"P.B.NO.1, PANANGODE BHAVAN, VENJARAMMOODU P.O., THIRUVANANTHAPURAM, KERALA, PIN-695607",,THIRUVANANTHAPURAM,TRIVANDRUM,KERALA
SBTR0000257,State Bank of Travancore,SBTR0000257,680009003,GURUVAYUR,"P.B.NO.4, KOMATH BUILDING  EAST NADA, GURUVAYUR P.O., THRISSUR, KERALA, PIN-680101",,GURUVAYUR,TRISSUR,KERALA
SBTR0000258,State Bank of Travancore,SBTR0000258,NON MICR,MOOLAMATTOM,"P.B.NO.1, KALAPPURAYIL BUILDINGS, MOOLAMATTOM P.O., IDUKKI, KERALA, PIN-685589",,MOOLAMATTAM,IDUKKI,KERALA
SBTR0000259,State Bank of Travancore,SBTR0000259,670009004,PAYYANNUR,"P.B.NO.4, ACHUTH BUILDING, SOUTH BAZAR, PAYYANNUR P.O., KANNUR, KERALA, PIN-670307",,PAYYANNUR,KANNUR,KERALA
SBTR0000260,State Bank of Travancore,SBTR0000260,NON MICR,PALLIPAD,"P.B.NO.1, PADANILATHU BUILDING, ANJILIMOOTTIL ROAD, ALAPPUZHA, KERALA, PIN-690512",,PALLIPAD,ALAPUZZHA,KERALA
SBTR0000261,State Bank of Travancore,SBTR0000261,682009008,PERUMANOOR (KOCHI SHIPYARD),"P.B.NO.1654, MERCY ESTATE, (1ST FLOOR), PERUMANOOR P.O., ERNAKULAM, KERALA, PIN-682015",,PERUMBAVOOR,ERNAKULAM,KERALA
SBTR0000262,State Bank of Travancore,SBTR0000262,NON MICR,KURICHY,"P.B.NO.1,, ETTUKADAVIL BUILDINGS, KURICHY P.O., KOTTAYAM, KERALA, PIN-686549",,KURICHY,KOTTAYAM,KERALA
SBTR0000263,State Bank of Travancore,SBTR0000263,695009025,SANTHI NAGAR(THIRUVANANTHAPURAM),"P.B.30, KSHB BUILDING, GOVT.PRESS ROAD, SANTHINAGAR, THIRUVANANTHAPURAM, KERALA, PIN-695001",,THIRUVANANTHAPURAM,TRIVANDRUM,KERALA
SBTR0000264,State Bank of Travancore,SBTR0000264,500009002,HYDERABAD,"P.B.NO.21, KUSHAL CHAMBERS, IST FLOOR, BANK STREET, KOTI, HYDERABAD, ANDHRA PRADESH, PIN-500195",,HYDERABAD,HYDERABAD URBAN,ANDHRA PRADESH
SBTR0000265,State Bank of Travancore,SBTR0000265,NON MICR,ANANDAVALLESWARAM,"P.B.NO.1, GANGA BUILDINGS, THEVALLY P.O., KOLLAM, KERALA, PIN-691009",,THEVALAKKARA,KOLLAM,KERALA
SBTR0000266,State Bank of Travancore,SBTR0000266,680009007,OLLUR,"P.B.NO.1, 740/1, PAUL'S ARCADE, OLLUR P.O., THRISSUR, KERALA, PIN-680306",,TIRUCHIRAPPALLI,TIRUCHIORAPPALLI,TAMIL NADU
SBTR0000267,State Bank of Travancore,SBTR0000267,NON MICR,PATTANAKKAD,"P.B.NO.1, PP.NO.VI/723A, KADER PILLAI MEMORIAL BUILDINGS, PONNAMVELI, PATTANAKKAD P.O., ALAPPUZHA, KERALA, PIN-688531",,ALAPPUZHA,ALAPUZZHA,KERALA
SBTR0000268,State Bank of Travancore,SBTR0000268,695009037,ENGINEERING COLLEGE- THIRUVANANTHAPURAM,"P.B.NO.22, ENGINEERING COLLEGE P.O., THIRUVANANTHAPURAM, KERALA, PIN-695016",,THIRUVANANTHAPURAM,TRIVANDRUM,KERALA
SBTR0000269,State Bank of Travancore,SBTR0000269,676009002,KOTTAKKAL,"PLAZA TOWER, KOTTAKKAL P.O., MALAPPURAM, KERALA, PIN-676503",,KOTTAKKAL,MALAPURAM,KERALA
SBTR0000270,State Bank of Travancore,SBTR0000270,570009002,MYSORE,"P.B.NO:52, 38/39(FIRST FLOOR), JAYAGIRI SRIHARI, DEVARAJ URS ROAD, MYSORE, KARNATAKA, PIN-570001",,MYSORE,MYSORE,KARNATAKA
SBTR0000271,State Bank of Travancore,SBTR0000271,NON MICR,THAMARAKULAM,"P.B.NO.1,VAISAKH BUILDINGS,, THAMARAKULAM P.O., ALAPPUZHA, KERALA, PIN-690530",,THAMARAKULAM,ALAPUZZHA,KERALA
SBTR0000272,State Bank of Travancore,SBTR0000272,NON MICR,KOTTARAKARA-PULAMON JUNCTION,"P.B.NO.3, STAR BUILDING, PULAMON P.O., KOTTARAKKARA, KOLLAM, KERALA, PIN-691531",,KOLLAM,KOLLAM,KERALA
SBTR0000274,State Bank of Travancore,SBTR0000274,NON MICR,KURATHIAD,"P.B.NO.1, KANKALIL BUILDINGS, THEKKARA P.O., ALAPPUZHA, KERALA, PIN-690107",,MAVELIKKARA,ALAPUZZHA,KERALA
SBTR0000275,State Bank of Travancore,SBTR0000275,NON MICR,VANDANAM,"P.B.NO.1, T.D.MEDICAL COLLEGE CAMPUS, ALAPPUZHA, KERALA, PIN-688005",,VANDANAM,ALAPUZZHA,KERALA
SBTR0000276,State Bank of Travancore,SBTR0000276,400009003,KANDIVILLI(WEST)MUMBAI,"P.B.NO.7080, SRIRAM JAIRAM, 94, S.V. ROAD, MUMBAI, MAHARASHTRA, PIN-400067",,MUMBAI,GREATER BOMBAY,MAHARASHTRA
SBTR0000277,State Bank of Travancore,SBTR0000277,NON MICR,VELLOOR - KERALA,"P.B.NO.1, EDATHAMARA BUILDINGS, MAVELLOOR P.O., KOTTAYAM, KERALA, PIN-686609",,KOTA,KOTA,RAJASTHAN
SBTR0000278,State Bank of Travancore,SBTR0000278,NON MICR,VEMBAYAM,"P.B.NO.1, SAJEENA MANZIL, VEMBAYAM P.O., THIRUVANANTHAPURAM, KERALA, PIN-695615",,THIRUVANANTHAPURAM,TRIVANDRUM,KERALA
SBTR0000279,State Bank of Travancore,SBTR0000279,NON MICR,KOLLAM-BEACH ROAD,"P.B.NO.302, CASHEW HOUSE, BEACH ROAD, KOLLAM P.O., KOLLAM, KERALA, PIN-691001",,KOLLAM,KOLLAM,KERALA
SBTR0000280,State Bank of Travancore,SBTR0000280,NON MICR,BHOOTHAPANDY,"P.B.NO.2, POLICE STATION ROAD, BHOOTHAPANDY, KANYAKUMARI DIST. , KANYAKUMARI, TAMILNADU, PIN-629 852",,BOOTHAPANDY,KANNIYAKUMARI,TAMIL NADU
SBTR0000281,State Bank of Travancore,SBTR0000281,NON MICR,KADAMPANAD,"P.B.NO.1, K.P.XI/281, K.R.K.PILLAI MEMORIAL BLDG, KADAMPANAD (S) P.O., PATHANAMTHITTA, KERALA, PIN-691553",,KADAMBANAD,PATHANAMTHITTA,KERALA
SBTR0000282,State Bank of Travancore,SBTR0000282,NON MICR,OACHIRA,"P.B.NO.1, G.K.BUILDINGS, OACHIRA P.O., KOLLAM, KERALA, PIN-690526",,KOLLAM,KOLLAM,KERALA
SBTR0000283,State Bank of Travancore,SBTR0000283,NON MICR,CHAVARA(SOUTH)ADB,"THEKKUMBHAGOM, P.B.NO.1, KAYYALAKKAL BUILDINGS, CHAVARA SOUTH P.O., KOLLAM, KERALA, PIN-691584",,CHAVARA,KOLLAM,KERALA
SBTR0000284,State Bank of Travancore,SBTR0000284,NON MICR,MAMMOOD,"P.B.NO.1, MAMMOOTTIL BUILDINGS, MAMMOOD P.O., KOTTAYAM, KERALA, PIN-686553",,KOTTAYAM,KOTTAYAM,KERALA
SBTR0000285,State Bank of Travancore,SBTR0000285,673009004,KALLAI (KOZHIKODE),"P.B.NO:726, CKS BUILDINGS, NEAR PREMIER BUS STOP, KALLAI MAIN ROAD, KOZHIKODE, KERALA, PIN-673003",,CALICUT,KOZHIKODE,KERALA
SBTR0000286,State Bank of Travancore,SBTR0000286,NON MICR,MADAVOOR,"P.B.NO.1, KARUNA BUILDINGS, MADAVOOR-PALLICKAL P.O., THIRUVANANTHAPURAM, KERALA, PIN-695602",,THIRUVANANTHAPURAM,TRIVANDRUM,KERALA
SBTR0000287,State Bank of Travancore,SBTR0000287,NON MICR,KANNUMAMMOODU,"P.B.NO.1, JAYESH BUILDINGS, PALUKAL P.O., KANYAKUMARI, TAMILNADU, PIN-629170",,KANNUMAMOODU,KANNIYAKUMARI,TAMIL NADU
SBTR0000288,State Bank of Travancore,SBTR0000288,695009034,SREEKARIYAM,"P.B.NO.3501, SANROCK PLAZA, SREEKARYAM P.O., THIRUVANANTHAPURAM, KERALA, PIN-695017",,THIRUVANANTHAPURAM,TRIVANDRUM,KERALA
SBTR0000289,State Bank of Travancore,SBTR0000289,NON MICR,THENGAPATTANAM,"P.B.NO.1, MEERA BUILDINGS, THENGAPATTANAM P.O., KANYAKUMARI, TAMILNADU, PIN-629173",,THENGAPATTANAM,KANNIYAKUMARI,TAMIL NADU
SBTR0000290,State Bank of Travancore,SBTR0000290,NON MICR,PAMPAKUDA,"P.B.NO.1, P.VIII/34, KONAT BUILDINGS, PAMPAKUDA P.O., ERNAKULAM, KERALA, PIN-686667",,PAMPAKUDA,ERNAKULAM,KERALA
SBTR0000291,State Bank of Travancore,SBTR0000291,NON MICR,SSI BRANCH- KALAMASSERY,"P.B.NO.104, HOLY ANGEL'S SHOPPING CENTRE BLDGS., KALAMASSERY P.O., ERNAKULAM, KERALA, PIN-683104",,KALAMASSERY,ERNAKULAM,KERALA
SBTR0000292,State Bank of Travancore,SBTR0000292,695009010,K.U.O.C(THIRUVANANTHAPURAM),"P.B.NO.289, UNIVERSITY BUILDINGS, UNIVERSITY P.O., THIRUVANANTHAPURAM, KERALA, PIN-695034",,THIRUVANANTHAPURAM,TRIVANDRUM,KERALA
SBTR0000293,State Bank of Travancore,SBTR0000293,NON MICR,PUTHOOR,"P.B.NO.1, UDAYA BUILDINGS, PUTHOOR P.O., KOLLAM, KERALA, PIN-691507",,PUTHOOR,KOLLAM,KERALA
SBTR0000294,State Bank of Travancore,SBTR0000294,NON MICR,THIRUVILWAMALA,"P.B.NO.1, 4/288 THEKKEPAT BUILDINGS, THIRUVILWAMALA P.O., THRISSUR, KERALA, PIN-680588",,TIRUCHIRAPPALLI,TIRUCHIORAPPALLI,TAMIL NADU
SBTR0000295,State Bank of Travancore,SBTR0000295,695009005,CHENTHITTA(THIRUVANANTHAPURAM),"P.B.NO.5081, LAKSHMI BHAVAN, MARAKKADA ROAD, CHALAI P.O., THIRUVANANTHAPURAM, KERALA, PIN-695036",,THIRUVANANTHAPURAM,TRIVANDRUM,KERALA
SBTR0000296,State Bank of Travancore,SBTR0000296,NON MICR,THIRUVAMPADY,"T.P.3/796 F, SACRED HEART-, CATHEDRAL CHURCH BUILDINGS, THIRVAMPADY P.O., KOZHIKODE, KERALA, PIN-673603",,CALICUT,KOZHIKODE,KERALA
SBTR0000297,State Bank of Travancore,SBTR0000297,600009007,KILPAUK(CHENNAI),"P.B.NO.1031, COROMANDEL TOWERS, 816 POONAMALLE HIGH ROAD, KILPAUK P.O., CHENNAI, TAMILNADU, PIN-600010",,CHENNAI,CHENNAI,TAMIL NADU
SBTR0000298,State Bank of Travancore,SBTR0000298,NON MICR,POOCHAKKAL,"P.B.NO.1, KOLUTHARA BUILDINGS, T.P.VI/466, POOCHAKKAL P.O., ALAPPUZHA, KERALA, PIN-688526",,ALAPPUZHA,ALAPUZZHA,KERALA
SBTR0000299,State Bank of Travancore,SBTR0000299,NON MICR,MUHAMMA,"P.B.NO.1, ROSE BUILDINGS, MUHAMMA P.O., ALAPPUZHA, KERALA, PIN-688525",,ALAPPUZHA,ALAPUZZHA,KERALA
SBTR0000300,State Bank of Travancore,SBTR0000300,560009003,RESIDENCY ROAD(BANGALORE),"P.B.NO.2505, KAMALA TOWERS, 69/70 RESIDENCY ROAD, BANGALORE, KARNATAKA, PIN-560025",,BANGALORE,BANGALORE URBAN,KARNATAKA
SBTR0000301,State Bank of Travancore,SBTR0000301,673009008,KOZHIKODE - PALAYAM,"P.B.NO.532, ""WHITE LINES"" KALLAI ROAD, CHALAPURAM P.O., KOZHIKODE, KERALA, PIN-673002",,CALICUT,KOZHIKODE,KERALA
SBTR0000302,State Bank of Travancore,SBTR0000302,NON MICR,POOVACHAL ADB,"P.B.NO.1, PP.1/590  VISHULA, POOVACHAL P.O., THIRUVANANTHAPURAM, KERALA, PIN-695575",,THIRUVANANTHAPURAM,TRIVANDRUM,KERALA
SBTR0000303,State Bank of Travancore,SBTR0000303,NON MICR,TIRUNELVELI,"P.B.NO.33, 78/182E, S.N.HIGH ROAD, TIRUNELVELI, TAMILNADU, PIN-627001",,TIRUNELVELI,TIRUNELVELI,TAMIL NADU
SBTR0000304,State Bank of Travancore,SBTR0000304,NON MICR,CHENNITHALA,"P.B.NO.1, NSS KARAYOGAM BUILDINGS, CHENNITHALA P.O., ALAPPUZHA, KERALA, PIN-690105",,ALAPPUZHA,ALAPUZZHA,KERALA
SBTR0000305,State Bank of Travancore,SBTR0000305,NON MICR,VAZHAKULAM(MUDICAL),"P.B. NO.1, PERIYAR BUILDINGS, A.M.ROAD, MUDICAL P.O., ERNAKULAM, KERALA, PIN-683547",,VAZHAKULAM,ERNAKULAM,KERALA
SBTR0000306,State Bank of Travancore,SBTR0000306,NON MICR,MANKADA,"P.B.NO.1, SVR BUILDINGS, MANKADA P.O., MALAPPURAM, KERALA, PIN-679324",,MANKADA,MALAPURAM,KERALA
SBTR0000307,State Bank of Travancore,SBTR0000307,NON MICR,PRAVACHAMBALAM,"P.B.NO.4002, KAILAS, NEMOM P.O., THIRUVANANTHAPURAM, KERALA, PIN-695020",,THIRUVANANTHAPURAM,TRIVANDRUM,KERALA
SBTR0000308,State Bank of Travancore,SBTR0000308,695009031,VELLAYAMBALAM(THIRUVANANTHAPURAM),"P.B.NO.2211, SAIRAM BUILDINGS, SASTHAMANGALAM P.O., THIRUVANANTHAPURAM, KERALA, PIN-695010",,THIRUVANANTHAPURAM,TRIVANDRUM,KERALA
SBTR0000309,State Bank of Travancore,SBTR0000309,NON MICR,KUTTAPUZHA,"P.B.NO.1, PUTHEN PARAMBIL BLDGS, KUTTAPUZHA P.O., PATHANAMTHITTA, KERALA, PIN-689103",,THIRUVALLA,PATHANAMTHITTA,KERALA
SBTR0000310,State Bank of Travancore,SBTR0000310,NON MICR,KUZHUR,"P.B.NO.1, RAGHUVIHAR BUILDINGS, KUZHUR P.O., THRISSUR, KERALA, PIN-680734",,TIRUCHIRAPPALLI,TIRUCHIORAPPALLI,TAMIL NADU
SBTR0000311,State Bank of Travancore,SBTR0000311,673009003,KONDOTTY,"P.B.NO.2, KODITHODY BUILDINGS, KONDOTTY P.O., MALAPPURAM, KERALA, PIN-673638",,KUNDOTTY,MALAPURAM,KERALA
SBTR0000312,State Bank of Travancore,SBTR0000312,NON MICR,PERUMKUZHY,"P.B.NO.1, HIDAYATH CENTRE, PERUMKUZHY P.O., THIRUVANANTHAPURAM, KERALA, PIN-695305",,THIRUVANANTHAPURAM,TRIVANDRUM,KERALA
SBTR0000313,State Bank of Travancore,SBTR0000313,625009003,MADURAI-WEST MASI STREET,"P.B.NO. 157,, 23, WEST MASI STREET, MADURAI, TAMILNADU, PIN-625001",,MADURAI,MADURAI,TAMIL NADU
SBTR0000314,State Bank of Travancore,SBTR0000314,673009002,BALUSSERRY ADB,"P.B.NO.2,, BALUSSERY P.O., KOZHIKODE, KERALA, PIN-673612",,BALUSSERI,KOZHIKODE,KERALA
SBTR0000315,State Bank of Travancore,SBTR0000315,NON MICR,VAGAMON,"P.B.NO.1, POOVAPPADATHU BUILDINGS, VAGAMON P.O., IDUKKI, KERALA, PIN-685503",,IDIKKI,IDUKKI,KERALA
SBTR0000316,State Bank of Travancore,SBTR0000316,NON MICR,VADAVUCODE,"P.B.NO.1, EDAYANAL  BUILDINGS,KAVUMTHAZHAM PUTHENCRUZ P.O.,  VADAVUCODE, ERNAKULAM, KERALA, PIN-682308",,VADAVUCODE,ERNAKULAM,KERALA
SBTR0000317,State Bank of Travancore,SBTR0000317,NON MICR,PATHIRAPALLY,"P.B.NO.1, PATHIRAPALLY P.O., ALAPPUZHA, KERALA, PIN-688521",,PATHIRAPPALLY,ALAPUZZHA,KERALA
SBTR0000318,State Bank of Travancore,SBTR0000318,NON MICR,AROOR,"P.B.NO.1, MANAKKATTU BUILDINGS, AROOR P.O., ALAPPUZHA, KERALA, PIN-688534",,AROOR,ALAPUZZHA,KERALA
SBTR0000319,State Bank of Travancore,SBTR0000319,641009004,PAPPANAICKENPALAYAM(COIMBATORE),"P.B.NO.6317, 725-B AVINASHI ROAD, PAPPANAICKENPALAYAM P.O., COIMBATORE, TAMILNADU, PIN-641018",,COIMBATORE,COIMBOTORE,TAMIL NADU
SBTR0000320,State Bank of Travancore,SBTR0000320,600009011,ANNANAGAR (EAST) CHENNAI,"D-105, FIRST FLOOR, FIRST MAIN ROAD, ANNA NAGAR EAST, CHENNAI, TAMILNADU, PIN-600102",,CHENNAI,CHENNAI,TAMIL NADU
SBTR0000321,State Bank of Travancore,SBTR0000321,670009003,MANANTHAVADY,"P.B.NO. 2, MYSORE ROAD, MANANTHAVADY P.O., WAYANAD, KERALA, PIN-670645",,MANANTHAVADY,WAYANAD,KERALA
SBTR0000322,State Bank of Travancore,SBTR0000322,NON MICR,OTTASEKHARAMANGALAM,"KADUKAL', OPV/695, NEAR SREE MAHADEVA TEMPLE, OTTASEKHARAMANGALAM P.O., THIRUVANANTHAPURAM, KERALA, PIN-695125",,THIRUVANANTHAPURAM,TRIVANDRUM,KERALA
SBTR0000323,State Bank of Travancore,SBTR0000323,NON MICR,THENMALA,"P.B.NO.1, KANNANTHANAM BLDGS, THENMALA P.O., KOLLAM, KERALA, PIN-691308",,THENMALA,KOLLAM,KERALA
SBTR0000324,State Bank of Travancore,SBTR0000324,NON MICR,KUZHALMANNAM,"P.B.NO.3, IST FLOOR,, KMS BUILDINGS,, KUZHALMANNAM P.O., PALAKKAD, KERALA, PIN-678702",,KUZHALMANNAM,PALAKKAD,KERALA
SBTR0000325,State Bank of Travancore,SBTR0000325,NON MICR,VIZHINJAM,"P.B.NO.2, V.P.IV/347 FATHIMA BUILDINGS, VIZHINJAM P.O., THIRUVANANTHAPURAM, KERALA, PIN-695521",,THIRUVANANTHAPURAM,TRIVANDRUM,KERALA
SBTR0000326,State Bank of Travancore,SBTR0000326,NON MICR,EAST KALLADA,"P.B.NO.1,, KKP MEMORIAL BUILDINGS, MARKET ROAD, KOLLAM, KERALA, PIN-691502",,EAST KALLADA,KOLLAM,KERALA
SBTR0000327,State Bank of Travancore,SBTR0000327,682009006,KALOOR- ERNAKULAM,"P.B.NO.1858, VELUTHAMANA BUILDINGS,, KALOOR P.O., ERNAKULAM, KERALA, PIN-682017",,KALOOR,ERNAKULAM,KERALA
SBTR0000328,State Bank of Travancore,SBTR0000328,636009011,SALEM,"P.B.NO.736, 9, RAJAJI ROAD, HASTHAMPATTY P.O., SALEM, TAMILNADU, PIN-636007",,SALEM,SALEM,TAMIL NADU
SBTR0000329,State Bank of Travancore,SBTR0000329,NON MICR,MALLASSERRY,"P.B.NO.1, KARIMARATHINAL BUILDINGS, MALLASSERY P.O., PATHANAMTHITTA, KERALA, PIN-689646",,MALLAPUZHASSERY,PATHANAMTHITTA,KERALA
SBTR0000330,State Bank of Travancore,SBTR0000330,NON MICR,MYLAPRA,"P.B.NO.1, KUNJUKRISHNA PILLAI VAIDHYAN, MEMORIAL BUILDINGS, MYLAPRA TOWN P.O., PATHANAMTHITTA, KERALA, PIN-689678",,MYLAPRA,PATHANAMTHITTA,KERALA
SBTR0000331,State Bank of Travancore,SBTR0000331,NON MICR,OMALLUR,"P.B.NO.1, KOLLAKA BUILDINGS, OMALLUR P.O., PATHANAMTHITTA, KERALA, PIN-689647",,OMALLOOR,PATHANAMTHITTA,KERALA
SBTR0000332,State Bank of Travancore,SBTR0000332,NON MICR,OTHERA,"P.B. NO. 1, WEST OTHERA P.O., PATHANAMTHITTA, KERALA, PIN-689551",,PATHANAMTHITTA,PATHANAMTHITTA,KERALA
SBTR0000333,State Bank of Travancore,SBTR0000333,NON MICR,MANAVALAKURICHY,"P.B.NO. 1, VSK BUILDINGS, MAIN ROAD, MANAVALAKURUCHY P.O., KANYAKUMARI, TAMILNADU, PIN-629252",,MANAVALAKURICHI,KANNIYAKUMARI,TAMIL NADU
SBTR0000334,State Bank of Travancore,SBTR0000334,682009003,MULANTHURUTHY,"P.B.NO.2, PALLATHATTA BLDGS, MULUNTHURUTHY P.O., ERNAKULAM, KERALA, PIN-682314",,MULAMTHURUTHY,ERNAKULAM,KERALA
SBTR0000336,State Bank of Travancore,SBTR0000336,682009025,THOTTAKKATTUKARA,"P.B.NO.1051, MENACHERRY'S TOWERS, THOTTAKKATTUKARA P.O., ERNAKULAM, KERALA, PIN-683108",,THOTTAKKATTUKARA,ERNAKULAM,KERALA
SBTR0000337,State Bank of Travancore,SBTR0000337,110009002,KAROL BAGH-NEW DELHI,"P.B.NO.2651 SBT HOUSE, 18/4 ARYA SAMAJ ROAD, KAROL BAGH P.O., NEW DELHI, DELHI, PIN-110005",,DELHI,NEW DELHI,DELHI
SBTR0000338,State Bank of Travancore,SBTR0000338,695009008,KAITHAMUKKU(THIRUVANANTHAPURAM),"P.B.NO.4, S.N.S.M.BLDGS, KAITHAMUKKU, PETTAH P.O., THIRUVANANTHAPURAM, KERALA, PIN-695024",,THIRUVANANTHAPURAM,TRIVANDRUM,KERALA
SBTR0000339,State Bank of Travancore,SBTR0000339,682009014,KAKKANAD CIVIL STATION,"P.B.NO.1, KAKKANAD CIVIL STATION BLDG, KAKKANAD P.O., ERNAKULAM, KERALA, PIN-682030",,KAKKANAD,ERNAKULAM,KERALA
SBTR0000340,State Bank of Travancore,SBTR0000340,6410009005,RAMANATHAPURAM (COIMBATORE),"P.B.NO.7110, 1060 TRICHY ROAD, RAMANATHAPURAM P.O., COIMBATORE, TAMILNADU, PIN-641045",,COIMBATORE,COIMBOTORE,TAMIL NADU
SBTR0000341,State Bank of Travancore,SBTR0000341,NON MICR,TEEKOY,"P.B.NO.1, PURAPPANTHANAM BUILDINGS, T.P.NO.V/112 A, TEEKOY P.O., KOTTAYAM, KERALA, PIN-686580",,KOTTAYAM,KOTTAYAM,KERALA
SBTR0000342,State Bank of Travancore,SBTR0000342,NON MICR,PUNNAMPARAMBU,"P.B.NO.701, PUNNAMPARAMBU P.O., THRISSUR, KERALA, PIN-680608",,TIRUCHIRAPPALLI,TIRUCHIORAPPALLI,TAMIL NADU
SBTR0000343,State Bank of Travancore,SBTR0000343,NON MICR,VADAVATHUR,"P.B.NO.3, NEAR MRF LTD., VADAVATHUR P.O., KOTTAYAM, KERALA, PIN-686010",,KOTTAYAM,KOTTAYAM,KERALA
SBTR0000344,State Bank of Travancore,SBTR0000344,676009006,THIRURANGADI,"P.B.NO.4, RAHIM BUILDINGS, THIRURANGADI P.O., MALAPPURAM, KERALA, PIN-676306",,MALAPPURAM,MALAPURAM,KERALA
SBTR0000345,State Bank of Travancore,SBTR0000345,689009009,RANNI - THOTTAMON,"P.B.NO.1, KANNANKUZHAYATHU BUILDINGS, RANNI P.O., PATHANAMTHITTA, KERALA, PIN-689672",,RANNI,PATHANAMTHITTA,KERALA
SBTR0000346,State Bank of Travancore,SBTR0000346,NON MICR,KARIMPUZHA,"P.B.NO.51, KOTTAPURAM P.O., PALAKKAD, KERALA, PIN-679518",,KARIMPUZHA,PALAKKAD,KERALA
SBTR0000347,State Bank of Travancore,SBTR0000347,NON MICR,CHERRINNIYOOR,"P.B.NO.1, CPN/192 A, DEEPA BHAVAN, THIRUVANANTHAPURAM, KERALA, PIN-695142",,THIRUVANANTHAPURAM,TRIVANDRUM,KERALA
SBTR0000348,State Bank of Travancore,SBTR0000348,682009034,UDAYAMPEROOR,"P.B.NO.1, MADATHIPARAMBIL BUILDINGS, UDAYAMPEROOR P.O., ERNAKULAM, KERALA, PIN-682307",,UDAYAMPEROOR,ERNAKULAM,KERALA
SBTR0000349,State Bank of Travancore,SBTR0000349,NON MICR,MATTAKKARA,"P.B.NO.1, H.F.C BUILDINGS, MATTAKKARA P.O., KOTTAYAM, KERALA, PIN-686564",,KOTTAYAM,KOTTAYAM,KERALA
SBTR0000350,State Bank of Travancore,SBTR0000350,NON MICR,BHARANANGANAM,"P.B.NO.1, PEREKKATTU BUILDINGS, BHARANANGANAM P.0., KOTTAYAM, KERALA, PIN-686578",,KOTTAYAM,KOTTAYAM,KERALA
SBTR0000351,State Bank of Travancore,SBTR0000351,NON MICR,KODANNUR,"P.B. NO.1, KARSHAKA NAGAR, KODANNUR P.O., THRISSUR, KERALA, PIN-680574",,TIRUCHIRAPPALLI,TIRUCHIORAPPALLI,TAMIL NADU
SBTR0000352,State Bank of Travancore,SBTR0000352,NON MICR,KOTTIYAM,"P.B.NO.2, Y.M.R.COMPLEX, KOTTIYAM P.O., KOLLAM, KERALA, PIN-691571",,KOTTIYAM,KOLLAM,KERALA
SBTR0000353,State Bank of Travancore,SBTR0000353,NON MICR,KULANADA,"P.B.NO.3, VILAYIL THEKKETHIL BUILDINGS, T.B.JUNCTION, KULANADA P.O., PATHANAMTHITTA, KERALA, PIN-689503",,KULANADA,PATHANAMTHITTA,KERALA
SBTR0000354,State Bank of Travancore,SBTR0000354,NON MICR,KULASEKHARAMANGALAM,"P.B.NO.1, PARASSERY MADOM BUILDING, KULASEKHARAMANGALAM P.O., KOTTAYAM, KERALA, PIN-686608",,KOTTAYAM,KOTTAYAM,KERALA
SBTR0000355,State Bank of Travancore,SBTR0000355,NON MICR,MANJESHWAR,"P.B.NO.2, NILOFER COMPLEX, MANJESHWAR P.O., KASARGOD, KERALA, PIN-671323",,KASARAGOD,KASARAGOD,KERALA
SBTR0000356,State Bank of Travancore,SBTR0000356,NON MICR,OORUTTAMBALAM,"P.B.NO.1, M.P.245, OORUTTAMBALAM P.O., THIRUVANANTHAPURAM, KERALA, PIN-695507",,THIRUVANANTHAPURAM,TRIVANDRUM,KERALA
SBTR0000357,State Bank of Travancore,SBTR0000357,NON MICR,PARAPPANANGADI,"P.B.NO.4, NAHA'S SONS BUSINESS COMPLEX, BEACH ROAD JUNCTION, PARAPPANANGADI P.O., MALAPPURAM, KERALA, PIN-676303",,PARAPPANANGADI,MALAPURAM,KERALA
SBTR0000358,State Bank of Travancore,SBTR0000358,NON MICR,PULINCUNNU,"P.B.NO. 1, ST.MARY'S CHURCH BUILDINGS, PULINCUNNU P.O., ALAPPUZHA, KERALA, PIN-688504",,PULINCUNNOO,ALAPUZZHA,KERALA
SBTR0000359,State Bank of Travancore,SBTR0000359,NON MICR,THIRUMOOLAPURAM,"P.B.NO.651, BALIKAMATOM CAMPUS, THIRUMOOLAPURAM P.O., PATHANAMTHITTA, KERALA, PIN-689115",,PATHANAMTHITTA,PATHANAMTHITTA,KERALA
SBTR0000360,State Bank of Travancore,SBTR0000360,NON MICR,ELAMGULAM,"P.B.NO.1, ERUPPAKATTU BUILDINGS, KOORALI P.O., KOTTAYAM, KERALA, PIN-686522",,KOTTAYAM,KOTTAYAM,KERALA
SBTR0000361,State Bank of Travancore,SBTR0000361,NON MICR,ENATHU,"P.B.NO.1, JOBOY'S BUILDING, ENATHU P.O., PATHANAMTHITTA, KERALA, PIN-691526",,ENATHU,PATHANAMTHITTA,KERALA
SBTR0000362,State Bank of Travancore,SBTR0000362,NON MICR,KAINAKARAY,"P.B.NO.1, SBT BUILDINGS, KAINAKARY P.O., ALAPPUZHA, KERALA, PIN-688501",,KAINAKARY,ALAPUZZHA,KERALA
SBTR0000363,State Bank of Travancore,SBTR0000363,NON MICR,KOOROPADA,"P.B.NO.1,, ARINJUKALLUMKAL BLDGS, KOOROPADA P.O., KOTTAYAM, KERALA, PIN-686502",,KOTTAYAM,KOTTAYAM,KERALA
SBTR0000364,State Bank of Travancore,SBTR0000364,NON MICR,KOZHUVANAL,"P.B.NO.1, THEKKETHIL BUILDINGS, KOZHUVANAL P.O., KOTTAYAM, KERALA, PIN-686523",,KOTTAYAM,KOTTAYAM,KERALA
SBTR0000365,State Bank of Travancore,SBTR0000365,NON MICR,MELPADOM,"P.B.NO.1, AKERIL PUTHENPARAMBIL NEW BLDGS, VEEYAPURAM, MELPADOM P.O., ALAPPUZHA, KERALA, PIN-689627",,VEEYAPURAM,ALAPUZZHA,KERALA
SBTR0000366,State Bank of Travancore,SBTR0000366,NON MICR,MUNDATHANAM,"PUTHENVEETTIL COMPLEX BLDGS, KANGAZHA P.O., KOTTAYAM, KERALA, PIN-686541",,KOTTAYAM,KOTTAYAM,KERALA
SBTR0000367,State Bank of Travancore,SBTR0000367,NON MICR,PERINGATHUR,"P.B.NO.1, SHAR BUILDINGS, MEKKUNNU, PERINGATHUR P.O., KANNUR, KERALA, PIN-670675",,PERINGATHUR,KANNUR,KERALA
SBTR0000368,State Bank of Travancore,SBTR0000368,682009024,THAIKKATTUKARA,"P.B.NO.1, KADATHUKULAM BUILDINGS, THAIKKATTUKARA P.O., ERNAKULAM, KERALA, PIN-683106",,THAIKKATTUKARA,ERNAKULAM,KERALA
SBTR0000369,State Bank of Travancore,SBTR0000369,NON MICR,THOOKKUPALAM,"P.B.NO.1, MAYFAIR HOUSE, KALLAR P.O., IDUKKI, KERALA, PIN-685552",,THOOKKUPALAM,IDUKKI,KERALA
SBTR0000370,State Bank of Travancore,SBTR0000370,NON MICR,THURUTHY,"P.B.NO.2, ST.MARY'S PARISH HOUSE, THURUTHY P.O., KOTTAYAM, KERALA, PIN-686535",,KOTTAYAM,KOTTAYAM,KERALA
SBTR0000371,State Bank of Travancore,SBTR0000371,NON MICR,VILLUKURI,"P.B.NO.1, P.T.S BUILDING, VILLUKURI P.O., KANYAKUMARI, TAMILNADU, PIN-629180",,VILLUKKURI,KANNIYAKUMARI,TAMIL NADU
SBTR0000372,State Bank of Travancore,SBTR0000372,NON MICR,MADIKERI(MERCARA),"P.B.NO.52, NO.26226/1, COLLEGE ROAD, MADIKERI P.O., KODAGU, KARNATAKA, PIN-571201",,MADIKERI,MADIKERI,KARNATAKA
SBTR0000373,State Bank of Travancore,SBTR0000373,NON MICR,KANNAPURAM,"P.B.NO.2, TOUFEEQ COMPLEX, CHERUKUNNU P.O., KANNUR, KERALA, PIN-670301",,KANNUR,BIJAPUR,KARNATAKA
SBTR0000374,State Bank of Travancore,SBTR0000374,NON MICR,CHETTIMUKKU,"P.B.NO.3, THOTTATHIL BUILDINGS, MARAMON P.O., PATHANAMTHITTA, KERALA, PIN-689549",,PATHANAMTHITTA,PATHANAMTHITTA,KERALA
SBTR0000375,State Bank of Travancore,SBTR0000375,NON MICR,EDATHALA,"P.B.NO.1, EDATHALA P.O., ERNAKULAM, KERALA, PIN-683561",,EDATHALA,ERNAKULAM,KERALA
SBTR0000376,State Bank of Travancore,SBTR0000376,NON MICR,EDAYARIKKAPUZHA,"VATTAMALA BUILDINGS, PATHANAD, KANGAZHA.P.O., KOTTAYAM, KERALA, PIN-686541",,KOTTAYAM,KOTTAYAM,KERALA
SBTR0000377,State Bank of Travancore,SBTR0000377,NON MICR,KARIPPUTHATTU,"P.B.NO.1, NEW BUILDINGS, ARPOOKARA P.O., KOTTAYAM, KERALA, PIN-686008",,KOTTAYAM,KOTTAYAM,KERALA
SBTR0000378,State Bank of Travancore,SBTR0000378,682009035,KEEZHMAD,"P.B.NO.1, ""SREYAS"", THOTTUMUGHOM P.O., ERNAKULAM, KERALA, PIN-683105",,KEEZHMAD,ERNAKULAM,KERALA
SBTR0000379,State Bank of Travancore,SBTR0000379,NON MICR,KODIMATHA,"P.B.NO.1, KOCHU PARANGOTTU BLDGS, KODIMATHA P.O., KOTTAYAM, KERALA, PIN-686039",,KOTTAYAM,KOTTAYAM,KERALA
SBTR0000380,State Bank of Travancore,SBTR0000380,NON MICR,KORUTHODE,"P.B.NO.1,, MADICKANGAL BLDGS, KORUTHODE P.O., KOTTAYAM, KERALA, PIN-686513",,KORUTHODE,KOTTAYAM,KERALA
SBTR0000381,State Bank of Travancore,SBTR0000381,NON MICR,KUTHIATHODE,"P.B.NO.1, CHIRAYINMEL BUILDINGS, KUTHIATHODE P.O., ALAPPUZHA, KERALA, PIN-688533",,KUTHIATHODE,ALAPUZZHA,KERALA
SBTR0000382,State Bank of Travancore,SBTR0000382,NON MICR,MARATHANCODE,"P.B.NO.1, V/766-A  SAFA COMPLEX, CHIRAMANGAD P.O., THRISSUR, KERALA, PIN-680604",,TIRUCHIRAPPALLI,TIRUCHIORAPPALLI,TAMIL NADU
SBTR0000383,State Bank of Travancore,SBTR0000383,NON MICR,PEYAD,"P.B.NO.1, MAIN ROAD, PEYAD P.O., THIRUVANANTHAPURAM, KERALA, PIN-695573",,THIRUVANANTHAPURAM,TRIVANDRUM,KERALA
SBTR0000384,State Bank of Travancore,SBTR0000384,NON MICR,PUNNAD,"K.C.P.VI/519, KRISHNA VIHAR, IRITTY (VIA), PUNNAD P.O., KANNUR, KERALA, PIN-670703",,PUNNAD,KANNUR,KERALA
SBTR0000385,State Bank of Travancore,SBTR0000385,NON MICR,THRIKODITHANAM,"P.B.NO.1, GRACE VILLA, THRIKODITHANAM P.O., KOTTAYAM, KERALA, PIN-686105",,KOTTAYAM,KOTTAYAM,KERALA
SBTR0000386,State Bank of Travancore,SBTR0000386,NON MICR,VRINDAVANAM,"P.B.NO.1, KPW/3/32A, KOTTANADU P.O., PATHANAMTHITTA, KERALA, PIN-689615",,THIRUVALLA,PATHANAMTHITTA,KERALA
SBTR0000387,State Bank of Travancore,SBTR0000387,NON MICR,KOLLEMKODE,"KANNANGOM JUNCTION, KOLLEMKODE P.O., KANYAKUMARI, TAMILNADU, PIN-629160",,KOLLEMKODE,KANNIYAKUMARI,TAMIL NADU
SBTR0000388,State Bank of Travancore,SBTR0000388,NON MICR,KEEZHVAIPUR,"P.B.NO.1, KALLURUMPIL BUILDINGS, M.V.ROAD, KEEZHVAIPUR P.O., PATHANAMTHITTA, KERALA, PIN-689587",,THIRUVALLA,PATHANAMTHITTA,KERALA
SBTR0000389,State Bank of Travancore,SBTR0000389,NON MICR,COONOOR,"P.B.NO.33  CHURCH ROAD, BEDFORD CIRCLE, COONOOR H.P.O., NILGIRIS, TAMILNADU, PIN-643101",,COONOOR,NILGIRIS,TAMIL NADU
SBTR0000390,State Bank of Travancore,SBTR0000390,NON MICR,KARUR,"108, KOVAI MAIN ROAD, WARD NO.6, INAM KARUR TOWN PANCHAYAT, KARUR, TAMILNADU, PIN-639002",,KARUR,KARUR,TAMIL NADU
SBTR0000391,State Bank of Travancore,SBTR0000391,500009003,SECUNDERABAD,"P.B.NO.49, SAROJINI DEVI ROAD, SECUNDERABAD P.O., HYDERABAD, ANDHRA PRADESH, PIN-500003",,HYDERABAD,HYDERABAD URBAN,ANDHRA PRADESH
SBTR0000392,State Bank of Travancore,SBTR0000392,NON MICR,OTTAPPALAM,"P.B. 102, ASHOK BUILDINGS, OTTAPPALAM P.O., PALAKKAD, KERALA, PIN-679101",,OTTAPALAM,PALAKKAD,KERALA
SBTR0000393,State Bank of Travancore,SBTR0000393,NON MICR,THRIKADAVOOR,"P.B.NO.1, NELLIYIL ROYAL BUILDING, ANCHALUMMOOD, PERINAD P.O., KOLLAM, KERALA, PIN-691601",,THRIKKADAVOOR,KOLLAM,KERALA
SBTR0000394,State Bank of Travancore,SBTR0000394,NON MICR,SB COLLEGE- CHANGANACHERRY,"P.B.NO.11, CHANGANACHERRY P.O., KOTTAYAM, KERALA, PIN-686101",,KOTTAYAM,KOTTAYAM,KERALA
SBTR0000395,State Bank of Travancore,SBTR0000395,682009030,THIRUVANKULAM,"P.B.NO.2, PUNNACHALIL BLDGS, THIRUVANKULAM P.O., ERNAKULAM, KERALA, PIN-682305",,THIRUVANKULAM,ERNAKULAM,KERALA
SBTR0000396,State Bank of Travancore,SBTR0000396,NON MICR,ALAPPUZHA DIST. COURT ROAD,"P.B.NO.1010, THATHAMPALLY P.O., ALAPPUZHA, KERALA, PIN-688013",,ALAPPUZHA,ALAPUZZHA,KERALA
SBTR0000397,State Bank of Travancore,SBTR0000397,NON MICR,KILIKOLLUR,"P.B.NO.4, ""SABARI COMPLEX"", KILIKOLLUR P.O., KOLLAM, KERALA, PIN-691004",,KILIKOLLUR,KOLLAM,KERALA
SBTR0000398,State Bank of Travancore,SBTR0000398,NON MICR,CHENGALAM,"P.B.NO.1, NIRAPPEL BUILDINGS, CHENGALAM P.O., KOTTAYAM, KERALA, PIN-686585",,KOTTAYAM,KOTTAYAM,KERALA
SBTR0000399,State Bank of Travancore,SBTR0000399,NON MICR,POLLACHI,"P.B.NO.3, NO.150  TELC COMPLEX, COIMBATORE ROAD, POLLACHI P.O., COIMBATORE, TAMILNADU, PIN-642002",,POLLACHI,COIMBOTORE,TAMIL NADU
SBTR0000400,State Bank of Travancore,SBTR0000400,NON MICR,KOODALLOOR,"P.B.NO.1, (VIA) VAYALA, KOODALLOOR P.O., KOTTAYAM, KERALA, PIN-686595",,KOTTAYAM,KOTTAYAM,KERALA
SBTR0000401,State Bank of Travancore,SBTR0000401,673009010,KUNNAMANGALAM,"P.B.NO.1, CALICUT-WYNAD ROAD, KUNNAMANGALAM P.O., KOZHIKODE, KERALA, PIN-673571",,CALICUT,KOZHIKODE,KERALA
SBTR0000402,State Bank of Travancore,SBTR0000402,NON MICR,HOSDURG (KANHANGAD),"P.B.NO.13, MAIN ROAD, KANHANGAD P.O., KASARGOD, KERALA, PIN-671315",,CANNUR,KANNUR,KERALA
SBTR0000403,State Bank of Travancore,SBTR0000403,682009007,PALARIVATTOM (ERNAKULAM),"P.B.NO.2298, PREETHI BUILDINGS, PALARIVATTOM P.O., ERNAKULAM, KERALA, PIN-682025",,KOCHI,ERNAKULAM,KERALA
SBTR0000404,State Bank of Travancore,SBTR0000404,NON MICR,MYLAUDY,"P.B.NO.1, MYLAUDY P.O., KANYAKUMARI, TAMILNADU, PIN-629403",,MYLAUDY,KANNIYAKUMARI,TAMIL NADU
SBTR0000405,State Bank of Travancore,SBTR0000405,NON MICR,VELLORE (TAMIL NADU),"P.B.NO.462, 80/A IDA SCUDDER ROAD, VELLORE P.O., VELLORE, TAMILNADU, PIN-632004",,VELLORE,VELLORE,TAMIL NADU
SBTR0000406,State Bank of Travancore,SBTR0000406,NON MICR,PALLIPURAM,"P.B.NO.1, ALUMOODU, KANIYAPURAM, THIRUVANANTHAPURAM, KERALA, PIN-695301",,THIRUVANANTHAPURAM,TRIVANDRUM,KERALA
SBTR0000407,State Bank of Travancore,SBTR0000407,NON MICR,MALAYALAPUZHA,"P.B.NO.1, DEWASWOM BOARD BLDGS, THAZHAM P.O., PATHANAMTHITTA, KERALA, PIN-689666",,MALAYALAPUZHA,PATHANAMTHITTA,KERALA
SBTR0000408,State Bank of Travancore,SBTR0000408,NON MICR,THEKKUMBHAGOM(THODUPUZHA),"ST.GEORGE CHURCH BUILDINGS, THODUPUZHA EAST P.O., IDUKKI, KERALA, PIN-685585",,THODUPUZHA,IDUKKI,KERALA
SBTR0000409,State Bank of Travancore,SBTR0000409,NON MICR,THOTTADA,"P.B.NO.2601, LAVANYA BUILDINGS, THOTTADA P.O., KANNUR, KERALA, PIN-670007",,THOTTADA,KANNUR,KERALA
SBTR0000410,State Bank of Travancore,SBTR0000410,NON MICR,ERIMAYUR,"P.B.NO.2, AYAD BUILDINGS, ERIMAYUR P.O., PALAKKAD, KERALA, PIN-678546",,ERIMAYOOR,PALAKKAD,KERALA
SBTR0000411,State Bank of Travancore,SBTR0000411,600009008,T NAGAR CHENNAI,"P.B.NO. 1015, 68,USMAN ROAD, T NAGAR P.O., CHENNAI, TAMILNADU, PIN-600017",,CHENNAI,CHENNAI,TAMIL NADU
SBTR0000412,State Bank of Travancore,SBTR0000412,NON MICR,PULIYOOR,"P.B.NO.1, M.K.V.BUILDINGS, PULIYOOR P.O., ALAPPUZHA, KERALA, PIN-689510",,PULIYUR,ALAPUZZHA,KERALA
SBTR0000414,State Bank of Travancore,SBTR0000414,NON MICR,MADAPPALLY,"P.B.NO.1, SINDHU BUILDINGS, PERUMPANACHY P.O., KOTTAYAM, KERALA, PIN-686546",,KOTTAYAM,KOTTAYAM,KERALA
SBTR0000415,State Bank of Travancore,SBTR0000415,695009032,VIKAS BHAVAN-THIRUVANANTHAPURAM,"VIKAS BHAVAN P.O., THIRUVANANTHAPURAM, KERALA, PIN-695033",,THIRUVANANTHAPURAM,TRIVANDRUM,KERALA
SBTR0000416,State Bank of Travancore,SBTR0000416,NON MICR,ANTHINAD,"P.B.NO.2, PRAVITHANAN JUNCTION, ANTHINAD P.O., KOTTAYAM, KERALA, PIN-686651",,KOTTAYAM,KOTTAYAM,KERALA
SBTR0000417,State Bank of Travancore,SBTR0000417,NON MICR,CHAMAMPATHAL (VAZHUR),"P.B.NO.1 KARIMPIL BLDGS, KODUNGAR-MANIMALA ROAD, CHAMAMPATHAL P.O., KOTTAYAM, KERALA, PIN-686517",,KOTTAYAM,KOTTAYAM,KERALA
SBTR0000418,State Bank of Travancore,SBTR0000418,NON MICR,VALAYAR,"SREEDEVI BUILDINGS, ALAMARAM, KANJIKODE P.O., PALAKKAD, KERALA, PIN-678621",,VALAYAR,PALAKKAD,KERALA
SBTR0000419,State Bank of Travancore,SBTR0000419,NON MICR,THANJAVUR,"DOOR NO.1658, BALU COMPLEX, SOUTH MAIN STREET, THANJAVUR, TANJAVUR, TAMILNADU, PIN-613001",,THANJAVUR,THANJAVUR,TAMIL NADU
SBTR0000420,State Bank of Travancore,SBTR0000420,NON MICR,MEPPAYUR,"P.B.NO.1, BUILDING NO.VI/953, T.K.COMPLEX, MEPPAYUR, KOZHIKODE, KERALA, PIN-673524",,CALICUT,KOZHIKODE,KERALA
SBTR0000421,State Bank of Travancore,SBTR0000421,NON MICR,VADAICANAL(ALAPPUZHA),"P.B.NO.1008, RAIBAN SHOPPING COMPLEX, BOAT JETTY ROAD, ALAPPUZHA, KERALA, PIN-688011",,ALAPPUZHA,ALAPUZZHA,KERALA
SBTR0000422,State Bank of Travancore,SBTR0000422,695009020,POONTHURA- THIRUVANANTHAPURAM,"P.B.NO.1, JAMA-ATH BUILDINGS, POONTHURA P.O., THIRUVANANTHAPURAM, KERALA, PIN-695026",,THIRUVANANTHAPURAM,TRIVANDRUM,KERALA
SBTR0000423,State Bank of Travancore,SBTR0000423,NON MICR,SOUTH KALLARA,"P.B.NO.1, SOUTH KALLARA P.O., KOTTAYAM, KERALA, PIN-686611",,KOTA,KOTA,RAJASTHAN
SBTR0000424,State Bank of Travancore,SBTR0000424,695009028,KOCHUVELI(THIRUVANANTHAPURAM),"T.T.P.CAMPUS, P.B. NO.4210, TITANIUM P.O., THIRUVANANTHAPURAM, KERALA, PIN-695021",,THIRUVANANTHAPURAM,TRIVANDRUM,KERALA
SBTR0000425,State Bank of Travancore,SBTR0000425,NON MICR,KIZHAKKAMBALAM,"P.B.NO:1, 3/802  IST FLOOR, KIZHAKKAMBALM P.O., ERNAKULAM, KERALA, PIN-683562",,KIZHAKKAMBALAM,ERNAKULAM,KERALA
SBTR0000426,State Bank of Travancore,SBTR0000426,686009014,KARUKACHAL,"VALLOOR BUILDINGS, KARUKACHAL P.O., KOTTAYAM, KERALA, PIN-686540",,KARUKACHAL,KOTTAYAM,KERALA
SBTR0000427,State Bank of Travancore,SBTR0000427,686009012,KADUTHURUTHY MAIN,"P.B.NO.22, PANNIVELIL BUILDINGS, KADUTHURUTHY P.O., KOTTAYAM, KERALA, PIN-686604",,KADUTHURUTHY,KOTTAYAM,KERALA
SBTR0000428,State Bank of Travancore,SBTR0000428,560009005,COX TOWN - BANGALORE,"P.B.NO.560, 8/1 GOVER ROAD,, FRASER TOWN P.O., BANGALORE, KARNATAKA, PIN-560005",,BANGALORE,BANGALORE URBAN,KARNATAKA
SBTR0000429,State Bank of Travancore,SBTR0000429,NON MICR,PUNCHAVAYAL,"P.B.NO.7, VALIYAVEETTIL BUILDINGS, PUNCHAVAYAL P.O., KOTTAYAM, KERALA, PIN-686513",,KOTTAYAM,KOTTAYAM,KERALA
SBTR0000430,State Bank of Travancore,SBTR0000430,NON MICR,THEKKETHUKAVALA,"P.B.NO.1, USHUS BUILDINGS, THEKKETHUKAVALA P.O., KOTTAYAM, KERALA, PIN-686519",,KOTTAYAM,KOTTAYAM,KERALA
SBTR0000431,State Bank of Travancore,SBTR0000431,NON MICR,PEROOR,"P.B.NO.1, N.S.S.KARAYOGAM BUILDING, PEROOR P.O., KOTTAYAM, KERALA, PIN-686637",,KOTTAYAM,KOTTAYAM,KERALA
SBTR0000432,State Bank of Travancore,SBTR0000432,NON MICR,THIRUVANCHOOR,"P.B.NO.1, SOBY'S BUILDINGS, THIRUVANCHOOR P.O., KOTTAYAM, KERALA, PIN-686037",,KOTTAYAM,KOTTAYAM,KERALA
SBTR0000433,State Bank of Travancore,SBTR0000433,695009029,VATTIYOORKAVU(THIRUVANANTHAPURAM),"P.B.NO.2901, VATTIYOORKAVU P.O., THIRUVANANTHAPURAM, KERALA, PIN-695013",,THIRUVANANTHAPURAM,TRIVANDRUM,KERALA
SBTR0000434,State Bank of Travancore,SBTR0000434,695009017,PEROORKADA(THIRUVANANTHAPURAM),"P.B.NO.1203, ""INDUSREE"", T.C.V/498, PEROORKADA P.O., THIRUVANANTHAPURAM, KERALA, PIN-695005",,THIRUVANANTHAPURAM,TRIVANDRUM,KERALA
SBTR0000435,State Bank of Travancore,SBTR0000435,NON MICR,PERUMPALAM,"P.B.NO.1, NSS KARAYOGAM BLDG, PERUMPALAM P.O., ALAPPUZHA, KERALA, PIN-688570",,ALAPPUZHA,ALAPUZZHA,KERALA
SBTR0000436,State Bank of Travancore,SBTR0000436,NON MICR,KARIPUZHA,"P.B.NO.1, KANDATHIL PARAMBIL BLDG, KARIPUZHA P.O., ALAPPUZHA, KERALA, PIN-690109",,KARIPUZHA,ALAPUZZHA,KERALA
SBTR0000437,State Bank of Travancore,SBTR0000437,NON MICR,KATTODU,"P.B.NO.1, MANNIL BUILDINGS, MANJADI P.O., PATHANAMTHITTA, KERALA, PIN-689105",,PATHANAMTHITTA,PATHANAMTHITTA,KERALA
SBTR0000438,State Bank of Travancore,SBTR0000438,NON MICR,EZHINJILLAM,"P.B.NO.1, MANNOOCHERRIL BLDGS, PERUMTHURUTHY P.O., PATHANAMTHITTA, KERALA, PIN-689107",,PATHANAMTHITTA,PATHANAMTHITTA,KERALA
SBTR0000439,State Bank of Travancore,SBTR0000439,NON MICR,ENNAKKAD,"P.B.NO.1, ENNAKKAD P.O., ALAPPUZHA, KERALA, PIN-689624",,ENNAKAD,ALAPUZZHA,KERALA
SBTR0000440,State Bank of Travancore,SBTR0000440,NON MICR,DANAPADY,"P.B.NO.1, SHYLAJA BUILDINGS, KUMARAPURAM P.O., ALAPPUZHA, KERALA, PIN-690548",,KUMARAPURAM,ALAPUZZHA,KERALA
SBTR0000441,State Bank of Travancore,SBTR0000441,NON MICR,MUTTOM(THUDANGANAD)ADB,"P.B.NO.2,, MUTTOM P.O., THODUPUZHA (VIA), IDUKKI, KERALA, PIN-685587",,MUTTOM,IDUKKI,KERALA
SBTR0000442,State Bank of Travancore,SBTR0000442,600009004,TRIPLICANE  CHENNAI,"P.B.NO.161, NO.20, TRIPLICANE HIGH ROAD, THIRUVALLIKENI P.O., CHENNAI, TAMILNADU, PIN-600005",,CHENNAI,CHENNAI,TAMIL NADU
SBTR0000443,State Bank of Travancore,SBTR0000443,NON MICR,CHERUKAVU ADB,"P.B.NO.1, AYIKKARAPADY P.O., MALAPPURAM, KERALA, PIN-673637",,CHERUKAVU,MALAPURAM,KERALA
SBTR0000444,State Bank of Travancore,SBTR0000444,NON MICR,VELIYANOOR,"P.B.NO.1, 11/320 VETTIKAL BLDGS, VELIYANNOOR P.O., KOTTAYAM, KERALA, PIN-686638",,KOTTAYAM,KOTTAYAM,KERALA
SBTR0000445,State Bank of Travancore,SBTR0000445,695009040,KAZHAKKOOTTAM,"P.B.NO.2, E.K.COMPLEX, KAZHAKKOOTTAM P.O., THIRUVANANTHAPURAM, KERALA, PIN-695582",,THIRUVANANTHAPURAM,TRIVANDRUM,KERALA
SBTR0000446,State Bank of Travancore,SBTR0000446,NON MICR,KOTHANALLUR,"P.B.NO.1, S.G.P.CHURCH BUILDINGS, KOTHANALLUR P.O., KOTTAYAM, KERALA, PIN-686632",,KOTTAYAM,KOTTAYAM,KERALA
SBTR0000447,State Bank of Travancore,SBTR0000447,NON MICR,KARAKKAL,"P.B.NO.1, CHAKKUMMOOTTIL BUILDINGS, KARAKKAL P.O., PATHANAMTHITTA, KERALA, PIN-689108",,PATHANAMTHITTA,PATHANAMTHITTA,KERALA
SBTR0000448,State Bank of Travancore,SBTR0000448,NON MICR,ARTHICHERRY,"P.B.NO.2, NEERATTUPURAM P.O., ALAPPUZHA, KERALA, PIN-689571",,KARIKUZHI,ALAPUZZHA,KERALA
SBTR0000449,State Bank of Travancore,SBTR0000449,NON MICR,KOCHALUMMOODU,"RAMAN'S BUILDINGS, KALLIMEL P.O., ALAPPUZHA, KERALA, PIN-690570",,ALAPPUZHA,ALAPUZZHA,KERALA
SBTR0000450,State Bank of Travancore,SBTR0000450,690009017,SASTHAMCOTTAH,"P.B.NO.1, KUTTIYIL BUILDING, FILTER HOUSE JUNCTION, SASTHAMCOTTAH P.O., KOLLAM, KERALA, PIN-690521",,SASTHAMCOTTA,KOLLAM,KERALA
SBTR0000451,State Bank of Travancore,SBTR0000451,682009031,NAYARAMBALAM,"P.B.NO.1, CHERUPALLIL BUILDINGS, NAYARAMBALAM P.O., ERNAKULAM, KERALA, PIN-682509",,NAYARAMBALAM,ERNAKULAM,KERALA
SBTR0000452,State Bank of Travancore,SBTR0000452,NON MICR,SREEKANTAPURAM,"P.B.NO.401, SAMA BAZAR, SREEKANTAPURAM P.O., KANNUR, KERALA, PIN-670631",,SREEKANDAPURAM,KANNUR,KERALA
SBTR0000453,State Bank of Travancore,SBTR0000453,NON MICR,RAJAKUMARI,"P.B.NO.1, EDATTU PADINJAREL BUILDINGS, RAJAKUMARI NORTH P.O., IDUKKI, KERALA, PIN-685619",,RAJAKUMARI,IDUKKI,KERALA
SBTR0000454,State Bank of Travancore,SBTR0000454,NON MICR,AREACODE,"P.B.NO 1, K.P.BUILDINGS, AREACODE  P.O., MALAPPURAM, KERALA, PIN-673639",,AREACODE,MALAPURAM,KERALA
SBTR0000455,State Bank of Travancore,SBTR0000455,NON MICR,MARAYOOR ADB,"P.B.NO.1, CHARUVILAKATH BUILDINGS, MARAYOOR P.O., IDUKKI, KERALA, PIN-685620",,MARAYUR,IDUKKI,KERALA
SBTR0000456,State Bank of Travancore,SBTR0000456,673009007,MEENCHANTHA,"RISHIN BUILDING, NALLALAM P.O., KOZHIKODE, KERALA, PIN-673027",,CALICUT,KOZHIKODE,KERALA
SBTR0000457,State Bank of Travancore,SBTR0000457,682009004,OVERSEAS BRANCH(ERNAKULAM),"P.B.NO.2274, CIVIL LINE ROAD, PALARIVATTOM, ERNAKULAM, KERALA, PIN-682025",,KOCHI,ERNAKULAM,KERALA
SBTR0000458,State Bank of Travancore,SBTR0000458,NON MICR,DHANUVACHAPURAM,"P.B.NO.1, S.SBHAVAN, K.P. VIII / 883, DHANUVACHAPURAM P.O., THIRUVANANTHAPURAM, KERALA, PIN-695503",,THIRUVANANTHAPURAM,TRIVANDRUM,KERALA
SBTR0000459,State Bank of Travancore,SBTR0000459,NON MICR,VENKITANGU,"P.B.NO.2, YAFFAT MANSION, VENKITANGU P.O., THRISSUR, KERALA, PIN-680510",,TIRUCHIRAPPALLI,TIRUCHIORAPPALLI,TAMIL NADU
SBTR0000460,State Bank of Travancore,SBTR0000460,NON MICR,UDIYANKULANGARA-ADB,"P.B.NO.1, C.P.IX/573, AMARAVILA P.O., THIRUVANANTHAPURAM, KERALA, PIN-695122",,THIRUVANANTHAPURAM,TRIVANDRUM,KERALA
SBTR0000461,State Bank of Travancore,SBTR0000461,NON MICR,NIRANAM (KIZHAKKUMBHAGOM),"P.B.NO.2 ST.MARY'S ORTHODOX, SYRIAN CHURCH BLDGS, NIRANAM P.O., PATHANAMTHITTA, KERALA, PIN-689621",,PATHANAMTHITTA,PATHANAMTHITTA,KERALA
SBTR0000462,State Bank of Travancore,SBTR0000462,NON MICR,KAVIYOOR,"P.B.NO.1, NO.K.P.1/466, KAVIYOOR P.O., PATHANAMTHITTA, PATHANAMTHITTA, KERALA, PIN-689582",,KAVIYOOR,PATHANAMTHITTA,KERALA
SBTR0000463,State Bank of Travancore,SBTR0000463,NON MICR,KOTTANGAL,"P.B.NO.1, THUNDYIL BUILDINGS, PONTHENPUZHA ROAD, CHUNGAPARA.P.O., PATHANAMTHITTA, KERALA, PIN-686547",,KOTTANGAL,PATHANAMTHITTA,KERALA
SBTR0000464,State Bank of Travancore,SBTR0000464,NON MICR,KALLOOPPARA,"P.B.NO.1, PULIPRETH SHOPPING COMPLEX, KADAMANKULAM P.O., PATHANAMTHITTA, KERALA, PIN-689583",,KALLOOPPARA,PATHANAMTHITTA,KERALA
SBTR0000465,State Bank of Travancore,SBTR0000465,600009003,BESANT NAGAR(CHENNAI),"P.B.NO.5003, PLOT NO.E.32, 2ND AVENE, BESANT NAGAR P.O., CHENNAI, TAMILNADU, PIN-600090",,CHENNAI,CHENNAI,TAMIL NADU
SBTR0000466,State Bank of Travancore,SBTR0000466,NON MICR,MANIPUZHA,"P.B.NO.1, THYPARAMBIL BUILDINGS, PODIYADI P.O., PATHANAMTHITTA, KERALA, PIN-689110",,PATHANAMTHITTA,PATHANAMTHITTA,KERALA
SBTR0000467,State Bank of Travancore,SBTR0000467,NON MICR,CHARUMMOODU,"P.B.NO.2, SAJUVILLA BUILDINGS, CHARUMMOODU P.O., ALAPPUZHA, KERALA, PIN-690505",,ALAPPUZHA,ALAPUZZHA,KERALA
SBTR0000468,State Bank of Travancore,SBTR0000468,NON MICR,VALLIKUNNAM,"MANI'S BUILDING, KADUVINAL P.O., VALLIKUNNAM, ALAPPUZHA, KERALA, PIN-690501",,VALLIKUNNAM,ALAPUZZHA,KERALA
SBTR0000469,State Bank of Travancore,SBTR0000469,NON MICR,PAIPRA ADB,"P.B.NO.1, AL SHIFA HOSPITAL BLDG, PEZHAKKAPPILLY P.O., ERNAKULAM, KERALA, PIN-686674",,MUVATTUPUZHA,ERNAKULAM,KERALA
SBTR0000470,State Bank of Travancore,SBTR0000470,NON MICR,THALORE,"P.B.NO.1, EDUTHAN COMPLEX, THYCATTUSSERRY ROAD, THALORE P.O., THRISSUR, KERALA, PIN-680306",,TIRUCHIRAPPALLI,TIRUCHIORAPPALLI,TAMIL NADU
SBTR0000471,State Bank of Travancore,SBTR0000471,NON MICR,MANGANAM,"P.B.NO.1, V.P.XV/300A, PALOOR BUILDINGS, MANGANAM P.O., KOTTAYAM, KERALA, PIN-686018",,KOTTAYAM,KOTTAYAM,KERALA
SBTR0000472,State Bank of Travancore,SBTR0000472,NON MICR,ERODE,"P.B.NO.49, 505 IST FLOOR, NETAJI ROAD, ERODE, TAMILNADU, PIN-638001",,ERODE,ERODE,TAMIL NADU
SBTR0000473,State Bank of Travancore,SBTR0000473,NON MICR,AMMANCHERRY,"P.B.NO.1, BUILDING NO.792, PALAMATTOM BUILDINGS, AMALAGIRI P.O., KOTTAYAM, KERALA, PIN-686036",,KOTTAYAM,KOTTAYAM,KERALA
SBTR0000474,State Bank of Travancore,SBTR0000474,NON MICR,KOZHUVALLUR,"P.B.NO.1, NO.V.P.8/525 A, KOZHUVALLUR P.O., ALAPPUZHA, KERALA, PIN-689521",,ALAPPUZHA,ALAPUZZHA,KERALA
SBTR0000475,State Bank of Travancore,SBTR0000475,NON MICR,PURAKKAD,"HOLY CROSS CHURCH BUILDING, PURAKKAD P.O., ALAPPUZHA, KERALA, PIN-690551",,PURAKKAD,ALAPUZZHA,KERALA
SBTR0000476,State Bank of Travancore,SBTR0000476,NON MICR,NEDIAVILA,"P.B.NO.1, XANADU, KUNNATHOOR EAST P.O., KOLLAM, KERALA, PIN-690540",,KUNNATHUR,KOLLAM,KERALA
SBTR0000477,State Bank of Travancore,SBTR0000477,NON MICR,AZHIYOOR,"P.B.NO.1, ABHILASH BUILDINGS, ALIYOOR P.O., KOZHIKODE, KERALA, PIN-673309",,CALICUT,KOZHIKODE,KERALA
SBTR0000478,State Bank of Travancore,SBTR0000478,NON MICR,KOTTAPADI,"P.B.NO.1, NAJMA BUILDINGS, PUTHOORVAYAL P.O., WAYANAD, KERALA, PIN-673121",,KOTTAPADI,WAYANAD,KERALA
SBTR0000479,State Bank of Travancore,SBTR0000479,NON MICR,TV PURAM,"P.B.NO.1, OTTALEZHUTHU BUILDINGS, T.V.PURAM P.O., KOTTAYAM, KERALA, PIN-686142",,KOTTAYAM,KOTTAYAM,KERALA
SBTR0000480,State Bank of Travancore,SBTR0000480,NON MICR,PLASSANAL,"P.B.NO.1, ST.MARY'S CHURCH BUILDING, PLASSANAL P.O., KOTTAYAM, KERALA, PIN-686579",,KOTTAYAM,KOTTAYAM,KERALA
SBTR0000481,State Bank of Travancore,SBTR0000481,695009012,FORT-THIRUVANANTHAPURAM,"P.B.NO.5, H.N.C. BUILDING, SOUTH STREET, FORT P.O., THIRUVANANTHAPURAM, KERALA, PIN-695023",,THIRUVANANTHAPURAM,TRIVANDRUM,KERALA
SBTR0000482,State Bank of Travancore,SBTR0000482,NON MICR,M.G.M.H.S. THIRUVALLA,"P.B.NO.14, THIRUVALLA P.O., PATHANAMTHITTA, KERALA, PIN-689101",,THIRUVALLA,PATHANAMTHITTA,KERALA
SBTR0000483,State Bank of Travancore,SBTR0000483,NON MICR,VARANAD,"P.B.NO.1, MC DOWELL BUILDINGS, VARANAD P.O., ALAPPUZHA, KERALA, PIN-688543",,ALAPPUZHA,ALAPUZZHA,KERALA
SBTR0000484,State Bank of Travancore,SBTR0000484,NON MICR,CMS COLLEGE CAMPUS KOTTAYAM,"P.B. NO.293, KOTTAYAM P.O., KOTTAYAM, KERALA, PIN : 686 001, KOTTAYAM, KERALA, PIN-686001",,KOTTAYAM,KOTTAYAM,KERALA
SBTR0000485,State Bank of Travancore,SBTR0000485,NON MICR,MEENADOM (PAMPADY),"CHUZHUKUNNEL BUILDINGS, HOSPITAL JUNCTION, MEENADOM P.O., KOTTAYAM, KERALA, PIN-686516",,KOTTAYAM,KOTTAYAM,KERALA
SBTR0000486,State Bank of Travancore,SBTR0000486,NON MICR,KUDALLUR,"P.B.NO.1, P.P.MOIDU'S BUILDINGS, MANIAMPERUMPALAM, KUDALUR P.O., PALAKKAD, KERALA, PIN-679554",,PALAKKAD,PALAKKAD,KERALA
SBTR0000487,State Bank of Travancore,SBTR0000487,NON MICR,MULLASSERRY,"P.B.NO.1,  NO.111/134A, PULIKAKADAVU ROAD, MULLASSERRY  P.O., THRISSUR, KERALA, PIN-680509",,TIRUCHIRAPPALLI,TIRUCHIORAPPALLI,TAMIL NADU
SBTR0000488,State Bank of Travancore,SBTR0000488,NON MICR,MUTTAKAD,"NO.17/279 - E. SEBASTIAN MARY TOWER, KUMARAPURAM P.O., KANYAKUMARI, TAMILNADU, PIN-629189",,KALKULAM,KANNIYAKUMARI,TAMIL NADU
SBTR0000489,State Bank of Travancore,SBTR0000489,NON MICR,ARUMANOOR,"P.B.NO.1, A.P.8/183, ARUMANOOR P.O., KOTTAYAM, KERALA, PIN-686568",,KOTTAYAM,KOTTAYAM,KERALA
SBTR0000490,State Bank of Travancore,SBTR0000490,NON MICR,KALLACHI,"P.B.NO.1, NP 5/593 NADAPURAM BUILDINGS, KALLACHI P.O., KOZHIKODE, KERALA, PIN-673506",,CALICUT,KOZHIKODE,KERALA
SBTR0000491,State Bank of Travancore,SBTR0000491,NON MICR,NALLILA,"NP/IV/64A, THENGUVILAYIL BUILDINGS, NALLILA P.O., KOLLAM, KERALA, PIN-691515",,KOLLAM,KOLLAM,KERALA
SBTR0000492,State Bank of Travancore,SBTR0000492,NON MICR,TREASURY BRANCH- KOTTAYAM,"P.B.NO.1104, COLLECTORATE BUILDINGS, COLLECTORATE P.O., KOTTAYAM, KERALA, PIN-686002",,KOTTAYAM,KOTTAYAM,KERALA
SBTR0000493,State Bank of Travancore,SBTR0000493,695009011,KSEB ADMN.COMPLEX-THIRUVANANTHAPURAM,"VYDYUTHI BHAVAN, PATTOM P.O., THIRUVANANTHAPURAM, KERALA, PIN-695004",,THIRUVANANTHAPURAM,TRIVANDRUM,KERALA
SBTR0000494,State Bank of Travancore,SBTR0000494,NON MICR,ERAVIPURAM,"P.B.NO.1, ARAFA COMPLEX, NEAR LMS SCHOOL, ERAVIPURAM P.O., KOLLAM, KERALA, PIN-691011",,ERAVIPURAM,KOLLAM,KERALA
SBTR0000495,State Bank of Travancore,SBTR0000495,NON MICR,PERINGODE,"K.P.III/476, PARASSERY P.O., PALAKKAD, KERALA, PIN-678631",,PERINGOTTUKURISSI,PALAKKAD,KERALA
SBTR0000496,State Bank of Travancore,SBTR0000496,NON MICR,ASARIPALLAM,"P.B.NO.1, ASARIPALLAM P.O., KANYAKUMARI, TAMILNADU, PIN-629201",,ASARIPALLAM,KANNIYAKUMARI,TAMIL NADU
SBTR0000497,State Bank of Travancore,SBTR0000497,NON MICR,SREEKRISHNAPURAM,"P.B.NO.2, SREEKRISHNAPURAM P.O., PALAKKAD, KERALA, PIN-679513",,SRIKRISHNAPURAM,PALAKKAD,KERALA
SBTR0000498,State Bank of Travancore,SBTR0000498,NON MICR,MOSCMM HOSPITAL KOLENCHERRY,"P.B.NO.4, KOLENCHERRY P.O., ERNAKULAM, KERALA, PIN-682311",,KOLENCHERRY,ERNAKULAM,KERALA
SBTR0000499,State Bank of Travancore,SBTR0000499,530009001,VISAKHAPATNAM,"D.NO.47-10-1, BHUVANESWARI PLAZA, DONDAPARTHY ROAD, NEAR DIAMOND PARK,DWARAKA NAGAR, VISAKHAPATANAM, ANDHRA PRADESH, PIN-530016",,VISAKHAPATNAM,VISHAKAPATNAM,ANDHRA PRADESH
SBTR0000500,State Bank of Travancore,SBTR0000500,700009003,KOLKATA LAKE MARKET,"91 RASH BEHARI AVENUE, LAKE MARKET, KALIGHAT P.O., KOLKATA, WEST BENGAL, PIN-700026",,KOLKATA,KOLKATA,WEST BENGAL
SBTR0000501,State Bank of Travancore,SBTR0000501,NON MICR,CHAKKAMPUZHA,"SAI NILAYAM, RAMAPURAM PANCHAYAT, CHAKKAMPUZHA P.O., KOTTAYAM, KERALA, PIN-686574",,KOTTAYAM,KOTTAYAM,KERALA
SBTR0000502,State Bank of Travancore,SBTR0000502,695009006,NEW ADMINISTRATIVE COMPLEX(POOJAPURA),"(THIRUVANANTHAPURAM), POOJAPURA P.O., THIRUVANANTHAPURAM, KERALA, PIN-695012",,THIRUVANANTHAPURAM,TRIVANDRUM,KERALA
SBTR0000503,State Bank of Travancore,SBTR0000503,NON MICR,PALLICKAL,"P.B.NO.1, KILIMANOOR P.O., THIRUVANANTHAPURAM, KERALA, PIN-695604",,THIRUVANANTHAPURAM,TRIVANDRUM,KERALA
SBTR0000504,State Bank of Travancore,SBTR0000504,NON MICR,MARADY,"PUDUSSERIL BUILDINGS, EAST MARADY P.O.., VIA-MUVATTUPUZHA, ERNAKULAM, KERALA, PIN-686673",,MARADY,ERNAKULAM,KERALA
SBTR0000505,State Bank of Travancore,SBTR0000505,NON MICR,IRENIPURAM,"P.B.NO.1, NO.1/1/25 A, IRENIPURAM P.O., KANYAKUMARI, TAMILNADU, PIN-629197",,KANYAKUMARI,KANNIYAKUMARI,TAMIL NADU
SBTR0000506,State Bank of Travancore,SBTR0000506,695009003,BAKERY JUNCTION(THIRUVANANTHAPURAM),"P.B.NO.420, KARUNAKARA SAPTHATHI MANDIRAM, KERALA UNIVERSITY P.O., THIRUVANANTHAPURAM, KERALA, PIN-695034",,THIRUVANANTHAPURAM,TRIVANDRUM,KERALA
SBTR0000507,State Bank of Travancore,SBTR0000507,676009003,MALAPPURAM CIVIL STATION,"P.B.NO.15, M.K.HAJI BUILDING, MANJERI ROAD, MALAPPURAM P.O., MALAPPURAM, KERALA, PIN-676505",,MALAPPURAM,MALAPURAM,KERALA
SBTR0000508,State Bank of Travancore,SBTR0000508,308009002,AHMEDABAD (ASHRAM ROAD),"P.B.NO.11, GROUND FLOOR ""KAIVANA"", AMBAVADI, ELLIS BRIDGE P.O., AHMEDABAD, GUJARAT, PIN-380006",,AHMEDABAD,AHMEDABAD,GUJARAT
SBTR0000509,State Bank of Travancore,SBTR0000509,NON MICR,NELLIMALA,"MYLANILKUNNATHIL BUILDINGS, NELLIMALA P.O., (VIA)ERAVIPEROOR, PATHANAMTHITTA, KERALA, PIN-689542",,ERAVIPEROOR,PATHANAMTHITTA,KERALA
SBTR0000510,State Bank of Travancore,SBTR0000510,NON MICR,PARIYARAM,"P.B.NO:1, THEKKEPARAMBIL BUILDINGS, PARIYARAM P.O., KOTTAYAM, KERALA, PIN-686021",,KOTTAYAM,KOTTAYAM,KERALA
SBTR0000511,State Bank of Travancore,SBTR0000511,NON MICR,PUNNALA,"P.B.NO.1, KALLARAYIL ABRAHAM MEMORIAL PLAZA, CHACHIPUNNA JUNCTION, PUNNALA P.O., KOLLAM, KERALA, PIN-689706",,PUNNALA,KOLLAM,KERALA
SBTR0000512,State Bank of Travancore,SBTR0000512,NON MICR,NARIYAPURAM,"P.B.NO.1, PARAMBIL BUILDINGS, NARIYAPURAM P.O., PATHANAMTHITTA, KERALA, PIN-689513",,PATHANAMTHITTA,PATHANAMTHITTA,KERALA
SBTR0000513,State Bank of Travancore,SBTR0000513,NON MICR,AROOKUTTY,"P.B.NO.1, APARNA, AROOKUTTY P.O., ALAPPUZHA, KERALA, PIN-688535",,AROOR,ALAPUZZHA,KERALA
SBTR0000514,State Bank of Travancore,SBTR0000514,NON MICR,PARATHODE,"P.B.NO.1, PUTHIYAPARAMBIL SHOPPING COMPLEX, PARATHODE  P.O., IDUKKI, KERALA, PIN-685571",,KONNATHADY,IDUKKI,KERALA
SBTR0000515,State Bank of Travancore,SBTR0000515,695009024,SECRETARIAT VIEW-THIRUVANANTHAPURAM,"B.N.I. BUILDINGS, A.G'S OFFICE P.O., STATUE, THIRUVANANTHAPURAM, KERALA, PIN-695039",,THIRUVANANTHAPURAM,TRIVANDRUM,KERALA
SBTR0000516,State Bank of Travancore,SBTR0000516,680009006,TREASURY BRANCH (THRISSUR),"P.B.NO.623, COLLECTORATE BLDG, AYYANTHOLE P.O., THRISSUR, KERALA, PIN-680003",,TIRUCHIRAPPALLI,TIRUCHIORAPPALLI,TAMIL NADU
SBTR0000517,State Bank of Travancore,SBTR0000517,682009009,VYTTILA- ERNAKULAM,"P.B.NO.7, PREETHI BUILDINGS, VYTILLA P.O., ERNAKULAM, KERALA, PIN-682019",,KOCHI,ERNAKULAM,KERALA
SBTR0000518,State Bank of Travancore,SBTR0000518,NON MICR,KANNADY,"P.B.NO.1, PMP NIVAS, KANNADI P.O., PALAKKAD, KERALA, PIN-678701",,KANNADI,PALAKKAD,KERALA
SBTR0000519,State Bank of Travancore,SBTR0000519,NON MICR,ODAKKALI,"P.B.NO.1, S.N.NAIR ARCADE, ASAMANOOR P.O., ODAKKALI, ERNAKULAM, KERALA, PIN-683549",,ASAMANNOOR,ERNAKULAM,KERALA
SBTR0000521,State Bank of Travancore,SBTR0000521,NON MICR,KOZHA,"P.B.NO.1, PANAMKUZHACKAL BUILDINGS, KURAVILANGAD P.O., KOTTAYAM, KERALA, PIN-686633",,KOTTAYAM,KOTTAYAM,KERALA
SBTR0000522,State Bank of Travancore,SBTR0000522,NON MICR,NATTUKAL,"NO.IV/611, NELLEPILLY P.O., PALAKKAD, KERALA, PIN-678553",,NALLEPPILLEY,PALAKKAD,KERALA
SBTR0000523,State Bank of Travancore,SBTR0000523,NON MICR,PALODE,"P.B.NO.3, NP 1/307 SEENA BUILDINGS, PACHA P.O., THIRUVANANTHAPURAM, KERALA, PIN-695562",,THIRUVANANTHAPURAM,TRIVANDRUM,KERALA
SBTR0000524,State Bank of Travancore,SBTR0000524,NON MICR,ALANJI,"P.B.NO1, MIDALAKKADU JUNCTION, PALAPALLOM P.O., KANYAKUMARI, TAMILNADU, PIN-629159",,KARUNGAL,KANNIYAKUMARI,TAMIL NADU
SBTR0000525,State Bank of Travancore,SBTR0000525,NON MICR,MADATHARA,"1ST  FLOOR, V.J.V.S.SHOPPING COMPLEX,, MADATHARA P.O., THIRUVANANTHAPURAM, KERALA, PIN-691541",,THIRUVANANTHAPURAM,TRIVANDRUM,KERALA
SBTR0000526,State Bank of Travancore,SBTR0000526,600009006,INDIRA NAGAR (CHENNAI),"15 KASTURIBA NAGAR, 3RD CROSS STREET, ADAYAR P.O., CHENNAI, TAMILNADU, PIN-600020",,CHENNAI,CHENNAI,TAMIL NADU
SBTR0000527,State Bank of Travancore,SBTR0000527,NON MICR,POTTENKAD,"201/202 BISON VALLEY, KUNCHI THANNI ROAD, POTTENKAD P.O., IDUKKI, KERALA, PIN-685569",,IDIKKI,IDUKKI,KERALA
SBTR0000528,State Bank of Travancore,SBTR0000528,NON MICR,PAZHAVEEDU,"P.B.NO.1, N.S.S.KARAYOGAM BUILDINGS, PAZHAVEEDU P.O., ALAPPUZHA, KERALA, PIN-688009",,ALAPPUZHA,ALAPUZZHA,KERALA
SBTR0000529,State Bank of Travancore,SBTR0000529,NON MICR,POOVATHILAPPU,"P.B.NO.2, MOONGAMACKAL BLDGS, MANALUMKAL P.O., KOTTAYAM, KERALA, PIN-686503",,KOTTAYAM,KOTTAYAM,KERALA
SBTR0000530,State Bank of Travancore,SBTR0000530,600009009,ANNANAGAR (WEST) CHENNAI,"NO.W-7, NORTH MAIN ROAD, ANNANAGAR WESTERN EXTENSION, CHENNAI, TAMILNADU, PIN-600101",,CHENNAI,CHENNAI,TAMIL NADU
SBTR0000531,State Bank of Travancore,SBTR0000531,NON MICR,KANNUR CIVIL STATION,"P.B.NO.2, MUNICIPAL SHOPPING COMPLEX, SOUTH BAZAR, CIVIL STATION P.O., KANNUR, KERALA, PIN-670002",,CANNUR,KANNUR,KERALA
SBTR0000533,State Bank of Travancore,SBTR0000533,400009004,MULUND WEST- MUMBAI,"P.B.NO.7798, BALARAJESWAR  APARTMENT, BALARAJESWAR ROAD, MULUND WEST P.O., MUMBAI, MAHARASHTRA, PIN-400080",,MUMBAI,GREATER BOMBAY,MAHARASHTRA
SBTR0000535,State Bank of Travancore,SBTR0000535,673009005,MANKAVU (KOZHIKODE),"P.B.NO.1201, NTA COMPLEX, MANKAVU P.O., KOZHIKODE, KERALA, PIN-673007",,CALICUT,KOZHIKODE,KERALA
SBTR0000536,State Bank of Travancore,SBTR0000536,NON MICR,THYCATTUSSERRY,"P.B.NO.1, HOUSE NO.442, THYCATTUSSERRY P.O., ALAPPUZHA, KERALA, PIN-688528",,THAICATTUSSERY,ALAPUZZHA,KERALA
SBTR0000537,State Bank of Travancore,SBTR0000537,NON MICR,CHELAD,"THEKKEKKARA BLDGS, CHELAD P.O., ERNAKULAM, KERALA, PIN-686681",,KOTHAMANGALAM,ERNAKULAM,KERALA
SBTR0000538,State Bank of Travancore,SBTR0000538,NON MICR,KUDAKKACHIRA,"P.B.NO.1  BUILDING NO.61, KUDAKKACHIRA P.O., VIA.MARANGATTUPALLY, KOTTAYAM, KERALA, PIN-686635",,KOTTAYAM,KOTTAYAM,KERALA
SBTR0000539,State Bank of Travancore,SBTR0000539,NON MICR,VALAVOOR,"P.B.NO 3, 1ST FLOOR, KAROOR PANCHAYATH COMPLEX BLDG, VALAVOOR P.O., KOTTAYAM, KERALA, PIN-686635",,KOTTAYAM,KOTTAYAM,KERALA
SBTR0000540,State Bank of Travancore,SBTR0000540,520009001,VIJAYAWADA,"P.B.NO:8, BUCKINGHAMPET P.O., VIJAYAWADA, ANDHRA PRADESH, PIN-520002",,VIJAYAWADA,KRISHNA,ANDHRA PRADESH
SBTR0000541,State Bank of Travancore,SBTR0000541,440009002,NAGPUR,"P.B.NO.13. 1ST FLOOR, 125, CENTRAL AVENUE ROAD, NEAR GANDHI PUTLA, NAGPUR, MAHARASHTRA, PIN-440002",,NAGPUR,NAGPUR,MAHARASHTRA
SBTR0000542,State Bank of Travancore,SBTR0000542,641009003,RS PURAM- COIMBATORE,"NO.160, D.B.ROAD, SRINIVASA TRADE CENTRE, R.S.PURAM, COIMBATORE, TAMILNADU, PIN-641002",,COIMBATORE,COIMBOTORE,TAMIL NADU
SBTR0000543,State Bank of Travancore,SBTR0000543,NON MICR,KAKKOOR,"HOUSE NO.310, KAKKOOR P.O., ERNAKULAM, KERALA, PIN-686662",,THIRUMARADY,ERNAKULAM,KERALA
SBTR0000544,State Bank of Travancore,SBTR0000544,NON MICR,NELLIMOODU,"AP V/555, NELLIMOODU P.O., THIRUVANANTHAPURAM, KERALA, PIN-695524",,THIRUVANANTHAPURAM,TRIVANDRUM,KERALA
SBTR0000546,State Bank of Travancore,SBTR0000546,NON MICR,PANGODE,"P.B.NO.1, NO.III/652-B, SHAMJIR MANZIL, PANGODE P.O., (VIA)KALLARA, THIRUVANANTHAPURAM, KERALA, PIN-695609",,THIRUVANANTHAPURAM,TRIVANDRUM,KERALA
SBTR0000547,State Bank of Travancore,SBTR0000547,NON MICR,UZHAMALAKKAL,"PUTHUKULANGARA P.O., NEDUMANGAD (VIA), THIRUVANANTHAPURAM, KERALA, PIN-695541",,THIRUVANANTHAPURAM,TRIVANDRUM,KERALA
SBTR0000548,State Bank of Travancore,SBTR0000548,NON MICR,DINDIGUL,"P.B.NO.4, 42 NEW AGRAHARAM, DINDIGUL P.O., MADURAI, TAMILNADU, PIN-624007",,MADURAI,MADURAI,TAMIL NADU
SBTR0000549,State Bank of Travancore,SBTR0000549,NON MICR,TRIPPAPULIYUR(CUDDALORE),"P.B.NO.14, SIVA COMPLEX, IMPERIAL ROAD, CUDDALORE P.O., SOUTH ARCOT, TAMILNADU, PIN-607002",,CUDDALORE,CUDDALORE,TAMIL NADU
SBTR0000550,State Bank of Travancore,SBTR0000550,411009002,PUNE - DECCAN GYMKHANA,"P.B.NO.872, 1248A, ASMANI PLAZA, DECCAN GYMKHANA P.O., PUNE, MAHARASHTRA, PIN-411004",,PUNE,PUNE,MAHARASHTRA
SBTR0000551,State Bank of Travancore,SBTR0000551,NON MICR,KANDALLOOR,"NO.7/487, PATTOLI MARKET (VIA), PUTHIYAVILA P.O., ALAPPUZHA, KERALA, PIN-690531",,KANDALLOOR,ALAPUZZHA,KERALA
SBTR0000552,State Bank of Travancore,SBTR0000552,NON MICR,ANANGANADI,"P.B.NO.1, BABU THAREEQ BUILDINGS, PANAMANNA P.O., PALAKKAD, KERALA, PIN-679501",,ANANGADI,PALAKKAD,KERALA
SBTR0000553,State Bank of Travancore,SBTR0000553,NON MICR,ELANADU,"ELANADU P.O., THRISSUR, KERALA, PIN-680586",,TIRUCHIRAPPALLI,TIRUCHIORAPPALLI,TAMIL NADU
SBTR0000554,State Bank of Travancore,SBTR0000554,NON MICR,THIRUMENI,"PARAYIL BLDGS, THIRUMENI P.O., CHERUPUZHA (VIA), KANNUR, KERALA, PIN-670511",,CHERUPUZHA,KANNUR,KERALA
SBTR0000555,State Bank of Travancore,SBTR0000555,NON MICR,CHETTIPADI,"P.B.NO.1, PADMA BUILDINGS, CHETTIPADI P.O., MALAPPURAM, KERALA, PIN-676319",,MALAPPURAM,MALAPURAM,KERALA
SBTR0000556,State Bank of Travancore,SBTR0000556,NON MICR,PALAPETTY,"MAK BUILDINGS, PALAPATTI P.O., (VIA) VELIANCODE, MALAPPURAM, KERALA, PIN-679579",,VELIYANCODE,MALAPURAM,KERALA
SBTR0000557,State Bank of Travancore,SBTR0000557,560009006,PILLANA GARDENS BANGALORE,"P.B.NO.4500, NO.11  NAGAWARA MAIN ROAD, ARABIC COLLEGE  P.O., BANGALORE, KARNATAKA, PIN-560045",,BANGALORE,BANGALORE URBAN,KARNATAKA
SBTR0000558,State Bank of Travancore,SBTR0000558,NON MICR,VALAYANCHIRANGARA,"P.B.NO.1, KANIYAMKUDIYIL BLDGS, VALAYANCHIRANGARA P.O., ERNAKULAM, KERALA, PIN-683556",,RAYAMANGALAM,ERNAKULAM,KERALA
SBTR0000559,State Bank of Travancore,SBTR0000559,NON MICR,VALAKUZHY,"P.B.NO.3, KUNNUMPURATHU BUILDINGS, VALAKUZHY P.O., VENNIKULAM (VIA), PATHANAMTHITTA, KERALA, PIN-689544",,PATHANAMTHITTA,PATHANAMTHITTA,KERALA
SBTR0000560,State Bank of Travancore,SBTR0000560,NON MICR,KODUMON,"P.B.NO.1, KANDANALLOOR BLDGS, KODUMON P.O., PATHANAMTHITTA, KERALA, PIN-691555",,KODUMON,PATHANAMTHITTA,KERALA
SBTR0000561,State Bank of Travancore,SBTR0000561,673009006,MAVOOR ROAD (KOZHIKODE),"1ST FLOOR, MANIYATTUKUDY ASFA BUILDING, MAVOOR ROAD, KOZHIKODE, KERALA, PIN-673004",,CALICUT,KOZHIKODE,KERALA
SBTR0000562,State Bank of Travancore,SBTR0000562,560009004,JC NAGAR (BANGALORE),"P B NO 609, BLDG NO.140/1, J.C.NAGAR P.O., BANGALORE, KARNATAKA, PIN-560006",,BANGALORE,BANGALORE URBAN,KARNATAKA
SBTR0000563,State Bank of Travancore,SBTR0000563,110009003,RK PURAM- NEW DELHI,"P.B.NO.4, IST FLOOR, ANSAL CHAMBERS, BHIKAJI CAMA PLACE, RAMAKRISHNAPURAM MAIN P.O., NEW DELHI, DELHI, PIN-110066",,DELHI,NEW DELHI,DELHI
SBTR0000564,State Bank of Travancore,SBTR0000564,NON MICR,VARAVOOR,"P.B.NO.1, THALI P.O., THRISSUR, KERALA, PIN-680585",,TIRUCHIRAPPALLI,TIRUCHIORAPPALLI,TAMIL NADU
SBTR0000565,State Bank of Travancore,SBTR0000565,620009002,THIRUVERUMBUR,"P.B.NO.16, TANJORE MAIN ROAD, THIRUVERUMBUR P.O., TIRUCHIRAPALLI, TAMILNADU, PIN-620014",,TIRUCHIRAPPALLI,TIRUCHIORAPPALLI,TAMIL NADU
SBTR0000566,State Bank of Travancore,SBTR0000566,NON MICR,POZHIYOOR,"P.B.NO.1, DEVASWOM BANK BUILDING, POZHIYOOR P.O., THIRUVANANTHAPURAM, KERALA, PIN-695513",,THIRUVANANTHAPURAM,TRIVANDRUM,KERALA
SBTR0000567,State Bank of Travancore,SBTR0000567,NON MICR,PALLIYADI,"MULAGUMOODU ROAD, PALLIYADI P.O., KANYAKUMARI, TAMILNADU, PIN-629169",,PALLIYADI,KANNIYAKUMARI,TAMIL NADU
SBTR0000568,State Bank of Travancore,SBTR0000568,695009007,JAGATHY- THIRUVANANTHAPURAM,"P.B.NO.437, AYSWARYA APARTMENTS, DPI JUNCTION, THYCAUD P.O., THIRUVANANTHAPURAM, KERALA, PIN-695014",,THIRUVANANTHAPURAM,TRIVANDRUM,KERALA
SBTR0000569,State Bank of Travancore,SBTR0000569,NON MICR,ENIAM,"DOOR NO.1/11A, ST.HELENA'S CHURCH BLDGS, MAIN ROAD, ENIAM P.O., KEEZHKULAM (VIA), KANYAKUMARI, TAMILNADU, PIN-629193",,KANYAKUMARI,KANNIYAKUMARI,TAMIL NADU
SBTR0000570,State Bank of Travancore,SBTR0000570,600009010,ALWARPET(CHENNAI),"NO.4/1, BALAVINAYAKAR BLDGS, ELDAMS ROAD, ALWARPET  P.O., CHENNAI, TAMILNADU, PIN-600018",,CHENNAI,CHENNAI,TAMIL NADU
SBTR0000571,State Bank of Travancore,SBTR0000571,400009005,SANE GURUJINAGAR-MUMBAI (MULUND EAST),"(MULUND EAST), ""AKANSHA"", 90, D.P.ROAD, MULUND (EAST) P.O., MUMBAI, MAHARASHTRA, PIN-400081",,MUMBAI,GREATER BOMBAY,MAHARASHTRA
SBTR0000572,State Bank of Travancore,SBTR0000572,NON MICR,TUMKUR,"P.B. NO.14, IST FLOOR  N.R.COMPLEX, ASHOKA ROAD, TUMKUR, KARNATAKA, PIN-572101",,TUMKUR,TUMKUR,KARNATAKA
SBTR0000573,State Bank of Travancore,SBTR0000573,NON MICR,KAYYUR,"DOOR NO.VI/651/B1, HI-LANE PLAZA, NATIONAL HIGHWAY, CHERUVATHUR P.O., KASARGOD, KASARGOD, KERALA, PIN-671313",,KAYYUR,KASARAGOD,KERALA
SBTR0000574,State Bank of Travancore,SBTR0000574,NON MICR,CHEEKKUNNUMMEL,"KOOVALAM BUILDINGS, CHEEKKUNNUMMEL WEST P.O., (VIA) KAKKATTIL, KOZHIKODE, KERALA, PIN-673507",,CALICUT,KOZHIKODE,KERALA
SBTR0000575,State Bank of Travancore,SBTR0000575,700009004,KIDDERPORE (KOLKATA),"16 DR.SUDHIR BOSE ROAD, P.B.NO:10621, KIDDERPORE P.O., KOLKATA, WEST BENGAL, PIN-700023",,KOLKATA,KOLKATA,WEST BENGAL
SBTR0000576,State Bank of Travancore,SBTR0000576,673009009,PUTHIYARA (KOZHIKODE),"MEYON BUILDINGS, P.B.NO.801, JAIL ROAD, PUTHIYARA P.O., KOZHIKODE, KERALA, PIN-673004",,CALICUT,KOZHIKODE,KERALA
SBTR0000577,State Bank of Travancore,SBTR0000577,600009002,SERVICE BRANCH- CHENNAI,"P.B.NO:4805, NO.1, SMITH ROAD, ANNA SALAI P.O., CHENNAI, TAMILNADU, PIN-600002",,CHENNAI,CHENNAI,TAMIL NADU
SBTR0000578,State Bank of Travancore,SBTR0000578,695009001,SERVICE BRANCH- THIRUVANANTHAPURAM,"B.N.I. BUILDINGS, STATUE, GENERAL P.O., THIRUVANANTHAPURAM, KERALA, PIN-695001",,THIRUVANANTHAPURAM,TRIVANDRUM,KERALA
SBTR0000579,State Bank of Travancore,SBTR0000579,682009001,SERVICE BRANCH- ERNAKULAM,"P.B.NO.3698, 2ND FLOOR, KOCHUMANGALATHU BUILDINGS, ERNAKULAM COLLEGE P.O., ERNAKULAM, KERALA, PIN-682035",,KOCHI,ERNAKULAM,KERALA
SBTR0000580,State Bank of Travancore,SBTR0000580,NON MICR,VALAKOM,"P.B.NO.1, CHERUVANNOOR BUILDINGS, KUNNACKAL P.O., ERNAKULAM, KERALA, PIN-682316",,VALAKOM,ERNAKULAM,KERALA
SBTR0000581,State Bank of Travancore,SBTR0000581,695009036,AKKULAM,"MAYURA SASI SHOPPING COMPLEX  AKKULAM, THURUVICKAL P.O., THIRUVANANTHAPURAM, KERALA, PIN-695031",,THIRUVANANTHAPURAM,TRIVANDRUM,KERALA
SBTR0000582,State Bank of Travancore,SBTR0000582,110009004,SAROJINI NAGAR(NEW DELHI),"P.B.NO.4832  VINAY NAGAR -, BENGALI SENIOR SEC.SCHOOL, SAROJINI NAGAR P.O., NEW DELHI, DELHI, PIN-110023",,DELHI,NEW DELHI,DELHI
SBTR0000583,State Bank of Travancore,SBTR0000583,NON MICR,AVALOOKUNNU,"P.B.NO.2401, AVALOOKUNNU P.O., ALAPPUZHA, KERALA, PIN-688006",,ALAPPUZHA,ALAPUZZHA,KERALA
SBTR0000584,State Bank of Travancore,SBTR0000584,NON MICR,CHENKARA,"P.B.NO.1, CHENKARA P.O., IDUKKI, KERALA, PIN-685539",,IDIKKI,IDUKKI,KERALA
SBTR0000585,State Bank of Travancore,SBTR0000585,NON MICR,ANAVILASOM,"KANJIRAMATTATHIL BUILDINGS, ANAVILASOM P.O., IDUKKI, KERALA, PIN-685535",,ANAVILASOM,IDUKKI,KERALA
SBTR0000586,State Bank of Travancore,SBTR0000586,NON MICR,KALLELI,"P.B.NO.5, AKKARAKKALA BUILDINGS, KALLELI P.O., PATHANAMTHITTA, KERALA, PIN-689691",,PATHANAMTHITTA,PATHANAMTHITTA,KERALA
SBTR0000588,State Bank of Travancore,SBTR0000588,NON MICR,KUDAPPANAMOODU,"E.A.BUILDINGS, KUDAPPANAMOODU P.O., THIRUVANANTHAPURAM, KERALA, PIN-695510",,THIRUVANANTHAPURAM,TRIVANDRUM,KERALA
SBTR0000589,State Bank of Travancore,SBTR0000589,NON MICR,THOOTHUR,"P.B.NO.1,, THOOTHUR P.O., KANYAKUMARI, TAMILNADU, PIN-629176",,THIRUVITHAMCODE,KANNIYAKUMARI,TAMIL NADU
SBTR0000590,State Bank of Travancore,SBTR0000590,641009103,VIJAYAPURAM,"LAKSHMI GARDENS' KANGAYAM ROAD, COTTON MARKET P.O., TIRUPUR, COIMBATORE, TAMILNADU, PIN-641604",,COIMBATORE,COIMBOTORE,TAMIL NADU
SBTR0000591,State Bank of Travancore,SBTR0000591,NON MICR,VELAMANNUR,"P.B.NO.1 `SREE SYLAM', VELAMANNUR P.O., (VIA) PARIPALLY, KOLLAM, KERALA, PIN-691574",,VELINALLOOR,KOLLAM,KERALA
SBTR0000592,State Bank of Travancore,SBTR0000592,NON MICR,IRUMPUPALAM,"VALARA P.O., IDUKKI, KERALA, PIN-685561",,IDIKKI,IDUKKI,KERALA
SBTR0000593,State Bank of Travancore,SBTR0000593,NON MICR,PULPARAMBA,"DOOR NO.339/7, UROTHIYIL BUILDINGS, OZHUR P.O., MALAPPURAM, KERALA, PIN-676313",,OZHUR,MALAPURAM,KERALA
SBTR0000594,State Bank of Travancore,SBTR0000594,NON MICR,PORUVAZHY,"P.B.NO.1, PORUVAZHY PANCHAYAT BLDG, AMBALATHUMBHAGOM P.O., KOLLAM, KERALA, PIN-690520",,PORUVAZHY,KOLLAM,KERALA
SBTR0000595,State Bank of Travancore,SBTR0000595,NON MICR,KADUMENI,"P.O. KADUMENI, (VIA) CHERUPUZHA, KASARGOD, KERALA, PIN-670511",,KASARAGOD,KASARAGOD,KERALA
SBTR0000597,State Bank of Travancore,SBTR0000597,NON MICR,CHULLIYODE,"DOOR NO.N/1/588, CHULLIYODE P.O., WAYANAD, KERALA, PIN-673592",,SULTHANBATHERY,WAYANAD,KERALA
SBTR0000598,State Bank of Travancore,SBTR0000598,NON MICR,BLATHUR,"P.B.NO.1, KALLIYAD P.O., KANNUR, KERALA, PIN-670593",,KALLIYAD,KANNUR,KERALA
SBTR0000599,State Bank of Travancore,SBTR0000599,NON MICR,MALAPATTAM,"MALAPATTOM P.O., SREEKANTAPURAM (VIA), KANNUR, KERALA, PIN-670631",,MALAPPATTAM,KANNUR,KERALA
SBTR0000600,State Bank of Travancore,SBTR0000600,NON MICR,MANNUR,"P.B.NO.1, KURIKKAL BUILDINGS, MANNUR P.O., PALAKKAD, KERALA, PIN-678642",,MANNUR,PALAKKAD,KERALA
SBTR0000601,State Bank of Travancore,SBTR0000601,605009002,PONDICHERRY,"S.V.COMPLEX,IST FLOOR,, 179,EASWARAN KOIL STREET, PONDICHERRY, PONDICHERRY, PIN-605001",,PONDICHERRY,PONDICHERRY,PONDICHERRY
SBTR0000602,State Bank of Travancore,SBTR0000602,440009003,CONGRESS NAGAR- NAGPUR,"P.B.NO.211, CONGRESS NAGAR, NO.9 MUNJE MARG, NAGPUR, MAHARASHTRA, PIN-440012",,NAGPUR,NAGPUR,MAHARASHTRA
SBTR0000603,State Bank of Travancore,SBTR0000603,226009002,LUCKNOW - ALIGANJ,"SECTOR-F, KAPOORTHALA COMPLEX, ALIGANJ, LUCKNOW, UTTAR PRADESH, PIN-226020",,LUCKNOW,LUCKNOW,UTTAR PRADESH
SBTR0000605,State Bank of Travancore,SBTR0000605,682009008,PAZHANGAD,"THURUTHUMMEL BUILDINGS, KUMBHALANGHI SOUTH P.O., ERNAKULAM, KERALA, PIN-682007",,PANANGAD,ERNAKULAM,KERALA
SBTR0000606,State Bank of Travancore,SBTR0000606,228009002,SWAROOP NAGAR- KANPUR,"I FLOOR,, NADRI COMPLEX, SWAROOP NAGAR P.O., KANPUR, UTTAR PRADESH, PIN-208002",,KANPUR,KANPUR NAGAR,UTTAR PRADESH
SBTR0000607,State Bank of Travancore,SBTR0000607,462009002,BHOPAL (ARERA COLONY),"P.B.NO.39, E-5/4 ARERA COLONY, RAVISHNKAR NAGAR P.O., BHOPAL, MADHYA PRADESH, PIN-462016",,BHOPAL,BHOPAL,MADHYA PRADESH
SBTR0000608,State Bank of Travancore,SBTR0000608,NON MICR,KUMMIL,"P.B. NO.8, K.P.R.M BUILDING, KUMMIL  P.O., KOLLAM, KERALA, PIN-691536",,KOLLAM,KOLLAM,KERALA
SBTR0000609,State Bank of Travancore,SBTR0000609,NON MICR,PEYODE,"P.B.NO1, ARASAN VILAI JN.,, SANTHAPURAM P.O., KANYAKUMARI, TAMILNADU, PIN-629201",,ARASANVILAI JUNCTION,KANNIYAKUMARI,TAMIL NADU
SBTR0000610,State Bank of Travancore,SBTR0000610,NON MICR,KOORIYAD,"P.B.NO.1, KAITHAKATH COMPLEX, A.R.NAGAR P.O., KOLAPPURAM JUNCTION, MALAPPURAM, KERALA, PIN-676305",,MALAPPURAM,MALAPURAM,KERALA
SBTR0000611,State Bank of Travancore,SBTR0000611,751009002,BHUBANESWAR,"PLOT NO. N1/40, I.R.C. VILLAGE, NAYAPALLI P.O., BHUBANESWAR P.O., KHURDA, ORISSA, PIN-751015",,BHUBANESWAR,KHURDA,ORISSA
SBTR0000612,State Bank of Travancore,SBTR0000612,302009002,JAIPUR - MI ROAD,"IST FLOOR, P.B. NO 354, SHYAM ANUKAMPA, ASHOK MARG, C-SCHEME, JAIPUR, RAJASTHAN, PIN-302001",,JAIPUR,JAIPUR,RAJASTHAN
SBTR0000613,State Bank of Travancore,SBTR0000613,110009005,ROHINI COMMERCIAL COMPLEX- NEW DELHI,"P.B.NO.10005, BALAJI PLAZA, SECTOR-8, POCKET C-9, ROHINI, NEW DELHI, DELHI, PIN-110085",,DELHI,NEW DELHI,DELHI
SBTR0000615,State Bank of Travancore,SBTR0000615,NON MICR,KOLAGAPPARA,"AP IV/1146 G, VG COMPLEX, KOLAGAPPARA BRANCH, CHULLIYODE ROAD,AMBALAVAYAL P.O., WAYANAD DISTRICT, KERALA. PIN--673593., WAYANAD, KERALA, PIN-673593",,CALICUT,KOZHIKODE,KERALA
SBTR0000616,State Bank of Travancore,SBTR0000616,NON MICR,KOLIYADI,"NO.4/71(A), (VIA) SULTHAN BATHERY, NENMENI P.O., WAYANAD, KERALA, PIN-673592",,SULTHANBATHERY,WAYANAD,KERALA
SBTR0000617,State Bank of Travancore,SBTR0000617,NON MICR,CLAPPANA,"P.B.NO.1, ALUMPEEDIKA P.O., KOLLAM, KERALA, PIN-690547",,KOLLAM,KOLLAM,KERALA
SBTR0000618,State Bank of Travancore,SBTR0000618,NON MICR,MULLARINGAD,"BUILDING  NO.VP/6/22 D, RESMI ARCADE. OPPOSITE TO BSNL, VANNAPURAM P.O., IDUKKI, KERALA, PIN-685582",,IDIKKI,IDUKKI,KERALA
SBTR0000620,State Bank of Travancore,SBTR0000620,400009001,SERVICE BRANCH- MUMBAI,"OPPO. OLD CUSTOM HOUSE, RAJGIR APARTMENTS, SHAHID BHAGAT SINGH ROAD, FORT  MUMBAI, MUMBAI, MAHARASHTRA, PIN-400023",,MUMBAI,GREATER BOMBAY,MAHARASHTRA
SBTR0000621,State Bank of Travancore,SBTR0000621,NON MICR,PANG,"PANG CHENDY P.O., VIA. KOLATHUR, MALAPPURAM, KERALA, PIN-679338",,MALAPPURAM,MALAPURAM,KERALA
SBTR0000623,State Bank of Travancore,SBTR0000623,110009006,MARUTI UDYOG LTD (GURGAON),"P.B.NO.9, PALAM GURGAON ROAD, GURGAON P.O., GURGAON, HARYANA, PIN-122015",,GURGAON,GURGAON,HARYANA
SBTR0000624,State Bank of Travancore,SBTR0000624,560009007,BANASHANKARI- BANGALORE,"P.B.NO.8505, NO.140 NEHRU ROAD, GIRI NAGAR, BANASHANKARI P.O., BANGALORE, KARNATAKA, PIN-560085",,BANGALORE,BANGALORE URBAN,KARNATAKA
SBTR0000625,State Bank of Travancore,SBTR0000625,520009102,GUNTUR,"DOOR NO.13-2-6, IST LINE, GUNTURIVARI THOTA, GUNTUR, ANDHRA PRADESH, PIN-522001",,GUNTUR,GUNTUR,ANDHRA PRADESH
SBTR0000626,State Bank of Travancore,SBTR0000626,682009010,INDUSTRIAL FINANCE BRANCH-ERNAKULAM,"P.B. NO.3689, MALANKARA CENTRE, M.G.ROAD, COLLEGE P.O., ERNAKULAM, KERALA, PIN-682035",,KOCHI,ERNAKULAM,KERALA
SBTR0000628,State Bank of Travancore,SBTR0000628,NON MICR,TIRUVALLA - NRI,"P.B.NO.29, MARTHOMA BUILDINGS, SCS JUNCTION, THIRUVALLA P.O., PATHANAMTHITTA, KERALA, PIN-689101",,THIRUVALLA,PATHANAMTHITTA,KERALA
SBTR0000629,State Bank of Travancore,SBTR0000629,NON MICR,SERVICE BRANCH- KOLLAM,"XVII/21-52, ANDAMUKKAM, KOLLAM P.O., KOLLAM, KERALA, PIN-691001",,KOLLAM,KOLLAM,KERALA
SBTR0000630,State Bank of Travancore,SBTR0000630,110009001,SERVICE BRANCH- NEW DELHI,"P.B.NO.2663  SBT HOUSE, 18/4 ARYA SAMAJ ROAD, KAROL BAGH,, NEW DELHI, DELHI, PIN-110005",,DELHI,NEW DELHI,DELHI
SBTR0000631,State Bank of Travancore,SBTR0000631,NON MICR,ATTINGAL - NRI,"PB.NO. 64, AMC 1/506, SHINE COMMERCIAL COMPLEX, ATTINGAL P.O., THIRUVANANTHAPURAM, KERALA, PIN-695101",,ATTINGAL,TRIVANDRUM,KERALA
SBTR0000632,State Bank of Travancore,SBTR0000632,NON MICR,TIRUR NRI,"CITY PARK CENTRE, EZHUR ROAD, TIRUR",,TIRUR,MALAPURAM,KERALA
SBTR0000633,State Bank of Travancore,SBTR0000633,452009002,INDORE,"P.B.NO.633  A-1 BLOCK, OPP. TO T.V. TOWER,, ""RATNA DEEP""  A.B. ROAD, INDORE, MADHYA PRADESH, PIN-452001",,INDORE,INDORE,MADHYA PRADESH
SBTR0000634,State Bank of Travancore,SBTR0000634,NON MICR,SERVICE BRANCH- KOTTAYAM,"P.B.NO.693, CMS COLLEGE CAMPUS, COLLEGE ROAD, KOTTAYAM, KERALA, PIN-686001",,KOTTAYAM,KOTTAYAM,KERALA
SBTR0000635,State Bank of Travancore,SBTR0000635,NON MICR,VENGARA,"P.B.NO.2, AVAYIL COMPLEX, VENGARA P.O., MALAPPURAM, KERALA, PIN-676304",,VENGARA,MALAPURAM,KERALA
SBTR0000636,State Bank of Travancore,SBTR0000636,NON MICR,PANOOR,"P.B.NO.2, FAYADH PLAZA, PANOOR P.O., KANNUR, KERALA, PIN-670692",,KANNUR,BIJAPUR,KARNATAKA
SBTR0000637,State Bank of Travancore,SBTR0000637,676009007,VALANCHERRY,"P.B.NO.24 AL-NAZAR BUILDINGS, IST FLOOR,, VALANCHERRY P.O., MALAPPURAM, KERALA, PIN-676552",,VALANCHERRY,MALAPURAM,KERALA
SBTR0000638,State Bank of Travancore,SBTR0000638,NON MICR,KUTTIADI,"P.B.NO.1, CHATHOTH CENTRE, WYNAD ROAD, KUTTIADI P.O., KOZHIKODE, KERALA, PIN-673508",,KUTTIADI,KOZHIKODE,KERALA
SBTR0000639,State Bank of Travancore,SBTR0000639,695009038,NALANCHIRA-THIRUVANANTHAPURAM,"P.B.NO.3105 ""REVIEW"", KURISADI JUNCTION, NALANCHIRA P.O., THIRUVANANTHAPURAM, KERALA, PIN-695015",,NALANCHIRA,TRIVANDRUM,KERALA
SBTR0000640,State Bank of Travancore,SBTR0000640,NON MICR,PULLAD,"P.B NO.1, HIGH SCHOOL JUNCTION, PULLAD P.O., PATHANAMTHITTA, KERALA, PIN-689548",,PULLAD,PATHANAMTHITTA,KERALA
SBTR0000641,State Bank of Travancore,SBTR0000641,NON MICR,VATANAPALLI,"P.B.NO.15, 7/921, KUKRIYAKATH BUILDING, VATANAPALLI P.O., THRISSUR, KERALA, PIN-680614",,VADANAPPALLY,TRISSUR,KERALA
SBTR0000642,State Bank of Travancore,SBTR0000642,682009011,ERNAKULAM - NRI,"P.B. NO.1833, 39/4149 SAFA COMPLEX, RAVIPURAM JUNCTION, M.G.ROAD, ERNAKULAM, KERALA, PIN-682016",,KOCHI,ERNAKULAM,KERALA
SBTR0000643,State Bank of Travancore,SBTR0000643,NON MICR,CHANGARAMKULAM,"P.B.NO.1, K.V.M. COMPLEX, NANANMMUKKU P.O., MALAPPURAM, KERALA, PIN-679575",,NANNAMUKKU,MALAPURAM,KERALA
SBTR0000644,State Bank of Travancore,SBTR0000644,600009012,COMMERCIAL BRANCH- CHENNAI,"NO.556, JEEVAN ANAND, ANNA SALAI, TEYNAMPET, CHENNAI 600018, TAMIL NADU",,CHENNAI,CHENNAI,TAMIL NADU
SBTR0000645,State Bank of Travancore,SBTR0000645,695009033,SSI BRANCH- THIRUVANANTHAPURAM,"ARCHANA BLDGS, STATUE ROAD, NEAR GENERAL HOSPITAL, THIRUVANANTHAPURAM, KERALA, PIN-695001",,THIRUVANANTHAPURAM,TRIVANDRUM,KERALA
SBTR0000646,State Bank of Travancore,SBTR0000646,390009002,VADODARA (BARODA),"P.B.NO.2103, 103.B.N.CHAMBERS, R.C.DUTT ROAD, ALKAPURI P.O., VADODARA, GUJARAT, PIN-390007",,VADODARA,VADODARA,GUJARAT
SBTR0000647,State Bank of Travancore,SBTR0000647,NON MICR,IRITTY,"P.B.NO.3, IST FLOOR, NITHYASAHAYAMATHA SHOPPING COMPLEX, IRITTY P.O., KANNUR, KERALA, PIN-670703",,KANNUR,BIJAPUR,KARNATAKA
SBTR0000648,State Bank of Travancore,SBTR0000648,560009008,INDUSTRIAL FINANCE BRANCH- BANGALORE,"VAYUDOOT CHAMBERS, TRINITY JUNCTION, M.G.ROAD, BANGALORE, KARNATAKA, PIN-560001",,BANGALORE,BANGALORE URBAN,KARNATAKA
SBTR0000649,State Bank of Travancore,SBTR0000649,517009002,TIRUPATI,"PB NO.14, 505/A, MOSQUE ROAD, OPP. V.V.MAHAL, TIRUPATI P.O., CHITTOOR, ANDHRA PRADESH, PIN-517501",,TIRUPATI,CHITTOR,ANDHRA PRADESH
SBTR0000650,State Bank of Travancore,SBTR0000650,110009007,COMMERCIAL BRANCH- NEW DELHI,"TRAVANCORE HOUSE, KASTURBA GANDHI MARG, NEW DELHI, DELHI, PIN-110001",,DELHI,NEW DELHI,DELHI
SBTR0000651,State Bank of Travancore,SBTR0000651,NON MICR,TALIPARAMBA,"P.B.NO.119,FATHIMA MATHA BUILDING, NATIONAL HIGHWAY, TALIPARAMBA P.O., KANNUR, KERALA, PIN-670141",,TALIPARAMBA,KANNUR,KERALA
SBTR0000652,State Bank of Travancore,SBTR0000652,NON MICR,SSI BRANCH- KOTTAYAM,"PARACKAL BUILDINGS, IIND FLOOR, LAL BAHADUR SASTRI ROAD, KOTTAYAM, KERALA, PIN-686001",,KOTTAYAM,KOTTAYAM,KERALA
SBTR0000653,State Bank of Travancore,SBTR0000653,NON MICR,SERVICE BRANCH- KOZHIKODE,"P.N.NO.226  MAYON PALACE, Y.M.C.A ROAD, KOZHIKODE P.O., KOZHIKODE, KERALA, PIN-673001",,CALICUT,KOZHIKODE,KERALA
SBTR0000654,State Bank of Travancore,SBTR0000654,NON MICR,SIVAKASI,"P.B.NO.24 RATHNA MALIGAI, 24-G, VISWANATHAM ROAD, SIVAKASI P.O., VIRUDHUNAGAR, TAMILNADU, PIN-626123",,SIVAKASI,VIRUDHUNAGAR,TAMIL NADU
SBTR0000655,State Bank of Travancore,SBTR0000655,NON MICR,SERVICE BRANCH- THRISSUR,"4TH FLOOR, GEETHANJALI, PARAMEKKAVU DEVASWOM BLDG., THRISSUR, KERALA, PIN-680001",,THRISSUR,TRISSUR,KERALA
SBTR0000656,State Bank of Travancore,SBTR0000656,395009002,SURAT,"P.B.NO: 175  RAJHANS COMPLEX, SAGRAMPURA PULTI P.O., OPP.J.K.TOWERS, RING ROAD, SURAT, GUJARAT, PIN-395002",,SURAT,SURAT,GUJARAT
SBTR0000657,State Bank of Travancore,SBTR0000657,NON MICR,KOVILPATTI,"P.B.NO.45, THANGAM COMPLEX, 185, MAIN ROAD, KOVILPATTI P.O., TUTICORIN, TAMILNADU, PIN-628501",,KOVILPATTI,THOOTHKUDI,TAMIL NADU
SBTR0000658,State Bank of Travancore,SBTR0000658,682009002,PANAMPILLY NAGAR-ERNAKULAM,"P.B. NO: 4255, SBT AVENUE, PANAMPILLY NAGAR P.O., ERNAKULAM, KERALA, PIN-682036",,KOCHI,ERNAKULAM,KERALA
SBTR0000659,State Bank of Travancore,SBTR0000659,NON MICR,SSI BRANCH- ALAPPUZHA,"P.B.NO.403 AMC 16/345, VAYALAR SUKUMARAN BUILDING, VAZHICHERRY, ALAPPUZHA, KERALA, PIN-688001",,ALAPPUZHA,ALAPUZZHA,KERALA
SBTR0000661,State Bank of Travancore,SBTR0000661,110009008,NOIDA,"P.B.NO.53 SECTOR 18, SAVITRI MARKET, NOIDA P.O., GAUTAM BUDH NAGAR, UTTAR PRADESH, PIN-201301",,NOIDA,GAUTAM BODDA NAGAR,UTTAR PRADESH
SBTR0000662,State Bank of Travancore,SBTR0000662,682009013,TREASURY BRANCH- ERNAKULAM,"P.B.NO.2591, 1ST FLOOR,, AMI TRUST BUILDING, BROADWAY, ERNAKULAM, KERALA, PIN-682031",,KOCHI,ERNAKULAM,KERALA
SBTR0000663,State Bank of Travancore,SBTR0000663,NON MICR,KALANJOOR,"PB NO.1 CHERUMANGALATHU BUILDING, KALANJOOR JUNCTION, KALANJOOR. P.O, PATHANAMTHITTA, KERALA, PIN-689694",,KALANJOOR,PATHANAMTHITTA,KERALA
SBTR0000664,State Bank of Travancore,SBTR0000664,680009011,SSI BRANCH-THRISSUR,"359/17/28,, PAZHOOR ARCADE, PATTURAICKAL JUNCTION, THRISSUR, KERALA, PIN-680001",,THRISSUR,TRISSUR,KERALA
SBTR0000665,State Bank of Travancore,SBTR0000665,NON MICR,VASHI,"PB3, JK CHAMBERS, SECTOR 17, VASHI, NAVI MUMBAI",,MUMBAI,GREATER BOMBAY,MAHARASHTRA
SBTR0000666,State Bank of Travancore,SBTR0000666,400009006,CORPORATE FINANCE BRANCH- MUMBAI,"PB NO: 11568, FREE PRESS HOUSE, 112-115, TULSIANI CHAMBERS, NARIMAN POINT, MUMBAI, MAHARASHTRA, PIN-400021",,MUMBAI,GREATER BOMBAY,MAHARASHTRA
SBTR0000667,State Bank of Travancore,SBTR0000667,400009007,ALAMCODE,"DOOR NO.499/10, P.K.S. BUILDINGS, ALAMCODE .P.O, THIRUVANANTHAPURAM, KERALA, PIN-695102",,ALAMCODE,TRIVANDRUM,KERALA
SBTR0000668,State Bank of Travancore,SBTR0000668,NON MICR,ADIMALI,"P.B.NO.19, PUTHAYATHU BUILDINGS, NEAR PRIVATE BUS STAND, ADIMALI P.O., IDUKKI, KERALA, PIN-685561",,IDIKKI,IDUKKI,KERALA
SBTR0000669,State Bank of Travancore,SBTR0000669,691009002,MG UNIVERSITY CAMPUS- KOTTAYAM,"P.B. NO.4, PRIYADARSANI HILLS P.O., KOTTAYAM, KERALA, PIN-686560",,KOTTAYAM,KOTTAYAM,KERALA
SBTR0000670,State Bank of Travancore,SBTR0000670,NON MICR,KERALA AGRI.UNI.CAMPUS BR.- VELLANIKARA,"COLLEGE OF CO-OPERATION, BANKING AND MANAGEMENT BUILDING, VELLANIKARA P.O., THRISSUR, KERALA, PIN-680654",,THRISSUR,TRISSUR,KERALA
SBTR0000671,State Bank of Travancore,SBTR0000671,NON MICR,PERSONAL BANKING BRANCH KESAVADASAPURAM,"P.B.NO.1124, LEELA TOWERS, KESAVADASAPURAM, THIRUVANANTHAPURAM, KERALA, PIN-695004",,THIRUVANANTHAPURAM,TRIVANDRUM,KERALA
SBTR0000672,State Bank of Travancore,SBTR0000672,695009039,SERVICE BRANCH BANGALORE,"IST FLOOR, 43. LAKSHMANA MUDALIAR STREET, BANGALORE, KARNATAKA, PIN-560001",,BANGALORE,BANGALORE URBAN,KARNATAKA
SBTR0000673,State Bank of Travancore,SBTR0000673,NON MICR,CHANDRA NAGAR- PALAKKAD,"P.B.NO.24, N.H.BYE PASS JUNCTION, CHANDRA NAGAR P.O., PALAKKAD, KERALA, PIN-678007",,CALICUT,KOZHIKODE,KERALA
SBTR0000674,State Bank of Travancore,SBTR0000674,NON MICR,A R M BRANCH-CHENNAI,"4/1, BALA VINAYAGAR BUILDING, 1ST FLOOR, ELDAMS ROAD, ALWARPET, CHENNAI - 600018",,CHENNAI,CHENNAI,TAMIL NADU
SBTR0000675,State Bank of Travancore,SBTR0000675,NON MICR,NILESWAR,"P.B.NO.7 DOOR NO.IX/769-F, VYAPARA BHAVAN, MAIN BAZAR, NILESWAR P.O., KASARGOD, KERALA, PIN-671314",,NILESHWAR,KASARAGOD,KERALA
SBTR0000676,State Bank of Travancore,SBTR0000676,NON MICR,A R M BRANCH- NEW DELHI,"P.B.NO.2658, 18/4 ARYA SAMAJ ROAD, KAROL BAGH, NEW DELHI, DELHI, PIN-110005",,DELHI,NEW DELHI,DELHI
SBTR0000677,State Bank of Travancore,SBTR0000677,NON MICR,KUMARANALLOOR,"IST FLOOR, CHERUNKAL BUILDINGS, KUMARANALLOOR P.O., KOTTAYAM, KERALA, PIN-686016",,KOTTAYAM,KOTTAYAM,KERALA
SBTR0000678,State Bank of Travancore,SBTR0000678,NA,"OFFICE ADMINISTRATION DEPT., HEAD OFFICE","STATE BANK OF TRAVANCORE,OFICE ADMINISTRATION DEPARTMENT,HEAD OFFICE, THIRUVANANTHAPURAM",4712356490,THIRUVANANTHAPURAM,THIRUVANANTHAPURAM,KERALA
SBTR0000679,State Bank of Travancore,SBTR0000679,NON MICR,PERSONAL BANKING BRANCH BANGALORE,"(INDIRA NAGAR), NO.729 C.M.H ROAD, OPP.CHINMAYA MISSION HOSPITAL, INDIRA NAGAR, BANGALORE, KARNATAKA, PIN-560038",,BANGALORE,BANGALORE URBAN,KARNATAKA
SBTR0000680,State Bank of Travancore,SBTR0000680,560009009,PERSONAL BANKING BRANCH THRISSUR,"P.B.NO.213, DOOR NO.XXV/68/1, NEAR SUB-WAY,, THRISSUR, KERALA, PIN-680001",,TIRUCHIRAPPALLI,TIRUCHIORAPPALLI,TAMIL NADU
SBTR0000681,State Bank of Travancore,SBTR0000681,680009012,SPECIALISED SERVICE BRANCH FOR GOVT TRANSACTIONS,"IST FLOOR,  LAKSHMI CHAMBERS,OPPOSITE PAREEKSHA BHAVAN, POOJAPURA, THIRUVANANTHAPURAM, KERALA, PIN-695 012",,THIRUVANANTHAPURAM,TRIVANDRUM,KERALA
SBTR0000682,State Bank of Travancore,SBTR0000682,NON MICR,SALT LAKE CITY- KOLKATA,"HA-1, SECTOR III, BIDHAN NAGAR, SALT LAKE CITY, KOLKATA, WEST BENGAL, PIN-700097",,KOLKATA,KOLKATA,WEST BENGAL
SBTR0000683,State Bank of Travancore,SBTR0000683,700009005,A R M BRANCH- ERNAKULAM,"P.B.NO.4261, SBT BHAVAN, PANAMPILLY NAGAR, ERNAKULAM, KERALA, PIN-682036",,KOCHI,ERNAKULAM,KERALA
SBTR0000684,State Bank of Travancore,SBTR0000684,NON MICR,KOYILANDY,"P.B.NO.14, NIYAZ BUILDING, MAIN ROAD, KOYILANDY, KOZHIKODE, KERALA, PIN-673305",,CALICUT,KOZHIKODE,KERALA
SBTR0000686,State Bank of Travancore,SBTR0000686,NON MICR,PERSONAL BANKING BRANCH NAGERCOIL,"P.B NO.130, 19 D, AYMAS BUILDING, NORTH CAR STREET, NAGERCOIL, KANYAKUMARI, TAMILNADU, PIN-629001",,NAGERCOIL,KANNIYAKUMARI,TAMIL NADU
SBTR0000687,State Bank of Travancore,SBTR0000687,NON MICR,EDAPPAL,"DOOR NO.V.P.VIII/744, CITY FACE COMMERCIAL COMPLEX, KUTTIPURAM ROAD, MALAPPURAM, KERALA, PIN-679576",,EDAPPAL,MALAPURAM,KERALA
SBTR0000688,State Bank of Travancore,SBTR0000688,679009002,RAJA  ANNAMALAIPURAM (EAST) PERSONAL BANKING BR,"84  GREENWAYS ROAD, OPP. MALLIGAI (GOVT. GUEST HOUSE) RAJA ANNAMALAIPURAM, CHENNAI, TAMILNADU, PIN-600028",,CHENNAI,CHENNAI,TAMIL NADU
SBTR0000689,State Bank of Travancore,SBTR0000689,600009013,SPECIALISED NRI BRANCH- MAVELIKKARA,"OPP. KSRTC BUS STAND, PADMABHAVAN BUILDINGS, MAVELIKKARA P.O., ALAPPUZHA, KERALA, PIN-690101",,MAVELIKKARA,ALAPUZZHA,KERALA
SBTR0000690,State Bank of Travancore,SBTR0000690,NON MICR,NANTHANCODE PB BR,"ANUGRAHA' T.C.NO.11/673(1), STANLEY SATHYANESAN ROAD, NANTHANCODE, KOWDIAR P.O., TRIVANDRUM, THIRUVANANTHAPURAM, KERALA, PIN-695 003",,THIRUVANANTHAPURAM,TRIVANDRUM,KERALA
SBTR0000691,State Bank of Travancore,SBTR0000691,695009042,PARLIAMENT STREET- NEW DELHI,"GATE NO.4A, 'JEEVAN TARA' BUILDING, 5 - PARLIAMENT STREET, NEW DELHI, NEW DELHI, DELHI, PIN-110 001",,DELHI,NEW DELHI,DELHI
SBTR0000692,State Bank of Travancore,SBTR0000692,110009009,NERUL- NAVI MUMBAI,"PLOT C-3, RUPAREL GARDENS, SECTOR 23, NERUL, NAVI MUMBAI, MAHARASHTRA, MUMBAI, MAHARASHTRA, PIN-400 706",,NEW BOMBAY,THANE,MAHARASHTRA
SBTR0000693,State Bank of Travancore,SBTR0000693,400009008,BORIVALI (WEST) P & S B BRANCH,"A1, OM SADAN, S V ROAD, GROUND FLOOR, MUMBAI - 400092",,MUMBAI,GREATER BOMBAY,MAHARASHTRA
SBTR0000694,State Bank of Travancore,SBTR0000694,400009009,INTERNATIONAL SERVICE BRANCH,"JOY'S BUILDING, NEAR ""PADMA"", M G ROAD, ERNAKULAM",,KOCHI,ERNAKULAM,KERALA
SBTR0000695,State Bank of Travancore,SBTR0000695,NON MICR,DLF- PHASE-IV- GURGAON,"S G NO.106, GALLERIA MALL. DLF GALLERIA IN PHASE IV, GURGAON, HARYANA, GURGAON, HARYANA, PIN-122 022",,GURGAON,GURGAON,HARYANA
SBTR0000698,State Bank of Travancore,SBTR0000698,NON MICR,KATTAPPANA,"JB BUILDING, BUILDING NO.X/333 F, X/333G, IDUKKI, KAVALA, BYE PASS JUNCTION, KATTAPPANA - 6850508, IDUKKI DISTRICT, KERALA STATE",,KATTAPPANA,IDUKKI,KERALA
SBTR0000699,State Bank of Travancore,SBTR0000699,NON MICR,"SECTOR-18, GURGAON (SPECIALISED COMMERCIAL AND 
PERSONAL BANKING BRANCH, GURGAON)","GROUND FLOOR, UDYOG MINAR, HSIDC BUILDING, UDYOG VIHAR, PHASE V, SECTOR-18., GURGAON, HARYANA",,GURGAON,GURGAON,HARYANA
SBTR0000701,State Bank of Travancore,SBTR0000701,110009011,CHANDIGARH,"SCO 206 - 207, SECTOR 34 A, CHANDIGARH - 160022",,CHANDIGARH,CHANDIGARH,CHANDIGARH
SBTR0000702,State Bank of Travancore,SBTR0000702,160009001,PONGUMOODU,"S-25, ANUPAMA NAGAR, PONGUMMOODU, MEDICAL COLLEGE P.O., THIRUVANANTHAPURAM - 695 011",,THIRUVANANTHAPURAM,TRIVANDRUM,KERALA
SBTR0000703,State Bank of Travancore,SBTR0000703,695009043,PATHANAMTHITTA PSB BRANCH,"KPM SQUARE, DOOR NO.PMC XXI/1068/(2) & (3) PATHANAMTHITTA PATHANAMTHITTA DISTRICT, KERALA PIN-689 645",,PATHANAMTHITTA,PATHANAMTHITTA,KERALA
SBTR0000704,State Bank of Travancore,SBTR0000704,NON MICR,PONMENI (MADURAI),"160-162, BYE PASS ROAD, FATHIMA NAGAR, PONMENI, MADURAI - 625016, TAMIL NADU",,MADURAI,MADURAI,TAMIL NADU
SBTR0000705,State Bank of Travancore,SBTR0000705,NON MICR,"PANAJI, GOA","1ST FLOOR, SHIV TOWERS, PLATO PLAZA, PANAJI, GOA",,PANAJI,NORTH GOA,GOA
SBTR0000706,State Bank of Travancore,SBTR0000706,403009002,KATHRIKADAVU,"NO.37/2156 A5, MADATHIKUNNEL BUILDINGS, KATHRIKADAVU JUNCTION, KALOOR, KOCHI - 17",,KOCHI,ERNAKULAM,KERALA
SBTR0000708,State Bank of Travancore,SBTR0000708,682009036,MOGAPPAIR,"DOOR NO.405, THIRUVALLUR STREET, PANNEER NAGAR, MOGAPPAIR, CHENNAI - 600037, TAMILNADU",,CHENNAI,CHENNAI,TAMIL NADU
SBTR0000709,State Bank of Travancore,SBTR0000709,600009014,CHELAKKARA,"RAJAPRABHA ARCADE, CHELAKKARA P.O., TRICHUR DIST., KERALA PIN 680 586",,CHELAKKARA,TRISSUR,KERALA
SBTR0000710,State Bank of Travancore,SBTR0000710,NON MICR,EDAKKARA,"MALAYIL ARCADE, MUSALIYARANGADI, MALAPPURAM DISTRICT, KERALA - 679 331",,EDAKKARA,MALAPURAM,KERALA
SBTR0000711,State Bank of Travancore,SBTR0000711,NON MICR,PUTHENATHANI,"ALWA COMPLEX, NATIONAL HIGHWAY, PUTHENATHANI, PUNNATHALA P.O., (VIA) VALANCHERRY PIN- 676 552",,PATHANAMTHITTA,PATHANAMTHITTA,KERALA
SBTR0000712,State Bank of Travancore,SBTR0000712,NON MICR,KANNUR UNIVERSITY CAMPUS,"BUILDING   NO. KP 8 - 700 B, KANNUR UNIVERSITY CAMPUS, MARANGATTUPARAMBA",,CANNUR,KANNUR,KERALA
SBTR0000713,State Bank of Travancore,SBTR0000713,NON MICR,"MARTHAHALLI, BANGALORE","NO.6, GULMOHAR ENCLAVE, AIRPORT-WHITE FIELD ROAD, BANGALORE - 560 087",,BANGALORE,BANGALORE URBAN,KARNATAKA
SBTR0000714,State Bank of Travancore,SBTR0000714,560009010,"TILAK NAGAR, NEW DELHI","WZ 112C, MEENAKSHI GARDEN, MAIN NAJAFGARH ROAD, TILAK NAGAR, NEW DELHI. PIN - 110 018",,DELHI,NEW DELHI,DELHI
SBTR0000715,State Bank of Travancore,SBTR0000715,110009013,"HRBR LAYOUT, BANGALORE","DOOR NO.995, GROUND FLOOR, 2KC, 10TH  MAIN ROAD, KALYAN NAGAR, HRBR LAYOUT, 1ST STAGE, BANGALORE - 560 033, KARNATAKA",,BANGALORE,BANGALORE URBAN,KARNATAKA
SBTR0000716,State Bank of Travancore,SBTR0000716,NON MICR,SION,"262 ,KRISHNA NIKETHAN BUILDING,SION WEST, OPP. GANDHI MARKET,MUMBAI 400022",,MUMBAI,GREATER BOMBAY,MAHARASHTRA
SBTR0000717,State Bank of Travancore,SBTR0000717,560009010,"KALADY, ERNAKULAM","S N D P BUILDING, K P VII / 661-B, KANJOOR ROAD, KALADY - 683 574, ERNAKULAM DISTRICT, KERALA",,KALADY,ERNAKULAM,KERALA
SBTR0000718,State Bank of Travancore,SBTR0000718,400009010,SAMATHANAPURAM,"NO.200G-1ST FLOOR, CHANDRA COMPLEX, TIRUCHENDUR ROAD, SAMATHANAPURAM, TIRUNELVELI - 627 002, TAMILNADU",,TIRUNELVELI,TIRUNELVELI,TAMIL NADU
SBTR0000719,State Bank of Travancore,SBTR0000719,NON MICR,"MAYUR VIHAR, NEW DELHI","1 FLOOR, SACHDEVA PLAZA II, MAYUR VIHAR PHASE II, DELHI - 110 091",,DELHI,NEW DELHI,DELHI
SBTR0000720,State Bank of Travancore,SBTR0000720,NON MICR,PERUNGUDI,"DOOR NO.7, PLOT NO.111, 1ST FLOOR, IT HIGHWAY, THIRUMALAI NAGAR, ANNEXE, PERUNGUDI, CHENNAI - 600 096",,CHENNAI,CHENNAI,TAMIL NADU
SBTR0000721,State Bank of Travancore,SBTR0000721,110009012,KALLADIKODE,KALLADIKODE,,PALAKKAD,PALAKKAD,KERALA
SBTR0000722,State Bank of Travancore,SBTR0000722,NON MICR,CHEMPAKAMANGALAM,"V.J.TOWERS, CHEMPAKAMANGALAM, KORANI P.O., THIRUVANANTHAPURAM 695104",,THIRUVANANTHAPURAM,TRIVANDRUM,KERALA
SBTR0000723,State Bank of Travancore,SBTR0000723,600009015,PUTHUR PALAKKAD,"DOOR NO.12 / 481, ABUDHABI COMPLEX, PUTHUR ROAD, NEAR HEAD P O., PALAKKAD - 678 001.",,PALAKKAD,PALAKKAD,KERALA
SBTR0000724,State Bank of Travancore,SBTR0000724,691009107,OYUR,"PANAYIL BUILDING, OYUR POST, KOLLAM DISTRICT, KERALA 691510.",0474-2468184; 0474-2468185; OYUR@SBT.CO.IN,KOLLAM,KOLLAM,KERALA
SBTR0000725,State Bank of Travancore,SBTR0000725,NON MICR,MEENANGADI,"SAROJINI COMPLEX, MAIN ROAD, MEENANGADI P.O.,WYNAD DISTRICT,KERALA 673501",,SULTHANBATHERY,WAYANAD,KERALA
SBTR0000726,State Bank of Travancore,SBTR0000726,NON MICR,WANDOOR,"12/534 ELAT PLAZA, OOTY ROAD, WANDOOR,MALAPPURAM DIST., KERALA 679328",04931 245900,WANDOOR,MALAPURAM,KERALA
SBTR0000727,State Bank of Travancore,SBTR0000727,NON MICR,KADAPPATTOOR,"DOOR NO.18/253(2),1ST FLOOR,ARYANKALA ARCADE,OPP.BISHOP'S HOUSE,ETTUMANOOR-PALA ROAD, PALA 686575,KOTTAYAM DIST,KERALA.",04822 200211,PALAI,KOTTAYAM,KERALA
SBTR0000728,State Bank of Travancore,SBTR0000728,NON MICR,CHAKKARAKKAL,"J.K.COMPLEX,MUZHAPPALA ROAD, CHAKKARAKKAL,MOWANCHERRY P.O.,KANNUR DIST KERALA PIN 670613",0497-2855234,CANNUR,KANNUR,KERALA
SBTR0000729,State Bank of Travancore,SBTR0000729,NON MICR,"EAST FORT,THRISSUR","FIRST FLOOR, CITY CASTLE, EAST FORT, THRISSUR, KERALA","0487-2429899,2429998",THRISSUR,TRISSUR,KERALA
SBTR0000730,State Bank of Travancore,SBTR0000730,NON MICR,KECHERY,"FIRST FLOOR, SANKARA COMPLEX, KECHERY, THRISSUR DISTRICT, KERALA","04885-272630, 272631",THRISSUR,TRISSUR,KERALA
SBTR0000731,State Bank of Travancore,SBTR0000731,NON MICR,KULATHUPUZHA,"KETTIDATHIL COMMERCIAL COMPLEX,NEAR PANCHAYAT BUILDING,KULATHUPUZHA PO PIN 691310,KOLLAM DIST.,KERALA",0475-2318999,KULATHUPUZHA,KOLLAM,KERALA
SBTR0000732,State Bank of Travancore,SBTR0000732,NON MICR,"NAGAMPADAM,KOTTAYAM","GROUND FLOOR, SHAMINTHAS ARCADE,NATTASSERY SH MOUNT P.O., M.C.ROAD,KOTTAYAM 686 006","0481-2560379,0481-2560380",KOTTAYAM,KOTTAYAM,KERALA
SBTR0000733,State Bank of Travancore,SBTR0000733,NON MICR,KODAKARA,"ST. GEORGE PLAZA, KP.XI/574 (A),NEAR POST OFFICE,KODAKARA,THRISSUR DIST.,KERALA 680684","0480-2724200,2724100",THRISSUR,TRISSUR,KERALA
SBTR0000734,State Bank of Travancore,SBTR0000734,NON MICR,PERUMPILAVU,"THRIVENI PLAZA,PERUMPILAVU P.O.,THRISSUR DIST.,KERALA 680519","04885-284488,289388",THRISSUR,TRISSUR,KERALA
SBTR0000735,State Bank of Travancore,SBTR0000735,NON MICR,WEST FORT THRISSUR,"1ST FLOOR, SHIVASAKTHI COMPLEX, XIX/102, POOTHOLE, THRISSUR 680004",0487-2383015,THRISSUR,TRISSUR,KERALA
SBTR0000736,State Bank of Travancore,SBTR0000736,NON MICR,KODALY,"1 ST FLOOR, PUNCHIRI ARCADE, P.O. PADY, KODALY, THRISSUR 680 699","0480-2742400, 2742500",THRISSUR,TRISSUR,KERALA
SBTR0000737,State Bank of Travancore,SBTR0000737,NON MICR,"TECHNOPARK,THIRUVANANTHAPURAM","THEJASWINI ANNEXE,TECHNOPARK CAMPUS,THIRUVANANTHAPURAM,KERALA 695 581",0471-2700011,THIRUVANANTHAPURM,TRIVANDRUM,KERALA
SBTR0000738,State Bank of Travancore,SBTR0000738,NON MICR,MALAYINKEEZHU,"M.P.IV/303 B, KATTAKKADA ROAD,MALAYINKEEZHU,THIRUVANANTHAPURAM,KERALA 695571",0471-2284005/2284006,THIRUVANANTHAPURM,TRIVANDRUM,KERALA
SBTR0000739,State Bank of Travancore,SBTR0000739,NON MICR,ANGADIPPURAM,"AP 8/752 A.PERIYAPURAM ROAD,ANGADIPPURAM P.O.,MALAPPURAM DIST KERALA 679321",4933-258888,MALAPPURAM,MALAPURAM,KERALA
SBTR0000740,State Bank of Travancore,SBTR0000740,560009012,"KORAMANGALA,BANGALORE","ZED SQUARE, GROUND FLOOR,NO.92 JYOTHI NIVAS COLLEGE,5TH BLOCK,KORAMANGALA,BANGALORE 560034",080-25520067,BANGALORE,BANGALORE URBAN,KARNATAKA
SBTR0000741,State Bank of Travancore,SBTR0000741,600009016,"K.K.NAGAR, CHENNAI","PLOT NO.97, ASHOK VENKADATRI,LAKSHMANASWAMY SALAI, K.K. NAGAR, CHENNAI 600078","044-23664224,23664554",CHENNAI,CHENNAI,TAMIL NADU
SBTR0000742,State Bank of Travancore,SBTR0000742,NA,PULAMANTHOLE,"PP 203/3 V R BUILDINGS, PULAMANTHOLE P.O., MALAPPURAM DIST., KERALA, 679223",,MALAPPURAM,MALAPURAM,KERALA
SBTR0000743,State Bank of Travancore,SBTR0000743,500009054,KUKATPALLY,"MIG 155, GROUND FLOOR, KPR COMPLEX, ROAD NO 1, KPHP COLONY, PHASE I & II, HYDERABAD.",040-23051690,HYDERABAD,HYDERABAD,ANDHRA PRADESH
SBTR0000744,State Bank of Travancore,SBTR0000744,NA,KAKKATTIL,"CITTY SHOPPING COMPLEX, MAIN ROAD, KAKKATTIL, CALICUT DIST., KERALA 673507",,CALICUT,KOZHIKODE,KERALA
SBTR0000745,State Bank of Travancore,SBTR0000745,NON-MICR,THENI,"NO.287, S.R.TOWERS, PERIYAKULAM ROAD,THENI 625531",04546-250015,THENI,THENI,TAMIL NADU
SBTR0000746,State Bank of Travancore,SBTR0000746,SPR600009017,SRIPERUMBUDUR,"PLOT NO.4, BANGALORE MAIN ROAD, NEAR JAYA HOSPITAL,SRIPERUMPUDUR-602105",044-27162200/2244,SRIPERUMBUDUR,KANCHEEPURAM,TAMIL NADU
SBTR0000747,State Bank of Travancore,SBTR0000747,GDC600009018,GUDUVANCHERI,"NELLIKUPPAM ROAD, KRISHNAPURAM 1ST STREET,NANDHIVARAM, GUDUVANCHERRY,PIN 603202.",044-27466970,GUDUVANCHERI,KANCHEEPURAM,TAMIL NADU
SBTR0000748,State Bank of Travancore,SBTR0000748,AVD600009019,AVADI,"216, AVADI-POONAMALLEE ROAD, KCC COMMERCIAL, ROAD, KCC COMMERCIAL, COMPLEX, AVADI, PIN 600054",044-26551748,AVADI,TIRUVALLUR,TAMIL NADU
SBTR0000749,State Bank of Travancore,SBTR0000749,TBM600009020,TAMBARAM,"440/2, VELACHERRY MAIN ROAD, SELAIYUR, TAMBARAM EAST, CHENNAI 600073.",044-22399326,TAMBARAM EAST,KANCHEEPURAM,TAMIL NADU
SBTR0000750,State Bank of Travancore,SBTR0000750,SPR600009017,KADAVANTHRA,"31/988 H,SUBASH CHANDRA BOSE ROAD,KADAVANTHRA-CHETTICHIRA, VYTTILA P.O.,ERNAKULAM, KERALA 682019","0484-2389230,2389280",KOCHI,ERNAKULAM,KERALA
SBTR0000751,State Bank of Travancore,SBTR0000751,400009011,"AIROLI, NAVI MUMBAI","GROUND FLOOR, SHOP NO.21,23,24&25,INTOPEX CHS, SECTOR 19, AIROLI,NAVI MUMBAI 400 708",022-26445766.26445765,THANE,THANE,MAHARASHTRA
SBTR0000752,State Bank of Travancore,SBTR0000752,400009012,"BELAPUR,NAVI MUMBAI","GROUND FLOOR, SHOP NO.17&18, SKYLARK BUILDING,SECTOR 11, BELAPUR, NAVI MUMBAI 400 614",27561997/27561998,THANE,THANE,MAHARASHTRA
SBTR0000753,State Bank of Travancore,SBTR0000753,400009013,THANE,"FLOWER VALLEY, EASTERN EXPRESS HIGHWAY, THANE",022-25471202,THANE,THANE,MAHARASHTRA
SBTR0000754,State Bank of Travancore,SBTR0000754,560009013,BELANDUR,"OUTER RING ROAD, BELLANDUR, BANGALORE-560103",080-25740133,BELANDUR,BANGALORE URBAN,KARNATAKA
SBTR0000755,State Bank of Travancore,SBTR0000755,600009021,SHOLINGANNALUR,"PLOT NO 9, DOOR NO 5, MEDAVAKKAM MAIN ROAD, SHOLINGANALLUR,CHENNAI-600119",044-24502888,SHOLINGANALLUR,KANCHEEPURAM,TAMIL NADU
SBTR0000756,State Bank of Travancore,SBTR0000756,682009039,"HIGH COURT JUNCTION, ERNAKULAM","MARKET ROAD, ERNAKULAM, COCHIN-682035",0484-2360065,KOCHI,ERNAKULAM,KERALA
SBTR0000757,State Bank of Travancore,SBTR0000757,110009014,DWARKA,"SECTOR 22, MANISH GLOBAL MALL, DWARKA, NEW DELHI-110077",9953162931,DELHI,DELHI,DELHI
SBTR0000758,State Bank of Travancore,SBTR0000758,673009013,"PSB BRANCH,KOZHIKODE","28/2453 B,CLOCK TOWER,POTTAMMAL, MAVOOR ROAD, CALICUT 673016.",9446331952,KOZHIKODE,KOZHIKODE,KERALA
SBTR0000759,State Bank of Travancore,SBTR0000759,620009004,"HAPP BRANCH, TRICHY ","HAPP TOWNSHIP, MARKET CENTRE, TIRUCHIRAPALLY 620 025",0431-2582828,TIRUCHIRAPALLY,TIRUCHIRAPALLY,TAMIL NADU
SBTR0000760,State Bank of Travancore,SBTR0000760,673009014,ERANHIPALAM,"BUILDING NO.V/215-S, NEAR PASSPORT OFFICE, ERANHIPALAM, KOZHIKODE KERALA673006 ",0495-2762243,CALICUT,KOZHIKODE,KERALA
SBTR0000761,State Bank of Travancore,SBTR0000761,689009108,CHITTAR,"CHUNDAMANNIL BLDGS, 14,ABCD WARD NO.3, CHITTAR P.O, PATHANAMTHITTA KERALA 689663",04735-255790,CHITTAR,PATHANAMTHITTA,KERALA
SBTR0000762,State Bank of Travancore,SBTR0000762,689009155,ELANTHOOR,"EP6/140 A &B, THOMPIL BLDG, ELANTHOOR P.O, PATHANAMTHITTA KERALA 689643",0468-2362327,ELANTHUR,PATHANAMTHITTA,KERALA
SBTR0000763,State Bank of Travancore,SBTR0000763,689009156,VAZHAKUNNAM,"C.P.6/372B, SUKHAR COMPLEX, CHERUKOLE P.O. PATHANAMTHITTA 689650 KERALA PH: 0468-2215505",vazhakunnam@sbt.co.in,KOZHENCHERRY,PATHANAMTHITTA,KERALA
SBTR0000764,State Bank of Travancore,SBTR0000764,,CHEMBUR,"SHOP NO 1,2,3,SHRIPAL BLDG, CHHAYA SOCIETY,SION TROMBAY ROAD, CHEMBUR, MUMBAI 400071","JAYA TAWDE, 25290221,9819055488",MUMBAI,GREATER BOMBAY,MAHARASHTRA
SBTR0000765,State Bank of Travancore,SBTR0000765,500009005,SHAMSHABAD,"D.NO.23-112/1, SHREE NIVASAM, MADHURA  NAGAR, ",08413  222327,SHAMSHABAD,RANGAREDDY,ANDHRA PRADESH
SBTR0000766,State Bank of Travancore,SBTR0000766,560009015,"BTM LAYOUT, BANGALORE","595, 7TH MAIN, 2ND STAGE, BTM LAYOUT, BANGALORE -560 076",080 26780335,BANGALORE,BANGALORE URBAN,KARNATAKA
SBTR0000767,State Bank of Travancore,SBTR0000767,560009014,RAJARAJESHWARI NAGAR,"NO.775, 60 FEET MAIN ROAD, 5TH STAGE, BEML LAYOUT, RAJARAJESHWARI NAGAR, BENGALURU 560098  ",80 28605137,BANGALORE,BANGALORE URBAN,KARNATAKA
SBTR0000768,State Bank of Travancore,SBTR0000768,689009355,VAKAYAR,"591 A, 591 B AND 591 C, VAKAYAR P.O, KONNI VILLAGE, PATHANAMTHITTA-689698 KERALA 0468-2205111",vakayar@sbt.co.in,KONNI,PATHANAMTHITTA,KERALA
SBTR0000769,State Bank of Travancore,SBTR0000769,600009022,TIRUVALLUR,"PLOT NO 3572 TNHB, KAKKALUR BYEPASS ROAD, TIRUVALLUR 602001","044-27664291, 27664292",TIRUVALLUR,THIRUVALLUR,TAMIL NADU
SBTR0000770,State Bank of Travancore,SBTR0000770,600009023,TARAMANI,"DOOR NO.12, KATTABOMMAN STREET, LINK 200 FT. ROAD, TARAMANI, CHENNAI, TAMIL NADU 600 113",9710939477,CHENNAI,CHENNAI,TAMIL NADU
SBTR0000771,State Bank of Travancore,SBTR0000771,600009024,VELACHERRY,"PLOT NO.9, OLD NO.11-B, NEW NO.20, III MAIN ROAD, RAJALEKSHMI NAGAR, VELACHERRY, CHENNAI, TAMIL NADU- 600 042",9445069988,CHENNAI,CHENNAI,TAMIL NADU
SBTR0000772,State Bank of Travancore,SBTR0000772,NON MICR,PARAKKAI,"CHINNU'S CENTRE, 1/23-29 PARAKKAI JUNCTION, GROUND FLOOR,PARAKKAI 629 601",04652-286386,NAGERCOIL,KANYAKUMARI,TAMIL NADU
SBTR0000773,State Bank of Travancore,SBTR0000773,NON MICR,PSB KADAPPAKKADA,"ARPAN TOWERS,PRATHIBA JUNCTION KOLLAM 691008",0474 276922204742769223,KOLLAM,KOLLAM,KERALA
SBTR0000774,State Bank of Travancore,SBTR0000774,NON MICR,KARUVARAKUNDU,"PATTIKADAN BUILDINGS, KIZHAKETHALA, KALIKAVU ROAD,KARUVARAKUNDU, PIN 676523",04931 280774,KARUVARAKUNDU,MALAPPURAM,KERALA
SBTR0000775,State Bank of Travancore,SBTR0000775,NON MICR,POOKKOTTUMPADAM,"P V V COMPLEX, CENTRAL BAZAR, POOKKOTTUMPADAM PO",04931 261020,MALAPPURAM,MALAPPURAM,KERALA
SBTR0000776,State Bank of Travancore,SBTR0000776,NON MICR,PUTHIYATHERU,"ASWATHI COMPLEX,CHIRAKKAL POST, KANNUR, KERALA,670011",0497-2775330,CANNUR,CANNUR,KERALA
SBTR0000778,State Bank of Travancore,SBTR0000778,700009006,BIDHAN NAGAR KOLKATA,"BLOCK CD -32 SECTOR - I, OPPOSITE TANK NO 3, SALT LAKE CITY, KOLKATA , WEST BENGAL -700064",033-23214053,BIDHANNAGAR,NORTH 24 PARGANAS,WEST BENGAL
SBTR0000779,State Bank of Travancore,SBTR0000779,691009057,PSB ADOOR,"VAISHNAVAM COMPLEX,NEAR FIRE STATION,ADOOR-691523",022-26445765,ADOOR,PATHANAMTHITTA,KERALA
SBTR0000780,State Bank of Travancore,SBTR0000780,600009025,KANCHIPURAM,"NO.35A, EKAMBARANATHAR SANNATHI STREET, BIG KANCHIPURAM 631502",044-27233780,KANCHIPURAM,KANCHIPURAM,TAMIL NADU
SBTR0000781,State Bank of Travancore,SBTR0000781,682009046,MARADU,"BLDG NO II/41, NH BYE PASS, OPP. NAIR'S HOSPITAL, KANNADIKKADU, MARADU P O, ERNAKULAM- 682 304",0484 6002012,MARADU,ERNAKULAM,KERALA
SBTR0000782,State Bank of Travancore,SBTR0000782,APPLIED FOR,ELAMAKKARA,"MADHURAYIL BUILDINGS,48/1675 B, NEAR BHAVANS VIDYA MANDIR,DESHABHIMANI ROAD,ELAMAKKARA P O, KOCHI-682026",0484-2409470,ERNAKULAM,ERNAKULAM,KERALA
SBTR0000783,State Bank of Travancore,SBTR0000783,110009016,PATPARGANJ,"RG SQUARE MALL, NEAR MAX BALAJI HOSPITAL, I.P.EXTENSION, PATPARGANJ, NEW DELHI",011-22234011,DELHI,DELHI,DELHI
SBTR0000784,State Bank of Travancore,SBTR0000784,NA,ANAKKARA,"PATHAYIL ARCADE, KUMILY MUNNAR ROAD, 8TH MILE IDUKKI",04868-283666,ANAKKARA,IDUKKI,KERALA
SBTR0000785,State Bank of Travancore,SBTR0000785,110009015,INDIRAPURAM GHAZIABAD,"GAUR GREEN CITY,PLOT NO.8, K- BLOCK, VAIBHAV KHAND, INDIRAPURAM GHAZIABAD-201014",0120-4201630,GHAZIABAD,GHAZIABAD,UTTAR PRADESH
SBTR0000786,State Bank of Travancore,SBTR0000786,680009033,MINALUR (ATHANI),"THRISSUR-WADAKKANCHERY MAIN ROAD
ATHANI P O, THRISSUR 680 581
",0487 2206680,MINALUR (ATHANI),THRISSUR,KERALA
SBTR0000787,State Bank of Travancore,SBTR0000787,NA,SHORANUR,"23/4 ,MAYILVAHANAM BUILDINGS,SHORANUR,PIN-679121",4662 224999,SHORANUR,PALAKKAD,KERALA
SBTR0000788,State Bank of Travancore,SBTR0000788,NA,TATTAMANGALAM,"II/384, (F), (G), INDIRA GANDHI MUNICIPAL BUS STAND COMPLEX MAIN ROAD, TATTAMANGALAM, 678102",04923 227277,TATTAMANGALAM,PALAKKAD,KERALA
SBTR0000789,State Bank of Travancore,SBTR0000789,NA,ATHANI,"GREEN FLY, 954E,F,G; VIP ROAD, ATHANI, ERNAKULAM",0484-2475545,NEDUMBASSERY,ERNAKULAM,KERALA
SBTR0000790,State Bank of Travancore,SBTR0000790,680009203,PSB TANA (IRINJALAKUDA),"VI/720, PENINSULA TOWERS, CHRIST COLLEGE JN; THRISSUR ROAD, IRINJALAKUDA PIN 680125, THRISSUR DIST. KERALA",0480-2821330,IRINJALAKUDA,THRISSUR,KERALA
SBTR0000791,State Bank of Travancore,SBTR0000791,680009034,KANJANI,"NO.VII/501(B), KPS SHOPPING MALL, KANDASSANKADAVU (PO), THRISSUR -680613. KERALA ",BRANCH-04872626120,KANJANI,THRISSUR,KERALA
SBTR0000792,State Bank of Travancore,SBTR0000792,400009015,"KHARGHAR, NAVI MUMBAI","SHOP NO 1 TO 5,DNYANESHWARI, SATARA CHS, PLOT B/2B, SECTOR 12, KHARGHAR NAVI MUMBAI 410210",022-27741291,NEW BOMBAY,THANE,MAHARASHTRA
SBTR0000793,State Bank of Travancore,SBTR0000793,695009085,VELLANAD,"VYAPARA BHAVAN, NEAR KSRTC DEPOT, VELLANAD, TRIVANDRUM. PIN-695543.",0472-2883700,VELLANAD,THIRUVANANTHAPURAM,KERALA
SBTR0000794,State Bank of Travancore,SBTR0000794,680009035,CHERPU,"J J COMPLEX, CHEVOOR, CHERPU PO, THRISSUR DIST., KERALA, PIN-680027",9446322079,CHERPU,THRISSUR,KERALA
SBTR0000795,State Bank of Travancore,SBTR0000795,695009083,CHACKAI,"NO.TC31/1287(12), OPP.NEW AIRPORT TERMINAL GATE, TERMINAL PLAZA, IST FLOOR , CHACKAI BYE PASS, CHACKAI, PETTAH P.O., THIRUVANANTHAPURAM, KERALA-PIN 695024","0471- 2463169 , 2463179",THIRUVANANTHAPURAM,THIRUVANANTHAPURAM,KERALA
SBTR0000796,State Bank of Travancore,SBTR0000796,695009084,KUDUPPANAKUNNU,"GOPAL TOWERS, TUMBIKONAM, KUDAPPANAKUNNU P.O., THIRUVANANTHAPURAM, KERALA, PIN-695043",0471-2731344,THIRUVANANTHAPURAM,THIRUVANANTHAPURAM,KERALA
SBTR0000797,State Bank of Travancore,SBTR0000797,NA,EDAVANNAPPARA,"AL-AMANA TOWER, VP 9/530, ELAMARAM ROAD, EDAVANNAPPARA P.O.,MALAPPURAM DIST., KERALA",GANGADHARAN  T K 9847521643,KUNDOTTY,MALAPPURAM,KERALA
SBTR0000798,State Bank of Travancore,SBTR0000798,NA,EDAVANNA,"K V COMPLEX, NILAMBUR-MANJERI ROAD, EDAVANNA P.O. MALAPPURAM DIST., KERALA, PIN-676541",SUJATHA P R 9447797971,EDAVANNA,MALAPPURAM,KERALA
SBTR0000799,State Bank of Travancore,SBTR0000799,NA,ORKATTERI,"ERAMALA ROAD, NEAR COMMUNITY HEALTH CENTRE  ORKATTERI.P.O   KOZHIKODE DISTRICT ",0496-2547015,VADAKARA,KOZHIKODE,KERALA
SBTR0000800,State Bank of Travancore,SBTR0000800,4000009016,DOMBIVALI EAST,"DUTT MILAN CHS, NEAR ICON HOSPITAL, MANPADA ROAD, DOMBIVALI EAST, THANE DISTRICT421201",0251-2449710,DOMBIVLI,THANE,MAHARASHTRA
SBTR0000801,State Bank of Travancore,SBTR0000801,682009049,VALLARPADAM,"7/331 E, I FLOOR, GOSHREE TOWERS, VALLARPADAM P O, KOCHI KERALA-682504",0484-2750777,KOCHI,ERNAKULAM,KERALA
SBTR0000802,State Bank of Travancore,SBTR0000802,NA,HSR LAYOUT BRANCH," HSR LAYOUT, NO 2331/B, 17 TH CROSS, 1ST SECTOR, HSR LAYOUR, BANGALORE",080-22581058,BANGALORE,BANGALORE,KARNATAKA
SBTR0000803,State Bank of Travancore,SBTR0000803,NA,BIDADI,"MAHADESHWARA COMPLEX, OPP KENCHANA KUPPE PANCHYAT OFFICE, JANATA COLONY, BIDADI 562109",080-27307020,BANGALORE,BANAGLORE,KARNATAKA
SBTR0000804,State Bank of Travancore,SBTR0000804,NA,THIRUVANNAMALAI,"R.V.BUILDING, NO.104/59, SANNATHI STREET, THIRUVANNAMALAI - 606601",04175-220704,THIRUVANNAMALAI,THIRUVANNAMALAI,TAMIL NADU
SBTR0000805,State Bank of Travancore,SBTR0000805,NA,"ALAGAPURAM, SALEM","RAMLAKSHMAN TOWERS, SRIRAMNAGAR, ALAGAPURAM, SALEM 636016",4272332808,SALEM,SALEM,TAMIL NADU
SBTR0000806,State Bank of Travancore,SBTR0000806,NA,VILLUPURAM,"14 C TRICHY TRUNK ROAD,VILLUPURAM PIN 605 602",04146 226661,VILLUPURAM,VILLUPURAM,TAMIL NADU
SBTR0000807,State Bank of Travancore,SBTR0000807,400009017,"PANVEL,NAVIMUMBAI","NO.26 & 27 ,NATIONAL PALACE 2,TAKKA ,PANVEL-410206",022-27482299,PANVEL,RAIGAD,MAHARASHTRA
SBTR0000808,State Bank of Travancore,SBTR0000808,682009052,VENNALA,"ADHAPPILLY TOWERS, NEAR VENNALA HSS, VENNALA P.O, KOCHI 682 028",0484- 2808250,KOCHI,ERNAKULAM,KERALA
SBTR0000809,State Bank of Travancore,SBTR0000809,APPLIED,VAZHAKKALA BRANCH,"LITTLE FLOWER CHURCH, BHARATA MATA COLLEGE, TRIKKAKARA, ERNAKULAM DISTRICT, KERALA STATE , PINCODE - 682021",9497687157,KAKKANAD,ERNAKULAM,KERALA
SBTR0000810,State Bank of Travancore,SBTR0000810,NA,KOIPURAM,"ELAMKULATHU BUILDINGS,KOIPURAM P O,KUMBANAD",0469-2663546,KOIPRAM,PATHANAMTHITTA,KERALA
SBTR0000811,State Bank of Travancore,SBTR0000811,500 009 006,"PADMARAO NAGAR, HYDERABAD","HOUSE NO.6-1-276, FLAT NO.101A, ARCHANA BLOCK, CONJEEVARAM HOUSE, PADMARAO NAGAR, SECUNDERABAD",040-27501690,TARNAKA,HYDERABAD,ANDHRA PRADESH
SBTR0000812,State Bank of Travancore,SBTR0000812,NA,CHERUPUZHA,"FIRST FLOOR, THATTACHERY  BUILDING, NEAR BUS STAND, CHERUPUZHA, KANNUR DIST, KERALA, 670511",04985- 241820,ALAKODE,CANNUR,KERALA
SBTR0000813,State Bank of Travancore,SBTR0000813,NON MICR,UDUMA,ROMANA CENTRE UDMA.P.O PIN.671319,4672237900,UDMA,KASARAGOD,KERALA
SBTR0000814,State Bank of Travancore,SBTR0000814,NON MICR,PANDIKKAD,"A T COMPLEX, PERINTAL MANNA ROAD, PANDIKKAD, MALAPPURAM - 676521",0483-2765599,PANDIKKAD,MALAPPURAM,KERALA
SBTR0000815,State Bank of Travancore,SBTR0000815,NA,PERAMBRA,OPPOSITE THRIVENI SUPERMARKET NEAR BUS STAND    PERAMBRA   PERAMBRA P.O. KOZHIKODE (DT)  PIN 673525,0496-2610710,MEPPAYUR,KOZHIKODE,KERALA
SBTR0000816,State Bank of Travancore,SBTR0000816,700009007,"RAJARHAT,KOLKATA","SWAGAT CHINAR COMPLEX, BLOCK - A - GR. FLOOR, RAJARHAT, KOLKATA - 700 157",9874444776,KOLKATA,KOLKATA,WEST BENGAL
SBTR0000817,State Bank of Travancore,SBTR0000817,110009017,"LAWRENCE ROAD,WAZIRPUR ","R G CITY CITY CENTRE ,LOCAL SHOPING CENTRE,B-BLOCK,LAWRENCE ROAD,DELHI-110035",9868210199,DELHI,DELHI,DELHI
SBTR0000818,State Bank of Travancore,SBTR0000818,400009017,DWARAKA-NEW DELHI,"UNIT NO.101 TO 104, VIKAS SURYA GALAXY, SECTOR 4, DWARAKA, NEW DELHI 110078",011-28751648,DELHI,DELHI,DELHI
SBTR0000819,State Bank of Travancore,SBTR0000819,NON MICR,RAJAPALAYAM,"65, 65A DHARMA COMPLEX,CHIDAMBARANAR STREET, RAJAPALAYAM 626117 VIRUDHUNAGAR DISTRICT, TAMILNADU - 626117",04563- 225666,RAJAPALAIYAM,VIRUDHUNAGAR,TAMIL NADU
SBTR0000820,State Bank of Travancore,SBTR0000820,NON-MICR,DEVALOKAM,"CATHOLICATE ARAMANA, DEVALOKAM PO",0481/2576650,KOTTAYAM,KOTTAYAM,KERALA
SBTR0000821,State Bank of Travancore,SBTR0000821,NON MICR,PERUMANNA,K.E.H BUILDING NEAR BUS STAND     PERUMANNA  KOZHIKODE DT 673019,0495-2435544,CALICUT,KOZHIKODE,KERALA
SBTR0000822,State Bank of Travancore,SBTR0000822,690009106,KATTANAM,"ST. STEPHEN'S ORTHODOX CHURCH BUILDING, PALLICKAL P.O, KATTANAM - 690503",0479-2330232; 0479-2330266; KATTANAM@SBT.CO.IN,MAVELIKKARA,ALAPUZHA,KERALA
SBTR0000823,State Bank of Travancore,SBTR0000823,NA,CHEPPAD,BUILDINGNO 343/IV APPETHU BUILDINGS,4792415571,CHEPPAD,ALAPUZHA,KERALA
SBTR0000824,State Bank of Travancore,SBTR0000824,680009036,KOLAZHY,"VIII/516-F, THARAPPEL COMPLEX, POOVANI-KOLAZHY, VIYYUR, TRICHUR 680010",0487-2200470; 0487-2200480; KOLAZHY@SBT.CO.IN,VIYYOOR,THRISSUR,KERALA
SBTR0000825,State Bank of Travancore,SBTR0000825,NA,PERIYAKULAM,"JDN BUILDING, NO.2, VAIGAI DAM ROAD, THENKARAI, PERIAAKULAMP.O., THENI DIST., TAMILNADU-625601",04546-230992/230991(FAX),PERIYAKULAM,THENI,TAMIL NADU
SBTR0000826,State Bank of Travancore,SBTR0000826,NA,"MSIL, MANESAR","MARUTI SUZUKI INDIA LTD., PLOT NO.3, SECTOR 3A, IMT, MANESAR, GURGAON-122016, HARYANA STATE",0124-2290079/0124-2990089; MANESAR@SBT.CO.IN,MANESAR,GURGAON,HARYANA
SBTR0000828,State Bank of Travancore,SBTR0000828,695009086,SPECIALISED NRI PREMIUM BANKING CENTRE,"TC 15/49,  I FLOOR, ""YAATHRIKA"", VELLAYAMBALAM JUNCTION, THIRUVANANTHAPURAM -PIN 695010",0471-2723222;0471-2723222;NRITVM@SBT.CO.IN,THIRUVANANTHAPURAM,THIRUVANANTHAPURAM,KERALA
SBTR0000829,State Bank of Travancore,SBTR0000829,APPLIED,KOTTAPPADY,"RITZ ARCADE,BUILDING NO 3/348B,KOTTAPPADY P O,KOTHAMANGALAM,ERNAKULAM DIST,PIN 686695",0485-2842552; 0485-2842444; 9446373243,KOTTAPPADY,ERNAKULAM,KERALA
SBTR0000830,State Bank of Travancore,SBTR0000830,400-009-018,KALYAN,"TULIP FLOWER VALLEY, KHYADAKPADA CIRCLE, BIRLA COLLEGE ROAD,KALYAN",0251-28900751,MUMBAI,THANE,MAHARASHTRA
SBTR0000831,State Bank of Travancore,SBTR0000831,632009202,ARNI,"K.A.R TOWERS, NO.118/1, SATHYAMURTHY ROAD,A RNI, THIRUVANNAMALAI DIST., TAMILNADU-632301",04173-229996; 0417-229998,ARNI,THIRUVANNAMALAI,TAMIL NADU
SBTR0000832,State Bank of Travancore,SBTR0000832,NA,ODANAVATTOM,"D.K. BUILDING, PALLIMUKKU, ODANAVATTOM P.O., VELIYAM PANCHAYAT, KOLLAM, PIN 691512",0474-2465444,ODANAVATTOM,KOLLAM,KERALA
SBTR0000833,State Bank of Travancore,SBTR0000833,NA,VALAKOM,"UP X/494A, VALAKOM JN., MC ROAD, VALAKOM P.O., KOLLAM DIST., KERALA, PIN 691532","0474-2470201, 0474-2470230",VALAKOM,KOLLAM,KERALA
SBTR0000834,State Bank of Travancore,SBTR0000834,691009159,PUNALUR-PSB,"S R COMPLEX, CHEMMENTHOOR JN., OPP.PVT.BUS STAND, PUNALUR P.O. KOLLAM  KERALA",0475-2225546,PUNALUR,KOLLAM,KERALA
SBTR0000835,State Bank of Travancore,SBTR0000835,APPLIED FOR,HORAMAVU-AGARA,"NO.53/1, PRERANA TRANQUIL, HORAMAVU MAIN  ROAD, HORAMAVU VILLAGE, BANGALORE , KARNATAKA-560043",080-25316188;080-25316189;HORAMAVU@SBT.CO.IN,BANGALORE,BANGALORE URBAN,KARNATAKA
SBTR0000836,State Bank of Travancore,SBTR0000836,APPLIED FOR,VELLOORKUNNAM,DOOR NO. 203/D THENTHADEYIL TOWERS  TR JUNCTION VELLOORKUNNAM MUVATTUPUZHA PIN 686673,0485-2835597;0485-2835597;VELLOORKUNNAM@SBT.CO.IN,MUVATTUPUZHA,ERNAKULAM,KERALA
SBTR0000837,State Bank of Travancore,SBTR0000837,NON MICR,JANAKPURI-NEWDELHI,B1-517C GROUD FLOOR JANAKPURI NEWDELHI 110058,011-28751648,JANAKPURI,DELHI,DELHI
SBTR0000838,State Bank of Travancore,SBTR0000838,NON MICR,GOMATI NAGAR-LUCKNOW,"1/43, VIKAS KHAND-1, GOMATI NAGAR LUCKNOW 226010",011-23414247,LUCKNOW,LUCKNOW,UTTAR PRADESH
SBTR0000839,State Bank of Travancore,SBTR0000839,NON MICR,MANSAROVAR-JAIPUR,"23/49, MADHYAM MARG, MANSAROVAR, JAIPUR 302020",0141-2367175,JAIPUR,JAIPUR,RAJASTHAN
SBTR0000840,State Bank of Travancore,SBTR0000840,NON MICR,MONGAM,10/577 CK COMPLEX MONGAM MALAPPURAM PIN 673642,0483-2773300,MALAPPURAM,MORAYUR,KERALA
SBTR0000841,State Bank of Travancore,SBTR0000841,NON MICR,KADAVATHUR,14/538 MAIN ROAD KADAVATHUR PIN 670676,0497-2709991,KADAVATHUR,CANNANORE,KERALA
SBTR0000842,State Bank of Travancore,SBTR0000842,NON MICR,THOKKILANGADI,TC ROAD KUTHUPARAMBA PIN 670643,0490-2367420,KUTHUPARAMBA,CANNANORE,KERALA
SBTR0000843,State Bank of Travancore,SBTR0000843,NON MICR,HOSUR,DURGA BHAVANI SQ. OPP RAILWAY STN HOSUR 635109,0422-2240014,HOSUR,KRISHNAGIRI,TAMIL NADU
SBTR0000844,State Bank of Travancore,SBTR0000844,NON MICR,SUNDARAPURAM,MADHUKARAI ROAD SUNDARAPURAM COIMBATORE-641024,0422-2240014,COIMBATORE,COIMBATORE,TAMIL NADU
SBTR0000845,State Bank of Travancore,SBTR0000845,NON MICR,POOVANTHURUTHU,POOVANTHURUTHU SHOPPING COMPLEX KOTTAYAM 686012,0481-2568213,KOTTAYAM,KOTTAYAM,KERALA
SBTR0000846,State Bank of Travancore,SBTR0000846,NON MICR,PAZHAKULAM,KP ROAD PAZHAKULAM PATHANAMTHITTA PIN 691527,04734-220506,ADOOR,PATHANAMTHITTA,KERALA
SBTR0000847,State Bank of Travancore,SBTR0000847,NON MICR,CHENGALPATTU,DR VARADARAJAN ST CHENGALPATTU 603001,044-24344906,CHENGALPATTU,KANCHEEPURAM,TAMIL NADU
SBTR0000848,State Bank of Travancore,SBTR0000848,NON MICR,KARAIKAL,CHURCH STREET KARAIKAL  PIN 609601,044-24344906,KARAIKAL,KARAIKAL,PONDICHERRY
SBTR0000849,State Bank of Travancore,SBTR0000849,NON MICR,VELLAMADOM,TIRUNELVELI MAIN ROAD VELLAMADOM 629305,04652-237211,VELLAMADOM,KANNIAKUMARI,TAMIL NADU
SBTR0000850,State Bank of Travancore,SBTR0000850,NON-MICR,GOLD POINT-THIRUVANANTHAPURAM,"1ST FLOOR, SAIRAM BUILDINGS, VELLAYAMBALAM JUNCTION, SASTHAMANGALAM P.O., THIRUVANANTHAPURAM-695010",0471-2727213; 0471-2727214; VELLAYAMBALAM@SBT.CO.IN,THIRUVANANTHAPURAM,THIRUVANANTHAPURAM,KERALA
SBTR0000851,State Bank of Travancore,SBTR0000851,NON MICR,SCT ENGG COLLEGE,SCT ENGG COLLEGE PAPPANAMCODE TRIVANDRUM KERALA,0471-2333534,PAPPANAMCODE,TRIVANDRUM,KERALA
SBTR0000852,State Bank of Travancore,SBTR0000852,629 009 103,PUDHUKADAI,"NEW SANKARA VILAS COMPLEX, MAIN ROAD, PUDUKADAI 629171, KANYAKUMARI DISTRICT",04651 233252,PUDHUKADAI,KANYAKUMARI,TAMIL NADU
SBTR0000853,State Bank of Travancore,SBTR0000853,NONMICR,GOLDLOANBR KOTTAYAM,"KARIMATTAM PLAZA, NEAR RAILWAY STN KOTTAYAM 686001",0481-25695490481-2567037,KOTTAYAM,KOTTAYAM,KERALA
SBTR0000854,State Bank of Travancore,SBTR0000854,APPLIED FOR,PSB KOTTAYAM,"UDAYA ARCADE, MARIATHURUTHU PO CHUNGAM, KOTOTAYAM 686027",0481-2567037 -2569549,KOTTAYAM,KOTAYAM,KERALA
SBTR0000855,State Bank of Travancore,SBTR0000855,682009055,VADUTHALA,"CHOCKLEY'S TOWERS,OPP.BPCL PUMP,VADUTHALA GATE KOCHI-682023",9447439505; VADUTHALA@SBT.CO.IN,KALOOR,ERNAKULAM,KERALA
SBTR0000856,State Bank of Travancore,SBTR0000856,673009801,NADAPURAM,"MALABAR CIOURTYARD, NEAR GOVT.HOSPITAL, NADAPURAM P.O., KOZHIKODE DIST., KERALA-673503",0496-2550748; NADAPURAM@SBT.CO.IN,CALICUT,KOZHIKODE,KERALA
SBTR0000857,State Bank of Travancore,SBTR0000857,673009022,WEST HILL-CALICUT,"SHILPI BUILDING, CHAKKORATHUKULAM, NADAKKAVU P.O., KOZHIKODE-673 011",WESTHILL@SBT.CO.IN,CALICUT,KOZHIKODE,KERALA
SBTR0000858,State Bank of Travancore,SBTR0000858,673009023,KAKKODI,"C P R ARCADE, BALUSSERY ROAD, KAKKODI POST",0495-2266833;0495-2266733; KAKKODI@SBT.CO.IN,KAKKODI,KOZHIKODE,KERALA
SBTR0000859,State Bank of Travancore,SBTR0000859,673009024,RAMANATTUKARA,"PACHIS, RAMANATTUKARA PO,KOZHIKODE, 673633",0495-2440063; RAMANATTUKARA@SBT.CO.IN,RAMANATTUKARA,KOZHIKODE,KERALA
SBTR0000860,State Bank of Travancore,SBTR0000860,110009020,SPIL MANESAR,"PLOT 1, PHASE 3A,SPIL IMT MANESAR HARYANA, SPILMANESAR@SBT.CO.IN",0124-2291901,MANESAR,GURGAON,HARYANA
SBTR0000861,State Bank of Travancore,SBTR0000861,APPLIED FOR,ENIKKARA,VISMAY HOUSE KP 4/4B MARKET JN ENIKKARA  KARAKULAM THIRUVANANTHAPURAM 695564,0471-2320523-2331751; ENIKKARA@SBT.CO.IN,KARAKULAM,THIRUVANANTHAPURAM,KERALA
SBTR0000862,State Bank of Travancore,SBTR0000862,NONMICR,MUKKOOTTUTHARA,CHARIVU PURAYIDATHIL BLDG MUKKOOTTUTHARA PO 686510,0481-2562225-2561491; MUKKOOTTUTHARA@SBT.CO.IN,MUKKUTTUTHARA,KOTTAYAM,KERALA
SBTR0000863,State Bank of Travancore,SBTR0000863,APPLIED FOR,PSB PALAKKAD,18/424(16) KANAKATH TOWERS WEST FORT RD PALAKKAD 678014,0491-2510773-2510771,PALAKKAD,PALAKKAD,KERALA
SBTR0000864,State Bank of Travancore,SBTR0000864,APPLIED FOR,KRISHNAGIRI,"3/8-11 RAYAKOTTAI FLYOVER, SALEM ROAD KRISHNAGIRI PIN 635001",0422-2240014 -2243355; KRISHNAGIRI@SBT.CO.IN,KRISHNAGIRI,KRISHNAGIRI,TAMIL NADU
SBTR0000865,State Bank of Travancore,SBTR0000865,APPLIED FOR,KARAIKUDI,SRK CORPORATE CENTRE SHANMUGA RAJA ROAD KARAIKUDI PIN 630002,0422-2243355 -2240014; KARAIKUDI@SBT.CO.IN,KARAIKUDI,SIVAGANGA,TAMIL NADU
SBTR0000866,State Bank of Travancore,SBTR0000866,APPLIED FOR,SOUTH MASI STREET MADURAI,SRI AMBIKA COMPLEX 57 KAMARAJAR ROAD MADURAI PIN 625009,0422-2240014 -2243355,MADURAI,MADURAI,TAMIL NADU
SBTR0000867,State Bank of Travancore,SBTR0000867,APPLIED FOR,TIDEL PARK COIMBATORE,TPCL BLDG GROUND FLR CIVIL AERODROME POST COIMBATORE PIN 641004,422.2240014 -2243355,COIMBATORE,COIMBATORE,TAMIL NADU
SBTR0000868,State Bank of Travancore,SBTR0000868,NONMICR,VILLIAPPALLI,OT BLDG YATHEEM KHANA VILLIAPALLY PO PIN 673542,0495-2360169-2360163;VILLIAPALLY@SBT.CO.IN,VILLIAPALLY,KOZHIKODE,KERALA
SBTR0000869,State Bank of Travancore,SBTR0000869,NONMICR,PERUVA,MANTHANATHEL TOWERS VAIKOM ROAD PERUVA PIN 686610,0481-2562225 -2563498;PERUVA@SBT.CO.IN,THALAYOLAPARAMBU,KOTTAYAM,KERALA
SBTR0000870,State Bank of Travancore,SBTR0000870,691009023,KARICODE-KOLLAM,"MUMTAZ COMPLEX, KARICODE, TKM COLLEGE PO, KOLLAM KERALA PIN 691005",0474-2715800; KARICODE@SBT.CO.IN,KOLLAM,KOLLAM,KERALA
SBTR0000871,State Bank of Travancore,SBTR0000871,691009024,GOLD POINT - KOLLAM,"AYK BUILDING, BEACH ROAD, KOLLAM KERALA 691001",0474-2768182; GPKOLLAM@SBT.CO.IN,KOLLAM,KOLLAM,KERALA
SBTR0000872,State Bank of Travancore,SBTR0000872,APPLIED FOR,KALLARA,"""SITHARA"", KALLARA PIN 695608. THIRUVANANTHAPURAM, KERALA",0471-2321435; 0471-2320194; AGM3TVM@SBT.CO.IN,KALLARA,THIRUVANANTHAPURAM,KERALA
SBTR0000873,State Bank of Travancore,SBTR0000873,APPLIED FOR,BADSHAHPUR,"HOUSE NO.1549, MAIN SOHNA ROAD, BADSHAHPUR, HARYANA 122101",,HADSHAHPUR,GURGAON,HARYANA
SBTR0000875,State Bank of Travancore,SBTR0000875,APPLIED FOR,"MANISH NAGAR, NAGPUR","GR FLR, FORTUNE EMPIRE, RAMESHWARI ROAD, MANISH NAGAR, T POINT, KH NO.38/2 & 38/3, BESA, NAGPUR, MAHARASHTRA STATE",022-26103258,NAGPUR,NAGPUR,MAHARASHTRA
SBTR0000876,State Bank of Travancore,SBTR0000876,APPLIED FOR,PIMPRI,"GR FLR, HOTEL KALA SAGAR, P4 PLOT, MUMBAI-PUNE ROAD, PIMPRICHINCHWAD, PUNE",022-26103258,PIMPRI CHINCHWAD,PUNE,MAHARASHTRA
SBTR0000877,State Bank of Travancore,SBTR0000877,APPLIED FOR,NASHIK,"GR FLR, AMARANAND, BESIDES TALWARE BUNGLOW, PATIL LANE NO.4, OFF COLLEGE ROAD, NASHIK, MAHARASHTRA",022-26103258,NASHIK,NASIK,MAHARASHTRA
SBTR0000878,State Bank of Travancore,SBTR0000878,APPLIED FOR,PERAVOOR,"GR FLOOR, PERAVOOR SHOPPING COMPLEX,KOTTIYOOR RD PIN 670643",0497-2709991,PERAVOOR,CANNUR,KERALA
SBTR0000879,State Bank of Travancore,SBTR0000879,APPLIED FOR,KANNUR PSB,"GR LOR, RED ROSE APARTMENT, OPP: KOYILI HOSPITAL, TALAP, KANNUR PIN 670004",0497-2709991,CANNUR,CANNUR,KERALA
SBTR0000880,State Bank of Travancore,SBTR0000880,APPLIED FOR,KASARAGOD CIVIL STATION,"GROUOND FLR, CIVIL STN, VIDYANAGAR, KASARAGOD PIN 671123",0497-2709991,KASARAGOD,KASARAGOD,KERALA
SBTR0000881,State Bank of Travancore,SBTR0000881,APPLIED FOR,GOLD POINT KANNUR,"1ST FLR, PLATINUM CENTRE, BANK ROAD, KANNUR PIN 670001",0497-2709991,CANNUR,CANNUR,KERALA
SBTR0000882,State Bank of Travancore,SBTR0000882,APPLIED FOR,KARUVANCHAL,"PATTUVAM COMPLEX,KARUVANCHAL 670571,KANNUR DT.",4602247427; KARUVANCHAL@SBT.CO.IN,TALIPARAMBA,CANNUR,KERALA
SBTR0000883,State Bank of Travancore,SBTR0000883,APPLIED FOR,GOLD POINT ERNAKULAM,"JJ BLDG. CILIL LANES ROAD, PALARIVATTOM, KODHI-682025",0484-2310171,KALOOR,ERNAKULAM,KERALA
SBTR0000884,State Bank of Travancore,SBTR0000884,APPLIED FOR,NEDUMANGAD PSB,"BLDG NO. NMC 18/289(1), VALICODE, NADUMANGAAD PO, THIRUVANANTHAPURAM",0471-2331750,NEDUMANGAD,THIRUVANANTHAPURAM,KERALA
SBTR0000885,State Bank of Travancore,SBTR0000885,APPLIED FOR,GOLD POINT PATHANAMTHITTA,PUTHUSSERIL BLDG. ST PETERS JN. NANNUVAKKAD PATHANAMTHITTA PIN 689645,0468-2224214,PATHANAMTHITTA,PATHANAMTHITTA,KERALA
SBTR0000886,State Bank of Travancore,SBTR0000886,NONMICR,KARIKODE,"PALAKKATTU BUILDING, BYE PASS ROAD, MANGATTUKAVALA, THODUPUZHA (EAST) POST 685585",04862-227715; KARIKODE@SBT.CO.IN,THODUPUZHA,IDUKKI,KERALA
SBTR0000887,State Bank of Travancore,SBTR0000887,625009009,ALANGANALLUR,"ICI GATE, U KADAI, ALANGANALLUR, MADURAI PIN 625501",0422-2240014,ALANGANALLUR,MADURAI,TAMIL NADU
SBTR0000889,State Bank of Travancore,SBTR0000889,625009008,VILLAPURAM,"DOOR NO.91, ARUPPUKOTTAI MAIN RD, VILLAPURAM, MADURAI PIN 625012",0422-2240014,MADURAI,MADURAI,TAMIL NADU
SBTR0000890,State Bank of Travancore,SBTR0000890,641009009,ANNUR,"82-A, AVANASHI ROAD, ANNUR, COIMBATORE PIN 641653 TAMILNADU",0422-2240014,ANNUR,COIMBATORE,TAMIL NADU
SBTR0000891,State Bank of Travancore,SBTR0000891,625009007,KOSAKULAM PUDUR,"SY NO.221/13, ALAGAR COIL MAIN RD, KOSAKULAMPUDUR, MADURAI PIN 625007",0422-2240014,MADURAI,MADURAI,TAMIL NADU
SBTR0000892,State Bank of Travancore,SBTR0000892,APPLIED FOR,KUMBAKONAM,"31 & 32, NAGESWARA THIRUMANJANA VEEDHI TOWN HIGH SCHOOL ROAD, KUMBAKONAM THANJAVUR PIN 612001",0422-2240014,KUMBAKONAM,THANJAVUR,TAMIL NADU
SBTR0000893,State Bank of Travancore,SBTR0000893,APPLIED FOR,TRICHY CANTONMENT,"MUTHIAH TOWERS, NO.1 ROYAL ROAD, THIRUCHIRAPALLI PIN 620001",0422-2240014,TIRUCHIRAPPALLI,TIRUCHIRAPPALLI,TAMIL NADU
SBTR0000894,State Bank of Travancore,SBTR0000894,APPLIED FOR,CHEMBERI,"MANATT BLDG, PULIKURUMBA ROAD, CHEMBERI PO PIN 670632 KERALA",0497-2709991,CHEMBERI,CANNUR,KERALA
SBTR0000895,State Bank of Travancore,SBTR0000895,APPLIED FOR,GOLD POINT THRISSUR,"359/17/28, PAZHOOR ARCADE, PATTURAICKAL JN. THRISSUR - 680001",0487-2321760,THRISSUR,THRISSUR,KERALA
SBTR0000896,State Bank of Travancore,SBTR0000896,APPLIED FOR,MOONNUPEEDIKA,"NO.544/F, MEETHALE SREENARAYANASAMAJAM SUVARNAJUBILEE BLDG  PERINJANAM PO PIN 680686 KERALA",0487-2325517,PERINGANAM,THRISSUR,KERALA
SBTR0000897,State Bank of Travancore,SBTR0000897,629009016,GOLDPOINT-NAGERCOIL,"773-D, RAJESWARI COMPLEX, M S ROAD, VADASERY, NAGERCOIL PIN 629001",04652-275855,NAGERCOIL,KANYAKUMARI,TAMIL NADU
SBTR0000898,State Bank of Travancore,SBTR0000898,682009056,ERNAKULAM SOUTH,"EEJE CHAMBERS, RAVIPURAM ROAD, VALANJAMBALAM, ERNAKULAM, PIN 682016, ERNAKULAMSOUTH@SBT.CO.IN",0484-2357898,ERNAKULAM,ERNAKULAM,KERALA
SBTR0000899,State Bank of Travancore,SBTR0000899,682009057,ALINCHUVADU,"MILLENNIUM PLAZA , M K K NAIR ROAD,  ALINCHUVADU,ERNAKULAM PIN 682024, ALINCHUVADU@SBT.CO.IN",9567763135,ERNAKULAM,ERNAKULAM,KERALA
SBTR0000900,State Bank of Travancore,SBTR0000900,NON-MICR,FINANCE AND ACCOUNTS DEPT,"STATE BANK OF TRAVANCORE, HEAD OFFICE, POOJAPURA, TRIVANDRUM- 695012",0471-2353335,THIRUVANANTHAPURAM,THIRUVANANTHAPURAM,KERALA
SBTR0000902,State Bank of Travancore,SBTR0000902,N.A,"RA/SECC,ZONAL  OFFICE,KOTTAYAM","ZONAL OFFICE,RA/SECC,KOTTAYAM-2,KERALA",0481-23034422,KOTTAYAM,KOTTAYAM,KERALA
SBTR0000910,State Bank of Travancore,SBTR0000910,NA,"TRADE FINANCE CENTRAL PROCESSING CENTRE,ERNAKULAM","CIVIL LINES ROAD, PALARIVATTOM, COCHIN 682 025","0484-2333283,2332840",KOCHI,ERNAKULAM,KERALA
SBTR0000911,State Bank of Travancore,SBTR0000911,N.A,"TRADE FINANCE CENTRAL PROCESSING CENTRE,CHENNAI","UNITED INDIA BUILDING, ESPLANADE, CHENNAI 600 108","044-25330948,25330968",CHENNAI,CHENNAI,TAMIL NADU
SBTR0000920,State Bank of Travancore,SBTR0000920,APPLIED FOR,THRIKKANNAPATHIYARAM,"PUZHANKARA HOUSE, THRIKKANNAPATHIYARAM, CHITTANDA, WADAKKANCHERY THRISSUR DISTRICT",0487-2321762,WADAKANCHERRY,THRISSUR,KERALA
SBTR0000921,State Bank of Travancore,SBTR0000921,APPLIED FOR,PAZHAYANNUR,"JP TOWER, MAIN ROAD, PAZHAYANNUR, TRICHUR 680518, KERALA",0487-2325517,PAZHAYANNUR,THRISSUR,KERALA
SBTR0000922,State Bank of Travancore,SBTR0000922,APPLIED FOR,MANUR,"DOOR NO. 4/137A, MANUR PANCHAYAT 4TH WARD, PERUMALKOIL STREET, MANUR TIRUNELVELI, TAMILNADU",04652-230684,MANUR,TIRUNELVALI,TAMIL NADU
SBTR0000923,State Bank of Travancore,SBTR0000923,APPLIED FOR,PSB BRANCH AMBALAMUKKU,"CP TOWERS, TC4/432(4), AMBALAM JN. KOWDIAR PO TRIVANDRUM-695003",0471-2320523,THIRUVANANTHAPURAM,THIRUVANANTHAPURAM,KERALA
SBTR0000924,State Bank of Travancore,SBTR0000924,APPLIED FOR,EDARIKODE,"SANK TOWER, TIRUR ROAD, EDARIKODE PIN 676501",0494-2423264,KOTTAKKAL,MALAPPURAM,KERALA
SBTR0000925,State Bank of Travancore,SBTR0000925,APPLIED FOR,"SECTOR 63, NOIDA","H-1 A/1, ZYGON SQUARE, SECTOR 63, NOIDA  UP 201307",011-28750094,NOIDA,GAUTAM BUDDHA NAGAR,UTTAR PRADESH
SBTR0000926,State Bank of Travancore,SBTR0000926,622009002,PUDUKKOTTAI,"TS NO.8534/8, RAILWAY STN ROAD, POONGA NAGAR, RAJAGOPALAPURAM, PUDUKKOTTAI PIN 622003",0422-2240014,PUDUKKOTTAI,PUDUKKOTTAI,TAMIL NADU
SBTR0000927,State Bank of Travancore,SBTR0000927,APPLIED FOR,KUMARAMPUTHUR,"5/445B, KALLADI PLAZA, NH-213,KUMARAMPUTHUR PIN 678583,PALAKKAD, KERALA",0487-2325518,MANNARKAD,PALAKKAD,KERALA
SBTR0000928,State Bank of Travancore,SBTR0000928,APPLIED FOR,KIDANGANNUR,"KALLINGAL BLDG, ARANMULA ROAD, KIDANGANNUR PIN 689514",0468-2224214,KIDANGANNUR,PATHANAMTHITTA,KERALA
SBTR0000929,State Bank of Travancore,SBTR0000929,627009011,KADAYANALLUR,"114, GOPALAKRISHNASWAMY KOIL STREET, KRISHNAPURAM, KADAYANALLUR TAMILNADU 627759, KADAYANALLUR@SBT.CO.IN",04633-244699,KADAYANALLUR,TIRUNELVALI,TAMIL NADU
SBTR0000930,State Bank of Travancore,SBTR0000930,627009010,TENKASI,"D NO.4/137A, 26/2, PERUMAL KOIL STREET, TENKASI 627811, TENKASI@SBT.CO.IN","04633-228550,228560",TENKASI,TIRUNELVALI,TAMIL NADU
SBTR0000931,State Bank of Travancore,SBTR0000931,APPLIED FOR,PATTIMATTAM,"VIII/811-A, PANCHAYATH SHOPPING COMPLEX, PATTIMATTOM P.O., PIN: 683562, PATTIMATTOM@SBT.CO.IN",0484-2687923,KIZHAKKAMBALAM,ERNAKULAM,KERALA
SBTR0000932,State Bank of Travancore,SBTR0000932,600009027,MADHAVARAM,"446 MADHAVARAM HIGH ROAD, MOOLAKKADAI, CHENNAI 600 060, MADHAVARAM@SBT.CO.IN","044-26722558,25572558",CHENNAI,CHENNAI,TAMIL NADU
SBTR0000934,State Bank of Travancore,SBTR0000934,APPLIED FOR,CHETTIKULANGARA,"MAHALAKSHMI COMPLEX THEKKENADA CHETTIKULANGARA PIN690106 KERALA,CHETTIKULANGARA@SBT.CO.IN",0479-2346226,CHETTIKULANGARA,ALAPUZHA,KERALA
SBTR0000935,State Bank of Travancore,SBTR0000935,APPLIED FOR,VASTRAPUR-AHMEDABAD,"GR FLR OPP: MOTHER MILK PALACE JUDGES BUNGLOW VASTRAPUR AHMEDABAD GUJARAT,VASTRAPUR@SBT.CO.IN",079-26269983,VASTRAPUR,AHMADABAD,GUJARAT
SBTR0000936,State Bank of Travancore,SBTR0000936,APPLIED FOR,MALAPPURAM NRI,"GR FLR, NECHIKAD BLDG UPHILL, MALAPPURAM 676501 KERALA,NRIMALAPPURAM@SBT.CO.IN",0483-2734828,MALAPPURAM,MALAPPURAM,KERALA
SBTR0000937,State Bank of Travancore,SBTR0000937,APPLIED FOR,GOLDPOINT-MALAPPURAM,"1ST FLR, NECHIKAD BLDG UPHILL, MALAPPURAM 676501 KERALA,GPMALAPPURAM@SBT.CO.IN",0483-2734828,MALAPPURAM,MALAPPURAM,KERALA
SBTR0000938,State Bank of Travancore,SBTR0000938,APPLIED FOR,GOLDPOINT-KOZHIKODE,"WHITE LINES, KALLAI ROAD, CHALAPURAM, PIN 673002 KERALA, GPCALICUT@SBT.CO.IN",0495-2360163,CALICUT,KOZHIKODE,KERALA
SBTR0000939,State Bank of Travancore,SBTR0000939,APPLIED FOR,ALANALLUR,"12/577, PANCHAYAT SHOPPING COMPLEX, ALANALLUR-VETTATHUR ROAD, ALANALLUR P.O., 678601, PALAKKAD DIST., KERALA",ALANALLUR@SBT.CO.IN,ALANALLUR,PALAKKAD,KERALA
SBTR0000940,State Bank of Travancore,SBTR0000940,APPLIED FOR,GOLDPOINT-PALAKKAD,"OPP: KPM REGENCY ROBINSON ROAD PALAKKAD PIN 678001,GPPALAKKAD@SBT.CO.IN",0491-2504696,PALAKKAD,PALAKKAD,KERALA
SBTR0000941,State Bank of Travancore,SBTR0000941,APPLIED FOR,YELAHANKA,"NO.97/8, GROUND FLOOR, 15TH  A CROSS, A SECTOR, YELAHANKA NEW TOWN, BANGALORE , KARNATAKA-560 064",YELAHANKA@SBT.CO.IN,YELAHANKA,BANGALORE URBAN,KARNATAKA
SBTR0000942,State Bank of Travancore,SBTR0000942,APPLIED FOR,DOLLARS COLONY,"NEW NO.1 (OLD.NO.535), 5TH MAIN, CHICKAMARANAHALLI, RMV 2ND STAGE, DOLLARS COLONY, BANGALORE-560 064",080-23519642; DOLLARSCOLONY@SBT.CO.IN,BANGALORE,BANGALORE URBAN,KARNATAKA
SBTR0000943,State Bank of Travancore,SBTR0000943,APPLIED FOR,VALASARAVAKKAM,"NO.37 ARCOT ROAD, VALASARAVAKKAM, CHENNAI 600087, VALASARAVAKKAM@SBT.CO.I.N  FAX: 044-24861021",044-24861022,CHENNAI,CHENNAI,TAMIL NADU
SBTR0000944,State Bank of Travancore,SBTR0000944,NONMICR,GOLDPOINT-KASARAGOD,"P.B.NO.27, MANSOOR MANSION, RAILWAY STATION ROAD, KASARAGOD P.O. ",9746585135; GPKASARAGOD@SBT.CO.IN,KASARAGOD,KASARAGOD,KERALA
SBTR0000945,State Bank of Travancore,SBTR0000945,NONMICR,GOLDPOINT-KALPETTA,"P.B.NO.14, KALPETTA PO, WAYANAD DIST., KERALA-673121",04936202348; GPKALPETTA@SBT.CO.IN,KALPETTA,WAYANAD,KERALA
SBTR0000946,State Bank of Travancore,SBTR0000946,APPLIED FOR,PAYYOLI,"BENHAR PLAZA PERAMBRA ROAD KOZHIKODE DIST 673522, PAYYOLI@SBT.CO.IN",0495-2360177,PAYYOLI,KOZHIKODE,KERALA
SBTR0000947,State Bank of Travancore,SBTR0000947,APPLIED FOR,MANNAM,"NEAR MANNAM TEMPLE, MANNAM, NORTH PARUR, ERNAKULAM KERALA 683520, MANNAM@SBT.CO.IN",0484-2440057,KOTTUVALLY,ERNAKULAM,KERALA
SBTR0000948,State Bank of Travancore,SBTR0000948,APPLIED FOR,PATTAZHI,"PATTAZHI, KOLLAM DISTRICT, KERALA",0471-2331927,PATTAZHI,KOLLAM,KERALA
SBTR0000949,State Bank of Travancore,SBTR0000949,APPLIED FOR,PALAYAMKUNNU,PALAYAMKUNNU THIRUVANANTHAPURAM KERALA PIN695146,0471-2331927,THIRUVANANTHAPURAM,THIRUVANANTHAPURAM,KERALA
SBTR0000950,State Bank of Travancore,SBTR0000950,APPLIED FOR,CHOWARA,CHOWARA THIRUVANANTHAPURAM PIN 695501 KERALA,0471-2331927,THIRUVANANTHAPURAM,THIRUVANANTHAPURAM,KERALA
SBTR0000951,State Bank of Travancore,SBTR0000951,APPLIED FOR,KANJIRAKUZHY,KANJIRAKUZHY THIRUVANANTAPURAM KERALA,0471-2331927,THIRUVANANTHAPURAM,THIRUVANANTHAPURAM,KERALA
SBTR0000952,State Bank of Travancore,SBTR0000952,APPLIED FOR,THELLAKAM,"THELLAKAM, ETTUMANOOR KOTTAYAM DISTRICT, KERALA PIN 686631",0481-2300346,ETTUMANOOR,KOTTAYAM,KERALA
SBTR0000953,State Bank of Travancore,SBTR0000953,APPLIED FOR,PULICKALKAVALA,"PULICKAL KAVALA,VZHOOR KOTTAYAM DISTRICT, KERALA",0481-2300346,VAZHOOR,KOTTAYAM,KERALA
SBTR0000954,State Bank of Travancore,SBTR0000954,APPLIED FOR,KANAKKARY,"KANAKKARY, VEMPALLY PANCHAYAT, KOTTAYAM DISTRICT, KERALA",0481-2300346,ETTUMANOOR,KOTTAYAM,KERALA
SBTR0000955,State Bank of Travancore,SBTR0000955,APPLIED FOR,ANANDAPALLY,"BUILDING NO VII/253, BATHEL HOUSE, ANANDAPALLY P.O, PATHANAMTHITTA 691523",9869051986,ADOOR,PATHANAMTHITTA,KERALA
SBTR0000956,State Bank of Travancore,SBTR0000956,APPLIED FOR,KUNNAMTHANAM,"KUNNAMTHANAM, PATHANAMTHITTA DIST  KERALA",0481-2300346,KUNNAMTHANAM,PATHANAMTHITTA,KERALA
SBTR0000957,State Bank of Travancore,SBTR0000957,APPLIED FOR,CHANDANAPALLY,CHANDANAPALLY PATHANAMTHITTA DISTRICT PIN 689648 KERALA,0481-2300346,PATHANAMTHITTA,PATHANAMTHITTA,KERALA
SBTR0000958,State Bank of Travancore,SBTR0000958,APPLIED FOR,MUPPATHADAM,"MUPPATHADAM, ERNAKULAM DISTRICT PIN 683110 KERALA",0484-2515373,,ERNAKULAM,KERALA
SBTR0000959,State Bank of Travancore,SBTR0000959,APPLIED FOR,MALAYATTOOR,MALAYATTOOR ERNAKULAM DISTRICT PIN 683587 KERALA,0484-2515373,MALAYATTUR,ERNAKULAM,KERALA
SBTR0000960,State Bank of Travancore,SBTR0000960,APPLIED FOR,ERAMALLUR,ERAMALLOOR ALAPUZHA DISCTICT KERALA PIN 688537,0484-2515373,ERAMALLUR,ALAPUZHA,KERALA
SBTR0000961,State Bank of Travancore,SBTR0000961,NONMICR,KUTTITHERUVU,"NEW SATHRATHIL  BUILDING, KUTTITHERUVU, KAYAMKULAM P.O., ALAPPUZHA DIST., KERALA-690502",KUTTITHERUVU@SBT.CO.IN,KAYAMKULAM,ALAPUZHA,KERALA
SBTR0000962,State Bank of Travancore,SBTR0000962,APPLIED FOR,VAZHITHALA,"VAZHITHALA, THODUPUZHA IDUKKI DISTRICT KERALA PIN 685583",0484-2515373,THODUPUZHA,IDUKKI,KERALA
SBTR0000963,State Bank of Travancore,SBTR0000963,APPLIED FOR,GOLDPOINT-SREEKANTAPURAM,"SREEKANTAPURAM, CANNANORE DIST. KERALA PIN 670631",0495-2360177,SREEKANDAPURAM,CANNUR,KERALA
SBTR0000964,State Bank of Travancore,SBTR0000964,APPLIED FOR,GOLDPOINT BADAGARA,"VADAKARA, KOZHIKODE DISTRICT, KERALA",0495-2360177,VADAKARA,KOZHIKODE,KERALA
SBTR0000965,State Bank of Travancore,SBTR0000965,APPLIED FOR,GOLDPOINT-MANANTHAVADY,"MANANTHAVADY, WYNAD DIST, KERALA",0495-2360177,MANANTHAVADY,WAYANAD,KERALA
SBTR0000966,State Bank of Travancore,SBTR0000966,APPLIED FOR,GOLDPOINT TANUR,"TANUR, MALAPPURAM DISTRICT, KERALA",0495-2360177,TANUR,MALAPPURAM,KERALA
SBTR0000967,State Bank of Travancore,SBTR0000967,APPLIED FOR,GOLDPOINT TIRUR,"TIRUR, MALAPPURAM DISTRICT, KERALA",0495-2360177,TIRUR,MALAPPURAM,KERALA
SBTR0000968,State Bank of Travancore,SBTR0000968,APPLIED FOR,GOLDPOINT PANOOR,PANOOR KANNUR DISTRICT KERALA,0495-2360177,PANOOR,CANNUR,KERALA
SBTR0000969,State Bank of Travancore,SBTR0000969,APPLIED FOR,KOPPAM,KOPPAM  PALAKKAD DISTRICT  KERALA,0495-2360177,KOPPAM,PALAKKAD,KERALA
SBTR0000970,State Bank of Travancore,SBTR0000970,APPLIED FOR,ARIMBOOR,"ARIMBOOR, THRISSUR  KERALA",0495-2360177,THRISSUR,THRISSUR,KERALA
SBTR0000971,State Bank of Travancore,SBTR0000971,APPLIED FOR,CHERUTHURUTHI,"CHERUTHURUTHI, TRICHUR DISTRICT, KERALA",0495-2360177,CHERUTHURUTHY,THRISSUR,KERALA
SBTR0000972,State Bank of Travancore,SBTR0000972,APPLIED FOR,KANGEYAM,KANGEYAM ERODE DISTRICT TAMILNADU,0421-2244031,KANGEYAM,ERODE,TAMIL NADU
SBTR0000973,State Bank of Travancore,SBTR0000973,APPLIED FOR,ODDANCHATRAM,"ODDANCHATRAM, DINDIGUL DISTRICT, TAMILNADU",0451-2436922,ODDANCHATRAM,DINDIGUL,TAMIL NADU
SBTR0000974,State Bank of Travancore,SBTR0000974,APPLIED FOR,USILAMPATTI,"USILAMPATTI, MADURAI, TAMILNADU",0452-2623665,USILAMPATTI,MADURAI,TAMIL NADU
SBTR0000975,State Bank of Travancore,SBTR0000975,NONMICR,RCPC-PONKUNNAM,MOHANLAL SHOPPING COMPLEX KK ROAD PONKUNNAM PIN 686506,04828-221225,PONKUNNAM,KOTTAYAM,KERALA
SBTR0000976,State Bank of Travancore,SBTR0000976,APPLIED FOR,PIZHAKU,"ST. JOHN THE BAPTIST SHOPPING COMPLEX, PIZHAKU P.O, PALA",9869051986,RAMAPURAM,KOTTAYAM,KERALA
SBTR0000981,State Bank of Travancore,SBTR0000981,670009809,KARINKALKUZHY,MAIN ROAD KARINKALKUZHU KANNUR DISTRICT KERALA,0460-2240474,CANNUR,CANNUR,KERALA
SBTR0000982,State Bank of Travancore,SBTR0000982,670009808,ANJARAKANDY,"KANNUR MEDICAL COLLEGE CAMPUS, ANJARAKKANDY P.O., KANNUR DISTRICT, KERALA",0497-2850320,ANJARAKANDY,CANNUR,KERALA
SBTR0000983,State Bank of Travancore,SBTR0000983,APPLIED FOR,RAIPUR,"GR. FLOOR, DB CITY CORPORATE PARK, RAJBANDHA MAIDAN, GE ROAD, RAIPUR, CHATISGARH, RAIPUR@SBT.CO.IN",011-28755004,RAIPUR,RAIPUR,CHHATTISGARH
SBTR0000984,State Bank of Travancore,SBTR0000984,APPLIED FOR,KAMOTHE,"GR. FLOOR, SWASTIK PARK, PLOT NO.225, SECTOR 21, KAMOTHE, NAVI MUMBAI  KAMOTHE@SBT.CO.IN",022-26103258,KAMOTHE,RAIGAD,MAHARASHTRA
SBTR0000985,State Bank of Travancore,SBTR0000985,APPLIED FOR,HANAMKONDA-WARANGAL,"1-7-871. VINAYAKA PLAZA, HUNTER ROAD, HANAMKONDA, WARANGAL, ANDHRAPRADESH",9493507555,WARANGAL,WARANGAL,ANDHRA PRADESH
SBTR0000986,State Bank of Travancore,SBTR0000986,APPLIED FOR,PATANCHERU-HYDERABAD,"PLOT NO.8, ISNAPUR CROSS ROAD, MUTHANGI GRAM PANCHAYAT, MEDAK DISTRICT, ANDHRA PRADESH PATANCHERU@SBT.CO.IN",040-23051681,PATANCHERU,MEDAK,ANDHRA PRADESH
SBTR0000987,State Bank of Travancore,SBTR0000987,APPLIED FOR,"PSB, HYDERABAD-BANJARA HILLS","H NO.8-2-293/82/L/247/A/A, MLA COLONY, BANJARA HILLS, HYDERABAD 500034",040-24654687,HYDERABAD,HYDERABAD,ANDHRA PRADESH
SBTR0000988,State Bank of Travancore,SBTR0000988,APPLIED FOR,ASHOK NAGAR-CHENNAI,"GTH B & C, 12TH AVENUE, ASHOK NAGAR, CHENNAI 600083",044-24323676,CHENNAI,CHENNAI,TAMIL NADU
SBTR0000996,State Bank of Travancore,SBTR0000996,NA,"ZONAL OFFICE,ERNAKULAM","POST BOX 3624,PANAMPILLY NAGAR, ERNAKULAM, KOCHI,KERALA",0484-2322881,ERNAKULAM,ERNAKULAM,KERALA
SBTR0000997,State Bank of Travancore,SBTR0000997,NONMICR,"ZONAL OFFICE, KOTTAYAM","POLACHIRACKAL CHAMBERS, OPP:COLLECTORATE, KOTTAYAM, KERALA-686002, ZOKTM@SBT.CO.IN","0481-2300348,2300346",KOTTAYAM,KOTTAYAM,KERALA
SBTR0000874,State Bank of Travancore,SBTR0000874,NON-MICR,"GOLDPOINT, ALAPUZHA","POPPY BUILDING CCSB ROAD, ALAPUZHA PIN 688011 PH:0477-2252220",APALAPUZHA@SBT.CO.IN,ALAPPUZHA,ALAPUZHA,KERALA
SBTR0000933,State Bank of Travancore,SBTR0000933,NON-MICR,"GOLDPOINT, THODUPUZHA","SREEVALSAM SHOPPING COMPLEX , THODUPUZHA, IDUKKI, KERALA PIN 685584 PH: 04862-225222",GPTHODUPUZHA@SBT.CO.IN,THODUPUZHA,IDUKKI,KERALA
SBTR0000979,State Bank of Travancore,SBTR0000979,APPLIED FOR,PAYYAVOOR,"KURISUMOOTTIL BUILDING, BYE PASS ROAD, PAYYAVOOR, KANNUR DISTRICT, KERALA-670633, '04602211022,2200244",0495-2762243,PAYYAVOOR,CANNUR,KERALA
SBTR0000990,State Bank of Travancore,SBTR0000990,APPLIED FOR,PAVARATTY,ST. THOMAS MONASTRY PAVARATTY KERALA PIN 680507,04735-255790,PAVARATTY,THRISSUR,KERALA
SBTR0000991,State Bank of Travancore,SBTR0000991,APPLIED FOR,ETTUMANOOR PSB BRANCH,PUNNATHURA ETTUMANOOR PIN 686631 KERALA,0468-2362327,ETTUMANOOR,KOTTAYAM,KERALA
SBTR0000992,State Bank of Travancore,SBTR0000992,APPLIED FOR,NELLIKUZHY,"MANIYATTUKUDY CENTRE, PANCHAYAT JUNCTION, NELLIKUZHY, ERNAKULAM DIST., KERALA-686691 NELLIKUZHI@SBT.CO.IN",0485-2824101,KOTHAMANGALAM,ERNAKULAM,KERALA
SBTR0001000,State Bank of Travancore,SBTR0001000,APPLIED FOR,PACHIM VIHAR NEW DELHI,PLOT 182 AVTAR ENCLAVE PACHIN VIHAR NEW DELHI 110063,011-28755004,DELHI,DELHI,DELHI
SBTR0001001,State Bank of Travancore,SBTR0001001,APPLIED FOR,KODUVALLY,"KIZHAKKOGH BLDG , THAMARASSERY ROAD KODUVALLY (OPP IOC PETROL PUMP) 673572",022-27564754,KODUVALLY,KOZHIKODE,KERALA
SBTR0001002,State Bank of Travancore,SBTR0001002,APPLIED FOR,PSB BRANCH KOZHENCHERRY,"BLDG NO 66H PARAPUZHA ANSKA COMPLEX, THEKKEMALA KOZHENCHERRY PATHANAMTHITTA 689641",022-27564754,KOZHENCHERRY,PATHANAMTHITTA,KERALA
SBTR0001003,State Bank of Travancore,SBTR0001003,APPLIED FOR,SEETHATHODE,"SY 249/2 VALIYATHURUTHIYIL BLDG , CENTRAL JN, SEETHATHODE PATHANAMTHITTA ",022-27564754,VADASSERIKARA,PATHANAMTHITTA,KERALA
SBTR0001005,State Bank of Travancore,SBTR0001005,APPLIED FOR,TRIPUNITHURA PSB,"DOOR NO XXIV/239A1, GROUNF FLR, ASSET IRIS, SEAPORT AIRPORT ROAD, VADAKKEKOTA, TRIPUNITHURA 682301",022-27564754,TRIPPUNITHURA,ERNAKULAM,KERALA
SBTR0001006,State Bank of Travancore,SBTR0001006,APPLIED FOR,IRIMPANAM,"DOOR NO 434B GR FLR KOOLIYATT BLLDG, KARINGACHIRA, TRIPUNITHURA ERNAKULAM 682301",022-27564754,TRIPPUNITHURA,ERNAKULAM,KERALA
SBTR0001007,State Bank of Travancore,SBTR0001007,APPLIED FOR,KUNDARA PSB,"KOCHU MELATHIL BLDG ARUMURIKKADA, KUNDARA KOLLAMDIST PIN 691501",022-27564754,KUNDARA,KOLLAM,KERALA
SBTR0001008,State Bank of Travancore,SBTR0001008,APPLIED FOR,KARUNAGAPALLY PSB,"BLDG 2945/III, SUPREME TOWERS, PADA SOUTH, KSRTS-MARKET ROAD, KARUNAGAPALLY ",022-27564754,KARUNAGAPALLY,KOLLAM,KERALA
SBTR0001009,State Bank of Travancore,SBTR0001009,APPLIED FOR,CHENGANNUR PSB,CHENGANNUR PO ALAPUZHA KERALA,022-27564754,CHENGANNUR,ALAPUZHA,KERALA
SBTR0001010,State Bank of Travancore,SBTR0001010,APPLIED FOR,HARIPAD PSB,HARIPAD PO  ALAPUZHA  KERALA,022-27564754,HARIPAD,ALAPUZHA,KERALA
SBTR0001011,State Bank of Travancore,SBTR0001011,APPLIED FOR,KAYAMKULAM PSB,KAYAMKULAM  PO  ALAPUZHA  KERALA,022-27564754,KAYAMKULAM,ALAPUZHA,KERALA
SBTR0001012,State Bank of Travancore,SBTR0001012,APPLIED FOR,GOLD POINT MANNAR,"MANNAR PO,  ALAPUZHA KERALA",022-27564754,MANNAR,ALAPUZHA,KERALA
SBTR0001013,State Bank of Travancore,SBTR0001013,APPLIED FOR,GOLD POINT ATTINGAL,ATTINGAL PO  THIRUVANANTHAPURAM DISTRICT KERALA,022-27564754,ATTINGAL,THIRUVANANTHAPURAM,KERALA
SBTR0001014,State Bank of Travancore,SBTR0001014,APPLIED FOR,NEYYATINKARA PSB,"M L COMPLEX  NMC V/5 MOONNUKALLINMOODU, NEYYATINKARA THIRUVANANTHAPURAM DIST",022-27564754,NEYYATTINKARA,THIRUVANANTHAPURAM,KERALA
SBTR0001015,State Bank of Travancore,SBTR0001015,APPLIED FOR,CHERTHALA PSB,"GIMS SHOPPING COMPLEX, NEAR FIRE STATION, CHERTHALA ALAPUZHA DISTRICT",022-27564754,CHERTHALA,ALAPUZHA,KERALA
SBTR0001016,State Bank of Travancore,SBTR0001016,APPLIED FOR,ALAPUZHA PSB,"KOORAYIL BLDG, WEST OF GENERAL HOSPITAL, ALAPUZHA 688011",022-27564754,ALAPPUZHA,ALAPUZHA,KERALA
SBTR0001017,State Bank of Travancore,SBTR0001017,APPLIED FOR,PERUMBAVOOR PSB,"PSB BRANCH PERUMBAVOOR, PIN 683542 ERNAKULAM DISTRICT KERALA PH:0484-2522874",022-25764754,PERUMBAVOOR,ERNAKULAM,KERALA
SBTR0001018,State Bank of Travancore,SBTR0001018,APPLIED FOR,ANGAMALLY PSB,"PSB BRANCH, ANGAMALLY PIN 683572 ERNAKULAM DISTRICT  KERALA PH: 0484-2452388",022-27564754,ANGAMALY,ERNAKULAM,KERALA
SBTR0001019,State Bank of Travancore,SBTR0001019,APPLIED FOR,ALUVA PSB,"PSB BRANCH, ALUVA PIN 683101 ERNAKULAM DISTRICT, KERALA  PH: 0484-2630647",022-27564754,ALUVA,ERNAKULAM,KERALA
SBTR0001020,State Bank of Travancore,SBTR0001020,APPLIED FOR,CHALAKUDY PSB,"PSB BRANCH, CHALAKUDY, CCMK JUNCTION CHALAKUDY NORTH PIN 680307",022-27564754,CHALAKUDY,THRISSUR,KERALA
SBTR0001021,State Bank of Travancore,SBTR0001021,APPLIED FOR,PSB KODUNGALLUR,"PSB BR, KODUNGALLUR NORTH NADA, KODUNGALLUR PIN 680664",022-27564754,KODUNGALLUR,THRISSUR,KERALA
SBTR0001022,State Bank of Travancore,SBTR0001022,APPLIED FOR,"NRI BRANCH, KOTTAKKAL","NRI BR, KOTTAKKAL, SMART TRADE CITY SHOPPING MALL, KOTTAKKAL, KERALA 686503",022-27564754,KOTTAKKAL,MALAPPURAM,KERALA
SBTR0001023,State Bank of Travancore,SBTR0001023,APPLIED FOR,P&SB MANJERI,"P&SB BR. MANJERI, CITY POINT SHOPPING MALL, KOZHIKODE ROAD, MANJERI PIN 676121",022-27564754,MANJERI,MALAPPURAM,KERALA
SBTR0001024,State Bank of Travancore,SBTR0001024,APPLIED FOR,MAYYIL,"IST FLOOR, DECCAN ARCADE, NEAR BUS STAND MAYYIL, KANNUR PIN 670602",022-27564754,MAYYIL,CANNUR,KERALA
SBTR0001025,State Bank of Travancore,SBTR0001025,APPLIED FOR,NAJAFGARH,PLOT NO 13 RAANAJI ENCLAVE MAIN NAJAFGARH ROAD,022 27564755/54/53,DELHI,DELHI,DELHI
SBTR0001026,State Bank of Travancore,SBTR0001026,APPLIED FOR,BAHADURGARH,SCF24 26 SHOPPING COMPLEX SECTOR 6 BAHADURGARH JHAJJAR  HARYANA 124507,23 27564755/54/53,BAHADURGARH,JHAJJAR,HARYANA
SBTR0001027,State Bank of Travancore,SBTR0001027,APPLIED FOR,THRITHALA,2/424(B) KELAYIL BLDG GOVT HOSPITAL THRITHALA PALAKKAD KERALA 679534,24 27564755/54/53,TIRTHALA,PALAKKAD,KERALA
SBTR0001028,State Bank of Travancore,SBTR0001028,APPLIED FOR,MUNDUR,VII/89 DAMMAM PLAZA CHUNGAM MUNDUR PALAKKAD KERAL,25 27564755/54/53,MUNDUR,PALAKKAD,KERALA
SBTR0000904,State Bank of Travancore,SBTR0000904,NON-MICR,RASMECCC THRISSUR,"IV TH FLOOR, SUN TOWER, EAST FORT. THRISSUR, 680005",4872423620,THRISSUR,THRISSUR,KERALA
SBTR0001004,State Bank of Travancore,SBTR0001004,APPLIED FOR,TINDIVANAM,"SRI PARASWANATH DIGAMBARAJAINBHAVANMGMTTRUST, 22, SUBRAMANIAKOIL STREET, TINDIVANAM",022-27564754,TINDIVANAM,VILLUPURAM,TAMIL NADU
SBTR0000827,State Bank of Travancore,SBTR0000827,NON MICR,FINANCIAL INCLUSION DAU,"HEAD OFFICE, TRIVANDRUM - 695012 KERALA-MOBILE 9447040225, 9037701206",0471-2353207,THIRUVANANTHAPURAM,THIRUVANANTHAPURAM,KERALA
SBTR0001029,State Bank of Travancore,SBTR0001029,APPLIED FOR,VADAKARA  PSB,"RAJARAM BLDG, NARAYANA NAGARAM, OPP/ BUS STAND, VADAKARA PIN 673101",022-27564754,VADAKARA,KOZHIKODE,KERALA
SBTR0001030,State Bank of Travancore,SBTR0001030,APPLIED FOR,VALLIMADUKUNNU,"SIGNA BLDG OPP/ MADHYAMAM DAILY, KOZHIKODE 673012 KERALA",022-27564754,CALICUT,KOZHIKODE,KERALA
SBTR0001031,State Bank of Travancore,SBTR0001031,APPLIED FOR,BHIVADI,"KK TOWERS, F296J RICCO CHOWK, INDUSSTRIAL AREA, BHIVADI, ALWAR DIST PIN 301019 RAJASTHAN",022-27564754,BHIWADI,ALWAR,RAJASTHAN
SBTR0001032,State Bank of Travancore,SBTR0001032,APPLIED FOR,AMRITSAR,"BALAJI CHAMBERS, SCO 3, DIST SHOPPING CENTRE, RANJIT AVENUE,AMRITSAR, PUNJAB 143001",022-27564754,AMRITSAR,AMRITSAR,PUNJAB
SBTR0000534,State Bank of Travancore,SBTR0000534,NOT APPLICABLE,FOREIGN EXCHANGE DEPARTMENT,"JOYS BUILDING, MG ROAD, ERNAKULAM 682035 PH: 022-26445717,26445724/25",022-26445758,KOCHI,ERNAKULAM,KERALA
SBTR0001033,State Bank of Travancore,SBTR0001033,APPLIED FOR,MARUTHIMOODU,"EPIX-14B, SINAI COMPLEX, K P ROAD, ELAMANNOOR PO, PATHANAMTHITTA DIST., KERALA-691524 MARUTHIMOODU@SBT.CO.IN",O4734-246460,ENADIMANGALAM,PATHANAMTHITTA,KERALA
SBTR0001034,State Bank of Travancore,SBTR0001034,APPLIED FOR,LUDHIANA,"SCO-34 FEROZ GANDHI MARKET LUDHIANA 141001, PUNJAB LUDHIANA@SBT.CO.IN",022-27564754,LUDHIANA,LUDHIANA,PUNJAB
SBTR0001036,State Bank of Travancore,SBTR0001036,APPLIED FOR,SHENOY NAGAR CHENNAI,NO. 21 & 22 LAKSHMI TALKIES ROAD SHENOY NAGAR CHENNAI 600030,044-24328258,CHENNAI,CHENNAI,TAMIL NADU
SBTR0001037,State Bank of Travancore,SBTR0001037,APPLIED FOR,MANJANADY-ASSAIGOLI,"NO.1-4-51, RV ARCADE, ASSAIGOLI, DK DISTRICT KARNATAKA PIN 574199",022-27564754,MANGALORE,DAKSHIN KANNAD,KARNATAKA
SBTR0001038,State Bank of Travancore,SBTR0001038,APPLIED FOR,PAVOORU,"3-173-1, DURGA COMPLEX, PAVOORU DK DISTRICT KARNATAKA PIN 574199",022-27564754,MANGALORE,DAKSHIN KANNAD,KARNATAKA
SBTR0001039,State Bank of Travancore,SBTR0001039,APPLIED FOR,HAREKALA,"485/D, WARD NO.3, GRAMACHAVADI-NEW PADAPU ROAD, HAREKALA PO PIN 571181, DK DISTRICT, KARNATAKA PIN 574181",022-27564754,MANGALORE,DAKSHIN KANNAD,KARNATAKA
SBTR0001040,State Bank of Travancore,SBTR0001040,APPLIED FOR,BOLIYARU,"3/46, PINTO COMPLEX, BOLIYARU PO DK DISTRICT, KARNATAKA 574153",022-27564754,MANGALORE,DAKSHIN KANNAD,KARNATAKA
SBTR0001041,State Bank of Travancore,SBTR0001041,APPLIED FOR,THRISSUR NRI,"MALABAR TOWER, NEAT KSRTC BUS STAND, KOKKALA, THRISSUR 680021",0487-2327910,THRISSUR,THRISSUR,KERALA
SBTR0001042,State Bank of Travancore,SBTR0001042,APPLIED FOR,PUZHAKKAL,"PURA TRADING CENTRE, OPP: AMALA MED. COLLEGE, AMALA NAGAR, THRISSUR 680555 KERALA",0487-2327910,THRISSUR,THRISSUR,KERALA
SBTR0001044,State Bank of Travancore,SBTR0001044,APPLIED FOR,KOTA,"3-L13, OPP: KHANDELWAL NURSING HOME, TALWANDI, KOTA, RAJASTHAN 324005",022-27564754,KOTA,KOTA,RAJASTHAN
SBTR0001045,State Bank of Travancore,SBTR0001045,APPLIED FOR,JALANDHAR,"BHAWANI TAOWER, 232, SHAHEED UDHAM SINGH NAGAR, JALANDHAR, PUNJAB 144001",022-27564754,JALANDHAR,JALANDHAR,PUNJAB
SBTR0000980,State Bank of Travancore,SBTR0000980,APPLIED FOR,MELE CHOVVA-KANNUR,"IST FLR, JYOTHI NIVAS COMPLEX, MATTANNUR ROAD, KANNUR 670006 KERALA 0497-2728009 MELECHOVVA@SBT.CO.IN",0497-2728009,CANNUR,CANNUR,KERALA
SBTR0001035,State Bank of Travancore,SBTR0001035,APPLIED FOR,ATHIKAYAM,"GR.FLR., SREEPADMAM, NARANAMOOZHI, ATHIKAYAM PATHANAMTHITTA DISTRICT KERALA  ATHIKAYAM@SBT.CO.IN, PIN 689711 ",9446034106,RANNI,PATHANAMTHITTA,KERALA
SBTR0001043,State Bank of Travancore,SBTR0001043,APPLIED FOR,"SAKTHAN NANGAR, THRISSUR","FABIS ARCADE, NEAR MTHS, GOSAIKUNNU, KURIACHIRA P.O. THRISSUR PIN 680006 KERALA EMAIL: SAKTHANNAGAR@SBT.CO.IN",022-27564754,THRISSUR,THRISSUR,KERALA
SBTR0001046,State Bank of Travancore,SBTR0001046,APPLIED FOR,SITHAMALLI,PERIYA THERU SITHAMALLI PIN 609205 TAMILNADU,044-24323677,MAYURAM(MAYILADUTHURAI),NAGAPATTINAM,TAMIL NADU
SBTR0001047,State Bank of Travancore,SBTR0001047,APPLIED FOR,THALAIGNAYIRU,"NO.9A, NORTH STREET, OPP: AGRAHARAM, THALAIGNAYIRU PO NAGAPATTINAM PIN 614712",044-24323677,THALAINAYAR,NAGAPATTINAM,TAMIL NADU
SBTR0001048,State Bank of Travancore,SBTR0001048,APPLIED FOR,VADAVANNUR,"NO.204Q, FIRST FLR, VCR COMPLEX, VADAVANNUR PALAKKAD PIN 678504",022-27564754,PALAKKAD,PALAKKAD,KERALA
SBTR0001049,State Bank of Travancore,SBTR0001049,APPLIED FOR,KALPATHY,"2/160, NEW LAKPATHY PALAKKAD 678003 KERALA",022-27564754,PALAKKAD,PALAKKAD,KERALA
SBTR0001050,State Bank of Travancore,SBTR0001050,APPLIED FOR,MANDAMARUTHI,"GROUND FLR, BLDG 96/2, MANDAMARUTHI, CHETHACKAL VILLAGE, PATHANAMTHITTA 689676",022-27564754,CHETHAKKAL,PATHANAMTHITTA,KERALA
SBTR0001051,State Bank of Travancore,SBTR0001051,APPLIED FOR,LINGAMPATTI,"KEELA COLONY, KADALAYUR ROAD, LINGAMPATTI,  TUTICORIN PIN 628502",022-27564754,TUTICORIN,TOOTHUKUDI,TAMIL NADU
SBTR0001052,State Bank of Travancore,SBTR0001052,APPLIED FOR,ERACHAKULAM,"JS HOSTEL COMPLEX, AMBALAMTHURUTHY ROAD, ERACHAKULAM KK DIST TAMILNADU PIN 629902",022-27564754,SUCHEENDRAM,KANYAKUMARI,TAMIL NADU
SBTR0001053,State Bank of Travancore,SBTR0001053,APPLIED FOR,THUCKALAY,"11/64, HIRAM COTTAGE, ERANIEL ROAD, THUCKALAY KK DIST TAMILNADU 629175",022-27564754,THUCKALAI,KANYAKUMARI,TAMIL NADU
SBTR0001054,State Bank of Travancore,SBTR0001054,APPLIED FOR,MYLERIPALAYAM,"SF 183/1A, PANCHAYAT OFFICE ROAD, MYLERIPALAYAM COIMBATORE PIN 641032",022-27564754,COIMBATORE,COIMBATORE,TAMIL NADU
SBTR0001055,State Bank of Travancore,SBTR0001055,APPLIED FOR,NAICKENPALAYAM,"NO.4/9-10, NAICKEN PALAYAM COIMBATORE PIN 641020 TAMILNADU",022-27564754,COIMBATORE,COIMBATORE,TAMIL NADU
SBTR0001056,State Bank of Travancore,SBTR0001056,APPLIED FOR,KEERANATHAM,"NO.4/36, MARIAMMANKOIL ST. KEERANATHAM, COIMBATORE PIN 641035 TAMILNADU",022-27564754,COIMBATORE,COIMBATORE,TAMIL NADU
SBTR0001057,State Bank of Travancore,SBTR0001057,APPLIED FOR,MADAPPUR,"1/382, THOTTIPALAYAM, K.V. MADAPPUR PO SOMANUR, COIMBATORE PIN 641688 TAMILNADU",022-27564754,SOMANUR,COIMBATORE,TAMIL NADU
SBTR0001058,State Bank of Travancore,SBTR0001058,APPLIED FOR,KARAVALUR,"3/489-1, MAIN ROAD, KARAVALUR, AVANASHI TALUK, TIRUPUR, TAMILNADU PIN 641670",022-27564754,KARAVALUR,COIMBATORE,TAMIL NADU
SBTR0001059,State Bank of Travancore,SBTR0001059,APPLIED FOR,KALANGAL,"276F, KALANGAL PO, SULUR, COIMBATORE PIN 641602, TAMILNADU",022-27564754,SULUR,COIMBATORE,TAMIL NADU
SBTR0001060,State Bank of Travancore,SBTR0001060,APPLIED FOR,AACHIPATTI,"NO.2, MVG NAGAR, KOVAI MAIN ROAD, POLLACHI 642002 TAMILNADU",022-27564754,POLLACHI,COIMBATORE,TAMIL NADU
SBTR0001061,State Bank of Travancore,SBTR0001061,APPLIED FOR,THENNAMANNALLUR,"4/101, THENNAMANNALLUR, THONDAMUTHUR, COIMBATORE 641105 TAMILNADU",022-27564754,THONDAMUTHUR,COIMBATORE,TAMIL NADU
SBTR0001062,State Bank of Travancore,SBTR0001062,APPLIED FOR,SEERAPPALAYAM,"2/27, SANTHOSH ILLAM, MARIAMMANKOIL STREET, BODIPALAYALM COIMBATORE 641105 TAMILNADU",022-27564754,THONDAMUTHUR,COIMBATORE,TAMIL NADU
SBTR0001063,State Bank of Travancore,SBTR0001063,APPLIED FOR,ODANTHURAI,"BLDG 1/124H, GANDHI NAGAR, 2ND BRIDGE, ODANTHURAI, OOTY MAIN ROAD, METTUPALAYAM 641301 TAMILNADU",022-27564754,METTUPALAYAM,COIMBATORE,TAMIL NADU
SBTR0001064,State Bank of Travancore,SBTR0001064,APPLIED FOR,KATTUR,"NO.109, METTUKADAI ROAD, KATTUR, COIMBATORE 641667 TAMILNADU",022-27564754,COIMBATORE,COIMBATORE,TAMIL NADU
SBTR0001065,State Bank of Travancore,SBTR0001065,APPLIED FOR,CHINNAVEERAMPATTI,"NO.3/78, CHINNAVEERAMPATTI, UDUMALAPET 642154 TAMILNADU",022-27564754,UDUMALPET,COIMBATORE,TAMIL NADU
SBTR0001066,State Bank of Travancore,SBTR0001066,APPLIED FOR,TREASURY BRANCH TRIPUNITHURA,PB NO.2 BALAJI BUILDINGS TRIPUNITHURA ERNAKULAM KERALA PIN 682301,022-27564754,TRIPPUNITHURA,ERNAKULAM,KERALA
SBTR0001067,State Bank of Travancore,SBTR0001067,APPLIED FOR,BHARANICAVU,"BLDG NO. SP 367/10, VAIM BUILDINGS BHARANICAVU PIN 690521 KERALA",022-27564754,BHARANIKKAVU,ALAPUZHA,KERALA
SBTR0001068,State Bank of Travancore,SBTR0001068,APPLIED FOR,EDAVA,VAISAKH BUILDINGS EDAVA PO THIRUVANANTHAPURAM 695311 KERALA,022-27564754,EDAVA,THIRUVANANTHAPURAM,KERALA
SBTR0001069,State Bank of Travancore,SBTR0001069,APPLIED FOR,KARINKALLATHANI,SBT KARINKALLATHANI MALAPURAM 679322 KERALA,022-27564754,PERINTALMANNA,MALAPPURAM,KERALA
SBTR0001070,State Bank of Travancore,SBTR0001070,APPLIED FOR,FARIDABAD,"SCO 63, HUDA MARKET OPP: PRISTINE MALL, SECTOR 31, FARIDABAD, HARYANA 121003",022-27564754,FARIDABAD,FARIDABAD,HARYANA
SBTR0001071,State Bank of Travancore,SBTR0001071,APPLIED FOR,MATHAMANGALAM,"FIRST FLOOR, KPN SHOPPING CENTRE, MATHAMANGALAM BAZAR KANNUR KERALA",022-27564754,MATHAMANGALAM,CANNUR,KERALA
SBTR0001072,State Bank of Travancore,SBTR0001072,APPLIED FOR,GREATER NOIDA,"SHOP NO. 20,21 BLOCK E PARSWVANATH BIBHAB PLAZA C2 ALPHA COMMERCIAL BELT GR NOIDA UP 2001308",022-27564754,NOIDA,GAUTAM BUDDHA NAGAR,UTTAR PRADESH
SBTR0001073,State Bank of Travancore,SBTR0001073,400009020,VICHUMBE,"GROUND FLOOR, GATE NO.173, AT.VICHUMBE P.O. TAL PANVEL, RAIGAD DIST-- MAHARASHTRA STATE PIN 410206 VICHUMBE@SBT.CO.IN",022-27564754,PANVEL,RAIGAD,MAHARASHTRA
SBTR0001074,State Bank of Travancore,SBTR0001074,400009021,PALM BEACH ROAD-VASHI,"GROUND FLOOR, SHOP NO.4 SATRA PLAZA, PLOT NO. 19 & 20, SECTOR 19D, PALM BEACH RD VASHI NAVIMUMBAI PIN 400703-EMAIL: PALMBEACHROAD@SBT.CO.IN",022-27564754,NEW BOMBAY,THANE,MAHARASHTRA
SBTR0001075,State Bank of Travancore,SBTR0001075,APPLIED FOR,UCHAKADA,"K.P.18/6, V.M.SADANAM,NEAR KSEB OFFICE, PAYATTUVILA, TRIVANDRUM PIN 695501 KERALA EMAIL: UCHAKADAI@SBT.CO.IN",022-27564754,NEYYATTINKARA,THIRUVANANTHAPURAM,KERALA
SBTR0001077,State Bank of Travancore,SBTR0001077,APPLIED FOR,KAIPUZHA,"ST. GELRGE FORANE BLDG, PALLITHAZHE, KAIPUZHA, KOTTAYAM PIN 686602 KERALA  0481-2711200,2711240 EMAIL: KAIPUZHA@SBT.CO.IN",0481-2711200,KAIPUZHA,KOTTAYAM,KERALA
SBTR0001080,State Bank of Travancore,SBTR0001080,APPLIED FOR,KALLEPULLY,"18/814 GEORGE CENTRE VENOLI ROAD, KALLEPULLY DIST PALAKKAD PIN 678005",,KELLEPULLY,PALAKKAD,KERALA
SBTR0001081,State Bank of Travancore,SBTR0001081,APPLIED FOR,RACPC NEW DELHI,4TH FLOOR 18/4SBT HOUSE ARYA SAMAJ ROAD KAROL BAGH NEW DELHI 111005,,DELHI,DELHI,DELHI
SBTR0001082,State Bank of Travancore,SBTR0001082,APPLIED FOR,RACPC KOLKATA,SWAGAT CHINAR COMPLEX BLOC A 1ST FLOOR RAJARHAT WEST BENGAL,,KOLKATA,KOLKATA,DELHI
SBTR0000993,State Bank of Travancore,SBTR0000993,APPLIED FOR,ZONAL OFFICE KOLLAM,"3RD FLOOR, ARPAN TOWERS, KADAPPAKADA, KOLLAM PIN 691008, KERALA PH:0474-2769212",0474-2769212,KOLLAM,KOLLAM,KERALA
SBTR0001076,State Bank of Travancore,SBTR0001076,APPLIED FOR,KARAKKAD,"SHV SHOPPING COMPLEX,KARAKKAD,ALAPPUZHA PIN 689504 KARAKKAD@SBT.CO.IN",0479-2344271,CHERTHALA,ALAPUZHA,KERALA
SBTR0001078,State Bank of Travancore,SBTR0001078,APPLIED FOR,ERUMAPETTY,"NEAR ST. MARYS HOSPITAL, ERUMAPETTY PIN 680584 ERUMAPETTY@SBT.CO.IN",0487-2331382,ERUMAPETTY,THRISSUR,KERALA
SBTR0001083,State Bank of Travancore,SBTR0001083,APPLIED FOR,RACPC KANNUR,"REGIONAL OFFICE, KANNUR 670002",0497-2709991,CANNUR,CANNUR,KERALA