ID,BANK,IFSC_CODE,MICR_CODE,BRANCH_NAME,ADDRESS,CONTACT,CITY,DISTRICT,STATE
KKBK0000131,Kotak Mahindra Bank,KKBK0000131,208485002,KANPUR-THE MALL,KANPUR-THE MALL,,(0512) 2367566,KANPUR NAGAR,UTTAR PRADESH
KKBK0000132,Kotak Mahindra Bank,KKBK0000132,492485002,RAIPUR - CHATTISGARH,RAIPUR - CHATTISGARH,,(0771) 4240701-11,RAIPUR,CHHATTISGARH
KKBK0000133,Kotak Mahindra Bank,KKBK0000133,495485002,BILASPUR,"KOTAK MAHINDRA BANK LTD, GROUND FLOOR AND 1ST FLOOR, KRISHNA VRAJ, SONCHHATRA COMPOUND HIGH COURT ROAD, NEAR R N T SQUARE, BILASPUR-495004",,BILASPUR,BILASPUR,CHHATTISGARH
KKBK0000137,Kotak Mahindra Bank,KKBK0000137,211485002,ALLAHABAD - CIVIL LINES,ALLAHABAD - CIVIL LINES,,(0532) 2427346,ALLAHABAD,UTTAR PRADESH
KKBK0000141,Kotak Mahindra Bank,KKBK0000141,226485002,LUCKNOW- SHAHJANAF ROAD,LUCKNOW- SHAHJANAF ROAD,,(0522) 3919568,LUCKNOW,UTTAR PRADESH
KKBK0000142,Kotak Mahindra Bank,KKBK0000142,273485002,GORAKHPUR BRANCH,"KOTAK MAHINDRA BANK LTD, PARK ROAD, PLOT NO.7, GORAKHPUR-273-001.",,GORAKHPUR,GORAKHPUR,UTTAR PRADESH
KKBK0000143,Kotak Mahindra Bank,KKBK0000143,282485002,AGRA - M.G.ROAD,AGRA - M.G.ROAD,,(0562) 4007838,AGRA,UTTAR PRADESH
KKBK0000144,Kotak Mahindra Bank,KKBK0000144,244485002,MORADABAD - CIVIL LINES,MORADABAD - CIVIL LINES,,(0591) 2420033,MORADABAD,UTTAR PRADESH
KKBK0000145,Kotak Mahindra Bank,KKBK0000145,263485002,RUDRAPUR - AWAS VIKAS COLONY,RUDRAPUR - AWAS VIKAS COLONY,,(05944) 245374,RUDRAPRAYAG,UTTARAKHAND
KKBK0000146,Kotak Mahindra Bank,KKBK0000146,831485002,JAMSHEDPUR - GAYATRI ENCLAVE,JAMSHEDPUR - GAYATRI ENCLAVE,,(0657) 6621809,PURBI SINGHBHUM,JHARKHAND
KKBK0000148,Kotak Mahindra Bank,KKBK0000148,NON MICR,MEERUT,"KOTAK MAHINDRA BANK LTD. PLOT NO. 179,  SCHEME NO.1, UNIVERSITY ROAD, MANGAL PANDAY NAGAR,   MEERUT - 250 004 UTTAR PRADESH.",,MEERUT,MEERUT,UTTAR PRADESH
KKBK0000149,Kotak Mahindra Bank,KKBK0000149,281485002,MATHURA,"KOTAK MAHINDRA BANK LTD., TERA TOWER,BHUTESHWAR ROAD, MATHURA-281004,UTTAR PRADESH.",,MATHURA,MATHURA,UTTAR PRADESH
KKBK0000150,Kotak Mahindra Bank,KKBK0000150,826485002,DHANBAD,"KOTAK MAHINDRA BANK LTD. GROUND FLOOR, WARD NO. 18, RAMSON ARCADE, SHASTRI NAGAR, DHANBAD - 826 001, JHARKHAND",,DHANBAD,DHANBAD,JHARKHAND
KKBK0000152,Kotak Mahindra Bank,KKBK0000152,834485002,RANCHI,"KOTAK MAHINDRA BANK LTD, NARAYANI COMPLEX, GROUND FLOOR, 5TH MAIN ROAD, NEAR OVER BRIDGE, RANCHI 834001",,JHARKHAND,JHARKHAND,JHARKHAND
KKBK0000153,Kotak Mahindra Bank,KKBK0000153,AWAITED,DEHRADUN,"KOTAK MAHINDRA BANK LTD, GROUND FLOOR & FIRST FLOOR, 56 CITY CENTER, RAJPUR ROAD, DEHRADUN, UTTARAKHAND-248001",,DEHRADUN,DEHRADUN,UTTARAKHAND
KKBK0000154,Kotak Mahindra Bank,KKBK0000154,110485056,NOIDA SECTOR 51 BRANCH,"KOTAK MAHINDRA BANK LTD, GROUND FLOOR & RARE BASEMENT, B-1/8 & B-1/9, SECTOR 51, NOIDA, UTTAR PRADESH",,NOIDA,NOIDA,UTTAR PRADESH
KKBK0000155,Kotak Mahindra Bank,KKBK0000155,AWAITED,GOVIND NAGAR BRANCH,"KOTAK MAHINDRA BANK LTD, GROUND FLOOR, SGM PLASA, 126/4/97, GOVIND NAGAR, KANPUR -208006",,KANPUR,KANPUR,UTTAR PRADESH
KKBK0000156,Kotak Mahindra Bank,KKBK0000156,AWAITED,CHAIBASA,"KOTAK MAHINDRA BANK LTD, GROUND FLOOR & FIRST FLOOR, OPPOSITE STATE BANK OF INDIA, MAIN ROAD, SADAR BAZAR, CHAIBASA, SINGHBHUMI-833201-JHARKHAND",,CHAIBASA,PASCHIMI SINGHBHUM,JHARKHAND
KKBK0000158,Kotak Mahindra Bank,KKBK0000158,380485005,AHMEDABAD-CHANGODAR,AHMEDABAD-CHANGODAR,,(02717) 658985,AHMEDABAD,GUJARAT
KKBK0000159,Kotak Mahindra Bank,KKBK0000159,380485006,AHMEDABAD - MANINAGAR,AHMEDABAD - MANINAGAR,,(079) 66060268,AHMEDABAD,GUJARAT
KKBK0000160,Kotak Mahindra Bank,KKBK0000160,382485061,VIRAMGAM - MANDAL ROAD,VIRAMGAM - MANDAL ROAD,,(02715) 28002145,AHMEDABAD,GUJARAT
KKBK0000161,Kotak Mahindra Bank,KKBK0000161,AWAITED,JAMMU,"KOTAK MAHINDRA BANK LTD, GROUND FLOOR , JHELAM RESORTS, OPP. BAHU PLAZA, RAIL HEAD COMPLEX, JAMMU-180012",,JAMMU,JAMMU,JAMMU & KASHMIR
KKBK0000172,Kotak Mahindra Bank,KKBK0000172,110485003,NEW DELHI - CONNAUGHT PLACE,NEW DELHI - CONNAUGHT PLACE,,(011) 51790000,NEW DELHI,DELHI
KKBK0000173,Kotak Mahindra Bank,KKBK0000173,110485005,NEW DELHI - GREATER KAILASH II,NEW DELHI - GREATER KAILASH II,,(011) 42194900,NEW DELHI,DELHI
KKBK0000174,Kotak Mahindra Bank,KKBK0000174,110485007,NEW DEHI - PUNJABI BAGH,NEW DEHI - PUNJABI BAGH,,(011) 42256200,NEW DELHI,DELHI
KKBK0000175,Kotak Mahindra Bank,KKBK0000175,110485006,NEW DELHI - SAFDARJUNG ENCLAVE,NEW DELHI - SAFDARJUNG ENCLAVE,,(011) 41654491,NEW DELHI,DELHI
KKBK0000176,Kotak Mahindra Bank,KKBK0000176,110485009,NEW DELHI - NEW FRIENDS COLONY,NEW DELHI - NEW FRIENDS COLONY,,(011) 41626666,NEW DELHI,DELHI
KKBK0000177,Kotak Mahindra Bank,KKBK0000177,110485008,NEW DELHI - PALAM,NEW DELHI - PALAM,,(011) 45521060-65,NEW DELHI,DELHI
KKBK0000179,Kotak Mahindra Bank,KKBK0000179,110485010,NEW DELHI - OLD RAJINDER NAGAR,NEW DELHI - OLD RAJINDER NAGAR,,(011) 42430860,NEW DELHI,DELHI
KKBK0000180,Kotak Mahindra Bank,KKBK0000180,110485040,NOIDA,"KOTAK MAHINDRA BANK LTD, GROUND FLOOR, H-1/A -16, SECTOR 63, NOIDA - 201301",,DELHI,DELHI,DELHI
KKBK0000181,Kotak Mahindra Bank,KKBK0000181,110485004,NOIDA,NOIDA,,(0120) 4364800,GAUTAM BODDA NAGAR,UTTAR PRADESH
KKBK0000182,Kotak Mahindra Bank,KKBK0000182,110485013,NEW DELHI - VASANT VIHAR,NEW DELHI - VASANT VIHAR,,9910892030-34,NEW DELHI,DELHI
KKBK0000183,Kotak Mahindra Bank,KKBK0000183,110485011,NEW DELHI - PREET VIHAR,NEW DELHI - PREET VIHAR,,9910892042-45,NEW DELHI,DELHI
KKBK0000184,Kotak Mahindra Bank,KKBK0000184,110485015,NEW DELHI - GULMOHAR PARK,NEW DELHI - GULMOHAR PARK,,(011) 46066730,NEW DELHI,DELHI
KKBK0000185,Kotak Mahindra Bank,KKBK0000185,110485012,NEW DELHI - MODEL TOWN,NEW DELHI - MODEL TOWN,,(011) 47013200,NEW DELHI,DELHI
KKBK0000186,Kotak Mahindra Bank,KKBK0000186,110485017,NEW DELHI - CHANDANI CHOWK,NEW DELHI - CHANDANI CHOWK,,(011) 23240390,NEW DELHI,DELHI
KKBK0000187,Kotak Mahindra Bank,KKBK0000187,110485016,NEW DELHI - SAKET,NEW DELHI - SAKET,,(011) 40592000,NEW DELHI,DELHI
KKBK0000190,Kotak Mahindra Bank,KKBK0000190,110485035,DELHI - KAMLANAGAR,"KOTAK MAHINDRA BANK LTD. 19 C UA , JAWAHAR NAGAR,  BUNGLOW ROAD , KAMLA NAGAR,  NEW DELHI - 110 007.",,DELHI,NEW DELHI,DELHI
KKBK0000191,Kotak Mahindra Bank,KKBK0000191,110485019,NEW DELHI - KAROL BAGH,NEW DELHI - KAROL BAGH,,(011) 45064626,NEW DELHI,DELHI
KKBK0000192,Kotak Mahindra Bank,KKBK0000192,110485018,NEW DELHI - MANSAROVAR GARDEN,NEW DELHI - MANSAROVAR GARDEN,,(011) 45519606,NEW DELHI,DELHI
KKBK0000193,Kotak Mahindra Bank,KKBK0000193,110485023,NEW DELHI - DWARKA,NEW DELHI - DWARKA,,(011) 45509453,NEW DELHI,DELHI
KKBK0000194,Kotak Mahindra Bank,KKBK0000194,110485021,NEW DELHI - PANCHSHEEL ENCLAVE,NEW DELHI - PANCHSHEEL ENCLAVE,,011) 41749364,NEW DELHI,DELHI
KKBK0000195,Kotak Mahindra Bank,KKBK0000195,110485025,NEW DELHI - GREATER KAILASH I,NEW DELHI - GREATER KAILASH I,,(011) 66082501,NEW DELHI,DELHI
KKBK0000196,Kotak Mahindra Bank,KKBK0000196,110485022,NEW DELHI - SOUTH EXTENSION,NEW DELHI - SOUTH EXTENSION,,(011) 46039489,NEW DELHI,DELHI
KKBK0000197,Kotak Mahindra Bank,KKBK0000197,110485026,NEW DELHI - ROHINI,NEW DELHI - ROHINI,,(011) 47011528,NEW DELHI,DELHI
KKBK0000198,Kotak Mahindra Bank,KKBK0000198,110485024,NEW DELHI - LAJPAT NAGAR,NEW DELHI - LAJPAT NAGAR,,(011) 46579613,NEW DELHI,DELHI
KKBK0000199,Kotak Mahindra Bank,KKBK0000199,110485028,NEW DELHI - DEFENCE COLONY,NEW DELHI - DEFENCE COLONY,,(011) 46595271,NEW DELHI,DELHI
KKBK0000201,Kotak Mahindra Bank,KKBK0000201,110485029,NEW DELHI - NEHRU PLACE,NEW DELHI - NEHRU PLACE,,(011) 46512701,NEW DELHI,DELHI
KKBK0000202,Kotak Mahindra Bank,KKBK0000202,110485030,DELHI - PASCHIM VIHAR,"KOTAK MAHINDRA BANK LTD.  A-3/14 PASCHIM VIHAR, NEW DELHI - 110 063 DELHI",,DELHI,NEW DELHI,DELHI
KKBK0000203,Kotak Mahindra Bank,KKBK0000203,110485046,MAYUR VIHAR,"KOTAK MAHINDRA BANK LIMITED, GROUND & FIRST FLOOR, V 4, MAYUR PLAZA IV, PLOT NO 4, DDA LSC SCHEME, MAYUR VIHAR PHASE I, NEW DELHI – 110091",,NEW DELHI,NEW DELHI,DELHI
KKBK0000204,Kotak Mahindra Bank,KKBK0000204,110485031,DELHI - JANAKPURI,"KOTAK MAHINDRA BANK LTD.   A -3 /12, JANAKPURI, NEW DELHI -110 058, DELHI",,DELHI,NEW DELHI,DELHI
KKBK0000205,Kotak Mahindra Bank,KKBK0000205,110485032,DELHI - OKHLA,"KOTAK MAHINDRA BANK LTD.    BASEMENT,GR FLR,IST & 2ND FLR PLOT NO 3, LSC, OKHLA INDUSTRIAL AREA - II NEW DELHI -110 020.DELHI.",,DELHI,NEW DELHI,DELHI
KKBK0000206,Kotak Mahindra Bank,KKBK0000206,110485034,DELHI - VIKASPURI,"KOTAK MAHINDRA BANK LTD. G-9, VIKAS PURI, NEW DELHI - 110 018",,DELHI,NEW DELHI,DELHI
KKBK0000208,Kotak Mahindra Bank,KKBK0000208,110485037,DELHI - PITAMPURA,"KOTAK MAHINDRA BANK LTD. GROUND FLOOR 6, DELHI UNIVERSITY TEACHERS HOUSING CO-OP. SOCIETY VAISHALI, PITAMPURA NEW DELHI - 110 088.",,DELHI,NEW DELHI,DELHI
KKBK0000209,Kotak Mahindra Bank,KKBK0000209,110485038,DELHI - RAJOURI GARDEN,"KOTAK MAHINDRA BANK LTD. J-13/65, RAJOURI GARDEN, NEW DELHI-110027",,DELHI,NEW DELHI,DELHI
KKBK0000210,Kotak Mahindra Bank,KKBK0000210,110485042,NAYA BAZAR,"KOTAK MAHINDRA BANK LTD. 4079, GROUND FLOOR, NAYA BAZAR, DELHI - 110006",,DELHI,DELHI,DELHI
KKBK0000211,Kotak Mahindra Bank,KKBK0000211,110485041,YOJNA VIHAR,"KOTAK MAHINDRA BANK LTD, .A 23 ,YOJNA VIHAR, NEW DELHI 92",,DELHI,DELHI,DELHI
KKBK0000212,Kotak Mahindra Bank,KKBK0000212,110485044,AZADPUR,"KOTAK MAHINDRA BANK LTD, NO. GF-2, GROUND FLOOR, PLOT NO. 17 & 18, NEW SUBZI MANDI, AZADPUR, DELHI -110033",,NEW DELHI,NEW DELHI,DELHI
KKBK0000213,Kotak Mahindra Bank,KKBK0000213,110485048,CHAWRI BAZAAR BRANCH,"KOTAK MAHINDRA BANK LTD, HAUZ QUZI, UNIT NO.3372-3382, CHAWRI BAZAR, DELHI - 110 006.",,CHAWRI BAZAAR,DELHI,DELHI
KKBK0000214,Kotak Mahindra Bank,KKBK0000214,110485045,NEW DELHI - CP INNER CIRCLE,"KOTAK MAHINDRA BANK LTD, KASHI HOUSE, A-27/8A, CONNAUGHT PLACE, DELHI - 110001",,CP INNER CIRCLE,CONNAUGHT PLACE,DELHI
KKBK0000215,Kotak Mahindra Bank,KKBK0000215,786485302,ASHOK VIHAR BRANCH,"KOTAK MAHINDRA BANK LTD, C-2/11, ASHOK VIHAR-2, NEW DELHI - 110 052",,ASHOK VIHAR,NEW DELHI,DELHI
KKBK0000216,Kotak Mahindra Bank,KKBK0000216,110485053,VASANT KUNJ BRANCH,"KOTAK MAHINDRA BANK LTD, 4 LSC, SECTOR-C, 6 & 7, VASANT KUNJ, NEW DELHI - 110 070.",,DELHI,DELHI,DELHI
KKBK0000217,Kotak Mahindra Bank,KKBK0000217,110485054,KARKARDOOMA BRANCH,"KOTAK MAHINDRA BANK LTD, GROUND FLOOR , 290, A G C R ENCLAVE, KARKARDOOMA, NEW DELHI 110092",,KARKARDOOMA,KARKARDOOMA,DELHI
KKBK0000218,Kotak Mahindra Bank,KKBK0000218,110485052,KALKAJI,"KOTAK MAHINDRA BANK LTD, GROUND FLOOR, L-9, KALKAJI, NEW DELHI PIN : 1100019",,KALKAJI,KALKAJI,DELHI
KKBK0000219,Kotak Mahindra Bank,KKBK0000219,110485055,DARYAGUNJ,"KOTAK MAHINDRA BANK LTD, GROUND FLOOR,19 NETAJI SUBHASH MARG, DARYAGANJ, NEW DELHI 110002",,DARYAGANJ,DARYAGANJ,DELHI
KKBK0000220,Kotak Mahindra Bank,KKBK0000220,110485050,EAST PATEL NAGAR BRANCH,"KOTAK MAHINDRA BANK LTD, GROUND FLOOR,1/11,(LEFT PORTION), EAST PATEL NAGAR, NEW DELHI - 110008",,NEW DELHI,NEW DELHI,DELHI
KKBK0000221,Kotak Mahindra Bank,KKBK0000221,AWAITED,KIRTI NAGAR BRANCH,"KOTAK MAHINDRA BANK LTD, GROUND FLOOR, F-55, KIRTI NAGAR, NEW DELHI-110015",,NEW DELHI,NEW DELHI,DELHI
KKBK0000251,Kotak Mahindra Bank,KKBK0000251,141485002,LUDHIANA-FEROZEPUR ROAD,LUDHIANA-FEROZEPUR ROAD,,(0161) 5055200,LUDHIANA,PUNJAB
KKBK0000252,Kotak Mahindra Bank,KKBK0000252,144485102,PUNJAB - KAPURTHALA,PUNJAB - KAPURTHALA,,(01822) 501401,KAPURTHALA,PUNJAB
KKBK0000253,Kotak Mahindra Bank,KKBK0000253,144485002,PHAGWARA,PHAGWARA,,(01824) 500517/504,PATIALA,PUNJAB
KKBK0000254,Kotak Mahindra Bank,KKBK0000254,160485002,MOHALI - B II,MOHALI - B II,,(0172) 5044200,RUPNAGAR,PUNJAB
KKBK0000255,Kotak Mahindra Bank,KKBK0000255,143485002,AMRITSAR - MALL ROAD,AMRITSAR - MALL ROAD,,(0183) 5002960,AMRITSAR,PUNJAB
KKBK0000256,Kotak Mahindra Bank,KKBK0000256,144485002,PUNJAB - JALANDHAR,PUNJAB - JALANDHAR,,(0181) 5065100,JALANDHAR,PUNJAB
KKBK0000257,Kotak Mahindra Bank,KKBK0000257,160485004,ZIRAKPUR - KALGHIDHAR ENCLAVE,ZIRAKPUR - KALGHIDHAR ENCLAVE,,(01762) 662866,KAPURTHALA,PUNJAB
KKBK0000258,Kotak Mahindra Bank,KKBK0000258,144485202,NAKODAR - NURMAHAL ROAD,NAKODAR - NURMAHAL ROAD,,01821) 662868,JALANDHAR,PUNJAB
KKBK0000259,Kotak Mahindra Bank,KKBK0000259,160485005,MANI MAJRA - NAC,MANI MAJRA - NAC,,(0172) 6628759,CHANDIGARH,CHANDIGARH
KKBK0000261,Kotak Mahindra Bank,KKBK0000261,110485002,GURGAON,GURGAON,,(0124) 4131000,GURGAON,HARYANA
KKBK0000262,Kotak Mahindra Bank,KKBK0000262,NON MICR,APRA,"KOTAK MAHINDRA BANK LTD.KHATA NO 385/386 , KHATOUNI NO 680/681 BANGA ROAD APRA - 144 416 TEHSIL PHILLAUR, DISTT JALANDHAR",,JALANDHAR,JALANDHAR,PUNJAB
KKBK0000263,Kotak Mahindra Bank,KKBK0000263,147485002,PATIALA - NEW LEELA BHAWAN,PATIALA - NEW LEELA BHAWAN,,(0175)6628617,PATIALA,PUNJAB
KKBK0000264,Kotak Mahindra Bank,KKBK0000264,143485202,GURDASPUR - TIBRI ROAD,GURDASPUR - TIBRI ROAD,,(0187) 4502550,GURDASPUR,PUNJAB
KKBK0000265,Kotak Mahindra Bank,KKBK0000265,148485002,SANGRUR - KAULA PARK,SANGRUR - KAULA PARK,,(01672) 662878,SANGRUR,PUNJAB
KKBK0000266,Kotak Mahindra Bank,KKBK0000266,NON MICR,AMLOH,"KOTAK MAHINDRA BANK LTD. 24/52 BYEPASS ROAD DISTT: FATEHGARH SAHIB AMLOH, PUNJAB - 147 203   ",,AMLOH,FATEHGARH SAHEB,PUNJAB
KKBK0000267,Kotak Mahindra Bank,KKBK0000267,141485003,MULLANPUR - DAKHA,"KOTAK MAHINDRA BANK LTD. FLOOR 1/150 A FEROZEPUR ROAD, MULLANPUR DAKHA, DISTT LUDHIANA, PUNJAB - 141 101.",,MULLANPUR DAKHA,LUDHIANA,PUNJAB
KKBK0000271,Kotak Mahindra Bank,KKBK0000271,302485002,JAIPUR - SARDAR PATEL MARG,JAIPUR - SARDAR PATEL MARG,,                     (0141) 5150777,JAIPUR,RAJASTHAN
KKBK0000272,Kotak Mahindra Bank,KKBK0000272,313485002,UDAIPUR - BANK STREET,UDAIPUR - BANK STREET,,(0294) 5105454,UDAIPUR,RAJASTHAN
KKBK0000274,Kotak Mahindra Bank,KKBK0000274,311485002,BHILWARA,"KOTAK MAHINDRA BANK LTD GROUND FLOOR, A BLOCK LEFT WING , AARAJI GANGAPUR ROAD BHILWARA - 311 001 ",,BHILWARA,BHILWARA,RAJASTHAN
KKBK0000275,Kotak Mahindra Bank,KKBK0000275,110485039,BHIWADI,"KOTAK MAHINDRA BANK LTD, A97, A TO D GROUND FLOOR, NEAR BB MALL, BHIWADI, RAJASTHAN - 301019",,RAJASTHAN,RAJASTHAN,RAJASTHAN
KKBK0000276,Kotak Mahindra Bank,KKBK0000276,313485501,RISHABHDEO BRANCH,"KOTAK MAHINDRA BANK LTD, ANAND HOTEL, (GROUND FLOOR),KHERWARA, RISHABHDEO, RAJASTHAN - 313 802.",,RISHABHDEO,UDAIPUR,RAJASTHAN
KKBK0000277,Kotak Mahindra Bank,KKBK0000277,301485101,NEEMRANA BRANCH,"KOTAK MAHINDRA BANK LTD, C-2, RIICO INDUCTRIAL AREA, PHASE-1, NEEMRANA - 301 705.",,NEEMRANA,NEEMRANA,RAJASTHAN
KKBK0000278,Kotak Mahindra Bank,KKBK0000278,342485002,JODHPUR - CHOPASANI ROAD,JODHPUR - CHOPASANI ROAD,,(0291) 5100800,JODHPUR,RAJASTHAN
KKBK0000279,Kotak Mahindra Bank,KKBK0000279,342485501,BARANADA BRANCH,"KOTAK MAHINDRA BANK LTD, COMMERCIAL COMPLEX, PLOT NO 12 AND 13, INDUSTRIAL AREA PHASE - I, BARANADA, JODHPUR - 342012",,BARANADA,JODHPUR,RAJASTHAN
KKBK0000280,Kotak Mahindra Bank,KKBK0000280,313485003,RAJSAMAND BRANCH,"KOTAK MAHINDRA BANK LTD, 904 KHASRA PLOT, 100 FEET COLLECTORATE ROAD, KISHORE NAGAR, RAJSANAMD - 313 326",,RAJSANAMD,RAJSANAMD,RAJASTHAN
KKBK0000282,Kotak Mahindra Bank,KKBK0000282,160485001,CHANDIGARH - SEC 9,CHANDIGARH - SEC 9,,(0172) 5008600,CHANDIGARH,CHANDIGARH
KKBK0000283,Kotak Mahindra Bank,KKBK0000283,160485003,PANCHKULA - SECTOR 9,PANCHKULA - SECTOR 9,,(0172) 5004323,PANCHKULA,HARYANA
KKBK0000284,Kotak Mahindra Bank,KKBK0000284,140485002,RAJPURA - PATIALA ROAD,RAJPURA - PATIALA ROAD,,01762-505814/15/10/03,PATIALA,PUNJAB
KKBK0000285,Kotak Mahindra Bank,KKBK0000285,110485014,GURGAON – MANESAR,GURGAON – MANESAR,,(0124) 4366380,NEW DELHI,DELHI
KKBK0000286,Kotak Mahindra Bank,KKBK0000286,110485020,FARIDABAD - SECTOR 16,FARIDABAD - SECTOR 16,,(0129) 4141700/701,FARIDABAD,UTTAR PRADESH
KKBK0000287,Kotak Mahindra Bank,KKBK0000287,110485027,GURGAON - SECTOR 14,GURGAON - SECTOR 14,,(0124) 4215271,GURGAON,HARYANA
KKBK0000288,Kotak Mahindra Bank,KKBK0000288,133485002,AMBALA CANTONMENT,"KOTAK MAHINDRA BANK LTD, GROUND FLOOR PLOT NO. 5359, NICHOLSON ROAD, AMBALA CANTONMENT, AMBALA - 133001 ",,AMBALA CANTONMENT,AMBALA,HARYANA
KKBK0000289,Kotak Mahindra Bank,KKBK0000289,110485043,GURGAON GOLF COURSE ROAD,"KOTAK MAHINDRA BANK LTD. GROUND FLOOR, BLOCK - B, VATIKA ATRIUM, SECTOR 53, GOLF COURSE ROAD, GURGAON 122001, HARYANA",,GURGAON,GURGAON,HARYANA
KKBK0000290,Kotak Mahindra Bank,KKBK0000290,136485352,CHEEKA BRANCH,"KOTAK MAHINDRA BANK LTD, 13, JANTA MARKET, KAITHAL ROAD, CHEEKA, HARYANA - 136 034.",,CHEEKA,KAITHAL,HARYANA
KKBK0000291,Kotak Mahindra Bank,KKBK0000291,110485047,GURGAON BRANCH,"KOTAK MAHINDRA BANK LTD, SUPER MART 1, DLF PHASE IV, GURGAON, HARYANA -122 007.",,GURGAON,GURGAON,HARYANA
KKBK0000292,Kotak Mahindra Bank,KKBK0000292,123485202,MAHENDERGARH BRANCH,"KOTAK MAHINDRA BANK LTD, 19/1 ANAJ MANDI, SDM ROAD, MAHENDRAGARH, HARYANA - 123 029.",,MAHENDERGARH,MAHENDERGARH,HARYANA
KKBK0000293,Kotak Mahindra Bank,KKBK0000293,132485002,PANIPAT BRANCH,"KOTAK MAHINDRA BANK LTD, PLOT NO. 1181, ROYAL-II, GT ROAD, NEAR GURUDWARA, PANIPAT, HARYANA PIN : 132103",,PANIPAT,PANIPAT,HARYANA
KKBK0000294,Kotak Mahindra Bank,KKBK0000294,327485002,BANSWARA BRANCH,"KOTAK MAHINDRA BANK LTD, GROUND FLOOR, MOHAN COLONY CIRCLE, BANSWARA, RAJASTHAN-327001",,BANSWARA,RAJASTHAN,RAJASTHAN
KKBK0000295,Kotak Mahindra Bank,KKBK0000295,AWAITED,KARNAL BRANCH,"KOTAK MAHINDRA BANK LTD, GROUND FLOOR FIRST FLOOR & BASEMENT, SCO-246, SECTOR-12-I, KARNAL-132001 HARYANA",,KARNAL,KARNAL,HARYANA
KKBK0000296,Kotak Mahindra Bank,KKBK0000296,AWAITED,CHANDIGARH SECTOR 35 B BRANCH,"KOTAK MAHINDRA BANK LTD, GROUND FLOOR, SCO-335-336, SECTOR -35 B CHANDIGARH 160035",,CHANDIGARH,CHANDIGARH,CHANDIGARH
KKBK0000297,Kotak Mahindra Bank,KKBK0000297,305485002,AJMER BRANCH,"KOTAK MAHINDRA BANK LTD, GROUND FLOOR, 429/A/11, GANESH BHAWAN, KUTCHERY ROAD, AJMER -305001 RAJASTHAN",,AJMER,AJMER,RAJASTHAN
KKBK0000298,Kotak Mahindra Bank,KKBK0000298,110485057,BADSHAPUR,"KOTAK MAHINDRA BANK LTD, GROUND FLOOR, UNIT NO. GF-7, BLOCK-2, VATIKA BUSINESS PARK, VILLAGE BADSHAPUR, SONA ROAD, GURGAON -122002, HARYANA",,BADSHAPUR,GURGAON,HARYANA
KKBK0000299,Kotak Mahindra Bank,KKBK0000299,AWAITED,OLD JUDICIAL COMPLEX BRANCH,"KOTAK MAHINDRA BANK LTD, GROUND FLOOR, FIRST FLOOR & BASEMENT AREA, PLOT NO.61, SECTOR OLD JUDICIAL COMPLEX, GURGAON -122001, HARYANA",,GURGAON,GURGAON,HARYANA
KKBK0000300,Kotak Mahindra Bank,KKBK0000300,AWAITED,FATEHABAD BRANCH,"KOTAK MAHINDRA BANK LTD, SHOP NO. 100 & 101, KHASARA NO. 373, G T ROAD, NEAR GREEN APPLE HOTEL, FATEHABAD-125050- HARYANA",,FATEHABAD,FATEHABAD,HARYANA
KKBK0000301,Kotak Mahindra Bank,KKBK0000301,AWAITED,NIWAI,"KOTAK MAHINDRA BANK LTD, PLOT NO. F-77 A, INDUSTRIAL AREA, JILAY ROAD, NIWAI-304021, DIST TONK, RAJASTHAN",,NEWAI,TONK,RAJASTHAN
KKBK0000322,Kotak Mahindra Bank,KKBK0000322,700485002,KOLKATTA - PARK STREET,KOLKATTA - PARK STREET,,(033) 44011976,KOLKATA,WEST BENGAL
KKBK0000323,Kotak Mahindra Bank,KKBK0000323,700485004,KOLKATTA - DALHOUSIE,KOLKATTA - DALHOUSIE,,(033) 44011990,KOLKATA,WEST BENGAL
KKBK0000324,Kotak Mahindra Bank,KKBK0000324,700485006,KOLKATA - KANKURGACHI,KOLKATA - KANKURGACHI,,(033) 44103606,KOLKATA,WEST BENGAL
KKBK0000325,Kotak Mahindra Bank,KKBK0000325,700485003,KOLKATA - BALLYGUNJ,KOLKATA - BALLYGUNJ,,(033) 44011935,KOLKATA,WEST BENGAL
KKBK0000326,Kotak Mahindra Bank,KKBK0000326,700485005,KOLKATA - SALT LAKE,KOLKATA - SALT LAKE,,(033) 44005379,KOLKATA,WEST BENGAL
KKBK0000328,Kotak Mahindra Bank,KKBK0000328,AWAITED,SHYAM BAZAR,"KOTAK MAHINDRA BANK LTD, FIRST FLOOR, RANAPATI APARTMENT, 43/1 BAGBAZAR STREET, SHYAM BAZAR, KOLKATA, WEST BENGAL-700003",,KOLKATA,KOLKATA,WEST BENGAL
KKBK0000329,Kotak Mahindra Bank,KKBK0000329,AWAITED,NARENDRAPUR,"KOTAK MAHINDRA BANK LTD, GROUND FLOOR, SHOP NO./S.3 & 6, NAMITA APARTMENT, 955, N S ROAD, NARENDRAPUR, P S SONARPUR, DISTRICT SOUTH 24, PARGANAS WEST BENGAL 700103",,NARENDRAPUR,SOUTH 24 PARGANAS,WEST BENGAL
KKBK0000330,Kotak Mahindra Bank,KKBK0000330,AWAITED,RASHBEHARI,"KOTAK MAHINDRA BANK LTD, FIRST FLOOR, 107-A, RASH BEHARI AVENUE, KOLKATTA -700029, WEST BENGAL",,KOLKATA,KOLKATA,WEST BENGAL
KKBK0000331,Kotak Mahindra Bank,KKBK0000331,781485002,GUWAHATI - G S ROAD,GUWAHATI - G S ROAD,,9954714362,KAMRUP,ASSAM
KKBK0000332,Kotak Mahindra Bank,KKBK0000332,785485002,JORHAT - GAR ALI ROAD,JORHAT - GAR ALI ROAD,,(0376) 2301120,JORHAT,ASSAM
KKBK0000333,Kotak Mahindra Bank,KKBK0000333,786485302,DULIAJAN,"KOTAK MAHINDRA BANK LTD, BOC GATE, NEAR JAYANAGAR, P.O. DULIAJAN, DIBRUGARH - 786602",,DULIAJAN,DIBRUGARH,ASSAM
KKBK0000340,Kotak Mahindra Bank,KKBK0000340,AWAITED,SHILLONG BRANCH,"KOTAK MAHINDRA BANK LTD, GROUND FLOOR & FIRST FLOOR, SITI CENTER, 26A , CANTONMENT, G S ROAD, BARABAZAR, SHILLONG - 793001, MEGHALAYA",,SHILLONG,SHILLONG,MEGHALAYA
KKBK0000351,Kotak Mahindra Bank,KKBK0000351,800485002,PATNA - GANDHI MAIDAN,PATNA - GANDHI MAIDAN,,(0612) 2205988,PATNA,BIHAR
KKBK0000352,Kotak Mahindra Bank,KKBK0000352,221485002,VARANASI - GODOWLIA,VARANASI - GODOWLIA,,(0542) 2401072,VARANASI,UTTAR PRADESH
KKBK0000418,Kotak Mahindra Bank,KKBK0000418,560485003,BANGALORE - ITPL,BANGALORE - ITPL,,(080) 66162800,BANGALORE URBAN,KARNATAKA
KKBK0000421,Kotak Mahindra Bank,KKBK0000421,560485005,BANGALORE - JAYANAGAR,BANGALORE - JAYANAGAR,,080) 66371709,BANGALORE URBAN,KARNATAKA
KKBK0000422,Kotak Mahindra Bank,KKBK0000422,560485002,BANGALORE - LAVELLE ROAD,BANGALORE - LAVELLE ROAD,,(080) 66123259,BANGALORE URBAN,KARNATAKA
KKBK0000423,Kotak Mahindra Bank,KKBK0000423,560485002,BANGALORE - RAJAJINAGAR(EC),BANGALORE - RAJAJINAGAR(EC),,(080) 56628000,BANGALORE URBAN,KARNATAKA
KKBK0000424,Kotak Mahindra Bank,KKBK0000424,560485004,BANGALORE - KORAMANGLA,BANGALORE - KORAMANGLA,,(080) 66330200,BANGALORE URBAN,KARNATAKA
KKBK0000425,Kotak Mahindra Bank,KKBK0000425,570485002,MYSORE-SARASWATIPURAM,MYSORE-SARASWATIPURAM,,0821) 4001505,MYSORE,KARNATAKA
KKBK0000426,Kotak Mahindra Bank,KKBK0000426,560485008,BANGALORE - MAJESTIC,BANGALORE - MAJESTIC,,(080) 41329757,BANGALORE URBAN,KARNATAKA
KKBK0000427,Kotak Mahindra Bank,KKBK0000427,560485007,BANGALORE - BANASANKARI,BANGALORE - BANASANKARI,,(080) 66957908,BANGALORE URBAN,KARNATAKA
KKBK0000429,Kotak Mahindra Bank,KKBK0000429,560485009,THIPPASANDRA - AARADHANA ARCADE,THIPPASANDRA - AARADHANA ARCADE,,080 - 64568575,BANGALORE RURAL,KARNATAKA
KKBK0000430,Kotak Mahindra Bank,KKBK0000430,560485011,BANGALORE - JAKKASANDRA,BANGALORE - JAKKASANDRA,,080-64556916,BANGALORE URBAN,KARNATAKA
KKBK0000432,Kotak Mahindra Bank,KKBK0000432,560485014,KAMMANAHALLI MAIN ROAD,"KOTAK MAHINDRA BANK LTD, GROUND FLOOR “SHRI KADRI LAXMI NARASIMHA SWAMI, (S.K.L.N.S) COMPLEX”, NO.4M-411, PID NO.89-397-4M-411, 4TH MAIN ROAD, HENNUR ROAD BANASWADI ROAD EXTENSION, 3RD BLOCK, KAMMANAHALLI MAIN ROAD, WARD NO.89, BANGALORE-560064",,BANGALORE,BANGALORE URBAN,KARNATAKA
KKBK0000433,Kotak Mahindra Bank,KKBK0000433,AWAITED,JP NAGAR,"KOTAK MAHINDRA BANK LTD, GROUND FLOOR,” SANTOSH TOWER”, MUNICIPAL CORPORATION NO.27, AND 28, 15TH CROSS ROAD, 100 FT ROAD, JP NAGAR, 4TH PHASE, WARD NO. 57, BANGALORE-560078",,BANGALORE,BANGALORE URBAN,KARNATAKA
KKBK0000440,Kotak Mahindra Bank,KKBK0000440,AWAITED,MANGALORE,"KOTAK MAHINDRA BANK LTD, GROUND & MEZANINE FLOOR, “ ABHIMAN COMMERCIAL COMPLEX”, NO. 4-9-811/8, R S NO.340/2B, (TS NO. 173/2B), KODIALBAI VLLAGE, MANGALORE TALUK, KODIALBAIL, MANGALORE-575003, KARNATAKA",,MANGALORE,DAKSHIN KANNAD,KARNATAKA
KKBK0000445,Kotak Mahindra Bank,KKBK0000445,560485006,BIDADI - KUMBASWAR COMPLEX,BIDADI - KUMBASWAR COMPLEX,,(080) 27288173,BANGALORE RURAL,KARNATAKA
KKBK0000446,Kotak Mahindra Bank,KKBK0000446,AWAITED,HUBLI BRANCH,"KOTAK MAHINDRA BANK LTD, SITE NO.123/D, PID NO.46/A/251, CTS NO.483/1A/1A/1B2, CLUB ROAD, CORPORATION WARD NO.46, OLD NO.1, HUBLI DHARWAD-500 020, KARNATAKA",,HUBLI-DHARWAD,DHARWAD,KARNATAKA
KKBK0000447,Kotak Mahindra Bank,KKBK0000447,AWAITED,BELGAUM,"KOTAK MAHINDRA BANK LTD, SHOP NO. 001,SHOP NO.002, SHOP NO.003 & SHOP NO.004, GROUND FLOOR KBC’S ARJUN EMPIRE CTS NO. 5852/B AND NO.5851/C, MARATHA COLONY, CONGRESS ROAD, NEAR ARJUN TALKIES, TILAKWADI, WARD NO.17, BELGAUM-590006- KARNATAKA.",,BELGAUM,BELGAUM,KARNATAKA
KKBK0000462,Kotak Mahindra Bank,KKBK0000462,600485003,CHENNAI - ANNA SALAI,CHENNAI - ANNA SALAI,,(044) 42040205,CHENNAI,TAMIL NADU
KKBK0000463,Kotak Mahindra Bank,KKBK0000463,600485004,CHENNAI - ADYAR,CHENNAI - ADYAR,,(044) 52607920,CHENNAI,TAMIL NADU
KKBK0000464,Kotak Mahindra Bank,KKBK0000464,600485005,CHENNAI - PARRYS CORNER,CHENNAI - PARRYS CORNER,,(044) 65722022,CHENNAI,TAMIL NADU
KKBK0000466,Kotak Mahindra Bank,KKBK0000466,600485006,CHENNAI - KODAMBAKKAM,CHENNAI - KODAMBAKKAM,,044 - 43587800,CHENNAI,TAMIL NADU
KKBK0000467,Kotak Mahindra Bank,KKBK0000467,600485007,CHENNAI - KELAMBAKKAM,CHENNAI - KELAMBAKKAM,,(044) 27498238,CHENNAI,TAMIL NADU
KKBK0000468,Kotak Mahindra Bank,KKBK0000468,600485008,CHENNAI - T. NAGAR,"KOTAK MAHINDRA BANK LTD.   GROUND FLOOR, SHREE ESSARAR TOWERS, 41 VENKATNARAYANA ROAD, T.NAGAR, CHENNAI - 600 017 TAMIL NADU",,CHENNAI,CHENNAI,TAMIL NADU
KKBK0000469,Kotak Mahindra Bank,KKBK0000469,600485011,ANNA NAGAR,"KOTAK MAHINDRA BANK LTD, BLOCK Q-100, PLOT NO 3698, 3RD AVENUE, ANNA NAGAR, CHENNAI 600040, TAMILNADU",,CHENNAI,CHENNAI,TAMIL NADU
KKBK0000472,Kotak Mahindra Bank,KKBK0000472,600485010,PORUR,"KOTAK MAHINDRA BANK LTD. GROUND FLOOR, T S S MANORE, PLOT NO 10, LAKSHMI NAGAR, ARCOT ROAD, PORUR, CHENNAI 600 116 ",,PORUR,CHENNAI,TAMIL NADU
KKBK0000473,Kotak Mahindra Bank,KKBK0000473,AWAITED,VELLACHERY,"KOTAK MAHINDRA BANK LTD, GROUND FLOOR,DOOR NO.41/348/1, VALACHERY MAIN ROAD, FIRST SEGMENT, VIJAYANAR, VELACHERY, CHENNAI-600042",,VELLACHERY,CHENNAI,TAMIL NADU
KKBK0000490,Kotak Mahindra Bank,KKBK0000490,AWAITED,R S PURAM,"KOTAK MAHINDRA BANK LTD, GROUND FLOOR, “BATHIJA BLOSSOMS” SITE NO.34, DOOR NO.229 & 29/1, METTUPALAYAM, THADAGAM, EXTENSION ROAD, BLOCK NO.14, EAST, THIRUVENKATASWAMY ROAD, R S PURAM, COIMBATURE -641002",,METTUPALAYAM,COIMBATORE,TAMIL NADU
KKBK0000491,Kotak Mahindra Bank,KKBK0000491,641485002,COIMBATORE-AVINASHI ROAD,COIMBATORE-AVINASHI ROAD,, (0422) 4351860,COIMBOTORE,TAMIL NADU
KKBK0000492,Kotak Mahindra Bank,KKBK0000492,641485102,TIRUPUR - AVINASHI ROAD,TIRUPUR - AVINASHI ROAD,,(0421) 4540201,COIMBOTORE,TAMIL NADU
KKBK0000493,Kotak Mahindra Bank,KKBK0000493,751485002,BHUBANESHWAR - JANPATH,BHUBANESHWAR - JANPATH,,(0674) 6610402/03/04,KHURDA,ORISSA
KKBK0000494,Kotak Mahindra Bank,KKBK0000494,758485102,BARBIL - NEAR KALI MANDIR,BARBIL - NEAR KALI MANDIR,,9238105822/23,BARGAH,ORISSA
KKBK0000495,Kotak Mahindra Bank,KKBK0000495,769485002,ROURKELA,"KOTAK MAHINDRA BANK LTD. GROUND FLOOR, PLOT NO 201 MAIN ROAD ADJOINING HARAYAN, ROURKELA 769001",,ROURKELA,ROURKELA,ORISSA
KKBK0000496,Kotak Mahindra Bank,KKBK0000496,AWAITED,CUTTACK,"KOTAK MAHINDRA BANK LTD, UPPER GROUND FLOOR, & FIRST FLOOR ( PART), “OSL TOWERS-III” BADAMBADI, CUTTACK, ORISSA - 753012",,CUTTACK,CUTTACK,ORISSA
KKBK0000497,Kotak Mahindra Bank,KKBK0000497,AWAITED,JODA BRANCH,"KOTAK MAHINDRA BANK LTD, GROUND FLOOR, SHOP NO.9 &10, SINGHANIA TOWER, BANSPANI ROAD, PO JODA-758034, DIST-KEONJHAR.",,JODA,KEONJHAR,ORISSA
KKBK0000511,Kotak Mahindra Bank,KKBK0000511,625485002,MADURAI - GOODS SHED STREET,MADURAI - GOODS SHED STREET,,(0452) 4232000,MADURAI,TAMIL NADU
KKBK0000521,Kotak Mahindra Bank,KKBK0000521,636485002,SALEM-ALAGAPURAM,SALEM-ALAGAPURAM,,(0427) 4554500,SALEM,TAMIL NADU
KKBK0000525,Kotak Mahindra Bank,KKBK0000525,637485002,NAMAKKAL,NAMAKKAL,, (04286) 329920,NAMAKKAL,TAMIL NADU
KKBK0000526,Kotak Mahindra Bank,KKBK0000526,637485302,SANKARI,SANKARI,,(04283) 241287,SALEM,TAMIL NADU
KKBK0000531,Kotak Mahindra Bank,KKBK0000531,620485002,TRICHY – SASTHIRI ROAD,TRICHY – SASTHIRI ROAD,,(0431) 4023821,TIRUCHIORAPPALLI,TAMIL NADU
KKBK0000532,Kotak Mahindra Bank,KKBK0000532,AWAITED,PONDICHERRY,"KOTAK MAHINDRA BANK LTD, GROUND FLOOR & 1ST FLOOR, SHOP NO. 27, OLD NO. 25/A, MUTHUMARIAMMAN KOLI STREET, PINDICHERY PIN 605001",,PONDICHERRY,PONDICHERRY,PONDICHERRY
KKBK0000552,Kotak Mahindra Bank,KKBK0000552,500485003,HYDERABAD - SOMAJIGUDA,HYDERABAD - SOMAJIGUDA,,HYDERABAD URBAN,HYDERABAD URBAN,ANDHRA PRADESH
KKBK0000553,Kotak Mahindra Bank,KKBK0000553,500485006,HYDERABAD - NAMPALLY,HYDERABAD - NAMPALLY,,HYDERABAD URBAN,HYDERABAD URBAN,ANDHRA PRADESH
KKBK0000554,Kotak Mahindra Bank,KKBK0000554,500485002,SECUNDERABAD - SAROJINI DEVI ROAD,SECUNDERABAD - SAROJINI DEVI ROAD,,HYDERABAD URBAN,HYDERABAD URBAN,ANDHRA PRADESH
KKBK0000555,Kotak Mahindra Bank,KKBK0000555,500485007,HYDERABAD - HIMAYAT NAGAR,"KOTAK MAHINDRA BANK LTD.  3-6-140/A, CITY CENTRE COMPLEX, HIMAYATNAGAR, HYDERABAD - 500 029 ANDHRA PRADESH",,HYDERABAD,HYDERABAD URBAN,ANDHRA PRADESH
KKBK0000556,Kotak Mahindra Bank,KKBK0000556,530485002,VISHAKHAPATNAM,"KOTAK MAHINDRA BANK LTD.GROUND FLOOR, UNIT G-1 DOOR NO.10-1-8, THE LANDMARK, WALTAIR UPLANDS, VISHAKHAPATNAM - 530 003.",,VISAKHAPATNAM,VISHAKAPATNAM,ANDHRA PRADESH
KKBK0000560,Kotak Mahindra Bank,KKBK0000560,500485008,HYDERABAD - KUKATPALLY,"KOTAK MAHINDRA BANK LTD. PLOT NO. 964, GROUND FLOOR, VASANTH NAGAR, HYDER NAGAR CROSS, DIST. RANGAREDDY, KUKATPALLY, HYDERABAD - 500 072",,KUKATPALLY,RANGA REDDY,ANDHRA PRADESH
KKBK0000561,Kotak Mahindra Bank,KKBK0000561,500485004,HYDERABAD - MADHAPURA,HYDERABAD - MADHAPURA,,HYDERABAD URBAN,HYDERABAD URBAN,ANDHRA PRADESH
KKBK0000562,Kotak Mahindra Bank,KKBK0000562,500485005,MUTHANGI - PATENCHERU,MUTHANGI - PATENCHERU,,MEDAK,MEDAK,ANDHRA PRADESH
KKBK0000563,Kotak Mahindra Bank,KKBK0000563,500485009,DILSUKHNAGAR,"KOTAK MAHINDRA BANK LIMITED, GROUND FLOOR, H.NO : 3-8/1, HANUMAN NAGAR, CHAITANYAPURI, DILSUKHNAGAR, HYDERABAD - 500 036",,HYDERABAD,HYDERABAD,ANDHRA PRADESH
KKBK0000564,Kotak Mahindra Bank,KKBK0000564,AWAITED,JUBLEE HILL,"KOTAK MAHINDRA BANK LTD, OFFICE NO .1 GROUND FLOOR & 1ST FLR “UPTOWN JUBLEE” HOUSE, NO.8-2-293/82/A/237, PLOT NO NO.237, ROAD NO. 36, JUBLEE HILL CO- OPEATIVE HOUSING SOCIETY, SURVEY NO. 102/1, CIRCLE 10, JUBLEE HILL, GHMC HYDERABAD-500034",,HYDERABAD,HYDERABAD,ANDHRA PRADESH
KKBK0000565,Kotak Mahindra Bank,KKBK0000565,500485011,A S RAO NAGAR,"KOTAK MAHINDRA BANK LTD, GR FLOOR, SHREEJA CLASSIC, PLOT NO. 51. H NO. 1-6-51/E/1, ANUPURAM MAIN RD ( AS ROA NAGAR), KAPRA VILLAGE & CIRCLE, GHMC, HYDERABAD-500038",,HYDERABAD,HYDERABAD,ANDHRA PRADESH
KKBK0000571,Kotak Mahindra Bank,KKBK0000571,520485002,VIJAYWADA-M G ROAD,VIJAYWADA-M G ROAD,,KRISHNA,KRISHNA,ANDHRA PRADESH
KKBK0000572,Kotak Mahindra Bank,KKBK0000572,NON MICR,WARANGAL,"KOTAK MAHINDRA BANK LTD. 13-4-158 & 158/1, NEAR GOPALASWAMY TEMPLE, M G ROAD, WARANGAL – 506 002",,WARANGAL,WARANGAL,ANDHRA PRADESH
KKBK0000573,Kotak Mahindra Bank,KKBK0000573,AWAITED,NALLAPADU BRANCH,"KOTAK MAHINDRA BANK LTD, GROUND FLOOR, “ SADHU SUBRAMANYAM ESTATE”, DOOR NO. 4/69, D NO. 163/A, ASSESSMENT NO.419, NALLAPADU VILLAGE, NALLAPADU GRAM PANCHAYAT, GUNTUR- NARASAROPETA ROAD, GUNTUR RURAL, GUNTUR-522005, ANDRA PRADESH",,NALLAPADU,GUNTUR,ANDHRA PRADESH
KKBK0000574,Kotak Mahindra Bank,KKBK0000574,AWAITED,SARPAVARAM BRANCH,"KOTAK MAHINDRA BANK LTD, SARPAVARAM BRANCH- KAKINADA, SHOP NO. 6 & PART OF SHOP NO.7, GROUND FLOOR, BENDA COMPLEX, PLOT NO. 20, H NO. 3-18, SURVEY NO. 232/14, RAMANYYAPETA VILLAGE, SARPAVARAM JUNCTION, KAKINADA RURAL MANDAL, KAKINADA -533005, ANDRA PRADESH",,KAKINADA,KAKINADA,ANDHRA PRADESH
KKBK0000592,Kotak Mahindra Bank,KKBK0000592,682485002,KOCHI - KUMARPILLAI ESTATE,KOCHI - KUMARPILLAI ESTATE,,(0484) 2385280,ERNAKULAM,KERALA
KKBK0000593,Kotak Mahindra Bank,KKBK0000593,686485002,KOTTAYAM - CHERUKARA TOWERS,KOTTAYAM - CHERUKARA TOWERS,,(0481) 2303870,KOTTAYAM,KERALA
KKBK0000594,Kotak Mahindra Bank,KKBK0000594,695485002,THIRUVANANTHAPURAM,THIRUVANANTHAPURAM,,0471) 4470105,TRIVANDRUM,KERALA
KKBK0000595,Kotak Mahindra Bank,KKBK0000595,673485002,KOZHIKODE BRANCH,"KOTAK MAHINDRA BANK LTD, CITY GALLARY-A1, BLOCK NO-6, KANNUR ROAD,KOZIKODE, KERALA - 673 001",,KOZIKODE,KOZIKODE,KERALA
KKBK0000596,Kotak Mahindra Bank,KKBK0000596,AWAITED,THRISSUR,"KOTAK MAHINDRA BANK LTD, FIRST FLOOR WEST END PLAZA, DOOR NO.20/326/3, TS NO. 2011/P, DIVISION NO. XX, THRISSURE VILLAGE, SANKARAYYAR ROAD JUCTION, M G ROAD, THRISSUR 680004, KERALA.",,THICHUR,THRISSUR,KERALA
KKBK0000626,Kotak Mahindra Bank,KKBK0000626,400485037,DAHANU,"KOTAK MAHINDRA BANK LTD.    SHOP NO. 2, 3 & 4, FIRST FLOOR, JANARDHAN ARCADE MAIN ROAD, DAHANU ROAD, DIST. THANE DAHANU,PIN- 401 602 MAHARASHTRA ",,DAHANU,THANE,MAHARASHTRA
KKBK0000628,Kotak Mahindra Bank,KKBK0000628,400485039,DOMBIVALI,"KOTAK MAHINDRA BANK LTD. PLOT NO.8, HISSA NO. 10, SURVEY NO. 328, NEHRU ROAD, NEAR GANESH MANDIR, OPP.GARDEN DOMBIVALI (E), THANE, MAHARASHTRA - 421 201",,DOMBIVLI,THANE,MAHARASHTRA
KKBK0000631,Kotak Mahindra Bank,KKBK0000631,400485010,MUMBAI-KALINA,MUMBAI-KALINA,,MUMBAI,GREATER MUMBAI,MAHARASHTRA
KKBK0000634,Kotak Mahindra Bank,KKBK0000634,400485042,WORLI,"KOTAK MAHINDRA BANK LTD. CITY VIEW BUILDING, 201, DR.ANNIE BESANT ROAD, WORLI, MUMBAI – 400018",,MUMBAI,MUMBAI,MAHARASHTRA
KKBK0000635,Kotak Mahindra Bank,KKBK0000635,400485043,MUMBAI - SION (W),"KOTAK MAHINDRA BANK LTD.KUM KUM CHS, JAIN SOCIETY, OFF EASTERN EXPRESS HIGHWAY, BEHIND DOMINOS, SION (W) - 400022",,MUMBAI,GREATER MUMBAI,MAHARASHTRA
KKBK0000637,Kotak Mahindra Bank,KKBK0000637,400485008,MUMBAI - NEPEAN SEA ROAD,MUMBAI - NEPEAN SEA ROAD,,MUMBAI,GREATER MUMBAI,MAHARASHTRA
KKBK0000638,Kotak Mahindra Bank,KKBK0000638,400485011,MUMBAI - PENNINSULA LOWER PAREL,MUMBAI - PENNINSULA LOWER PAREL,,MUMBAI,GREATER MUMBAI,MAHARASHTRA
KKBK0000639,Kotak Mahindra Bank,KKBK0000639,400485044,HUGHES ROAD,"KOTAK MAHINDRA BANK LTD, GR FLR UNIT 2 & BASEMENT UNIT B MANEK LODGE, N S PATKAR MARG, HUGHES ROAD, MUMBAI 400 007",,MUMBAI,MUMBAI,MAHARASHTRA
KKBK0000640,Kotak Mahindra Bank,KKBK0000640,400485046,PAREL,"KOTAK MAHINDRA BANK LTD. SHOP NO. 9, 10, 11 & 12, VEER MAHAL CHS, GROUND FLOOR, DR. BABASAHEB AMBEDKAR ROAD, PAREL, MUMBAI 400 012",,MUMBAI,GREATER MUMBAI,MAHARASHTRA
KKBK0000642,Kotak Mahindra Bank,KKBK0000642,400485006,MUMBAI-MULUND WEST,MUMBAI-MULUND WEST,,MUMBAI,GREATER MUMBAI,MAHARASHTRA
KKBK0000643,Kotak Mahindra Bank,KKBK0000643,400485045,GOREGAON,"KOTAK MAHINDRA BANK LTD. EVERSHINE ANGAN, GR FLOOR, PLOT NO 4, JAWAHAR NAGAR, GOREGAON WEST, MUMBAI 400062",,MUMBAI,GREATER MUMBAI,MAHARASHTRA
KKBK0000644,Kotak Mahindra Bank,KKBK0000644,400485049,MATUNGA BRANCH,"KOTAK MAHINDRA BANK LTD, RAJ NIKETAN, BHANDARKAR ROAD, MATUNGA, MUMBAI MAHARASHTRA - 400 019",,MATUNGA,MUMBAI,MAHARASHTRA
KKBK0000646,Kotak Mahindra Bank,KKBK0000646,400485048,GOREGAON BRANCH,"KOTAK MAHINDRA BANK LTD, SHIVDHAM COMPLEX,DINDOSHI ONKAR  C.H.S, GEN. A. K. VAIDYA MARG, DINDOSHI, MALAD (E) MAHARASHTRA - 400 097",,DINDOSHI,MUMBAI,MAHARASHTRA
KKBK0000647,Kotak Mahindra Bank,KKBK0000647,400485050,CHURCHGATE BRANCH,"KOTAK MAHINDRA BANK LTD, GR. FLR. KHETAN BHAVAN, 198, JHAMSHEDJI TATA ROAD, CHURCHGATE , MUMBAI MAHARASHTRA - 400 020",,CHURCHGATE,MUMBAI,MAHARASHTRA
KKBK0000648,Kotak Mahindra Bank,KKBK0000648,400485047,COLABA BRANCH,"KOTAK MAHINDRA BANK LTD, SHOP NO: 2, 3 & 3A, KISMET BUILDING, 81, NATHALAL PARIKH MARG (WODEHOUSE ROAD),  NR. SASSOON DOCK, COLABA, MUMBAI. MAHARASHTRA - 400 005
",,COLABA,MUMBAI,MAHARASHTRA
KKBK0000649,Kotak Mahindra Bank,KKBK0000649,400485051,MIRA- BHAYENDER BRANCH,"KOTAK MAHINDRA BANK LTD, E WING, LATIF PARK, MIRA BHAYANDAR ROAD, MIRA ROAD (E),THANE, MAHARASHTRA - 401107.",,THANE,MUMBAI,MAHARASHTRA
KKBK0000650,Kotak Mahindra Bank,KKBK0000650,AWAITED,ULHASNAGAR,"KOTAK MAHINDRA BANK LTD, GROUND FLOOR, SHOP NO. 3 &4 OFFICE, BEHIND SHOP NO.3,4 &5, KESWANI COMPLEX, OPP CHOPRA COURT, ULHASNAGAR-421003",,ULHASNAGAR,ULHASNAGAR,MAHARASHTRA
KKBK0000651,Kotak Mahindra Bank,KKBK0000651,400485003,MUMBAI-ANDHERI EAST,MUMBAI-ANDHERI EAST,,MUMBAI,GREATER MUMBAI,MAHARASHTRA
KKBK0000652,Kotak Mahindra Bank,KKBK0000652,400485004,MUMBAI - SANTACRUZ (WEST),MUMBAI - SANTACRUZ (WEST),,MUMBAI,GREATER MUMBAI,MAHARASHTRA
KKBK0000653,Kotak Mahindra Bank,KKBK0000653,400485005,MUMBAI - BORIVALI,MUMBAI - BORIVALI,,MUMBAI,GREATER MUMBAI,MAHARASHTRA
KKBK0000654,Kotak Mahindra Bank,KKBK0000654,400485007,MUMBAI BANDRA -TURNER ROAD,MUMBAI BANDRA -TURNER ROAD,,MUMBAI,GREATER MUMBAI,MAHARASHTRA
KKBK0000655,Kotak Mahindra Bank,KKBK0000655,400485015,THANE - NAUPADA,THANE - NAUPADA,,(022) 67120953,THANE,MAHARASHTRA
KKBK0000656,Kotak Mahindra Bank,KKBK0000656,400485014,THANE - HIRANANDANI,THANE - HIRANANDANI,,(022) 25895557,THANE,MAHARASHTRA
KKBK0000657,Kotak Mahindra Bank,KKBK0000657,400485016,THANE - BHIWANDI,THANE - BHIWANDI,,(02522) 645301-04,THANE,MAHARASHTRA
KKBK0000658,Kotak Mahindra Bank,KKBK0000658,400485018,MUMBAI - GHATKOPAR,MUMBAI - GHATKOPAR,,MUMBAI,GREATER MUMBAI,MAHARASHTRA
KKBK0000659,Kotak Mahindra Bank,KKBK0000659,400485023,VASAI - MANIKPUR,VASAI - MANIKPUR,,(0250) 2337574,THANE,MAHARASHTRA
KKBK0000660,Kotak Mahindra Bank,KKBK0000660,AWAITED,CBD BELAPUR BRANCH,"KOTAK MAHINDRA BANK LTD, UNIT NO. G003, GROUND FLOOR, SHARDA TERACES, PLOT NO. 65 SECTOR II, CBD BELAPUR, NAVI MUMBAI-400021",,BELAPUR,MUMBAI,MAHARASHTRA
KKBK0000661,Kotak Mahindra Bank,KKBK0000661,400485022,MUMBAI - JVPD,MUMBAI - JVPD,,MUMBAI,GREATER MUMBAI,MAHARASHTRA
KKBK0000662,Kotak Mahindra Bank,KKBK0000662,400485020,MUMBAI - MALAD,MUMBAI - MALAD,,MUMBAI,GREATER MUMBAI,MAHARASHTRA
KKBK0000663,Kotak Mahindra Bank,KKBK0000663,400485024,MUMBAI - POWAI,MUMBAI - POWAI,,MUMBAI,GREATER MUMBAI,MAHARASHTRA
KKBK0000664,Kotak Mahindra Bank,KKBK0000664,400485031,MUMBAI - VILE PARLE (EAST),MUMBAI - VILE PARLE (EAST),,MUMBAI,GREATER MUMBAI,MAHARASHTRA
KKBK0000665,Kotak Mahindra Bank,KKBK0000665,400485027,MUMBAI - KANDIVALI,MUMBAI - KANDIVALI,,MUMBAI,GREATER MUMBAI,MAHARASHTRA
KKBK0000666,Kotak Mahindra Bank,KKBK0000666,400485033,MUMBAI - OPERA HOUSE,"KOTAK MAHINDRA BANK LIMITED. 480, SANGHRAJKA HOUSE, S.V.P ROAD, OPERA HOUSE, MUMBAI - 400 004, MAHARASHTRA.",,MUMBAI,GREATER MUMBAI,MAHARASHTRA
KKBK0000667,Kotak Mahindra Bank,KKBK0000667,400485036,MUMBAI - KHAR WEST,MUMBAI - KHAR WEST,,MUMBAI,GREATER MUMBAI,MAHARASHTRA
KKBK0000668,Kotak Mahindra Bank,KKBK0000668,400485025,THANE - GHODBUNDER ROAD,THANE - GHODBUNDER ROAD,,(022) 25862494,THANE,MAHARASHTRA
KKBK0000669,Kotak Mahindra Bank,KKBK0000669,400485026,NAVI MUMBAI - VASHI SECTOR 17,NAVI MUMBAI - VASHI SECTOR 17,,MUMBAI,GREATER MUMBAI,MAHARASHTRA
KKBK0000670,Kotak Mahindra Bank,KKBK0000670,400485030,NAVI MUMBAI - KOPARKHAIRNE,NAVI MUMBAI - KOPARKHAIRNE,,MUMBAI,GREATER MUMBAI,MAHARASHTRA
KKBK0000671,Kotak Mahindra Bank,KKBK0000671,400485029,NAVI MUMBAI - NERUL,NAVI MUMBAI - NERUL,,MUMBAI,GREATER MUMBAI,MAHARASHTRA
KKBK0000672,Kotak Mahindra Bank,KKBK0000672,400485028,TARAPUR - SHIV KALA ARCADE,TARAPUR - SHIV KALA ARCADE,,(02525) 267652,THANE,MAHARASHTRA
KKBK0000673,Kotak Mahindra Bank,KKBK0000673,400485034,MUMBAI - CRAWFORD MARKET,MUMBAI - CRAWFORD MARKET,,MUMBAI,GREATER MUMBAI,MAHARASHTRA
KKBK0000674,Kotak Mahindra Bank,KKBK0000674,400485032,MUMBAI - VILE PARLE (WEST),MUMBAI - VILE PARLE (WEST),,MUMBAI,GREATER MUMBAI,MAHARASHTRA
KKBK0000675,Kotak Mahindra Bank,KKBK0000675,400485035,THANE - MANPADA,THANE - MANPADA,,(022) 67211634,THANE,MAHARASHTRA
KKBK0000677,Kotak Mahindra Bank,KKBK0000677,110485033,GHAZIABAD,"KOTAK MAHINDRA BANK LTD. C,77  RDC, RAJ NAGAR DISTRICT CENTRE, GHAZIABAD, UTTAR PRADESH - 201 001",,GHAZIABAD,GHAZIABAD,UTTAR PRADESH
KKBK0000678,Kotak Mahindra Bank,KKBK0000678,226485003,GOMTINAGAR,"KOTAK MAHINDRA BANK LTD, 5/27, VISHAL KHAND, GOMTINAGAR, LUCKNOW 226010",,LUCKNOW,LUCKNOW,UTTAR PRADESH
KKBK0000680,Kotak Mahindra Bank,KKBK0000680,AWAITED,LOKHANDWALA-ANDHERI,"KOTAK MAHINDRA BANK LTD, SHOP NUMBERS 9,10 AND 11, GROUND FLOOR, WING “B”, “SILVER SPRING” PLOT NO.118, LOKHANDWALA COMPLEX, ANDHERI WEST, MUMBAI-400053",,MUMBAI,GREATER BOMBAY,MAHARASHTRA
KKBK0000681,Kotak Mahindra Bank,KKBK0000681,AWAITED,ANDHERI- KURLA ROAD,"KOTAK MAHINDRA BANK LTD, UNIT NO-2 &3, GROUND FLOOR, “ SATELLITE SILVER”, SATELLITE SILVER CO- OPERATIVE HSG SOCIETY LTD, ANDHERI -KURLA ROAD, CTS NO-1613,1613/1, ANDHERI EAST, MUMBAI-400059.",,MUMBAI,GREATER BOMBAY,MAHARASHTRA
KKBK0000682,Kotak Mahindra Bank,KKBK0000682,AWAITED,GHATKOPAR,"KOTAK MAHINDRA BANK LTD, UNIT NO.1, GROUND FLOOR “ RAJSHREE PLAZA”, RAJSHREE PLAZA PREMISES CO-OPERATIVE SOC. LIMITED, OPPOSITE SHREYAS CINEMA, LBS MARG, GHATKOPAR (WEST) MUMBAI-400086.",,MUMBAI,GREATER BOMBAY,MAHARASHTRA
KKBK0000683,Kotak Mahindra Bank,KKBK0000683,AWAITED,S V ROAD BRANCH,"KOTAK MAHINDRA BANK LTD, SHOP NO. 1 TO 5 ON THE GROUND FLOOR & BASEMENT, DATTANI CHAMBERS, DATTANI CHAMBERS CO-OPERATIVE HSG SOC. LTD, SWAMI VIVEKANAND ROAD, MALAD (WEST), MUMBAI-400064.",,MUMBAI,GREATER BOMBAY,MAHARASHTRA
KKBK0000684,Kotak Mahindra Bank,KKBK0000684,AWAITED,VIKHROLI WEST,"KOTAK MAHINDRA BANK LTD, SHOP NO.3 & SHOP NO.4, GROUND FLOOR, “ KARMA STAMBH”, NEXT TO HCC BUSINESS  PARK, LBS ROAD, VIKHROLI (WEST), MUMBAI-400079",,MUMBAI,GREATER BOMBAY,MAHARASHTRA
KKBK0000691,Kotak Mahindra Bank,KKBK0000691,440485002,NAGPUR - KINGSWAY,NAGPUR - KINGSWAY,, (0712) 5620800,NAGPUR,MAHARASHTRA
KKBK0000692,Kotak Mahindra Bank,KKBK0000692,416485002,KOLHAPUR - RAJA RAMPURI ROAD,KOLHAPUR - RAJA RAMPURI ROAD,,(0231) 6611051,KOLHAPUR,MAHARASHTRA
KKBK0000693,Kotak Mahindra Bank,KKBK0000693,431485002,AURANGABAD - JALNA ROAD,AURANGABAD - JALNA ROAD,,(0240) 6611756,AURANGABAD,MAHARASHTRA
KKBK0000694,Kotak Mahindra Bank,KKBK0000694,422485002,NASIK - THATTE NAGAR ROAD,NASIK - THATTE NAGAR ROAD,,(0253) 6617038,NASHIK,MAHARASHTRA
KKBK0000697,Kotak Mahindra Bank,KKBK0000697,425485002,JALGAON,"KOTAK MAHINDRA BANK LTD, SHOP NO. 5, GROUND FLOOR, PATEL PLAZA, M.G.ROAD, OPP. RAISONI HOSPITAL, JALGAON - 425001",,JALGAON,JALGAON,MAHARASHTRA
KKBK0000698,Kotak Mahindra Bank,KKBK0000698,431485003,"WALUJ, AURANGABAD ","KOTAK MAHINDRA BANK LTD, GROUND & FIRST FLOOR, BM HOUSE, PLOT NO. X - 30, MIDC, NEAR BAJAJ NAGAR POST OFFICE, WALUJ, AURANGABAD - 431136",,AURANGABAD,AURANGABAD,MAHARASHTRA
KKBK0000699,Kotak Mahindra Bank,KKBK0000699,AWAITED,SOYGAON BRANCH,"KOTAK MAHINDRA BANK LTD, GROUND FLOOR, SAVALI BUILD, SURVEY NO. 16/17( PART) PLOT NO.6, VILLAGE SOYGAON, TALUKA MALEGAON 423203",,NASIK,NASIK,MAHARASHTRA
KKBK0000701,Kotak Mahindra Bank,KKBK0000701,403485002,PANJIM - PARK PLAZA,PANJIM - PARK PLAZA,, (0832) 2421703,NORTH GOA,GOA
KKBK0000702,Kotak Mahindra Bank,KKBK0000702,403485003,MARGAO - ISIDIRO BAPTISTA ROAD,MARGAO - ISIDIRO BAPTISTA ROAD,,(0832) 2735076,SOUTH GOA,GOA
KKBK0000721,Kotak Mahindra Bank,KKBK0000721,411485003,PUNE - VIRWANI PLAZA,PUNE - VIRWANI PLAZA,,(020) 66094041,PUNE,MAHARASHTRA
KKBK0000723,Kotak Mahindra Bank,KKBK0000723,411485002,PUNE - BHANDARKAR ROAD,PUNE - BHANDARKAR ROAD,, (020) 26333693,PUNE,MAHARASHTRA
KKBK0000724,Kotak Mahindra Bank,KKBK0000724,411485004,PUNE - KONDHAVE KHURD,PUNE - KONDHAVE KHURD,,(020) 26856103,PUNE,MAHARASHTRA
KKBK0000725,Kotak Mahindra Bank,KKBK0000725,411485006,PUNE - PIMPRI CHINCHWAD,PUNE - PIMPRI CHINCHWAD,,(020) 66204512,PUNE,MAHARASHTRA
KKBK0000726,Kotak Mahindra Bank,KKBK0000726,411485005,PUNE - AUNDH,PUNE - AUNDH,,(020) 66408210,PUNE,MAHARASHTRA
KKBK0000727,Kotak Mahindra Bank,KKBK0000727,411485007,PUNE - KHADKI,PUNE - KHADKI,,(020) 66204527,PUNE,MAHARASHTRA
KKBK0000728,Kotak Mahindra Bank,KKBK0000728,411485008,CHAKAN,"KOTAK MAHINDRA BANK LTD, SHUBHMANGAL PLAZA, TALEGAON CHOWK, PUNE-NASHIK HIGHWAY, CHAKAN, PUNE, MAHARASHTRA - 410 501.",,CHAKAN,PUNE,MAHARASHTRA
KKBK0000730,Kotak Mahindra Bank,KKBK0000730,AWAITED,RAMWADI,"KOTAK MAHINDRA BANK LTD, GROUND & MEZZANINE , “SRISHTL CHAMBERS”, “C” WING SURVEY NO.29A/1/3/5, PUNE NAGAR ROAD, PUNE-411004",,PUNE,PUNE,MAHARASHTRA
KKBK0000731,Kotak Mahindra Bank,KKBK0000731,AWAITED,KOTHRUD,"KOTAK MAHINDRA BANK LTD, GROUND FLOOR & MEZZANINE, VIJAY SMRITI, PLOT NO. 33, CTS NO.755, OLD SURVEY NO.14/129/130/131, MAYOR COLONY, KOTHRUD PUNE",,PUNE,PUNE,MAHARASHTRA
KKBK0000732,Kotak Mahindra Bank,KKBK0000732,AWAITED,KUMTEKAR ROAD,"KOTAK MAHINDRA BANK LTD, GROUND FLOOR , MEZZANINE FLOOR, CTS NO. 648, SADASHIV PETH , PUNE, KUMTEKAR ROAD PUNE-411030",,PUNE,PUNE,MAHARASHTRA
KKBK0000751,Kotak Mahindra Bank,KKBK0000751,452485002,INDORE - M G ROAD,INDORE - M G ROAD,,(0731) 5297501,INDORE,MADHYA PRADESH
KKBK0000753,Kotak Mahindra Bank,KKBK0000753,462485002,BHOPAL - M.P.NAGAR,BHOPAL - M.P.NAGAR,,(0755) 4061007,BHOPAL,MADHYA PRADESH
KKBK0000810,Kotak Mahindra Bank,KKBK0000810,380485004,GUJARAT - SATELLITE,GUJARAT - SATELLITE,,(079) 66310000,AHMEDABAD,GUJARAT
KKBK0000811,Kotak Mahindra Bank,KKBK0000811,380485002,AHMEDABAD-GHANTAKARNA MARKET,AHMEDABAD-GHANTAKARNA MARKET,,(079) 66060477,AHMEDABAD,GUJARAT
KKBK0000812,Kotak Mahindra Bank,KKBK0000812,380485003,AHMEDABAD - CHANDAN HOUSE,AHMEDABAD - CHANDAN HOUSE,,(079) 66614800,AHMEDABAD,GUJARAT
KKBK0000813,Kotak Mahindra Bank,KKBK0000813,384485001,GUJARAT - MEHSANA,GUJARAT - MEHSANA,,(02762) 231181,MEHSANA,GUJARAT
KKBK0000814,Kotak Mahindra Bank,KKBK0000814,383485001,GUJARAT - HIMMATNAGAR,GUJARAT - HIMMATNAGAR,,(02772) 245019,SABARKANTHA,GUJARAT
KKBK0000815,Kotak Mahindra Bank,KKBK0000815,382485021,GUJARAT-KADI,GUJARAT-KADI,,(02764) 242908,MEHSANA,GUJARAT
KKBK0000816,Kotak Mahindra Bank,KKBK0000816,384485051,GUJARAT - UNJHA,GUJARAT - UNJHA,,(02767) 253812,MEHSANA,GUJARAT
KKBK0000817,Kotak Mahindra Bank,KKBK0000817,394485051,GUJARAT - BARDOLI,GUJARAT - BARDOLI,,(02622) 224500,SURAT,GUJARAT
KKBK0000818,Kotak Mahindra Bank,KKBK0000818,363485021,GUJARAT - MORBI,GUJARAT - MORBI,,(02822) 221745,RAJKOT,GUJARAT
KKBK0000819,Kotak Mahindra Bank,KKBK0000819,393485051,GUJARAT - ANKLESHWAR,GUJARAT - ANKLESHWAR,,(02646) 227049/50,BHARUCH,GUJARAT
KKBK0000820,Kotak Mahindra Bank,KKBK0000820,396485001,GUJARAT - VALSAD,GUJARAT - VALSAD,,(02632) 259152,VALSAD,GUJARAT
KKBK0000821,Kotak Mahindra Bank,KKBK0000821,384485121,GUJARAT - VISNAGAR,GUJARAT - VISNAGAR,,(02765) 227288,SURENDRANAGAR,GUJARAT
KKBK0000822,Kotak Mahindra Bank,KKBK0000822,370485001,GANDHIDHAM - SINDHU,GANDHIDHAM - SINDHU,,(02836) 235084,KUTCH,GUJARAT
KKBK0000823,Kotak Mahindra Bank,KKBK0000823,396485111,DNH-SILVASSA,DNH-SILVASSA,,(0260) 6453694,DADRA & NAGAR HAVELI,DADRA & NAGAR HAVELI
KKBK0000824,Kotak Mahindra Bank,KKBK0000824,385485031,GUJARAT - DEESA,GUJARAT - DEESA,,(02744) 230358,BANASKANTHA,GUJARAT
KKBK0000825,Kotak Mahindra Bank,KKBK0000825,380485007,AHMEDABAD - DRIVE IN,"KOTAK MAHINDRA BANK LTD. GROUND FLOOR, ISHWAR COMPLEX, OPP. GURUKUL TOWERS,  DRIVE IN ROAD,  AHMEDABAD - 380 052 GUJARAT  ",,AHMEDABAD,AHMEDABAD,GUJARAT
KKBK0000826,Kotak Mahindra Bank,KKBK0000826,389485021,DAHOD,"KOTAK MAHINDRA BANK LTD. GROUND FLOOR, CENTRAL PARK, DURGA MILLS COMPOUND, GADI ROAD, DAHOD, PIN-389 151 GUJARAT ",,DAHOD,DAHOD,GUJARAT
KKBK0000827,Kotak Mahindra Bank,KKBK0000827,380485009,AHMEDABAD - SHAHIBAUG,"KOTAK MAHINDRA BANK LTD. SHOP NO 32, 33, 34 UPPER LEVEL ADVANCE PLAZA, SHAHIBAUG AHMEDABAD - 380 004",,AHMEDABAD,AHMEDABAD,GUJARAT
KKBK0000829,Kotak Mahindra Bank,KKBK0000829,361485002,JAMNAGAR,"KOTAK MAHINDRA BANK LTD, SUNIDHI,GROUND FLOOR, PARK COLONY, OPP SAINT ANN'S SCHOOL, PANDIT NEHRU MARG, JAMNAGAR 361008",,JAMNAGAR,JAMNAGAR,GUJARAT
KKBK0000831,Kotak Mahindra Bank,KKBK0000831,360485002,RAJKOT-RACE COURSE,RAJKOT-RACE COURSE,,(0281) 6622600,RAJKOT,GUJARAT
KKBK0000832,Kotak Mahindra Bank,KKBK0000832,388485001,ANAND - VALLABH VIDYANAGAR,ANAND - VALLABH VIDYANAGAR,,(02692) 229993,ANAND,GUJARAT
KKBK0000833,Kotak Mahindra Bank,KKBK0000833,396485070,GUJARAT - VAPI,GUJARAT - VAPI,,(0260) 2462751,VALSAD,GUJARAT
KKBK0000834,Kotak Mahindra Bank,KKBK0000834,363485001,GUJARAT - SURENDRA NAGAR,GUJARAT - SURENDRA NAGAR,,(02752) 645118,SURENDRANAGAR,GUJARAT
KKBK0000835,Kotak Mahindra Bank,KKBK0000835,365485001,AMRELI,"KOTAK MAHINDRA BANK LTD, GROUND FLOOR AND 1ST FLOOR, PAREKH CHAMBERS, NEAR SMALL BUS STOP, DR. JIVRAJ MEHTA CHOWK, AMRELI 365601",,AMRELI,AMRELI,GUJARAT
KKBK0000836,Kotak Mahindra Bank,KKBK0000836,380485010,BODAKDEV BRANCH,"KOTAK MAHINDRA BANK LTD, PARSHWA TOWER, S. G. ROAD, BODAKDEV, AHMEDABAD, GUJARAT - 380 054.",,AHMEDABAD,AHMEDABAD,GUJARAT
KKBK0000837,Kotak Mahindra Bank,KKBK0000837,AWAITED,VATVA BRANCH,"KOTAK MAHINDRA BANK LTD, SHOP NO. 10-12, KARNAVATI INDUSTRIAL ESTATE NO.2, RAMOL CROSS ROADS, VATVA, GIDC PHASE IV, AHMEDABAD 382445",,AHMEDABAD,AHMEDABAD,GUJARAT
KKBK0000838,Kotak Mahindra Bank,KKBK0000838,380485011,NARANPURA BRANCH,"KOTAK MAHINDRA BANK LTD, GROUND FLOOR, SHOP NO.9, SHIVALIK YASH, 132 FEET, RING ROAD, NARANPURA. AHMEDABAD 380013",,NARANPURA,AHMEDABAD,GUJARAT
KKBK0000839,Kotak Mahindra Bank,KKBK0000839,AWAITED,CHANDKHEDA BRANCH,"KOTAK MAHINDRA BANK LTD, CHANDKHEDA BRANCH- AHMEDABAD., SHOP NO. 16,17,18 & 19 ON THE FIRST FLOOR, SHOP NO. G 13, ON THE GROUND FLOOR, SHYAMAL COMPLEX, NEW C G ROAD, CHANDKHEDA, AHMEDABAD-382424- GUJARAT",,AHMEDABAD,AHMEDABAD,GUJARAT
KKBK0000841,Kotak Mahindra Bank,KKBK0000841,390485002,BARODA-RACE  COURSE CIRCLE,BARODA-RACE  COURSE CIRCLE,,(0265) 5520350,VADODARA,GUJARAT
KKBK0000842,Kotak Mahindra Bank,KKBK0000842,391485081,GUJARAT-BODELI,GUJARAT-BODELI,,9228004074,VADODARA,GUJARAT
KKBK0000843,Kotak Mahindra Bank,KKBK0000843,390485003,VADODARA - TARSHALI,"KOTAK MAHINDRA BANK LTD. KABIR PLAZA, SHOP NO 15-17, GROUND FLOOR, SHOP NO 11-15, 1ST FLOOR, BHAVAN’S MAKARPURA ROAD, TARSHALI VILLAGE, VADODARA, GUJARAT - 390 009.",,VADODARA,VADODARA,GUJARAT
KKBK0000844,Kotak Mahindra Bank,KKBK0000844,389485041,HALOL BRANCH,"KOTAK MAHINDRA BANK LTD, SHYAM SHARAD COMPLEX, HALOL - BARODA ROAD, (NR. BUS STAND), HALOL, GUJARAT - 389 950.",,HALOL,PANCHMAHAL,GUJARAT
KKBK0000845,Kotak Mahindra Bank,KKBK0000845,388485002,ANAND BRANCH,"KOTAK MAHINDRA BANK LTD, GR. FLR, SNATARAM SQUARE, AMUL DAIRY ROAD, ANAND, GUJARAT - 388 001.",,ANAND,ANAND,GUJARAT
KKBK0000846,Kotak Mahindra Bank,KKBK0000846,387485001,NADIAD BRANCH,"KOTAK MAHINDRA BANK LTD, GROUND FLOOR, SHOP NO.3 & 4, ISCON ARCADE COLLEGE ROAD, NADIAD, DIST KHEDA GUJARAT 387001",,NADIAD,KHEDA,GUJARAT
KKBK0000847,Kotak Mahindra Bank,KKBK0000847,AWAITED,BHUJ BRANCH,"KOTAK MAHINDRA BANK LTD, GROUND FLOOR, MEZANINE FLOOR , & FIST FLOOR, BLOCK #2, JUBILIEE COLONY, NEAR JUBILEE GROUND, BHUJ – 370001, DISTRICT- KUTCH, GUJARAT",,BHUJ,KUTCH,GUJARAT
KKBK0000848,Kotak Mahindra Bank,KKBK0000848,AWAITED,SIDDHPUR PATAN BRANCH,"KOTAK MAHINDRA BANK LTD, GROUND FLOOR, SHOP NO.27A, 28, 28A &29, “HEERA PANNA SHOPPING CENTER” CONSTRUCTED ON LAND BEARING-CITY SURVEY NO.318/120 PAIKI,325 &326, TALUKA SIDDHPUR, DISTRICT PATAN-38415",,SIDDHPUR,PATAN,GUJARAT
KKBK0000871,Kotak Mahindra Bank,KKBK0000871,395485002,SURAT - GHOD DOR ROAD,SURAT - GHOD DOR ROAD,,(0261) 5581881,SURAT,GUJARAT
KKBK0000872,Kotak Mahindra Bank,KKBK0000872,396485061,GUJARAT - NAVSARI,GUJARAT - NAVSARI,,(02637) 241278,NAVSARI,GUJARAT
KKBK0000873,Kotak Mahindra Bank,KKBK0000873,392485001,GUJARAT - NANDALEV,GUJARAT - NANDALEV,,9228004071,BHARUCH,GUJARAT
KKBK0000874,Kotak Mahindra Bank,KKBK0000874,395485003,SURAT - HAJIRA INN,SURAT - HAJIRA INN,,(0261) 2860546,SURAT,GUJARAT
KKBK0000876,Kotak Mahindra Bank,KKBK0000876,395485004,SURAT - CLOTH MARKET (RING ROAD),SURAT - CLOTH MARKET (RING ROAD),,(0261) 6693312,SURAT,GUJARAT
KKBK0000877,Kotak Mahindra Bank,KKBK0000877,395485005,SURAT - PIPLOD,SURAT - PIPLOD,,(0261) 6533006,DAHOD,GUJARAT
KKBK0000878,Kotak Mahindra Bank,KKBK0000878,385485001,PALANPUR,"KOTAK MAHINDRA BANK LTD. GROUND FLOOR, AGRAWAL COMPLEX, PALACE ROAD, PALANPUR - 385 001,GUJARAT.",,PALANPUR,BANASKANTHA,GUJARAT
KKBK0000879,Kotak Mahindra Bank,KKBK0000879,380485008,GANDHINAGAR,KOTAK MAHINDRA BANK LTD. PLOT NO 319  SECTOR 16  G H ROAD  GANDHINAGAR - 382 016  GUJARAT,,GANDHINAGAR,GANDHINAGAR,GUJARAT
KKBK0000881,Kotak Mahindra Bank,KKBK0000881,394485502,PALSANA,"KOTAK MAHINDRA BANK LTD. GROUND FLOOR, 1,2,3 & 4, THAKORJI COMMERCIAL COMPLEX, MOUJE-PALSANA, TALLUKA- PALSANA, DIST.-SURAT, PIN- 394 315 GUJARAT ",,PALSANA,SURAT,GUJARAT
KKBK0000882,Kotak Mahindra Bank,KKBK0000882,394485071,VYARA,"KOTAK MAHINDRA BANK LTD. 1ST FLOOR, C D HOUSE, VYARA, DIST. SURAT, GUJRAT - 394 650",,VYARA,SURAT,GUJARAT
KKBK0000883,Kotak Mahindra Bank,KKBK0000883,395485007,"PUNA, SURAT ","KOTAK MAHINDRA BANK LTD , VRAJ BHUMI APARTMENT, GROUND FLOOR, SHOP NO. 2 & 3, PUNA, SURAT – 395 010",,SURAT,SURAT,GUJARAT
KKBK0000884,Kotak Mahindra Bank,KKBK0000884,395485006,SACHIN BRANCH,"KOTAK MAHINDRA BANK LTD, PLOT NO. 414/1, SACHIN, GIDC INDUSTRIAL ESTATE, SACHIN, DISTRICT SURAT 394230",,SACHIN,SURAT,GUJARAT
KKBK0000885,Kotak Mahindra Bank,KKBK0000885,395485008,KUMBHARIA ROAD BRANCH,"KOTAK MAHINDRA BANK LTD, SHOP NO.1 &2, MANSAROVER HEIGHTS, MAGOB, KUMBARIA ROAD, SURAT -395010",,SURAT,SURAT,GUJARAT
KKBK0000891,Kotak Mahindra Bank,KKBK0000891,364485001,GUJARAT - BHAVNAGAR,GUJARAT - BHAVNAGAR,,(0278) 6452201-4,BHAVNAGAR,GUJARAT
KKBK0000957,Kotak Mahindra Bank,KKBK0000957,400485013,MUMBAI - FORT,MUMBAI - FORT,,MUMBAI,GREATER MUMBAI,MAHARASHTRA
KKBK0000958,Kotak Mahindra Bank,KKBK0000958,400485002,MUMBAI-NARIMAN POINT,MUMBAI-NARIMAN POINT,,MUMBAI,GREATER MUMBAI,MAHARASHTRA
KKBK0000960,Kotak Mahindra Bank,KKBK0000960,400485012,MUMBAI - CHEMBUR,MUMBAI - CHEMBUR,,MUMBAI,GREATER MUMBAI,MAHARASHTRA
KKBK0000961,Kotak Mahindra Bank,KKBK0000961,400485021,MUMBAI - KALBADEVI,MUMBAI - KALBADEVI,,MUMBAI,GREATER MUMBAI,MAHARASHTRA
KKBK0000962,Kotak Mahindra Bank,KKBK0000962,400485017,MUMBAI - LOKHANDWALA,MUMBAI - LOKHANDWALA,,MUMBAI,GREATER MUMBAI,MAHARASHTRA
KKBK0000963,Kotak Mahindra Bank,KKBK0000963,400485019,MUMBAI - PRABHADEVI,MUMBAI - PRABHADEVI,,MUMBAI,GREATER MUMBAI,MAHARASHTRA
KKBK0001340,Kotak Mahindra Bank,KKBK0001340,AWAITED,MUMBAI CURRENCY CHEST,"KOTAK MAHINDRA BANK LTD, GROUND FLOOR, ADMIN BLDG., WESTERN INDUSTRIAL CO-OP ESTATE LTD., OPP SEEPZ MAIN GATE, MIDC (MAROL), ANDHERI EAST",,MUMBAI,GREATER BOMBAY,MAHARASHTRA
KKBK0001345,Kotak Mahindra Bank,KKBK0001345,AWAITED,L J ROAD BRANCH,"KOTAK MAHINDRA BANK LTD, GROUND FLOOR,FIRST FLOOR “ GAYATRI APARTMENT”, OPPOSITE VIJAY SALES, L J ROAD, MAHIM ( WEST) MUMBAI-400016.",,MUMBAI,GREATER BOMBAY,MAHARASHTRA
KKBK0001346,Kotak Mahindra Bank,KKBK0001346,AWAITED,LBS ROAD BHANDUP BRANCH,"KOTAK MAHINDRA BANK LTD, GROUND FLOOR & FIRST FLOOR, HOTEL PRIDE, LBS ROAD, BHANDUP ( WEST), MUMBAI-400078",,MUMBAI,GREATER BOMBAY,MAHARASHTRA
KKBK0001347,Kotak Mahindra Bank,KKBK0001347,AWAITED,GOKHIVARE BRANCH,"KOTAK MAHINDRA BANK LTD, GOKHIVARE BRANCH, GROUND FLOOR, HOUSE NO.1138, NEVILLE HOUSE, VASAI ROAD (EAST), GOKHIVARE, THANE- 401208.",,GOKHIVERA,THANE,MAHARASHTRA
KKBK0001348,Kotak Mahindra Bank,KKBK0001348,AWAITED,MUMBAI CENTRAL BRANCH,"KOTAK MAHINDRA BANK LTD, MUMBAI CENTRAL BRANCH, SHOP NO. 1,2,3,4,5,6 & 7 ON GROUND FLOOR, & BASEMENT ( BELOW SHOP NO.7) “ OSCAR TOWER”, 28, MARATHA MANDIR MARG, MUMBAI CENTRAL, MUMBAI- PIN : 400 008.",,MUMBAI,GREATER BOMBAY,MAHARASHTRA
KKBK0001349,Kotak Mahindra Bank,KKBK0001349,AWAITED,BADLAPUR BRANCH,"KOTAK MAHINDRA BANK LTD, BADLAPUR BRANCH- THANE, GROUND FLOOR & MEZZANINE, SHOP NO.2,3,13 & 14,  “SHREEJI DEVELOPERS”, KATRAP NAKA, BADLAPUR – 421503 DISTRICT – THANE",,THANE,THANE,MAHARASHTRA
KKBK0001350,Kotak Mahindra Bank,KKBK0001350,AWAITED,NEW MARINE LINES BR,"KOTAK MAHINDRA BANK LTD, NEW MARINE LINES( OPP. LUBERTY CINEMA) GROUND FLOOR, SHOP NO. 2,3 & 4, FLAT NO. K-4 & FLAT NO. B “SUN CHAMBERS” 7, NEW MARINE LINES, DHOBI TALAO, MUMBAI-400020",,MUMBAI,GREATER BOMBAY,MAHARASHTRA
KKBK0001351,Kotak Mahindra Bank,KKBK0001351,AWAITED,VEERA DESAI BRANCH,"KOTAK MAHINDRA BANK LTD, SHOP NO.-1, GROUND FLOOR, WING-A “ DEV PRESITIGE” IN AZAD NAGAR PRESTIGE CO-OPERATIVE HOUSING SOCIETY LTD, AZAD NAGAR ROAD NO-3, VEERA DESAI ROAD, ANDHERI (WEST), MUMBAI-400058",,1800226022,MUMBAI,GREATER BOMBAY
KKBK0001352,Kotak Mahindra Bank,KKBK0001352,AWAITED,LBS MARG MULUND BRANCH,"KOTAK MAHINDRA BANK LTD, SHOP NO.8, GROUND FLOOR,” VIKAS PARADISE” LBS MARG, MULUND (WEST), MUMBAI-400080",,1800226022,MUMBAI,GREATER BOMBAY
KKBK0001353,Kotak Mahindra Bank,KKBK0001353,AWAITED,TEMBHI NAKA BRANCH,"KOTAK MAHINDRA BANK LTD, TEMBHI NAKA ( THANE TALAO) BRANCH GROUND FLOOR & MEZZANINE FLOOR, SHOP NO’S 4,5,6,7, “ MAYURPANKH” “MAYURPANKH CO-OPERATIVE HOUSING SOCIETY LIMITED” TEMBHI NAKA, THANE-400602",18001026022,THANE,THANE,MAHARASHTRA
KKBK0001751,Kotak Mahindra Bank,KKBK0001751,AWAITED,PAUD ROAD BRANCH PUNE,"KOTAK MAHINDRA BANK LTD, GROUND FLOOR, JYOTI MOHAN DESHMUKH TOWERS, PLOT NO-6, SURVEY NO-129, IDEAL COLONY,PAUD ROAD, KOTHRUD, PUNE",,PUNE,PUNE,MAHARASHTRA
KKBK0001829,Kotak Mahindra Bank,KKBK0001829,AWAITED,VARDHMAN NAGAR BRANCH NAGPUR,"KOTAK MAHINDRA BANK LTD, NAGPUR BRANCH, VARDHMAN NAGAR CA ROAD, ENTIRE GROUND FLOOR & FIRST FLOOR (DAL MILL), SHENDRE COMPLEX,PLOT NO-274, CENTRAL AVENUE SCHEME, LAKADGANJ LAYOUT, NAGPUR, PIN : 440008.",,1800226022,NAGPUR,NAGPUR
KKBK0001924,Kotak Mahindra Bank,KKBK0001924,AWAITED,JAYSINGPUR BRANCH,"KOTAK MAHINDRA BANK LTD, GROUND FLOOR, BLOCK NO 200, 7TH LANE, GANDHI CHOWK, MAIN ROAD, JAYSINGPUR, TALUKA - SHIROL, DISTRICT - KOLHAPUR. PIN - 416101. MAHARASHTRA.",18001026022,JAYSINGPUR,KOLHAPUR,MAHARASHTRA
KKBK0001980,Kotak Mahindra Bank,KKBK0001980,AWAITED,MAHARANA PRATAP NAGAR BRANCH,"KOTAK MAHINDRA BANK LTD, MAHARANA PRATAP NAGAR BRANCH.   SHOP NUMBERS 1, 2, 3 & 4, GROUND FLOOR,  “BHAGWAT COMPLEX”. GUT NO. 81/2, BABHALGOAN ROAD, OPPOSITE RTO OFFICE, MAHARANA PRATAP NAGAR, TALUKA AND DISTRICT LATUR, MAHARASHTRA-413512.",,LATUR,LATUR,MAHARASHTRA
KKBK0001981,Kotak Mahindra Bank,KKBK0001981,AWAITED,NAGAPUR BRANCH,"KOTAK MAHINDRA BANK LTD, NAGAPUR BRANCH, ASHWINI CHAMBERS, PLOT NO.3, NEAR DR. DONGRE COMPLEX, WADGAON ROAD CHAWK, NGAR-MANMAD ROAD, NAGAPUR(CT), TAL: NAGAR, DIST: AHMEDNAGAR, MAHARASHTRA-414111",,NAGAPUR,AHMADNAGAR,MAHARASHTRA
KKBK0001982,Kotak Mahindra Bank,KKBK0001982,AWAITED,SHIVANI BRANCH,"KOTAK MAHINDRA BANK LTD, SHIVANI, MAHARASHTRA, PLOT NO.12, SHRIRAM TOWER, MURTIZAPUR ROAD, SHIVANI, AKOLA – 444104 MAHARASHTRA",,SHIVANI,AKOLA,MAHARASHTRA
KKBK0001983,Kotak Mahindra Bank,KKBK0001983,AWAITED,KUSUMBE KHURD BRANCH,"KOTAK MAHINDRA BANK LTD, PLOT NO 2, GAT NO 391/2,NEAR KUSUMBA OCTROI NAKA, KUSUMBE KHURD, AIRPORT ROAD, TALUKA: KUSUMBE, DIST : JALGAON, PIN – 425003. MAHARASHTRA.",,JALGAON,JALGAON,MAHARASHTRA
KKBK0001984,Kotak Mahindra Bank,KKBK0001984,AWAITED,TEMBHURNI BRANCH,"KOTAK MAHINDRA BANK LTD, SHOP NO. 15,16, 17, 18, 19 & 20, GROUND FLOOR, LATE VITTHALRAO SHINDE SHOPPING COMPLEX, MARKET YARD, TEMBHURNI - 413208. TALUKA - MADHA, DISTRICT - SOLAPUR. MAHARASHTRA",,TEMBHURNI,SOLAPUR,MAHARASHTRA
KKBK0001985,Kotak Mahindra Bank,KKBK0001985,AWAITED,PEN BRANCH,"KOTAK MAHINDRA BANK LTD, SHOP NO 2,3,4,5 & HALL, GROUND FLOOR, M N PATIL SAHAKAR BHAVAN, PLOT NO. C-14, MHADA COLONY, ANTORA PHATA, PEN - 402107, DISTRICT - RAIGAD, MAHARASHTRA",,PEN,RAIGAD,MAHARASHTRA
KKBK0001986,Kotak Mahindra Bank,KKBK0001986,AWAITED,SATARA ROAD BRANCH,"KOTAK MAHINDRA BANK LTD, GROUND & MEZZANINE FLOOR, SHOP NO.2, ACKRUTI CHAMBERS. PLOT NO.2, SUB PLOT NO.2, FINAL PLOT NO.408, CTS NO.11A, NEAR SWARGATE BUS STAND, GULTEKADI , SWARGATE PUNE-SATARA ROAD, PUNE-411037, MAHARASHTRA.",,1800226022,GULTEKADI,SATARA
KKBK0001987,Kotak Mahindra Bank,KKBK0001987,AWAITED,CHIPLUN BRANCH,"KOTAK MAHINDRA BANK LIMITED, GROUND FLOOR, SHIVSAGAR BUILDING, (MUNICIPAL HOUSE NO 371/A, 371/A1, 371/A2), KAVIL TALI, CHIPLUN, TALUKA : CHIPLUN, DISTRICT : RATNAGIRI, PIN - 415605. MAHARASHTRA.",18001026022,CHIPLUN,RATNAGIRI,MAHARASHTRA
KKBK0002560,Kotak Mahindra Bank,KKBK0002560,AWAITED,PRAHALADNAGAR BRANCH,"KOTAK MAHINDRA BANK LTD, PRAHLADNAGAR BRANCH, GROUND FLOOR, “ PARAS-II”, PLOT NO.1, PRAHALAD NAGAR, NEAR AUDA GARDEN, AHMEDABAD-380015.",,AHMEDABAD,AHMADABAD,GUJARAT
KKBK0002561,Kotak Mahindra Bank,KKBK0002561,AWAITED,SANAND BRANCH- AHMEDABAD,"KOTAK MAHINDRA BANK LTD, SANAND BRANCH-AHMEDABAD, PLOT NO. C-5, SHIV KRUPA CO-OPERATIVE HOUSING SCO., SANAND SARKHEJ HIGHWAY, SANAND-382110, AHMEDABAD- GUJARAT.",,1800226022,SANAND,AHMADABAD
KKBK0002563,Kotak Mahindra Bank,KKBK0002563,AWAITED,ODHAV BRANCH AHMEDABAD,"KOTAK MAHINDRA BANK LTD, ODHAV BRANCH- AHMEDABAD, GROUND FLOOR, SHOP NO. 39,40 41 ,42, 43 & 44, TEJENDRA COMPLEX BLOCK B, OPP. CMC ODHAV ROAD, AHMEDABAD-382415",18001026022,AHMADABAD,AHMEDABAD,GUJARAT
KKBK0002788,Kotak Mahindra Bank,KKBK0002788,AWAITED,GONDAL BRANCH,"KOTAK MAHINDRA BANK LTD, UPPER GROUND FLOOR, “HARAKHBA SMRITI” RAILLING ROAD, GONDAL-360311, DISTRICT RAJKOT- GUJRAT",,1800226022,GONDAL,RAJKOT
KKBK0003007,Kotak Mahindra Bank,KKBK0003007,AWAITED,VAPI GIDC INDUSTRIAL ESTATE BRANCH,"KOTAK MAHINDRA BANK LTD, VAPI BRANCH, GROUND FLOOR, SHOP NO.5 & 6, “SHANTI COMPLEX” PLOT NO.P/50/1, VAPI GIDC INDUSTRIAL ESTATE, VAPI-396195.",,VAPI,VALSAD,GUJARAT
KKBK0003008,Kotak Mahindra Bank,KKBK0003008,AWAITED,ANKLESHWAR KUBER PLAZA BRANCH,"KOTAK MAHINDRA BANK LTD, ANKLESHWAR BRANCH BHARUCH, GROUND FLOOR, SHOP NO’S 18 TO 23,  ""KUBER PLAZA” PLOTS NOS. 24,25,27& 28, TALUKA ANKLESHWAR, DISTRICT BHARUCH PIN : 393001.",,ANKLESHWAR,BHARUCH,GUJARAT
KKBK0003009,Kotak Mahindra Bank,KKBK0003009,AWAITED,HAJIPUR BRANCH,"KOTAK MAHINDRA BANK LTD, SHOP NO 11,12 & 13, GROUND FLOOR, ABHISHREE COMPLEX, SURVEY NO 297, NEAR SABAR DAIRY, NH NO 8, POST : HAJIPUR, TALUKA: HIMATNAGAR - 383001, GUJARAT",,HIMATNAGAR,SABAR KANTHA,GUJARAT
KKBK0003533,Kotak Mahindra Bank,KKBK0003533,AWAITED,RAJA PARK BRANCH JAIPUR,"KOTAK MAHINDRA BANK LTD, RAJA PARK BRANCH JAIPUR, GROUND FLOOR , PLOT NO. B-26, LEFT PORTION GOVIND MARG, RAJA PARK, JAIPUR, PIN : 302004.",,JAIPUR,JAIPUR,RAJASTHAN
KKBK0003699,Kotak Mahindra Bank,KKBK0003699,AWAITED,NATHDWARA BRANCH,"KOTAK MAHINDRA BANK LTD, NATHDWARA BRANCH( RAJASTHAN), GROUND FLOOR, SHOP NO. 47,49,50 & 51, “GOKUL PLAZA” (BHANDARI COMPLEX), NEW ROAD, NATHDWARA, PIN : 313 301, DIST. RAJSAMAND, RAJASTHAN.",,NATHDWARA,RAJSAMAND,RAJASTHAN
KKBK0003700,Kotak Mahindra Bank,KKBK0003700,AWAITED,RADHA KISHANPURA BRANCH,"KOTAK MAHINDRA BANK LTD, SHAGUN HALL, IN FRONT OF MINING OFFICE, JHUNJHUNU -JAIPUR BY-PASS ROAD, RADHAKISHANPURA-SIKAR, RAJASTHAN-332001",,SIKAR,SIKAR,RAJASTHAN
KKBK0003701,Kotak Mahindra Bank,KKBK0003701,AWAITED,SANTOKPURA BRANCH,"KOTAK MAHINDRA BANK LTD, RISHAB FILLING STATION, VILLAGE-SANTOKPURA, NEAR MANDAL CHOURAHA, NH-79, BHILWARA – 311403 RAJASTHAN",,SANTOKPURA,BHILWARA,RAJASTHAN
KKBK0003702,Kotak Mahindra Bank,KKBK0003702,AWAITED,KHANPUR BRANCH,"KOTAK MAHINDRA BANK LTD, JAGANNATH MARKET ,FAWARA CHAURAHA, JHALAWAR ROAD , KHANPUR, TEHSIL: KHANPUR AND DISTRICT: JHALAWAR, RAJASTHAN-326038",,KHANPUR,JHALAWAR,RAJASTHAN
KKBK0003703,Kotak Mahindra Bank,KKBK0003703,AWAITED,BUNDI BRANCH,"KOTAK MAHINDRA BANK LTD, BUNDI BRANCH-RAJASTAN, GROUND FLOOR (PART), ""NARAYAN TOWERS"", DHAN MANDI ROAD, GAYATRI NAGAR, BUNDI RAJASTAN-PIN : 323001",,BUNDI,BUNDI,RAJASTHAN
KKBK0003704,Kotak Mahindra Bank,KKBK0003704,AWAITED,CHITTAURGARH BRANCH,"KOTAK MAHINDRA BANK LTD, CHITTORGARH BRANCH, GROUND FLOOR “JAGANNATH TOWER” BHILWADA ROAD, NEAR HIGHER SECONDARY SCHOOL, CHITTORGARH RAJASTHAN-312001",,CHITTORGARH,CHITTAURGARH,RAJASTHAN
KKBK0003705,Kotak Mahindra Bank,KKBK0003705,AWAITED,SUMERPUR BRANCH,"KOTAK MAHINDRA BANK LTD, PLOT NO 15 & 16, OPP MARWAH GRAMIN BANK, PALI ROAD, SUMERPUR - 306902. RAJASTHAN.",,SUMERPUR,PALI,RAJASTHAN
KKBK0003706,Kotak Mahindra Bank,KKBK0003706,AWAITED,RIDMALSAR PUROHITAN,"KOTAK MAHINDRA BANK LTD, PLOT NO 1, KUKKAR PROPERTIES, NEAR VAISHNODHAM MANDIR, OPPSITE BIKANER MOTORS PVT.LTD.,N.H-11, RIDMALSAR PUROHITAN, JAIPUR ROAD, BIKANER-334001, RAJASTHAN.",,BIKANER,BIKANER,RAJASTHAN
KKBK0003707,Kotak Mahindra Bank,KKBK0003707,AWAITED,DIWAKARI BRANCH,"KOTAK MAHINDRA BANK LTD, SHOP NO 1,2, 3 AND 4, GROUND FLOOR, KHASRA NO. 286 (OLD 189), OPP. SURYA NAGAR, OLD DELHI ROAD, VILLAGE : DIWAKARI, DISTRICT : ALWAR, PIN - 301001. RAJASTHAN",18001026022,ALWAR,ALWAR,RAJASTHAN
KKBK0004054,Kotak Mahindra Bank,KKBK0004054,AWAITED,BHUCHO MANDI BRANCH,"KOTAK MAHINDRA BANK LTD, GROUND FLOOR, W-1/36, BHUCHO KANCHIYA ROAD, NEAR TRUCK UNION, BHUCHO MANDI - 151101, TEHSIL AND DISTRICT BATHINDA. PUNJAB.",,BHUCHO MANDI,BATHINDA,PUNJAB
KKBK0004253,Kotak Mahindra Bank,KKBK0004253,AWAITED,DLF PHASE I GURGAON BRANCH,"KOTAK MAHINDRA BANK LTD, DLF PHASE I ,(ARJUN MARG), GURGAON GROUND FLOOR, & MEZZANINE, SHOP NO.27 & 28, SHOPPING MALL BUILDING, DLF QUTAB ENCLAVE COMPLEX, PHASE-I, GURGAON-122002.",,GURGAON,GURGAON,HARYANA
KKBK0004254,Kotak Mahindra Bank,KKBK0004254,AWAITED,BAJGHERA BRANCH,"KOTAK MAHINDRA BANK LTD, GROUND FLOOR, PLOT NO 92, VILLAGE : BAJGHERA, POST - PALAMVIHAR, DISTRICT - GURGAON, PIN - 122017, HARYANA.",18001026022,GURGAON RURAL,GURGAON,HARYANA
KKBK0004326,Kotak Mahindra Bank,KKBK0004326,AWAITED,RAM NAGARIA BRANCH,"KOTAK MAHINDRA BANK LTD, GROUND FLOOR, PLOT NO 13, OPP TARA BABA KUTIA, NEAR GROVER ATTA CHAKKI, RANIA ROAD, VILLAGE : RAM NAGARIA, DIST SIRSA – 125055. HARYANA",,SIRSA,SIRSA,HARYANA
KKBK0004327,Kotak Mahindra Bank,KKBK0004327,AWAITED,GOHANA BRANCH,"KOTAK MAHINDRA BANK LTD, KHEWAT NO 3639, KHATONI NO 4370, BARODA ROAD, SAMTA CHOWK, NEAR BANK OF BARODA, DIST. SONIPAT. GOHANA - 131301, HARYANA",,GOHANA,SONIPAT,HARYANA
KKBK0004571,Kotak Mahindra Bank,KKBK0004571,AWAITED,SHALIMAR BAGH BRANCH,"KOTAK MAHINDRA BANK LTD, SHALIMAR BRANCH- DELHI, GROUND FLOOR , PREMISES NO. AM-1, SHALIMAR BAGH, NEW DELHI-110088",,DELHI,DELHI,DELHI
KKBK0004574,Kotak Mahindra Bank,KKBK0004574,AWAITED,NARIANA BRANCH,"KOTAK MAHINDRA BANK LTD, GROUND FLOOR, BASEMENT & MEZZANINE, PLOT NO. 28, COMMUNITY CENTER, NARAINA INDUSTRIAL AREA, PHASE-I, NEW DELHI -110028.",,1800226022,NARIANA,NEW DELHI
KKBK0004575,Kotak Mahindra Bank,KKBK0004575,AWAITED,GREEN PARK BRANCH,"KOTAK MAHINDRA BANK LTD, GROUND FLOOR & BASEMENT, PLOT NO.S-5, GREEN PARK MAIN MARKET, NEW DELHI- 110016",,1800226022,NEW DELHI,NEW DELHI
KKBK0005028,Kotak Mahindra Bank,KKBK0005028,AWAITED,GREATER NOIDA ALFA 1 BRANCH,"KOTAK MAHINDRA BANK LTD, GREATER NOIDA ALFA -1 BRANCH, GROUND FLOOR, SHOP NO.GF-3 & GF-4, GF-5, & FIRST FLOOR, SHOP NO. 104 & 105 & 106, HARSHA MALL, ALFA-1, COMMERCIAL BELT, GREATER NOIDA 201308",,NOIDA,GAUTAM BUDDHA NAGAR,UTTAR PRADESH
KKBK0005486,Kotak Mahindra Bank,KKBK0005486,AWAITED,ROORKEE BRANCH,"KOTAK MAHINDRA BANK LTD, ROORKEE BRANCH, GROUND FLOOR-235, CIVIL LINES, OPPOSITE TELEGRAM OFFICE, ROORKEE- UTTARAKHAND PIN : 247667.",18001026022,ROORKEE,HARIDWAR,UTTARANCHAL
KKBK0005909,Kotak Mahindra Bank,KKBK0005909,AWAITED,RAJAKHEDI BRANCH,"KOTAK MAHINDRA BANK LTD, FIRST FLOOR, SHASTRI COMPLEX, RAJAKHEDI, JHANSI ROAD, MAKRONIA, DIST- SAGAR - 470004. MADHYA PRADESH",,SAGAR,SAGAR,MADHYA PRADESH
KKBK0005910,Kotak Mahindra Bank,KKBK0005910,AWAITED,SHUJALPUR BRANCH,"KOTAK MAHINDRA BANK LTD, SHOP NO 29/1, GROUND FLOOR, MG ROAD, IN FRONT OF JAWAHARLAL NEHRU COLLEGE, SHUJALPUR, DISTT - SHAJAPUR, PIN – 465333. MADHYA PRADESH",,SHUJALPUR,SHAJAPUR,MADHYA PRADESH
KKBK0005911,Kotak Mahindra Bank,KKBK0005911,AWAITED,PIPRODA KHURD BRANCH,"KOTAK MAHINDRA BANK LTD, BLOCK NO 16, GROUND FLOOR, RAMAN SADAN, OPPOSITE SHIWANGI PUBLIC SCHOOL, UMARI ROAD, NANA KHEDI,, PIPRODA KHURD, GUNA, PIN – 473001. MADHYA PRADESH.",,GUNA,GUNA,MADHYA PRADESH
KKBK0006423,Kotak Mahindra Bank,KKBK0006423,AWAITED,RAIGARH BRANCH,"KOTAK MAHINDRA BANK LTD, SHOP NO 1,2,3 GROUND FLOOR, SS PLAZA,PLOT NO.127/9, VILLAGE & POST-BHAWANIPUR, JSPL ROAD, OPP.VIRANDAVAN COMPLEX, TEHSIL & DISTRICT - RAIGARH - 496001. CHATTISGARH.",,RAIGARH,RAIGARH,CHHATTISGARH
KKBK0006424,Kotak Mahindra Bank,KKBK0006424,AWAITED,SUPELA BRANCH,"KOTAK MAHINDRA BANK LTD, SHOP NO. 1,2,3,4,5,6,7,8,9,& 17, BLOCK NO.15, UTTAR GANGOTRI COMPLEX, G E ROAD, SUPELA, BHILAI-490023 DURG, CHATTISGARH.",,1800226022,SUPELA,DURG
KKBK0006739,Kotak Mahindra Bank,KKBK0006739,AWAITED,KONNAGAR BRANCH,"KOTAK MAHINDRA BANK LTD, KONNAGAR BRANCH- HUGLI WEST BENGAL, SHOP NO.2, GROUND FLOOR,” SWAPNA NEER” PREMISES NO.82, INDIRA GANDHI ROAD, P.O. KONNAGAR, DISTRICT : HUGLI, WEST BENGAL-712234",,KONNAGAR,HUGLI,WEST BENGAL
KKBK0007319,Kotak Mahindra Bank,KKBK0007319,AWAITED,ANUGUL BRANCH,"KOTAK MAHINDRA BANK LTD, GROUND FLOOR, PLOT NO.-1112, HAL KHATA NO-291 VILLAGE & POLICE STATION, ANGUL-759122, ORISSA.",,ANGUL,ANGUL,ORISSA
KKBK0007801,Kotak Mahindra Bank,KKBK0007801,AWAITED,ALUGUNUR VILLAGE BRANCH,"KOTAK MAHINDRA BANK LTD, H.NO: 5-17/4, SURVEY NO: 437/B, GROUND FLOOR, ALUGUNUR VILLAGE, MANDAL-TIMMAPUR , KARIMNAGAR DISTRICT, PIN CODE: 505469, ANDHRA PRADESH",,KARIMNAGAR,KARIMNAGAR,ANDHRA PRADESH
KKBK0007802,Kotak Mahindra Bank,KKBK0007802,AWAITED,EDULAPURAM BRANCH,"KOTAK MAHINDRA BANK LTD, 1ST FLOOR, H.NO:6-7/2, SURVEY NO: 325/A/3, VILLAGE –EDULAPURAM (RURAL), MANDAL- KHAMMAM(RURAL),  KHAMMAM DIST., ANDHRA PRADESH-507163",,EDULAPURAM,KHAMMAM,ANDHRA PRADESH
KKBK0007803,Kotak Mahindra Bank,KKBK0007803,AWAITED,VENGIKKAL BRANCH,"KOTAK MAHINDRA BANK LTD, S.F NO: 198/12/A4, FIRST FLOOR, VELLORE MAIN ROAD, ABOVE “MORE SUPERMARKET”, NEAR: LIFE STYLE STORE, VENGIKKAL VILLAGE, TALUK & DIST. TIRUVANAMALAI, TAMILNADU-646604",,VENGIKKAL,TIRUVANNAMALAI,TAMIL NADU
KKBK0007804,Kotak Mahindra Bank,KKBK0007804,AWAITED,KURNOOL BRANCH,"KOTAK MAHINDRA BANK LTD, 3/157/2, GROUND FLOOR (PART), LAXMIBAI COMPLEX, SANTOSH NAGAR, NH 7, NEAR ENADU OFFICE, MAMIDALAPAD VILLAGE, KURNOOL MANDAL & TALUKA, DIST: KURNOOL - 518003. ANDHRA PRADESH",,KURNOOL,KURNOOL,ANDHRA PRADESH
KKBK0007805,Kotak Mahindra Bank,KKBK0007805,AWAITED,BUJA BUJA NELLORE BRANCH,"KOTAK MAHINDRA BANK LTD, 11-214, SURVEY NO 48/1, BUJA BUJA NELLORE VILLAGE: NELLORE, DISTRICT: NELLORE PIN – 524004. ANDHRA PRADESH",,NELLORE,NELLORE,ANDHRA PRADESH
KKBK0007806,Kotak Mahindra Bank,KKBK0007806,AWAITED,PANGRA BRANCH,"KOTAK MAHINDRA BANK LTD, GROUND FLOOR, H.NO. 2-20/A, VILLAGE : PANGRA (MADHAVANAGAR), DHARMARAM, PIN - 503230, MANDAL & DIST. NIZAMABAD. ANDHRA PRADESH.",18001026022,DHARMARAM,NIZAMABAD,ANDHRA PRADESH
KKBK0008756,Kotak Mahindra Bank,KKBK0008756,AWAITED,PICHANDARKOVIL BRANCH,"KOTAK MAHINDRA BANK LTD, PICHANDARKOVIL BRANCH- TAMIL NADU, GROUND FLOOR & 1ST FLOOR, DOOR NO 1/52, PATTATHAMMAL STREET, PICHANDARKOVIL VILAGE, MANACHANALLUR TALUK, TIRUCHIRAPPALLI DISTRICT, TAMIL NADU-621216.",,MANACHANALLUR,TIRUCHIRAPALLI,TAMIL NADU
KKBK0008757,Kotak Mahindra Bank,KKBK0008757,AWAITED,CHENATHUR BRANCH,"KOTAK MAHINDRA BANK LTD, CHENATHUR BRANCH, GROUND FLOOR, SURVEY NO.846, CHENATHUR VILLAGE, HOSUR, DHARMAPURI DISTRICT,TAMILNADU. PIN – 635109",,DHARMAPURI,DHARMAPURI,TAMIL NADU
KKBK0008758,Kotak Mahindra Bank,KKBK0008758,AWAITED,NEELAGIRI BRANCH,"KOTAK MAHINDRA BANK LIMITED, GROUND FLOOR, RAJ DEV TOWER, TRICHY MAIN ROAD, NEAR NEW BUS STAND, S NO. 249/2A, NEELAGIRI THERKU THOTTAM VILLAGE, NEELAGIRI PANCHAYAT, TALUK AND DISTRICT : THANJAVUR, PIN - 613005. TAMILNADU.",,18001026022,NEELAGIRI,THANJAVUR
KKBK0009582,Kotak Mahindra Bank,KKBK0009582,799485002,AGARTALA BRANCH,"KOTAK MAHINDRA BANK LTD, GROUND FLOOR, HOTEL WELCOME PALACE, HARI GANGA, BASAK ROAD, AGARTALA, WEST TRIPURA- TRIPURA, PIN : 799001",,AGARTALA,WEST TRIPURA,TRIPURA
KKBK0000151,Kotak Mahindra Bank,KKBK0000151,124485002,ROHTAK,"KOTAK MAHINDRA BANK LTD GROUND FLOOR, PLOT NO. 406 TO 408/28 ROOPALAY COMPLEX, MODEL TOWN ROHTAK, HARIYANA-124001",,ROHTAK,ROHTAK,HARYANA
KKBK0000207,Kotak Mahindra Bank,KKBK0000207,110485036,DELHI - SADAR BAZAR,"KOTAK MAHINDRA BANK LTD. 4893, PHOOTA ROAD, OPPOSITE WESTEND CINEMA, SADAR BAZAR, DELHI-110006",,DELHI,NEW DELHI,DELHI
KKBK0000273,Kotak Mahindra Bank,KKBK0000273,302485003,VAISHALI NAGAR,"KOTAK MAHINDRA BANK LTD. GR. FLOOR, D-232/233, HANUMAN NAGAR, AMARPALI MARG, VAISHALI NAGAR, JAIPUR-302021",,JAIPUR,JAIPUR,RAJASTHAN
KKBK0000327,Kotak Mahindra Bank,KKBK0000327,700485007,AMTALA,"KOTAK MAHINDRA BANK LTD. SANGAM SUPER MARKET COMPLEX, DIAMOND HARBOUR ROAD, AMTALA, WEST BENGAL- 743 503",,AMTALA,SOUTH 24 PARGANAS,WEST BENGAL
KKBK0000431,Kotak Mahindra Bank,KKBK0000431,560485012,BANGALORE - INDIRANAGAR,"KOTAK MAHINDRA BANK LTD.  GROUND FLOOR,  837/1, BINNAMANGLA, 1ST STAGE, INDIRANAGAR, 100 FT ROAD, BANGALORE, KARNATAKA - 560 038",,BANGALORE,BANGALORE URBAN,KARNATAKA
KKBK0000471,Kotak Mahindra Bank,KKBK0000471,600485009,CHENNAI - MADIPPAKKAM,"KOTAK MAHINDRA BANK LTD. DOOR NO. 70 / 1, MEDAVAKKAM MAIN ROAD, MADIPPAKKAM, KANCHEEPURAM DIST., CHENNAI, TAMILNADU - 600 091",,MADIPPAKKAM,KANCHEEPURAM,TAMIL NADU
KKBK0000627,Kotak Mahindra Bank,KKBK0000627,400485040,KALYAN (W),"KOTAK MAHINDRA BANK LTD. KAMLA TOWER, RAMBAUG LANE NO .1, SANTOSHI MATA MANDIR ROAD, KALYAN (W) - 421301",,KALYAN,THANE,MAHARASHTRA
KKBK0000629,Kotak Mahindra Bank,KKBK0000629,400485038,VIRAR,"KOTAK MAHINDRA BANK LTD. SHOP NO 4 TO 8, SWASTIK PARADISE, OPP .VIVA COLLEGE, VIVA COLLEGE ROAD VIRAR(W), THANE, MAHARASHTRA - 401 303",,VIRAR,THANE,MAHARASHTRA
KKBK0000633,Kotak Mahindra Bank,KKBK0000633,400485041,MUMBAI - KANDIVALI (E),"KOTAK MAHINDRA BANK LTD. GAYATRI ENCLAVE,GR. FLOOR 90 FEET ROAD, THAKUR COMPLEX KANDIVALI (E)   MUMBAI - 400 101",,MUMBAI,GREATER MUMBAI,MAHARASHTRA
KKBK0000679,Kotak Mahindra Bank,KKBK0000679,243485002,BAREILLY,"KOTAK MAHINDRA BANK LTD 148, CIVIL LINES BAREILLY - 243 001 ",,BAREILLY,BAREILLY,UTTAR PRADESH
KKBK0000695,Kotak Mahindra Bank,KKBK0000695,414485001,AHMEDNAGAR,"KOTAK MAHINDRA BANK LTD. GROUND FLOOR OF HOTEL OBEROI, NAGAR MANMAD ROAD, SAVEDI, AHMEDNAGAR-414003",,AHMEDNAGAR,AHMEDNAGAR,MAHARASHTRA
KKBK0000696,Kotak Mahindra Bank,KKBK0000696,440485003,NAGPUR - BUTIBORI,"KOTAK MAHINDRA BANK LTD. GROUND FLOOR, SHOP NO.10 - 14, 17- 19, & PORTION OF SHOP NO – 15, TRIMURTI TOWERS, PLOT NO. 6,7,8,9, & 10 K, WARDHA ROAD, BUTIBORI, NAGPUR - 441108",,BUTI BORI,NAGPUR,MAHARASHTRA
KKBK0000828,Kotak Mahindra Bank,KKBK0000828,383485051,MODASA,"KOTAK MAHINDRA BANK LTD 16, AJANTA SHOPPING CENTRE PLOT NO.15 & 16, SURVEY NO. 3, PAIKI, MOJUE GANESHPUR, TAL - MODASA DIST - SABARKANTHA, GUJARAT - 383315",,GANESHPUR,SABARAKANTA,GUJARAT
KKBK0002562,Kotak Mahindra Bank,KKBK0002562,AWAITED,ASHRAM RAOD BRANCH AHMEDABAD,"KOTAK MAHINDRA BANK LTD, ASHRAM ROAD BRANCH, GROUND FLOOR, AND BASEMENT, SHOP NO’S G-1 G-2 & C-1, VIKRAM CHAMBERS, ASHRAM ROAD, AHMEDABAD-380009",18001026022,AHMEDABAD,AHMADABAD,GUJARAT
KKBK0002744,Kotak Mahindra Bank,KKBK0002744,AWAITED,AKOTA BRANCH BARODA,"KOTAK MAHINDRA BANK LTD, AKOTA, VADODARA BRANCH, GROUND FLOR, SHOP NO.5 &6, KALPATARU COMPLEX, FP-13, AKOTA , TP_1 OPP DEVDEEP NAGAR, OLD PADRA ROAD, VADODARA-390020.",18001026022,VADODARA,VADODARA,GUJARAT
KKBK0002789,Kotak Mahindra Bank,KKBK0002789,AWAITED,RAJKOT RINA ROAD BRANCH,"KOTAK MAHINDRA BANK LTD, RAJKOT BRANCH- GUJARAT, GROUND FLOOR, SHOP NO. 8, THE IMPERIAL HEIGHTS, 150FT RINA ROAD, RAJKOT-360005",18001026022,RAJKOT,RAJKOT,GUJARAT
KKBK0003534,Kotak Mahindra Bank,KKBK0003534,AWAITED,JOHARI BAZAAR BRANCH JAIPUR,"KOTAK MAHINDRA BANK LTD, JOHRI BAZAR BRANCH JAIPUR, GROUND FLOOR, SHOP NO.91, JOHARI BAZAR JAIPUR, RAJASTHAN-302003.",18001026022,JAIPUR,JAIPUR,RAJASTHAN
KKBK0003708,Kotak Mahindra Bank,KKBK0003708,AWAITED,JHALRAPATAN BRANCH,"KOTAK MAHINDRA BANK LTD, SHOP NO 3,4,5 & 6, KHASRA NO 488, NEAR BPCL PETROL PUMP, JHALRAPATAN, PIN - 326023, TEHSIL : JHALRAPATAN, DISTRICT : JHALAWAR, RAJASTHAN.",18001026022,JHALRAPATAN,JHALAWAR,RAJASTHAN
KKBK0005914,Kotak Mahindra Bank,KKBK0005914,AWAITED,SARRA BRANCH,"KOTAK MAHINDRA BANK LTD, SHOP NO 1 & 2, GROUND FLOOR, THAKRE BHAVAN, NEAR 132 KV SUBSTATION, VILLAGE : SARRA, TEHSIL & DISTRICT : CHHINDWARA. PIN - 480001. MADHYA PRADESH",18001026022,SARRA,SIDHI,MADHYA PRADESH
KKBK0005915,Kotak Mahindra Bank,KKBK0005915,AWAITED,VIJAY NAGAR BRANCH INDORE,"KOTAK MAHINDRA BANK LTD, VIJAY NAGAR BRANCH INDORE, GROUND FLOOR, PREMISES NO. H-1 (A TO H) METRO TOWER, VIJAY NAGAR, NEAR SQUARE AB ROAD, INDORE-452010.",18001026022,INDORE,INDORE,MADHYA PRADESH
KKBK0008217,Kotak Mahindra Bank,KKBK0008217,AWAITED,CHIKKAKONDAGOLA BRANCH,"KOTAK MAHINDRA BANK LTD, GROUND FLOOR, SURVEY NO. 85/A, SALAGAME ROAD, VILLAGE : CHIKKAKONDAGOLA, TALUKA & DISTRICT : HASSAN, PIN - 573201. KARNATAKA.",18001026022,HASSAN,HASSAN,KARNATAKA
KKBK0001831,Kotak Mahindra Bank,KKBK0001831,AWAITED,NAGAUR BRANCH,"KOTAK MAHINDRA BANK LTD, NAGAUR BRANCH, GROUND FLOOR, MEGH MOUNT COMPLEX, FORT ROAD. GANDHI CHOWK, NAGAUR RAJASTHAN-341001",18001026022,NAGAUR,NAGAUR,RAJASTHAN
KKBK0002564,Kotak Mahindra Bank,KKBK0002564,AWAITED,PALDI BRANCH,"KOTAK MAHINDRA BANK LTD, PALDI BRANCH-AHMEDABAD, GROUND FLOOR, “ SANSTAR HOUSE “, FORMERLY VIVA II), OPPOSITE SUVIDHA, SHOPPING CENTER, NEAR MAHALAXMI – CROSS ROAD, PALDI AHMEDABAD-380007",18001026022,PALDI,HOSHIARPUR,PUNJAB
KKBK0002790,Kotak Mahindra Bank,KKBK0002790,AWAITED,DHORAJI BRANCH,"KOTAK MAHINDRA BANK LTD, DHORAJI BRANCH-RAJKOT, GROUND FLOOR, SHOP NOS.4,5 &6, AND FIRST SHOP NO.133 “ HIRA PANNA COMPLEX” DHORAJI, RAJKOT-360410",18001026022,DHORAJI,RAJKOT,GUJARAT
KKBK0003629,Kotak Mahindra Bank,KKBK0003629,AWAITED,PAOTA BRANCH,"KOTAK MAHINDRA BANK LTD, PAOTA BRANCH- JODHPUR, GROUND FLOOR, PLOT NO.1, LAXMAN BHAVAN, MANDORE ROAD, POLO-1, PAOTA,-JODHPUR PIN : 342006-RAJASTHAN",18001026022,PAOTA,JAIPUR,RAJASTHAN
KKBK0004328,Kotak Mahindra Bank,KKBK0004328,AWAITED,HANSI BRANCH,"KOTAK MAHINDRA BANK LTD, HANSI BRANCH.- HARYANA, GROUND FLOOR & FIRST FLOOR, SCO-41 & 42, GANDHI MARKET, HANSI, HISAR-125033, HARYANA.",18001026022,HANSI,HISAR,HARYANA
KKBK0005615,Kotak Mahindra Bank,KKBK0005615,AWAITED,SAMASTIPUR BRANCH,"KOTAK MAHINDRA BANK LTD, SAMASTIPUR BRANCH- BIHAR, GROUND FLOOR, HOTEL NAVIN, GOLA ROAD, SAMASTIPUR BIHAR, PIN -848101",18001026022,SAMASTIPUR,SAMASTIPUR,BIHAR
KKBK0007807,Kotak Mahindra Bank,KKBK0007807,AWAITED,CHINAMIRAM BRANCH,"KOTAK MAHINDRA BANK LTD, KOTAK MAHINDRA BANK LIMITED GROUND FLOOR, DOOR NO 7-7, J P ROAD, VILLAGE : CHINAMIRAM, MANDAL : BHIMAVARAM, DISTRICT : WEST GODAVARI, PIN :  534202.ANDHRA PRADESH.",18001026022,BHIMAVARAM,WEST GODAVARI,ANDHRA PRADESH
KKBK0001356,Kotak Mahindra Bank,KKBK0001356,AWAITED,Kharghar Branch,"Kotak Mahindra Bank Limited Kharghar Branch Ground Floor Shop No. 1,2,3,4,5 & 6, Vaibhav CHSL, Plot No. 28, Sector-11, Kharghar, Navi Mumbai-410210",18001026022,MUMBAI,GREATER BOMBAY,MAHARASHTRA
KKBK0001752,Kotak Mahindra Bank,KKBK0001752,AWAITED,Hadapsar Branch Pune,"Kotak Mahindra Bank Limited Hadapsar Branch, Ground Floor, Unit No-II,  “Farena Corporate Park”, Magarpatta Road, Hadapsar",18001026022,HADAPSAR,PUNE,MAHARASHTRA
KKBK0001989,Kotak Mahindra Bank,KKBK0001989,AWAITED,KHANDAD BRANCH RAIGARH,"KOTAK MAHINDRA BANK LIMITED GROUND FLOOR, PART OF GAT NO 558, CITY SURVEY NO 95, NEXT TO CHAITANYA, MUMBAI – GOA ROAD, VILLAGE : KHANDAD, TEHSIL : MANGAON, DISTRICT : RAIGARH, PIN – 402104. MAHARASHTRA.",18001026022,MANGAON,RAIGAD,MAHARASHTRA
KKBK0002493,Kotak Mahindra Bank,KKBK0002493,AWAITED,Mormugao Vasco Da Gama Branch,"Kotak Mahindra Bank Limited Vasco-Da-Gama- Branch- Goa Shop No.15/194 & 15/194(I), Ground floor “ Srinivas Builidng” F I Gomes Road, ( Next to State Bank of India) Vasco-Da-Gama, Goa – 403802.",18001026022,MORMUGAO,SOUTH GOA,GOA
KKBK0002565,Kotak Mahindra Bank,KKBK0002565,AWAITED,"BAVLA BRANCH, AHMADABAD","KOTAK MAHINDRA BANK LIMITED SHOP NO 111,112,113,114 AND 115, GROUND FLOOR, SILVER PLAZA, NAYA BAZAR, OPP. SHIV GANGA COMPLEX, BAVLA - 382220, TALUK : BAVLA, DISTRICT : AHMEDABAD, GUJARAT.",18001026022,BALVA,GANDHINAGAR,GUJARAT
KKBK0004055,Kotak Mahindra Bank,KKBK0004055,AWAITED,Mandi Gobindgarh Branch Patiala,"Kotak Mahindra Bank Limited Mandi Bovind Garh Branch-Punjab Ground floor , First floor & second floor, Plot No. 418, Sec-3C, Main post office Road, Mandi Bovind Garh ,Patiala-Punjab-147301",18001026022,PATIALA,PATIALA,PUNJAB
KKBK0004056,Kotak Mahindra Bank,KKBK0004056,AWAITED,Barnala Branch,"Kotak Mahindra Bank Limited Barnala Branch- Punjab Ground Floor, B-12/293, Paka college road, Barnala-148101-Punjab",18001026022,BARNALA,SANGRUR,PUNJAB
KKBK0004329,Kotak Mahindra Bank,KKBK0004329,AWAITED,Faridabad Branch,"Kotak Mahindra Bank Limited Faridabad Branch-Haryana Ground floor, Shop No. 4, Near 1 & 2, Chowk, NIT, NH-2, Faridabad-121001",18001026022,FARIDABAD,FARIDABAD,HARYANA
KKBK0004578,Kotak Mahindra Bank,KKBK0004578,AWAITED,Janakpuri Branch,"Kotak Mahindra Bank Limited Janakpuri Branch Ground Floor, No.B-1/517A, Situate at B-1 Block, Janakpuri New delhi-110027",18001026022,DELHI,DELHI,DELHI
KKBK0005917,Kotak Mahindra Bank,KKBK0005917,AWAITED,HOSHANGABAD BRANCH,"KOTAK MAHINDRA BANK LIMITED GROUND FLOOR, PLOT NO. 19/6, NEAR BHOOMI VIKAS BANK, SADAR BAZAR, HOSHANGABAD - 461001, TEHSIL & DISTRICT : HOSHANGABAD, MADHYA PRADESH.",18001026022,HOSHANGABAD,HOSHANGABAD,MADHYA PRADESH
KKBK0006397,Kotak Mahindra Bank,KKBK0006397,AWAITED,Raipur Branch,"Kotak Mahindra Bank Limited Raipur Branch UG-201,UG-202,UG-203,UG204,UG205, UG206(part), Upper Ground Floor, “ City Plaza”, Opp Raj Kumar Collage, G.E. Road, Raipur – 492010 Chhattisgarh.",18001026022,RAIPUR,RAIPUR,CHHATTISGARH
KKBK0006425,Kotak Mahindra Bank,KKBK0006425,AWAITED,JANJGIR BRANCH,"KOTAK MAHINDRA BANK LTD, GROUND FLOOR, PLOT NO. 3982/2/G, VIVEKANAND MARG, VILLAGE NAILA-JANJGIR, TEHSIL : JANJGIR, DISTRICT : JANJGIR - CHAMPA, PIN - 495668. CHHATTISGARH.",18001026022,NAILA JANJGIR,JANJGIR-CHAMPA,CHHATTISGARH
KKBK0008471,Kotak Mahindra Bank,KKBK0008471,AWAITED,Nungambakkam Branch,"Kotak Mahindra Bank Limited Nungambakkam Branch-Chennai Ground Floor & Mezzanine, Apeejay House, 39/12, Haddows Road, Nungambakkam, Chennai-600006",18001026022,CHENNAI,CHENNAI,TAMIL NADU
KKBK0AMSB01,Kotak Mahindra Bank,KKBK0AMSB01,AWAITED,ADARSH MAHILA NAGARI SAHAKARI BANK AURANGABAD BRANCH,"ADARSH MAHILA NAGARI SAHAKARI BANK  AURANGABAD BRANCH, 31, SHIVJYOTI COLONY N- 6 CIDCO AURANGABAD 431003",0240-2481181,AURANGABAD,AURANGABAD,MAHARASHTRA
KKBK0AMSB02,Kotak Mahindra Bank,KKBK0AMSB02,AWAITED,ADARSH MAHILA NAGARI SAHAKARI BANK SILLOD BRANCH,"ADARSH MAHILA NAGARI SAHAKARI BANK  SILLOD BRANCH, RL PARK , PADMA BUILDING SILLOD 431112",02430-222325,SILLOD,AURANGABAD,MAHARASHTRA
KKBK0ANSB01,Kotak Mahindra Bank,KKBK0ANSB01,AWAITED,Agrasen Nagari Sahakari Bank  Ltd Akola Branch,Agrasen Nagari Sahakari Bank Ltd Akola Branch Bhirad Complex 1st Floor Gandhi Chowk Akola 44001,0724 2442130,AKOLA,AKOLA,MAHARASHTRA
KKBK0BUCB01,Kotak Mahindra Bank,KKBK0BUCB01,AWAITED,"BHINGAR URBAN CO-OPERATIVE BANK LTD, BHINGAR BRANCH","BHINGAR URBAN CO-OPERATIVE BANK LTD, BHINGAR BRANCH, BHINGAR AHMEDNAGAR 414002",0214-2442098,AHMADNAGAR,AHMADNAGAR,MAHARASHTRA
KKBK0PNSB01,Kotak Mahindra Bank,KKBK0PNSB01,AWAITED,PRIYADARSHANI NAGARI SAHAKARI BANK JALANA BRANCH,"PRIYADARSHANI NAGARI SAHAKARI BANK  JALANA BRANCH, H NO 1-13-374 DEVALGAON RAJA ROAD, JALNA 431203",02482-233346,JALNA,JALNA,MAHARASHTRA
KKBK0PTSB01,Kotak Mahindra Bank,KKBK0PTSB01,AWAITED,"PARNER TALUKA SAINIK SAHAKARI BANK LTD, PARNER BRANCH","PARNER TALUKA SAINIK SAHAKARI BANK LTD, PARNER BRANCH, SHIVAJI ROAD PARNER DIST AHMEDNAGAR 414302",02488-221950,PARNER,AHMADNAGAR,MAHARASHTRA
KKBK0001354,Kotak Mahindra Bank,KKBK0001354,AWAITED,DADAR EAST BRANCH,"KOTAK MAHINDRA BANK LTD, DADAR EAST BRANCH MUMBAI, GROUND FLOOR SHOP NO.11-12-13&13A, & FIRST FLOOR-UNIT NO.14, DHARAMPUTRA BUILDING, DR. BABASAHEB AMBEDKAR ROAD, DADAR EAST-MUMBAI-400014. ",18001026022,MUMBAI,GREATER BOMBAY,MAHARASHTRA
KKBK0001988,Kotak Mahindra Bank,KKBK0001988,AWAITED,SHAHADE BRANCH,"KOTAK MAHINDRA BANK LTD, PART OF 535/1, PLOT NO 13 (9), WARD NO 25, PRAKASH ROAD, SHAHADE - 425409. TALUKA : SHAHADE, DISTRICT : NANDURBAR MAHARASHTRA.",18001026022,SHAHADA,NANDURBAR,MAHARASHTRA
KKBK0005912,Kotak Mahindra Bank,KKBK0005912,AWAITED,PIPLYA MANDI BRANCH,"KOTAK MAHINDRA BANK LTD, PART OF HOUSE NO 19 & 20, PLOT NO 16, AJAY TALKIES ROAD, WARD NO. 3, PIPLYA MANDI, TEHSIL : MALHARGARH, DISTRICT - MANDSAUR, PIN - 558 664. MADHYA PRADESH.",18001026022,PIPALIAMANDI,MANDSAUR,MADHYA PRADESH
KKBK0002566,Kotak Mahindra Bank,KKBK0002566,AWAITED,RAIPUR BRANCH AHMEDABAD,"KOTAK MAHINDRA BANK LIMITED SUMEL BUSINESS PARK –III BRANCH, GROUND FLOOR, SHOP NO. 26,27,28 & 29, BLOCK –A, SUMEL BUSINESS PARK-III, RAIPUR- AHMEDABAD PIN : 380002, GUJARAT",18001026022,AHMEDABAD,AHMADABAD,GUJARAT
KKBK0004573,Kotak Mahindra Bank,KKBK0004573,AWAITED,NEW DELHI CURRENCY CHEST,"KOTAK MAHINDRA BANK LIMITED NEW DELHI CURRENCY CHEST PLOT NO.41, A BLOCK, MANGOLPURI INDUSTRIAL AREA, PHASE-II, NEW DELHI-110 083.",18001026022,DELHI,DELHI,DELHI
KKBK0TKCB01,Kotak Mahindra Bank,KKBK0TKCB01,380124252,THE KARNAVATI CO OP BANK LTD H.O.BAPUNAGAR - KCOB002,"THE KARNAVATI CO OP BANK LTD, 105, RADHA RAMAN COMPLEX, NR.KHODIYARNAGAR, N.H.NO.8, DISTRICT: AHMEDABAD PIN – 382350. GUJARAT",079-22973380,AHMEDABAD,AHMADABAD,GUJARAT
KKBK0TKCB02,Kotak Mahindra Bank,KKBK0TKCB02,380124253,THE KARNAVATI CO OP BANK LTD NIKOL - KCOB003,"THE KARNAVATI CO OP BANK LTD, B/58, SARDAR PATEL MALL, NIKOL GAM ROAD, NIKOL, DISTRICT: AHMEDABAD PIN – 382350. GUJARAT",079-22704764,AHMEDABAD,AHMADABAD,GUJARAT
KKBK0TKCB03,Kotak Mahindra Bank,KKBK0TKCB03,380124254,THE KARNAVATI CO OP BANK LTD ODHAV - KCOB004,"THE KARNAVATI CO OP BANK LTD, 1-4, V.K.COMPLEX, NR.MANGLAM CINEMA, ODHAV ROAD, DISTRICT: AHMEDABAD PIN – 382415. GUJARAT",079-22975856,AHMEDABAD,AHMADABAD,GUJARAT
KKBK0001990,Kotak Mahindra Bank,KKBK0001990,AWAITED,CHIKHLI BRANCH BULDANA,"KOTAK MAHINDRA BANK LIMITED UPPER GROUND FLOOR, YAMUNA COMPLEX, KHANDALA MAIN ROAD, NEAR BANK OF MAHARASHTRA, CHIKHLI - 443201. TEHSIL : CHIKHLI, DISTRICT : BULDANA, MAHARASHTRA.",18001026022,CHIKHLI,BULDHANA,MAHARASHTRA
KKBK0MNSB01,Kotak Mahindra Bank,KKBK0MNSB01,383806051,THE MODASA NAGARIK SAHAKARI BANK LTD HEAD OFFICE,"NR.NAGARPALIKA SUTHARWADA MODASA, PIN - 383315, DISTRICT SABARKANTHA, STATE GUJARAT",02774-242761,MODASA,SABAR KANTHA,GUJARAT
KKBK0MNSB02,Kotak Mahindra Bank,KKBK0MNSB02,383806051,THE MODASA NAGARIK SAHAKARI BANK LTD MARKET YARD ROAD,"S.T.ROAD MODASA-383315, DISTRICT SABARKANTHA, STATE GUJARAT",02774-242763,MODASA,SABAR KANTHA,GUJARAT
KKBK0003709,Kotak Mahindra Bank,KKBK0003709,AWAITED,RAWATSAR BRANCH,"KOTAK MAHINDRA BANK LIMITED GROUND FLOOR, WARD NO 16, SARDAR SAHAR ROAD, STATE HIGHWAY NO 7, NEAR SBBJ, RAWATSAR - 335524. TEHSIL : RAWATSAR, DISTRICT : HANUMANGARH, RAJASTHAN.",07927528046/ 27528047,RAWATSAR,HANUMANGARH,RAJASTHAN
KKBK0003710,Kotak Mahindra Bank,KKBK0003710,AWAITED,NIMBAHERA BRANCH,"KOTAK MAHINDRA BANK LIMITED SHOP NO B1, B2, GROUND FLOOR,  MUNDRA COMPLEX, NEAR SNEH HOSPITAL, UDAIPUR ROAD, NIMBAHERA - 312601. TEHSIL : NIMBAHERA, DISTRICT : CHITTAURGARH, RAJASTHAN.",079 27774482,NIMBAHERA,CHITTAURGARH,RAJASTHAN
KKBK0005190,Kotak Mahindra Bank,KKBK0005190,AWAITED,ALIGANJ BRANCH,"KOTAK MAHINDRA BANK LIMITED ALIGANJ BRANCH- LUCKNOW-UP GROUND FLOOR, 40, CHANDRALOK , ALIGANJ, LUCKNOW- UP, PIN : 226020",079 27590128,LUCKNOW,LUCKNOW,UTTAR PRADESH
KKBK0005287,Kotak Mahindra Bank,KKBK0005287,AWAITED,BIJNOR BRANCH,"KOTAK MAHINDRA BANK LIMITED BIJNOR BRANCH-UP.FIRST FLOOR, “ ANKUR RESIDENCY”( ANTA GHAR), SHAKTI JUDGI ROAD, BIJNOR-246701, UTTAR PRADESH",02764263034/ 262498,BIJNOR,BIJNOR,UTTAR PRADESH
KKBK0008762,Kotak Mahindra Bank,KKBK0008762,AWAITED,VILLUPURAM BRANCH,"KOTAK MAHINDRA BANK LIMITED VILLUPURAM BRANCH- TAMILNADU, GROUND FLOOR, DOOR NO.9A, PANDIT JAWAHARLAL NEHRU ROAD (ALIAS), WEST PONDY ROAD, VILLUPURAM-605602-TAMILNADU BRANCH.",07926423680/ 26420720,VILLUPURAM,VILLUPURAM,TAMIL NADU
KKBK0009287,Kotak Mahindra Bank,KKBK0009287,AWAITED,TIRUVALLA BRANCH,"KOTAK MAHINDRA BANK LIMITED TIRUVALLA BRANCH-KERALA, GROUND FLOOR, NADUVILE PARAMBIL BUILDING, HOUSE NO.26/943/19/1,MC ROAD,T.B. JUNCTION, TIRUVALLA, PATHANAMTHITTA , KERALA-689105",02764263300/ 263400,THIRUVALLA,PATHANAMTHITTA,KERALA
KKBK0001357,Kotak Mahindra Bank,KKBK0001357,AWAITED,BORIVALI CHAMUNDA CIRCLE BRANCH,"KOTAK MAHINDRA BANK LIMITED CHAMUMDA CIRCLE BRANCH- BORIVALI GROUND FLOOR (PART), JAY BHADRA VILLA” PLOT NO.14 , S V ROAD,NEAR CHAMUNDA CIRCLE ,BORIVALI (WEST) MUMBAI-400092",18001026022,MUMBAI,GREATER BOMBAY,MAHARASHTRA
KKBK0001991,Kotak Mahindra Bank,KKBK0001991,AWAITED,RATNAGIRI BRANCH,"KOTAK MAHINDRA BANK LIMITED RATNAGIRI BRANCH, GROUND FLOOR & MEZZANINE SHOP NO.4,5&6, “VYANKATESH EXECUTIVE” MARUTI MANDIR CIRCLE, RATNAGIRI – 415639 MAHARASHTRA.",18001026022,RATNAGIRI,RATNAGIRI,MAHARASHTRA
KKBK0002847,Kotak Mahindra Bank,KKBK0002847,AWAITED,SURAT RING ROAD BRANCH,"KOTAK MAHINDRA BANK LIMITED SURAT RING ROAD BRANCH- GUJARAT SHOP NO. G,1, GROUND FLOOR TOWER, A “ TWIN TOWER” SAHARA DARWAJA, RING ROAD-SURAT-395003 GUJARAT",18001026022,SURAT,SURAT,GUJARAT
KKBK0003900,Kotak Mahindra Bank,KKBK0003900,AWAITED,MILLER GUNJ BRANCH,"KOTAK MAHINDRA BANK LIMITED MILLER GUNJ BRANCH- LUDHIANA, GROUND FLOOR, PREMISES NO. 180, GRANT TRUNK ROAD, MILLER GUNJ, LUDHIANA , PUNJAB-141003",18001026022,LUDHIANA,LUDHIANA,PUNJAB
KKBK0006562,Kotak Mahindra Bank,KKBK0006562,AWAITED,BURRA BAZAR BRANCH KOLKATTA,"KOTAK MAHINDRA BANK LIMITED BURRA BAZAR BRANCH-KOLKATTA, GROUND & FIFTH FLR;BLDG NO 1, JOGENDRA KAVIRAJ ROW, NEAR KALAKAR STREET POST OFFICE, KOLKATA – 700007",18001026022,KOLKATA,KOLKATA,WEST BENGAL
KKBK0008034,Kotak Mahindra Bank,KKBK0008034,AWAITED,YELAHANKA NEW TOWN BRANCH BANGALORE,"KOTAK MAHINDRA BANK LIMITED GROUND FLOOR NO.687, MIG, SECTOR ‘A’ YELAHANKA NEW TOWN, NEW 3RD STAGE EXTENSION, BANGALORE -560064",18001026022,YELAHANKA,BANGALORE URBAN,KARNATAKA
KKBK0008763,Kotak Mahindra Bank,KKBK0008763,AWAITED,POLLACHI BANCH,"KOTAK MAHINDRA BANK LIMITED POLLACHI BRANCH- TAMILNADU. GROUND FLOOR, SHOP NO. G-1,G-2, G-3, & G-4, “ R.P. TOWERS” DOOR NO.88, COIMBATORE ROAD, POLLACHI -642002 TAMILNADU",18001026022,POLLACHI,COIMBATORE,TAMIL NADU
KKBK0BCCB01,Kotak Mahindra Bank,KKBK0BCCB01,390156003,THE BARODA CITY CO OPERATIVE BANK LTD WADI BRANCH,"THE BARODA CITY CO OPERATIVE BANK LTD WADI BRANCH LAKKADPITHA ROAD, VADODARA - 390 001",2429334,VADODARA,VADODARA,GUJARAT
KKBK0BCCB02,Kotak Mahindra Bank,KKBK0BCCB02,390156004,THE BARODA CITY CO OPERATIVE BANK LTD FATEHGUNJ BRANCH,"THE BARODA CITY CO OPERATIVE BANK LTD FATEHGUNJ BRANCH OPP.CHURCH,FATEHGUNJ, VADODARA - 390 002",2791364,VADODARA,VADODARA,GUJARAT
KKBK0BCCB03,Kotak Mahindra Bank,KKBK0BCCB03,390156005,THE BARODA CITY CO OPERATIVE BANK LTD KARELIBAUG BRANCH,"THE BARODA CITY CO OPERATIVE BANK LTD KARELIBAUG BRANCH OPP. SARDAR CHHATRALAY, KARELIBAUG,VADODARA - 390 018",2464617,VADODARA,VADODARA,GUJARAT
KKBK0BCCB04,Kotak Mahindra Bank,KKBK0BCCB04,390156006,THE BARODA CITY CO OPERATIVE BANK LTD SANSTHA VASAHAT HO BRANCH,"THE BARODA CITY CO OPERATIVE BANK LTD SANSTHA VASAHAT
(HO) BRANCH SANSTHA VASAHAT, RAOPURA, 
VADODARA - 390 001",2438422,VADODARA,VADODARA,GUJARAT
KKBK0BCCB05,Kotak Mahindra Bank,KKBK0BCCB05,390156007,THE BARODA CITY CO OPERATIVE BANK LTD GORWA BRANCH,"THE BARODA CITY CO OPERATIVE BANK LTD GORWA BRANCH SUNSHINE COMPLEX, REFINARY ROAD, 
NR. JAKAT NAKA, GORWA, VADODARA - 390 016",2280349,VADODARA,VADODARA,GUJARAT
KKBK0BCCB06,Kotak Mahindra Bank,KKBK0BCCB06,390156009,THE BARODA CITY CO OPERATIVE BANK LTD GOTRI BRANCH,"THE BARODA CITY CO OPERATIVE BANK LTD GOTRI BRANCH TAKSH COMPLEX, GOTRI MAIN ROAD, 
VADODARA - 390 021",2336904,VADODARA,VADODARA,GUJARAT
KKBK0BCCB07,Kotak Mahindra Bank,KKBK0BCCB07,390156010,THE BARODA CITY CO OPERATIVE BANK LTD MANJALPUR BRANCH,"THE BARODA CITY CO OPERATIVE BANK LTD MANJALPUR BRANCH ATRIA 2 COMPLEX, 21, RAJENDRA SOCIETY, OPP. SHREYAS SCHOOL,MANJALPUR, VADODARA - 390 011",2641933,VADODARA,VADODARA,GUJARAT
KKBK0BCCB08,Kotak Mahindra Bank,KKBK0BCCB08,390156011,THE BARODA CITY CO OPERATIVE BANK LTD HARNI BRANCH,"THE BARODA CITY CO OPERATIVE BANK LTD HARNI BRANCH 1ST FLOOR, VRUNDAVAN COMPLEX, OPP. NAGESHWAR TEMPLE, 
HARNI ROAD, VADODARA - 390 022",2491607,VADODARA,VADODARA,GUJARAT
KKBK0001358,Kotak Mahindra Bank,KKBK0001358,AWAITED,DAHISAR EAST BRANCH,"KOTAK MAHINDRA BANK LIMITED DAHISAR EAST BRANCH-MUMBAI GROUND FLOOR & MEZZANINE FLOOR, RAM KUMAR THAKUR ROAD, DAHISAR (EAST) MUMBAI-400068.",18001026022,MUMBAI,GREATER BOMBAY,MAHARASHTRA
KKBK0001359,Kotak Mahindra Bank,KKBK0001359,AWAITED,MAHAVIR NAGAR KANDIVALI WEST BRANCH,"KOTAK MAHINDRA BANK LIMITED MAHAVIR NAGAR KANDIVALI BRANCH MUMBAI FIRST FLOOR FLAT NO. 129 & 130, WING “H”, “RAJ ARCADE” NEAR JAIN TEMPLE, KANDIVALI (WEST), MUMBAI-400067",18001026022,MUMBAI,GREATER BOMBAY,MAHARASHTRA
KKBK0001360,Kotak Mahindra Bank,KKBK0001360,AWAITED,SHIVSHANKAR PLAZA I SECTOR 8 AIROLI BRANCH,"KOTAK MAHINDRA BANK LIMITED AIROLI BRANCH- NAVI MUMBAI GROUND FLOOR & FIRST FLOOR, SHOP NO. 11,12,& 13 “SHIVSHANKAR PLAZA-I’ SHIVSHANKAR PLAZA-I, CO-OPERATIVE HOUSING SOCIETY LIMITED, SECTOR -8, AIROLI NAVI MUMBAI-400708",18001026022,MUMBAI,GREATER BOMBAY,MAHARASHTRA
KKBK0001361,Kotak Mahindra Bank,KKBK0001361,AWAITED,DR C GIDWANI MARG CHEMBUR BRANCH,"KOTAK MAHINDRA BANK LIMITED CHEMBUR BRANCH- MUMBAI GROUND FLOOR, SHOP NO.7,8 &9, BASANT VIHAR COMMERCIAL COMPLEX PREMISES- CO-OPERATIVE SOCIETY LIMITED, NEAR BASANT CINEMA, DR.C. GIDWANI MARG, CHEMBUR MUMBAI -400074",18001026022,MUMBAI,GREATER BOMBAY,MAHARASHTRA
KKBK0001753,Kotak Mahindra Bank,KKBK0001753,AWAITED,PUNE MILLENNIUM STAR DHOLE PATIL ROAD BRANCH,"KOTAK MAHINDRA BANK LIMITED DHOLE PATIL ROAD –PUNE GROUND FLOOR & FIRST FLOOR SHOP NO.1, “MILLENNIUM STAR” SASON ROAD, DHOLE PATIL ROAD, PUNE-411001.",18001026022,PUNE,PUNE,MAHARASHTRA
KKBK0001880,Kotak Mahindra Bank,KKBK0001880,AWAITED,PIMPALGAON BASWANT BRANCH NASIK,"KOTAK MAHINDRA BANK LIMITED GROUND FLOOR, GAT NO 522/5, OPP ST DEPOT, MUMBAI AGRA HIGHWAY, PIMPALGAON BASWANT - 422209, TALUKA : NIPHAD, DISTRICT : NASHIK. MAHARASHTRA",18001026022,PIMPALGAON,NASIK,MAHARASHTRA
KKBK0003010,Kotak Mahindra Bank,KKBK0003010,AWAITED,PANCH MAHALS BRANCH KALOL,"KOTAK MAHINDRA BANK LIMITED GROUND FLOOR, SHOP NO 1,2,3 & 4, SHREE NIJANAND DARSHAN COMPLEX, DEROL STATION ROAD, KALOL - 389330, TALUKA: KALOL, DISTRICT : PANCH MAHALS, GUJARAT.",18001026022,KALOL,PANCH MAHALS,GUJARAT
KKBK0003630,Kotak Mahindra Bank,KKBK0003630,AWAITED,JODHPUR BRANCH,"KOTAK MAHINDRA BANK LIMITED JODHPUR BRANCH- RAJASTHAN GROUND FLOOR, RAINBOW HOUSE MANDORE ROAD, JODHPUR, RAJASTHAN-342001.",18001026022,JODHPUR,JODHPUR,RAJASTHAN
KKBK0004256,Kotak Mahindra Bank,KKBK0004256,AWAITED,GURGAON SUSHANT LOK BRANCH,"KOTAK MAHINDRA BANK LIMITED SUSHANT LOK BRANCH- GURGAON ( HARYANA) GROUND FLOOR & MEZZANINE FLOOR, SHOP NUMBER GF-21, THE PEACH TREE COMPLEX, BLOCK-C, SUSHANT LOK-1, GURGAON, HARYANA -122 001",18001026022,GURGAON,GURGAON,HARYANA
KKBK0008765,Kotak Mahindra Bank,KKBK0008765,AWAITED,SAVEETHA NAGAR THANDALAM BRANCH,"KOTAK MAHINDRA BANK LIMITED SAVEETHA UNIVERSITY THANDLAM BRANCH GROUND FLOOR, SAVEETHA INSTITUTE OF MEDICAL AND TECHNICAL SCIENCE, SAVEETHA NAGAR, SAVEETHA UNIVERSITY, MEVALUR KUPPAM – CHETTIPEDU VILLAGE, THANDALAM, SRIPERUMBUDUR, KANCHEEPURAM 602 105 TAMILNADU.",18001026022,SRIPERUMBUDUR,KANCHEEPURAM,TAMIL NADU
KKBK0GACB02,Kotak Mahindra Bank,KKBK0GACB02,380118353,GUJARAT AMBUJA CO OP BANK LTD SOLA ROAD,"GUJARAT AMBUJA CO-OP BANK LTD,1,2,3,NAVRANG TOWER,SATTADHAR CROSS ROAD,SOLA ROAD,GHATLODIA,AHMEDABAD-380061",079-27452224/079-27495852,AHMEDABAD,AHMADABAD,GUJARAT
KKBK0GACB03,Kotak Mahindra Bank,KKBK0GACB03,380118353,GUJARAT AMBUJA CO OP BANK LTD ODHAV,"GUJARAT AMBUJA CO OP BANK LTD. RIDHAM COMPLEX, NR. FIRE STATION, BELOW BALAJI GUEST HOUSE,GIDC, ODHAV, AHMEDABAD -382415",9909087067,AHMEDABAD,AHMADABAD,GUJARAT
KKBK0001754,Kotak Mahindra Bank,KKBK0001754,AWAITED,NARAYANGAON BRANCH PUNE,"KOTAK MAHINDRA BANK LIMITED GROUND FLOOR, SWAMIRATNA BUILDING, PUNE-NASHIK HIGHWAY, OPP. HP PETROL PUMP, POST : NARAYANGAON, PIN : 410504, TALUKA : JUNNAR, DISTRICT : PUNE. MAHARASHTRA.",18001026022,NARAYANGAON,PUNE,MAHARASHTRA
KKBK0003711,Kotak Mahindra Bank,KKBK0003711,AWAITED,BARMER BRANCH,"KOTAK MAHINDRA BANK LIMITED BARMER BRANCH- RAJASTHAN. GROUND FLOOR , “ DEV TOWER”, MOHALLA LAXMI NAGAR, MAIN RAY COLONY ROAD, WARD NO.21 BARMER, RAJASTHAN-344001",18001026022,BARMER,BARMER,RAJASTHAN
KKBK0003712,Kotak Mahindra Bank,KKBK0003712,AWAITED,KHAIRTHAL BRANCH ALWAR,"KOTAK MAHINDRA BANK LIMITED GROUND FLOOR, ""REVATI TOWER"", NASRABAD ROAD , OLD ANAJ MANDI, KHAIRTHAL - 301404. TEHSIL : KISHANGARH BAS, DISTRICT : ALWAR, RAJASTHAN",18001026022,ALWAR,ALWAR,RAJASTHAN
KKBK0003713,Kotak Mahindra Bank,KKBK0003713,AWAITED,BHINMAL BRANCH JALORE,"KOTAK MAHINDRA BANK LIMITED GROUND FLOOR, SIDDHI VINAYAK BUILDING, OPP SABZI MANDI, RAMSEEN ROAD, BHINMAL - 343029. TEHSIL : BHINMAL, DISTRICT : JALORE. RAJASTHAN",18001026022,JALORE,JALOR,RAJASTHAN
KKBK0DMCB01,Kotak Mahindra Bank,KKBK0DMCB01,389809021,THE DAHOD MERCANTILE COOP BANK LTD HEAD OFICE,"THE DAHOD MERCANTILE COOP BANK LTD HEAD OFICE P. O. BOX NO. - 58, MULLAJI BAZAR, DAHOD - 389151 (GUJARAT) ",02673-242208,DOHAD,DAHOD,GUJARAT
KKBK0DMCB02,Kotak Mahindra Bank,KKBK0DMCB02,389809022,THE DAHOD MERCANTILE COOP BANK LTD RAILWAY BRIDGE ROAD BRANCH,"THE DAHOD MERCANTILE COOP BANK LTD RAILWAY BRIDGE ROAD BRANCH DARPAN TALKIES ROAD, DAHOD - 389151 (GUJARAT)",02673-220398,DOHAD,DAHOD,GUJARAT
KKBK0DMCB03,Kotak Mahindra Bank,KKBK0DMCB03,389809023,THE DAHOD MERCANTILE COOP BANK LTD NEAR RAILWAY CROSSING BRANCH,"THE DAHOD MERCANTILE COOP BANK LTD NEAR RAILWAY CROSSING BRANCH GODI ROAD,  DAHOD - 389151 (GUJARAT)",02673-251177,DOHAD,DAHOD,GUJARAT
KKBK0DMCB04,Kotak Mahindra Bank,KKBK0DMCB04,389809024,THE DAHOD MERCANTILE COOP BANK LTD ANAJ MARKET YARD BRANCH,"THE DAHOD MERCANTILE COOP BANK LTD ANAJ MARKET YARD BRANCH 19 & 21, SHADE NO. 2, ANAJ MARKET YARD, BAHARPURA,  DAHOD - 389151 (GUJARAT)",02673-221177,DOHAD,DAHOD,GUJARAT
KKBK0TSSB01,Kotak Mahindra Bank,KKBK0TSSB01,383803051,THE SARVODAYA SAHAKARI BANK LTD MODASA,"THE SARVODAYA SAHAKARI BANK LTD SARVODAYA BHAVAN, NR KHAVAZA PARK, MAKHDUM HIGH SCHOOL ROAD,MODASA-383315 DIS.S.K.(GUJARAT)",9638613555/9978273573,MODASA,SABAR KANTHA,GUJARAT
KKBK0UUCB01,Kotak Mahindra Bank,KKBK0UUCB01,AWAITED,UMIYA URBAN CO-OP BANK LTD WARDHMAN NAGAR NAGPUR,UMIYA URBAN CO-OP BANK LTD WARDHMAN NAGAR NAGPUR SHREE AMBE BLDG C A ROAD WARDHAN NAGAR NAGPUR 440008,0712-2731637,NAGPUR,NAGPUR,MAHARASHTRA
KKBK0UUCB02,Kotak Mahindra Bank,KKBK0UUCB02,AWAITED,UMIYA URBAN CO-OP BANK LTD ITWARI NAGAR,UMIYA URBAN CO-OP BANK LTD ITWARI NAGAR NEAR ANAJ BAZAR BHANDARA ROAD ITWARI NAGPUR 440002,0712-2729995,NAGPUR,NAGPUR,MAHARASHTRA
KKBK0UUCB03,Kotak Mahindra Bank,KKBK0UUCB03,AWAITED,UMIYA URBAN CO-OP BANK LTD PARDI,UMIYA URBAN CO-OP BANK LTD PARDI BESIDE SHUBHALAXMI SOCIETY PARDI NAGPUR 440008,0712-2683386,NAGPUR,NAGPUR,MAHARASHTRA
KKBK0UUCB04,Kotak Mahindra Bank,KKBK0UUCB04,AWAITED,UMIYA URBAN CO-OP BANK LTD SHESH NAGAR,UMIYA URBAN CO-OP BANK LTD SHESH NAGAR SHESH NAGAR NAGPUR 440008,0712-2683386,NAGPUR,NAGPUR,MAHARASHTRA
KKBK0006426,Kotak Mahindra Bank,KKBK0006426,AWAITED,BEMETRA BRANCH DURG,"KOTAK MAHINDRA BANK LIMITED GROUND FLOOR, P.C. NO 94, WARD NO. 7, KHASRA NO 1158/20, 1158/23, RAIPUR ROAD, BEMETRA - 491335. TEHSIL : BEMETRA, DISTRICT : DURG, CHHATTISGARH.",18001026022,BEMETARA,DURG,CHHATTISGARH
KKBK0SPCB01,Kotak Mahindra Bank,KKBK0SPCB01,425874052,THE SHIRPUR PEOPLES CO-OP LTD SHIRPUR BRANCH,"THE SHIRPUR PEOPLES CO-OP LTD SHIRPUR BRANCH, MAHARAJA COMPLEX, SHIRPUR-425405  DIST DHULE, MAHARASHTRA",02563-256271,SHIRPUR,DHULE,MAHARASHTRA
KKBK0007321,Kotak Mahindra Bank,KKBK0007321,768485202,JHARSUGUDA BRANCH,"KOTAK MAHINDRA BANK LIMITED JHARSUGUDA BRANCH, FIRST FLOOR, B K BUILDING, SARBAHAL ROAD, MARWADI PARA, JHARSUGUDA, ORRISA -768201",18001026022,JHARSUGUDA,JHARSUGUDA,ORISSA
KKBK0UCB001,Kotak Mahindra Bank,KKBK0UCB001,AWAITED,THE URBAN CO OP BANK LTD JALGAON,"THE URBAN CO OP BANK LTD, 2- VISANJI NAGAR, NEAR GOLANI MARKET, JALGAON (DIST- JALGAON)",0257-2242159,JALGAON,JALGAON,MAHARASHTRA
KKBK0UCB501,Kotak Mahindra Bank,KKBK0UCB501,AWAITED,THE URBAN CO OP BANK LTD DHARANGAON,"THE URBAN CO OP BANK LTD, NEAR S. T STAND, DHARANGAON (DIST - JALGAON)",02588-251241,DHARANGAON,JALGAON,MAHARASHTRA
KKBK0UCB502,Kotak Mahindra Bank,KKBK0UCB502,AWAITED,THE URBAN CO OP BANK LTD CHOPDA,"THE URBAN CO OP BANK LTD, RANI LAXMI BAZAR CHOW, BAZAR PETH, CHOPDA (DIST - JALGAON)",02586-223079,CHOPDA,JALGAON,MAHARASHTRA
KKBK0UCB503,Kotak Mahindra Bank,KKBK0UCB503,AWAITED,THE URBAN CO OP BANK LTD PAROLA,"THE URBAN CO OP BANK LTD, BUTHNATH MAHARAJ CHOWK, PAROLA (DIST- JALGAON)",02597-224055,PAROLA,JALGAON,MAHARASHTRA
KKBK0001881,Kotak Mahindra Bank,KKBK0001881,AWAITED,SATANA BRANCH,"KOTAK MAHINDRA BANK LIMITED, SHOP NO. 6 & 7, GROUND FLOOR, SRI SWAMI SAMARTH COMPLEX (ALAI PLAZA), MALEGAON ROAD, NEAR MARKET, SATANA - 423301, TALUKA : BAGLAN, DISTRICT : NASHIK. MAHARASHTRA",18001026022,SATANA,NASIK,MAHARASHTRA
KKBK0001882,Kotak Mahindra Bank,KKBK0001882,AWAITED,BOPEGAON DINDORI BRANCH,"KOTAK MAHINDRA BANK LIMITED 1ST FLOOR, 614, GRAM PANCHAYAT BUILDING, NEAR BUS STAND, BOPEGAON - 422205, TALUKA : DINDORI, DISTRICT : NASHIK. MAHARASHTRA.",18001026022,DINDORI,NASIK,MAHARASHTRA
KKBK0001883,Kotak Mahindra Bank,KKBK0001883,AWAITED,KHADAK MALEGAON NIPHAD BRANCH,"KOTAK MAHINDRA BANK LIMITED GROUND FLOOR,  SHOP NO 3,4 & 5, ARUNODAY BUILDING, KHADAK MALEGAON 422304, TALUKA NIPHAD, DISTRICT NASHIK. MAHARASHTRA.",18001026022,NIPHAD,NASIK,MAHARASHTRA
KKBK0001884,Kotak Mahindra Bank,KKBK0001884,AWAITED,MATEREWADI DINDORI BRANCH,"KOTAK MAHINDRA BANK LIMITED GROUND FLOOR, HOUSE NO 257, SHOP NO 5, MATEREWADI - 422209, TALUKA : DINDORI, DISTRICT : NASHIK. MAHARASHTRA",18001026022,DINDORI,NASIK,MAHARASHTRA
KKBK0001885,Kotak Mahindra Bank,KKBK0001885,AWAITED,NARAYANGAON NIPHAD BRANCH,"KOTAK MAHINDRA BANK LIMITED GROUND FLOOR, SRI LAKSHMI KRUPA BUNGLOW, OZAR ROAD, NARAYANGAON (KHERWADI) - 422201 TALUKA : NIPHAD, DISTRICT : NASHIK. MAHARASHTRA.",18001026022,NIPHAD,NASIK,MAHARASHTRA
KKBK0001886,Kotak Mahindra Bank,KKBK0001886,AWAITED,MAUJE SUKENE BRANCH,"KOTAK MAHINDRA BANK LIMITED GROUND FLOOR, PART OF HOUSE NO 541 (MILKAT NO 591), NEAR KRT HIGHSCHOOL & JUNIOR COLLEGE, MAUJE SUKENE - 422302, TALUKA : NIPHAD, DISTRICT : NASHIK, MAHARASHTRA.",18001026022,NIPHAD,NASIK,MAHARASHTRA
KKBK0001887,Kotak Mahindra Bank,KKBK0001887,AWAITED,TISGAON BRANCH,"KOTAK MAHINDRA BANK LIMITED PART OF HOUSE NO. 247 & 248, VILLAGE : TISGAON, TALUKA : DINDORI, PIN : 422205. DISTRICT NASHIK MAHARASHTRA",18001026022,DINDORI,NASIK,MAHARASHTRA
KKBK0001888,Kotak Mahindra Bank,KKBK0001888,AWAITED,MUNGASE BRANCH,"KOTAK MAHINDRA BANK LIMITED SHOP NO 1 &2, GROUND FLOOR, HOUSE NO 375, MUMBAI - AGRA HIGHWAY, MUNGASE 413003, TALUKA : MALEGAON, DISTRICT : NASHIK. MAHARASHTRA.",18001026022,MALEGAON,NASIK,MAHARASHTRA
KKBK0001889,Kotak Mahindra Bank,KKBK0001889,AWAITED,NIMBAIT BRANCH,"KOTAK MAHINDRA BANK LIMITED GROUND FLOOR, PLOT NO 19, MILKAT NO. 1002, SHIVNANDAN COMPLEX, SAHAKARWADI ROAD, JALGAON (NIMBAIT) - 423104. TALUKA : MALEGAON, DISTRICT : NASHIK. MAHARASHTRA.",18001026022,MALEGAON,NASIK,MAHARASHTRA
KKBK0001890,Kotak Mahindra Bank,KKBK0001890,AWAITED,DIXI BRANCH,"KOTAK MAHINDRA BANK LIMITED SHOP NO 8, 9 & 10, GROUND FLOOR, PLOT NO 380, VILLAGE : DIXI, TALUKA : NIPHAD, DISTRICT : NASHIK. PIN : 422001. MAHARASHTRA.",18001026022,NIPHAD,NASIK,MAHARASHTRA
KKBK0001891,Kotak Mahindra Bank,KKBK0001891,AWAITED,CHANDANPURI BRANCH,"KOTAK MAHINDRA BANK LIMITED GROUND FLOOR, HOUSE NO 138, OPPOSITE GRAM PANCHAYAT OFFICE, NANDGAON ROAD, CHANDANPURI - 423203. TALUKA : MALEGAON, DISTRICT : NASHIK, MAHARASHTRA.",18001026022,MALEGAON,NASIK,MAHARASHTRA
KKBK0001992,Kotak Mahindra Bank,KKBK0001992,AWAITED,UMROLI BRANCH CHIPLUN GUHAGAR RD,"KOTAK MAHINDRA BANK LIMITED, GROUND FLOOR, PART OF HOUSE NO. 110, GAT NO 339, CHIPLUN GUHAGAR ROAD, UMROLI - 415702, TALUKA : CHIPLUN, DISTRICT : RATNAGIRI. MAHARASHTRA.",18001026022,CHIPLUN,RATNAGIRI,MAHARASHTRA
KKBK0001993,Kotak Mahindra Bank,KKBK0001993,AWAITED,ALIBAG ROAD PEZARI BRANCH,"KOTAK MAHINDRA BANK LIMITED, SHOP NO A1 & A2, GROUND FLOOR, HOUSE NO. 360, ALIBAG ROAD, PEZARI - 402108, TALUKA : ALIBAG, DISTRICT : RAIGARH. MAHARASHTRA",18001026022,ALIBAG,RAIGAD,MAHARASHTRA
KKBK0001994,Kotak Mahindra Bank,KKBK0001994,AWAITED,AVASHI BRANCH LOTE PARSHURAM INDUSTRIAL AREA,"KOTAK MAHINDRA BANK LIMITED PLOT NO. PAP 34, LOTE PARSHURAM INDUSTRIAL AREA, AT POST : AVASHI, PIN : 415722, TALUKA : KHED, DISTRICT : RATNAGIRI. MAHARASHTRA.",18001026022,KHED,RATNAGIRI,MAHARASHTRA
KKBK0001995,Kotak Mahindra Bank,KKBK0001995,AWAITED,NIMBLAK BRANCH,"KOTAK MAHINDRA BANK LIMITED UPPAR GROUND FLOOR, HOUSE NO 572, PLOT NO 164, DATTA MANDIR CHOWK, NEAR BM FINESS, NIMBLAK - 414111, TALUKA & DISTRICT AHMEDNAGAR. MAHARASHTRA",18001026022,AHMADNAGAR,AHMADNAGAR,MAHARASHTRA
KKBK0001996,Kotak Mahindra Bank,KKBK0001996,AWAITED,PIMPALGAON MALVI BRANCH,"KOTAK MAHINDRA BANK LIMITED SHOP NO 1,2 & 3, GROUND FLOOR, ""NATHKRUPA"", MALI GALLI, OPP. SANT SAVTA MALI PAT SANSTHA, PIMPALGAON MALVI - 414006. TALUKA : NAGAR, DISTRICT : AHMADNAGAR. MAHARASHTRA.",18001026022,AHMADNAGAR,AHMADNAGAR,MAHARASHTRA
KKBK0002568,Kotak Mahindra Bank,KKBK0002568,AWAITED,VATVA BRANCH,"KOTAK MAHINDRA BANK LIMITED VATVA BRANCH GROUND & FIRST FLOOR, FRONT PART,83/9,GIDC, VATVA PHASE-I, F ROAD, VATVA, AHMEDABAD PIN : 382445.",18001026022,AHMEDABAD,AHMADABAD,GUJARAT
KKBK0002746,Kotak Mahindra Bank,KKBK0002746,AWAITED,KARELIBAUGH BRANCH,"KOTAK MAHINDRA BANK LIMITED NEW VIP ROAD ( KARELIBAUG)-VADODARA, GROUND FLOOR, FIRST FLOOR & SECOND FLOOR, THIRD FLOOR, & ENTIRE BASEMENT, PLOT NO. 4, WAGESHWARI, CO-OPERATIVE, HOUSING SOCIETY LTD, NEAR SBI, VIP MAIN ROAD , KARELIBAUGH, VADODARA-390018.",18001026022,VADODARA,VADODARA,GUJARAT
KKBK0004556,Kotak Mahindra Bank,KKBK0004556,AWAITED,SDA MARKET BRANCH NEW DELHI,"KOTAK MAHINDRA BANK LIMITED, SDA MARKET BRANCH-NEW DELHI GROUND FLOOR & BASEMENT, PLOT NO.19- BLOCK ‘C’, COMMUNITY CENTER, SAFDARJUNG DEVELOPMENT AREA, NEW DELHI-110016",18001026022,DELHI,DELHI,DELHI
KKBK0004580,Kotak Mahindra Bank,KKBK0004580,500485255,ROHTAK ROAD KAROL BAGH BRANCH,"KOTAK MAHINDRA BANK LIMITED ROHTAK ROAD -  NEW DELHI, GROUND FLOOR, 65/2, NEW ROHTAK ROAD KAROL BAGH, NEW DELHI PIN 110005",18001026022,DELHI,DELHI,DELHI
KKBK0007322,Kotak Mahindra Bank,KKBK0007322,AWAITED,PARADIP BRANCH,"KOTAK MAHINDRA BANK LIMITED PARADIP BRANCH- ORRISA, GROUND FLOOR, PLOT NO-417, KHATA NO-68, MAUZA, BIJAYACHANDRAPUR, PARADIP, JAGATSINGHAPUR-ORRISA-754142",18001026022,PARADEEP,JAGATSINGHPUR,ORISSA
KKBK0007808,Kotak Mahindra Bank,KKBK0007808,AWAITED,PENTAPADU BRANCH,"KOTAK MAHINDRA BANK LIMITED GROUND FLOOR, DOOR NO.11-54, WARD NO.10, BHIMAVARAM ROAD, VILLAGE & MANDAL : PENTAPADU, PIN : 534166, DISTRICT : WEST GODAVERI, ANDHRA PRADESH.",18001026022,PENTAPADU,WEST GODAVARI,ANDHRA PRADESH
KKBK0008218,Kotak Mahindra Bank,KKBK0008218,AWAITED,CHALLAKERE BRANCH,"KOTAK MAHINDRA BANK LIMITED, SHOP NO 1 & 2, GROUND FLOOR, THALAPALLI SHOPPING COMPLEX, BANGALORE MAIN ROAD, CHALLAKERE - 577522, TALUK CHALLAKERE, DISTRICT CHITRADURGA. KARNATAKA",18001026022,CHALLAKERE,CHITRADURGA,KARNATAKA
KKBK0008219,Kotak Mahindra Bank,KKBK0008219,AWAITED,MUDHOL BRANCH,"KOTAK MAHINDRA BANK LIMITED GROUND FLOOR, LAXMAN BUILDING, MAHARAJA COLONY, MAIN ROAD, MUDHOL - 587313, TALUK : MUDHOL, DISTRICT : BAGALKOT, KARNATAKA",18001026022,MUDHOL,BAGALKOTE,KARNATAKA
KKBK0008474,Kotak Mahindra Bank,KKBK0008474,AWAITED,KILPAUK BRANCH CHENNAI,"KOTAK MAHINDRA BANK LIMITED KILPAUK BRANCH- CHENNAI, GROUND FLOOR , & MEZANINE FLOOR, “JADE TERRACE”, DOOR NO.27/1,-A, BALFOUR ROAD, KILPAUK-CHENNAI-600010",18001026022,CHENNAI,CHENNAI,TAMIL NADU
KKBK0ACUB01,Kotak Mahindra Bank,KKBK0ACUB01,AWAITED,THE AGROHA CO OPERATIVE URBAN BANK LIMITED RIKAB GUNJ,THE AGROHA CO OPERATIVE URBAN BANK LIMITED RIKAB GUNJ BRANCH 21-1-663 3RD FLOOR RIKABGUNJ HYDERABAD 500002.,040-24410981,HYDERABAD,HYDERABAD,ANDHRA PRADESH
KKBK0ACUB02,Kotak Mahindra Bank,KKBK0ACUB02,AWAITED,THE AGROHA CO OPERATIVE URBAN BANK LIMITED BALANAGAR,"THE AGROHA CO OPERATIVE URBAN BANK LIMITED BALANAGAR BRANCH 6-3-124/A, OPP. HPCL PETROL PUMP FATEHNAGAR X ROADS BALANAGAR HYDERABAD 500037.",040-24410981,HYDERABAD,HYDERABAD,ANDHRA PRADESH
KKBK0BUCB02,Kotak Mahindra Bank,KKBK0BUCB02,AWAITED,BHINGAR URBAN CO OP BANK LTD PIPELINE,BHINGAR URBAN CO OP BANK LTD PIPELINE  AHMEDNAGAR 414002,0241 2422003,AHMADNAGAR,AHMADNAGAR,MAHARASHTRA
KKBK0BUCB03,Kotak Mahindra Bank,KKBK0BUCB03,AWAITED,BHINGAR URBAN CO OP BANK LTD MALIWADA,BHINGAR URBAN CO OP BANK LTD MALIWADA AHMEDNAGAR 414002,2412327376,AHMADNAGAR,AHMADNAGAR,MAHARASHTRA
KKBK0BUCB04,Kotak Mahindra Bank,KKBK0BUCB04,AWAITED,BHINGAR URBAN CO OP BANK LTD ZOPADI CANTEEN,"BHINGAR URBAN CO OP BANK LTD ZOPADI CANTEEN, SAVEDI AHMEDNAGAR 414002",241232961,AHMADNAGAR,AHMADNAGAR,MAHARASHTRA
KKBK0BUCB05,Kotak Mahindra Bank,KKBK0BUCB05,AWAITED,BHINGAR URBAN CO OP BANK LTD SHIGONDA,"BHINGAR URBAN CO OP BANK LTD TELI GALLI, NR JAIN MANDIR RAVIVAR PETH SHRIGONDA-413701",2487222150,SHRIGONDA,AHMADNAGAR,MAHARASHTRA
KKBK0GMCB01,Kotak Mahindra Bank,KKBK0GMCB01,AWAITED,THE GANDHIDHAM MERCANTILE CO OP BANK LTD GANDHIDHAM,"THE GANDHIDHAM MERCANTILE CO OP BANK LTD GANDHIDHAM GMCB BHAVAN, PLAT NO. 12, SECTOR-9, GANDHIDHAM,DIST. KUTCH, GUJARAT",02836-237623,GANDHIDHAM,KACHCHH,GUJARAT
KKBK0MCUB01,Kotak Mahindra Bank,KKBK0MCUB01,500485254,THE MAHANAGAR CO OPERATIVE URBAN BANK LIMITED KACHIGUDA,THE MAHANAGAR CO OPERATIVE URBAN BANK LIMITED KACHIGUDA 3-1-299 NIMBOLIADDA KACHIGUDA 500027,040-24736030,HYDERABAD,HYDERABAD,ANDHRA PRADESH
KKBK0MCUB02,Kotak Mahindra Bank,KKBK0MCUB02,500485254,THE MAHANAGAR CO OPERATIVE URBAN BANK LIMITED MEHDIPATNAM,"THE MAHANAGAR CO OPERATIVE URBAN BANK LIMITED MEHDIPATNAM 10-3-13 FAMOUS PLAZA HUMAYAUN NAGAR, OPP HUMAYUN NAGAR POLICE STATION MEHDIPATNAM 500028",040-24736030,HYDERABAD,HYDERABAD,ANDHRA PRADESH
KKBK0MCUB03,Kotak Mahindra Bank,KKBK0MCUB03,500485254,THE MAHANAGAR CO OPERATIVE URBAN BANK LIMITED SANJEEV REDDY NAGAR,THE MAHANAGAR CO OPERATIVE URBAN BANK LIMITED SANJEEV REDDY NAGAR 248/3RT SANJEEV REDDY NAGAR X ROADS 500038,040-24736030,HYDERABAD,HYDERABAD,ANDHRA PRADESH
KKBK0MMCB01,Kotak Mahindra Bank,KKBK0MMCB01,682858002,THE MATTANCHERRY MAHAJANIK COOPERATIVE BANK LTD KOCHI MAIN,"THE MATTANCHERRY MAHAJANIK COOPERATIVE BANK LTD NO 665,PALLIYARAKAVU ROAD, MATTANCHERRY, COCHIN,ERNAKULAM,682002",4842211210,KOCHI,ERNAKULAM,KERALA
KKBK0MMCB02,Kotak Mahindra Bank,KKBK0MMCB02,682858003,THE MATTANCHERRY MAHAJANIK COOPERATIVE BANK LTD KARUVELIPADI,"THE MATTANCHERRY MAHAJANIK COOPERATIVE BANK LTD NO 665,KRUVELIPADY , COCHIN-5",4842220529,KOCHI,ERNAKULAM,KERALA
KKBK0MMCB03,Kotak Mahindra Bank,KKBK0MMCB03,682858004,THE MATTANCHERRY MAHAJANIK COOPERATIVE BANK LTD EDAKOCHI,"THE MATTANCHERRY MAHAJANIK COOPERATIVE BANK LTD NO 665,EDAKOCHI, COCHIN-6",4842327189,KOCHI,ERNAKULAM,KERALA
KKBK0MMCB04,Kotak Mahindra Bank,KKBK0MMCB04,682858005,THE MATTANCHERRY MAHAJANIK COOPERATIVE BANK LTD MUNDAMVELI,"THE MATTANCHERRY MAHAJANIK COOPERATIVE BANK LTD NO 665,FORT KOCHI, COCHIN-1",4842215547,KOCHI,ERNAKULAM,KERALA
KKBK0MMCB05,Kotak Mahindra Bank,KKBK0MMCB05,682858006,THE MATTANCHERRY MAHAJANIK COOPERATIVE BANK LTD FORT KOCHI,"THE MATTANCHERRY MAHAJANIK COOPERATIVE BANK LTD NO 665,MUNDAMVELI,COCHIN-7",4842233790,KOCHI,ERNAKULAM,KERALA
KKBK0MSCB01,Kotak Mahindra Bank,KKBK0MSCB01,682859002,THE MATTANCHERRY SARVAJANIK COOPERATIVE BANK LTD MAIN BRANCH,"THE MATTANCHERRY SARVAJANIK COOPERATIVE BANK LT NO. 3284, CHERLAI ,KOCHI .PO 682002",4842223617,KOCHI,ERNAKULAM,KERALA
KKBK0MSCB02,Kotak Mahindra Bank,KKBK0MSCB02,682859003,THE MATTANCHERRY SARVAJANIK COOPERATIVE BANK LTD PALLURUTHI,"THE MATTANCHERRY SARVAJANIK COOPERATIVE BANK LT NO. 3284,CC18/635,ESI ROAD, PALLURUTHY ROAD,COCHIN- 6",4842232396,KOCHI,ERNAKULAM,KERALA
KKBK0MSCB03,Kotak Mahindra Bank,KKBK0MSCB03,682859004,THE MATTANCHERRY SARVAJANIK COOPERATIVE BANK LTD MULAMKUZHI,"THE MATTANCHERRY SARVAJANIK COOPERATIVE BANK LT NO. 3284,15/2033(NEW24/400),MULAMKUZHI JUNCTION , COCHIN -2",4842221314,KOCHI,ERNAKULAM,KERALA
KKBK0MVCB01,Kotak Mahindra Bank,KKBK0MVCB01,380118311,THE MAHILA VIKAS CO OP BANK LTD AHMEDABAD,"THE MAHILA VIKAS CO OP BANK LTD HEAD OFFICE SWAMINARAYAN AVENUE, SWAMINARAYAN CHOWK, BHATTHA, PALDI, AHMEDABAD 380007",079-26605580/26607046/26604340,AHMEDABAD,AHMADABAD,GUJARAT
KKBK0SRSB01,Kotak Mahindra Bank,KKBK0SRSB01,AWAITED,SHRI RUKHMINI SAHAKARI BANK LTD SHRIGONDA,"SHRI RUKHMINI SAHAKARI BANK LTD SHRIGONDA A/P & TAL SHRIGONDA, DIST. AHMEDNAGAR, PIN 413701",2487220550,SHRIGONDA,AHMADNAGAR,MAHARASHTRA
KKBK0SRSB02,Kotak Mahindra Bank,KKBK0SRSB02,AWAITED,SHRI RUKHMINI SAHAKARI BANK LTD KARJAT,"SHRI RUKHMINI SAHAKARI BANK LTD KARJAT A/P BAZZAR & TAL KARJAT, DIST. AHMEDNAGAR, PIN 414402",2489223750,KARJAT,AHMADNAGAR,MAHARASHTRA
KKBK0SRSB03,Kotak Mahindra Bank,KKBK0SRSB03,AWAITED,SHRI RUKHMINI SAHAKARI BANK LTD BELWANDI BK,"SHRI RUKHMINI SAHAKARI BANK LTD BELWANDI BK A/P  BELWANDI BK & TAL SHRIGONDA, DIST. AHMEDNAGAR, PIN 413702",2487250050,BELWANDI BK,AHMADNAGAR,MAHARASHTRA
KKBK0SRSB04,Kotak Mahindra Bank,KKBK0SRSB04,AWAITED,SHRI RUKHMINI SAHAKARI BANK LTD SHIKRAPUR,"SHRI RUKHMINI SAHAKARI BANK LTD SHIKRAPUR A/P  PABAL RD,SHIKRAPUR & TAL SHIRUR, DIST. PUNE, PIN 412208",2137272550,SHIKRAPUR,PUNE,MAHARASHTRA
KKBK0SRSB05,Kotak Mahindra Bank,KKBK0SRSB05,AWAITED,SHRI RUKHMINI SAHAKARI BANK LTD MIRAJGAON,"SHRI RUKHMINI SAHAKARI BANK LTD MIRAJGAON A/P  MIRAJGAON & TAL KARJAT, DIST. AHMEDNAGAR, PIN 414401",2489263750,MIRAJGAON,AHMADNAGAR,MAHARASHTRA
KKBK0001892,Kotak Mahindra Bank,KKBK0001892,AWAITED,KOKANGAON BRANCH,"KOTAK MAHINDRA BANK LIMITED PART OF HOUSE NO 202 & 203, KOKANGAON - 422209. TALUKA : NIPHAD, DISTRICT : NASHIK, MAHARASHTRA",18001026022,NIPHAD,NASIK,MAHARASHTRA
KKBK0001997,Kotak Mahindra Bank,KKBK0001997,AWAITED,SHINGAWE BRANCH,"KOTAK MAHINDRA BANK LIMITED GROUND FLOOR, HOUSE NO 276, SURVEY NO 3/5+6 NAGAR - MANMAD ROAD, SHINGAWE – 414111, TALUKA : NAGAR, DISTRICT : AHMADNAGAR. MAHARASHTRA.",18001026022,AHMADNAGAR,AHMADNAGAR,MAHARASHTRA
KKBK0005288,Kotak Mahindra Bank,KKBK0005288,AWAITED,DHARSANIA BRANCH,"KOTAK MAHINDRA BANK LIMITED DHARSANIA ( BARABANKI), UTTER PRADESH GROUND FLOOR, YADUBANSI NIWAS, DHARSANIA, PARGANA DEVA, NAWABGANJ, BARABANKI-225001 UP",18001026022,BARA BANKI,BARA BANKI,UTTAR PRADESH
KKBK0006563,Kotak Mahindra Bank,KKBK0006563,AWAITED,NEW ALIPORE BRANCH KOLKATTA,"KOTAK MAHINDRA BANK LIMITED NEW ALIPORE BRANCH- KOLKATTA,WEST BENGAL GROUND FLOOR,NEON PLAZA, NO.67,(NEW ALIPORE) NALINI RANJAN AVENUE, KOLKATTA-700053",18001026022,KOLKATA,KOLKATA,WEST BENGAL
KKBK0SMSB01,Kotak Mahindra Bank,KKBK0SMSB01,425823001,SHREE MAHAVIR SAHAKARI BANK LTD JALGAON,SHREE MAHAVIR SAHAKARI BANK LTD 92 NAVI PETH NR LIC BUILDING JALGAON 425001,0257 2232490,JALGAON,JALGAON,MAHARASHTRA
KKBK0VCCB01,Kotak Mahindra Bank,KKBK0VCCB01,360468002,VIJAY COMMERCIAL CO OPERATIVE BANK LTD HEAD OFFICE KANAK ROAD,"VIJAY COMMERCIAL CO OPERATIVE BANK LTD HEAD OFFICE (KANAK ROAD)VIJAY BHAVAN, KANAK ROAD , RAJKOT -360001",0281-2222785/2229586,RAJKOT,RAJKOT,GUJARAT
KKBK0VCCB02,Kotak Mahindra Bank,KKBK0VCCB02,360468003,VIJAY COMMERCIAL CO OPERATIVE BANK LTD MARKETING YARD,"VIJAY COMMERCIAL CO OPERATIVE BANK LTD MARKETING YARDMARKETING YARD , RAJKOT - 360003",0281-2222785/2229586,RAJKOT,RAJKOT,GUJARAT
KKBK0VCCB03,Kotak Mahindra Bank,KKBK0VCCB03,360468004,VIJAY COMMERCIAL CO OPERATIVE BANK LTD SORTHIYAWADI,"VIJAY COMMERCIAL CO OPERATIVE BANK LTD SORTHIYAWADISORTHIYAWADI CHOWK, RAJKOT - 360002",0281-2222785/2229586,RAJKOT,RAJKOT,GUJARAT
KKBK0VCCB04,Kotak Mahindra Bank,KKBK0VCCB04,360468005,VIJAY COMMERCIAL CO OPERATIVE BANK LTD STOCK EXCHANGE,"VIJAY COMMERCIAL CO OPERATIVE BANK LTD STOCK EXCHANGESADAR BAZAR , RAJKOT, 360001",0281-2222785/2229586,RAJKOT,RAJKOT,GUJARAT