ID,BANK,IFSC_CODE,MICR_CODE,BRANCH_NAME,ADDRESS,CONTACT,CITY,DISTRICT,STATE
BKDN0110011,Dena Bank,BKDN0110011,380018015,GANDHI ROAD,GANDHI ROAD AHMEDABAD,,AHMEDABAD,AHMEDABAD,GUJARAT
BKDN0110020,Dena Bank,BKDN0110020,380018012,DELHI CHAKLA,"STAR HOUSE,DELHI CHAKLA,AHMEDABAD",,AHMEDABAD,AHMEDABAD,GUJARAT
BKDN0110068,Dena Bank,BKDN0110068,380018022,MANINAGAR (WEST),"CHAR RASTAMANI NAGAR (W)AHMEDABAD,GUJARAT-380008",,AHMEDABAD,AHMEDABAD,GUJARAT
BKDN0110069,Dena Bank,BKDN0110069,380018037,SARASPUR,"PITH BAZAR,SARASPUR,AHMEDABAD 380018 GUJARAT",,AHMEDABAD,AHMEDABAD,GUJARAT
BKDN0110097,Dena Bank,BKDN0110097,380018014,ELLIS BRIDGE,"ELLIS BRIDGEPRITAM RAI ROADAHMEDABAD,GUJARAT-380006",,AHMEDABAD,AHMEDABAD,GUJARAT
BKDN0110100,Dena Bank,BKDN0110100,380018034,AHEMADABAD (RELIEF ROAD),"OPP.KRISHNA CINEMARELIEF ROADPOST BOX NO.293,AHMEDABAD,GUJARAT-380001",,AHMEDABAD,AHMEDABAD,GUJARAT
BKDN0110139,Dena Bank,BKDN0110139,380018004,AHEMADABAD (ASARWA),"ASARVA CHAKLA,AHMEDABAD -380 016",,AHMEDABAD,AHMEDABAD,GUJARAT
BKDN0110151,Dena Bank,BKDN0110151,380018028,AHEMADABAD (NAVRANGPURA),"SURYA COMPLEXNEAR SWASTIC CROSS RD.AHMEDABAD,GUJARAT-380009",,AHMEDABAD,AHMEDABAD,GUJARAT
BKDN0110177,Dena Bank,BKDN0110177,380018026,NARANPURA,"53,SHALIBHADRA SOCIETY NARANPURA ROAD  AHMEDABAD 382235 GUJARAT",,AHMEDABAD,AHMEDABAD,GUJARAT
BKDN0110187,Dena Bank,BKDN0110187,380018036,SARANGPUR,"OPP- S T BUS STAND,THE-DHANDHUKA",,AHMEDABAD,AHMEDABAD,GUJARAT
BKDN0110232,Dena Bank,BKDN0110232,380018002,AMRAIWADI,"D.C. CHAMBERS,AMRAIWADIAHMEDABAD,GUJARAT-380026",,AHMEDABAD,AHMEDABAD,GUJARAT
BKDN0110328,Dena Bank,BKDN0110328,380018027,NARODA,1-A GHLA NAGAR SOCIETYOPP.AMTS BUSTERMINALSAHMEDABAD 382235 GUJARAT 0250169,,AHMEDABAD,AHMEDABAD,GUJARAT
BKDN0110329,Dena Bank,BKDN0110329,380018033,PUSHPAKUNJ,"PUSHPKUNJPUSHPKUNJ SOCIETY,KANKARIA,AHMEDABAD,GUJARAT-380002",,AHMEDABAD,AHMEDABAD,GUJARAT
BKDN0110460,Dena Bank,BKDN0110460,380018039,AHEMADABAD (SHAHIBAUG),"SANJAY SOCIETYSHAHIBAUGAHMEDABAD,GUJARAT-380004",,AHMEDABAD,AHMEDABAD,GUJARAT
BKDN0110489,Dena Bank,BKDN0110489,380018044,VATVA,"G.I.D.C.ESTATE,OPP.WATER TANK,VATVA,AHMADABAD",,AHMEDABAD,AHMEDABAD,GUJARAT
BKDN0110496,Dena Bank,BKDN0110496,380018041,SHARDANAGAR,"85 SHARADANAGAR SOCY.,NEAR VIKAS GRUH,PALDI,AHMEDABAD-7",,AHMEDABAD,AHMEDABAD,GUJARAT
BKDN0110548,Dena Bank,BKDN0110548,380018042,ST XAVIERS SCHOOL CORNER,"ST.XAVIER'S SCHOOL CORNER BR.,SUVAS COLONY,AHMEDABAD-14",,AHMEDABAD,AHMEDABAD,GUJARAT
BKDN0110549,Dena Bank,BKDN0110549,380018019,LAW COLLEGE,"LAW COLLEGE ROAD BRANCH,AHMEDABAD-390006",,AHMEDABAD,AHMEDABAD,GUJARAT
BKDN0110550,Dena Bank,BKDN0110550,380018017,ISANPUR,"NEAR SHESTH KUVAPOST VATVAISANPUR,AHMEDABAD,GUJARAT-382440",,AHMEDABAD,AHMEDABAD,GUJARAT
BKDN0110562,Dena Bank,BKDN0110562,380018010,AHMEDABAD (DANI LIMDA),"OPP VISHNU BAG SOCIETY,AHMEDABAD-380028",,AHMEDABAD,AHMEDABAD,GUJARAT
BKDN0110570,Dena Bank,BKDN0110570,380018018,KUBERNAGAR,"E-71-72,NEAR RAJAVIR TEMPLE,KUBERNAGAR-382415",,AHMEDABAD,AHMEDABAD,GUJARAT
BKDN0110571,Dena Bank,BKDN0110571,380018005,AHEMADABAD (ASHRAM ROAD),"DENA LAXMI BLDG.188-A,ASHRAM ROAD, NAVRANGPURA,AHMEDABAD,GUJARAT-380009",,AHMEDABAD,AHMEDABAD,GUJARAT
BKDN0110579,Dena Bank,BKDN0110579,380018030,AHMEDABAD (ODHAV),"GIDC COMPOUND,AHMEDABAD-382415",,AHMEDABAD,AHMEDABAD,GUJARAT
BKDN0110590,Dena Bank,BKDN0110590,380018024,MANINAGAR (EAST),"15,ASMITA SOCIETY,MANINAGAR(EAST) BR.,AHMEDABAD-380008",,AHMEDABAD,AHMEDABAD,GUJARAT
BKDN0110596,Dena Bank,BKDN0110596,NON-MICR,GOMTIPUR,"NEAR GOMTIPUR DARWAJA,GOMTIPUR,AHMEDABAD 380 021",,AHMEDABAD,AHMEDABAD,GUJARAT
BKDN0110621,Dena Bank,BKDN0110621,380018024,MEGHANINAGAR,BLDG.NO.141/5-6-7 GUJARAT HSG. BOARD COLONY AHMEDABAD,,AHMEDABAD,AHMEDABAD,GUJARAT
BKDN0110808,Dena Bank,BKDN0110808,380018008,BAPUNAGAR,"ANUP CHAMBERS,G.N.P.BAPUNAGAR AHMEDABAD -380 024",,AHMEDABAD,AHMEDABAD,GUJARAT
BKDN0110839,Dena Bank,BKDN0110839,380018029,AHMEDABAD NAVA VADAJ,17 BY A VIRANAGAR SOCIETY NAVA VADAJ AHMEDABAD,,AHMEDABAD,AHMEDABAD,GUJARAT
BKDN0110848,Dena Bank,BKDN0110848,380018035,SABARMATI,"JAWAHAR CHOWK,AHMEDABAD,P.O.SABARMATI,380005",,AHMEDABAD,AHMEDABAD,GUJARAT
BKDN0110857,Dena Bank,BKDN0110857,380018003,AMBAWADI (NEHRU NAGAR),"ARBUDA APARTMENTSDR. S.RADHAKRISHNAN HALLROAD,AHMEDABAD,GUJARAT-380015",,AHMEDABAD,AHMEDABAD,GUJARAT
BKDN0110933,Dena Bank,BKDN0110933,380018031,AHMEDABAD (PRAGATI NAGAR),"36,PRAGATI NAGAR,AHMEDABAD-380013",,AHMEDABAD,AHMEDABAD,GUJARAT
BKDN0110943,Dena Bank,BKDN0110943,380018043,VASNA,"N.K.HOUSE,VASNA,AHMADABAD",,AHMEDABAD,AHMEDABAD,GUJARAT
BKDN0111104,Dena Bank,BKDN0111104,380018999,ASSET RECOVERY BRANCH -AHMEDAB,"REGIONAL OFFICE, DENA LAXMI BUILDING,ASSET RECOVERY BRANCH -AHMEDAB,380009, GUJARAT",,AHMEDABAD,AHMADABAD,GUJARAT
BKDN0111170,Dena Bank,BKDN0111170,380018060,AHMEDABAD-IFB,"DENA LAXMI BUILDING, 1ST FLOOR, 188-A, ASHRAM ROAD, NAVRANGPURA, AHMEDABAD- 380009",,AHMEDABAD,AHMEDABAD,GUJARAT
BKDN0111210,Dena Bank,BKDN0111210,380018062,"SATELLITE, AHMEDABAD","SATELLITE BRANCH,7-10,RATNADEEP COMPLEX, OPP TEJDHARA BUNGLOW,NEAR RAHUL TOWER,ANANDNAGAR ROAD,AHMEDABAD,GUJARAT-380015",,AHMEDABAD,AHMADABAD,GUJARAT
BKDN0111217,Dena Bank,BKDN0111217,380018063,JUHAPARA,"SHOP NO. 1,2,3 FIRST FLOOR SUNRISE APARTMENT,OPP:- VARAKHWALA PARTY PLOT,NEAR VISHAL CIRCLE,JUHAPARA,AHMEDABAD",,AHMEDABAD,AHMEDABAD,GUJARAT
BKDN0111218,Dena Bank,BKDN0111218,380018060,RETAIL ASSET BR.(AHMEDABADI),"DENA LAXMI BUILDING 188 - A,ASHRAM ROAD AHMEDABAD",,AHMEDABAD,AHMEDABAD,GUJARAT
BKDN0111355,Dena Bank,BKDN0111355,NON-MICR,SANAND,"DENA BANK,  AT & PO IYAVA, TAL DIST AHMEDABAD",,,SANAND,AHMADABAD
BKDN0111356,Dena Bank,BKDN0111356,NON-MICR,AHMEDABAD,"DENA BANK,  AT & PO CHEKHALA TAL DIST AHMEDABAD",,,AHMEDABAD,AHMADABAD
BKDN0111357,Dena Bank,BKDN0111357,NON-MICR,BARWALA,"DENA BANK, AT & PO KHAS,TAL BARWALA,DIST. AHMEDABAD, PIN 382255",,,BARWALA,AHMADABAD
BKDN0111358,Dena Bank,BKDN0111358,NON-MICR,RANPUR,"DENA BANK,  AT & PO MOTI VAVDI TAL DIST AHMEDABAD",,,RANPUR,AHMADABAD
BKDN0111359,Dena Bank,BKDN0111359,NON-MICR,AHMEDABAD,"DENA BANK. AT & PO HARANIYAV, TAL DASKORI,DIST. AHMEDABAD, PIN-382435",,,AHMEDABAD,AHMADABAD
BKDN0111360,Dena Bank,BKDN0111360,,VANSAVA,"DENA BANK,VANSAVA,TAL VIRAMGAM,DIST AHMEDABAD,GUJARAT-382150",,9925457645;VANSAV@DENABANK.CO.IN,VIRAMGAM,AHMADABAD
BKDN0120041,Dena Bank,BKDN0120041,NON-MICR,VIRAMGAM,"VITHALBHAI PATEL RD,VIRAMGAM,AHMEDABAD,GUJARAT",,VIRAMGAM,AHMADABAD,GUJARAT
BKDN0120158,Dena Bank,BKDN0120158,NON-MICR,BARWALA,"MEGHANI CHOWK,BARWALA (GHELASHAH),BARWALA,GUJARAT-382450",,BARWALA,AHMADABAD,GUJARAT
BKDN0120338,Dena Bank,BKDN0120338,380018056,JETALPUR,"NEAR GRAM PANCHAYAT OFFICE,JETALPUR, TAL. DASKROI, AHMEDABAD",,JETALPUR,AHMEDABAD,GUJARAT
BKDN0120356,Dena Bank,BKDN0120356,NON-MICR,RAMPURA (B),"RAMPURA STN.,BHANKODA,AHMEDABAD,GUJARAT",,RAMPURA,AHMADABAD,GUJARAT
BKDN0120357,Dena Bank,BKDN0120357,NON-MICR,CHALODA,"ADHIBHAG, TAL. DHOLKA,AHMEDABAD,GUJARAT",,CHALODA,AHMADABAD,GUJARAT
BKDN0120368,Dena Bank,BKDN0120368,NON-MICR,BAREJADI,BAREJADI (NANDEJ)  AHMEDABAD 382425 GUJARAT,,BAREJADI,AHMEDABAD,GUJARAT
BKDN0120388,Dena Bank,BKDN0120388,NON MICR,DHANDHUKA,"STATION ROAD,AHMADABAD,GUJARAT,",,DHANDHUKA,AHMADABAD,GUJARAT
BKDN0120389,Dena Bank,BKDN0120389,380018061,DHOLKA,"DHOLKA BAZAR,AHMADABAD,GUJARAT,",,DHOLKA,AHMADABAD,GUJARAT
BKDN0120391,Dena Bank,BKDN0120391,380018038,AHMEDABAD (SARKHEJ),"SARKHEJ BAZAR,AHMEDABAD-382210",,AHMEDABAD,AHMEDABAD,GUJARAT
BKDN0120394,Dena Bank,BKDN0120394,380018055,SANAND,OPP. ST BUS STAND SANAND AHMEDABAD,,SANAND,AHMEDABAD,GUJARAT
BKDN0120400,Dena Bank,BKDN0120400,NON MICR,DHOLERA,"TAL.DHANDHUKA DHOLERA MAIN BAZAR DHOLER,GUJARAT",,DHOLERA,AHMADABAD,GUJARAT
BKDN0120401,Dena Bank,BKDN0120401,NON MICR,DETROJ,"DETROJ.TAL DETROJ BAZAR DETROJ, GUJARAT",,DETROJ,AHMADABAD,GUJARAT
BKDN0120403,Dena Bank,BKDN0120403,380018057,DEHGAM,"DEHGAM,VANTAWAD,GANDHINAGAR382305",,DEHGAM,AHMEDABAD,GUJARAT
BKDN0120428,Dena Bank,BKDN0120428,NON-MICR,KATOSAN ROAD,"MAIN BAZAR.,KAATOSAN RD.AHMEDABAD-382145,GUJARAT",,DETROJ,AHMADABAD,GUJARAT
BKDN0120665,Dena Bank,BKDN0120665,NON-MICR,KASINDRA,"TAL. DASKROI,DIST. AHMEDABAD,GUJARAT",,KASINDRA,AHMADABAD,GUJARAT
BKDN0120686,Dena Bank,BKDN0120686,380018045,VEJALPUR,"20, TULSIVAN SOCY.VEJALPURAHMEDABAD,GUJARAT-380051",,VEJALPUR,AHMEDABAD,GUJARAT
BKDN0120698,Dena Bank,BKDN0120698,NON-MICR,DEVKARANNA MUVADA,"TEHSIL DEHGAON,AT & PO.DEVKARAN_NA_MUVADA-382308,GUJARAT",,DEVKARAN NA MUVADA,AHMADABAD,GUJARAT
BKDN0120737,Dena Bank,BKDN0120737,NON-MICR,MODASAR,"MODASAR,SANAND TEHSIL,AT&POST MODASAR,AHMEDABAD,GUJARAT",,MODASAR,AHMADABAD,GUJARAT
BKDN0120872,Dena Bank,BKDN0120872,NON-MICR,SARANGPUR (HANUMAN),"SARANGPUR (HANUMAN),OPP BAPS SWAMINARAYAN,LATHIDAD RD,TALUKA BARWALA,AHMEDABAD-382451",,SARANGPUR(HANUMAN),AHMADABAD,GUJARAT
BKDN0120904,Dena Bank,BKDN0120904,NON-MICR,BHAYALA,"TAL. DHOLKA,AHMEDABAD,GUJARAT",,BHAYLA,AHMADABAD,GUJARAT
BKDN0120991,Dena Bank,BKDN0120991,380018049,BOPAL,"BOPAL PO.THALTEITEH.DASCROI,GUJARAT-380054",,BOPAL,AHMEDABAD,GUJARAT
BKDN0130203,Dena Bank,BKDN0130203,NON-MICR,MODASA,"OPP NAGAR PANCHAYAT OFFICE,MODASA,SABAR KANTHA -383315",,MODASA,SABARKANTHA,GUJARAT
BKDN0130268,Dena Bank,BKDN0130268,NON-MICR,MALPUR,"SATI PIPLI,TAL MALPUR,GUJARAT",,MALPUR,SABAR KANTHA,GUJARAT
BKDN0130269,Dena Bank,BKDN0130269,NON MICR,HARSOL,"HARSOL, TAL-TALOD NR RAMJI MANDIR BAZAR HARSOL, GUJARAT",,HARSOL,SABAR KANTHA,GUJARAT
BKDN0130280,Dena Bank,BKDN0130280,NON-MICR,MEGHRAJ,"BHAYLA COMPLEX AT PO MEGHRAJ UNDHVA RD,TAL MEGHRAJ DIST SABARKANTHA",,MEGHRAJ,SABAR KANTHA,GUJARAT
BKDN0130286,Dena Bank,BKDN0130286,NON-MICR,BHILODA,"JANSERA SANGH BLDG,BHILODA,SABARKANTHA -383245,GUJRAT",,BHILODA,SABARKANTHA,GUJARAT
BKDN0130287,Dena Bank,BKDN0130287,NON-MICR,TINTOI,"TINTOI,GUJARAT",,TINTOI,SABAR KANTHA,GUJARAT
BKDN0130299,Dena Bank,BKDN0130299,NON MICR,VIJAYNAGAR,"VIJAYNAGAR,DIST. SABARKANTHA,GUJARAT,",,VIJAYNAGAR,SABAR KANTHA,GUJARAT
BKDN0130305,Dena Bank,BKDN0130305,NON-MICR,TALOD,"GANDHI BHAVAN,BAZAR,TALOD.,TALOD-383 215,DIST. SABARKANTHA.,GUJARAT",,TALOD,SABARKANTHA,GUJARAT
BKDN0130308,Dena Bank,BKDN0130308,380018063,GANDHINAGAR (SEC-22),"SECTOR NO.22,GANDHINAGAR,GUJARAT -382022",,GANDHINAGAR,GANDHINAGAR,GUJARAT
BKDN0130330,Dena Bank,BKDN0130330,NON-MICR,HIMATNAGAR,"HIMATNAGAR,SUVIRA SHOPPING CENTRE,DR. GANDHI ROAD,DIST. SABARKANTHA,GUJARAT-383430",,HIMATNAGAR,SABARKANTHA,GUJARAT
BKDN0130331,Dena Bank,BKDN0130331,NON MICR,PRANTIJ,"10, SARVODAYA SOCIETY, GR. FLOOR, APPROACH ROAD, PRANTIJ",,PRANTIJ,SABARKANTHA,GUJARAT
BKDN0130332,Dena Bank,BKDN0130332,NON MICR,IDAR,"J.B. CHAMBERS, 1ST FLOOR, IDAR,",,IDAR,SABARKANTHA,GUJARAT
BKDN0130333,Dena Bank,BKDN0130333,NON-MICR,JADAR,"STATION ROAD.JADAR.,GUJARAT",,JADAR,SABAR KANTHA,GUJARAT
BKDN0130334,Dena Bank,BKDN0130334,NON-MICR,KHEDBRAHMA,"SARDAR CHOWK,NEAR RAILWAY STATION,KHEDBRAHMA,DIST SABARKANTHA,GUJRAT",,KHEDBRAHMA,SABARKANTHA,GUJARAT
BKDN0130358,Dena Bank,BKDN0130358,NON-MICR,CHOILA,"CHOILA.TEH.BAYAD,GUJARAT",,CHOILA,SABAR KANTHA,GUJARAT
BKDN0130402,Dena Bank,BKDN0130402,NON-MICR,SHERTHA,"SHERTHA,CHOWK.SHERTHA,GUJARAT",,SHERTHA,GANDHINAGAR,GUJARAT
BKDN0130422,Dena Bank,BKDN0130422,NONMICR,RUPAL,"CHOKARI.RUPAL,GUJARAT",,RUPAL,GANDHINAGAR,GUJARAT
BKDN0130452,Dena Bank,BKDN0130452,380018048,CHANDKHEDA,"BAZARCHANDKHEDA-382 005, DIST. GANDHINAGAR, GUJARAT",,GANDHINAGAR,GANDHINAGAR,GUJARAT
BKDN0130474,Dena Bank,BKDN0130474,NON-MICR,SONASAN,"DUGCHAR.NEAR P.O..,TAL.PRANTIJ.,SONASAN-383210,GUJARAT",,SONASAN,SABAR KANTHA,GUJARAT
BKDN0130664,Dena Bank,BKDN0130664,NON MICR,CHHALA,"AT & POST CHHALA,CHHALA,DIST. GANDHINAGAR,GUJARAT,",,CHHALA,GANDHINAGAR,GUJARAT
BKDN0130676,Dena Bank,BKDN0130676,NON-MICR,VADAGAM,"VADAGAM.TEH.MODASA,GUJARAT",,VADAGAM,SABAR KANTHA,GUJARAT
BKDN0130711,Dena Bank,BKDN0130711,NON-MICR,KOLWADA,"TEH.GANDHINAGAR,KOLAVADA,GUJARAT,382051",,KOLAVADA,GANDHINAGAR,GUJARAT
BKDN0130729,Dena Bank,BKDN0130729,NON-MICR,RANASAN,"TAL - TALOD,P.O.RANASAN.383305,GUJARAT",,RANASAN,SABAR KANTHA,GUJARAT
BKDN0130765,Dena Bank,BKDN0130765,NONMICR,SHIKA,"SHIKA.TEH.MODASA,GUJARAT",,SHIKA,SABAR KANTHA,GUJARAT
BKDN0130767,Dena Bank,BKDN0130767,NON-MICR,BHADRESAR,"IDAR TALUKA,AT & POST.BHADRESAR-383110,GUJARAT",,BHADRESAR,SABAR KANTHA,GUJARAT
BKDN0130768,Dena Bank,BKDN0130768,NON-MICR,MEDHASAN,"AT&POST.MEDHASAN.,TEH.MODASA,MEDHASAN,GUJARAT-383227",,MEDHASAN,SABAR KANTHA,GUJARAT
BKDN0130771,Dena Bank,BKDN0130771,NON-MICR,NIKODA,"AT & POST.NIKODA.,TEH.HIMATNAGAR,GUJARAT-383210",,NIKODA,SABAR KANTHA,GUJARAT
BKDN0130784,Dena Bank,BKDN0130784,NON-MICR,NAVA REWAS,"AT & POST.NAVA RAWAS,IDAR TEHSIL,GUJARAT-383450",,NAVA REWAS,SABAR KANTHA,GUJARAT
BKDN0130787,Dena Bank,BKDN0130787,NON-MICR,AMBALIARA,"AT & POST.AMBLIARA.,BAYAD TEHSIL, DIST SABARKANTHA,GUJARAT-383265",,AMBALIARA,SABAR KANTHA,GUJARAT
BKDN0130788,Dena Bank,BKDN0130788,NON-MICR,GANTHIOL,"AT & POST.GANTHIOL.,IDAR TALUKA,GUJARAT",,GANTHIOL,SABAR KANTHA,GUJARAT
BKDN0130795,Dena Bank,BKDN0130795,NON MICR,WANKANER  (SABARKANTHA),WANKANER.TEH.BHILODA WANKANER (SABARKANTHA) GUJARAT,,WANKANER,SABAR KANTHA,GUJARAT
BKDN0130796,Dena Bank,BKDN0130796,NON MICR,DHANSURA,"TALOD ROAD,DHANSURA",,DHANSURA,SABARKANTHA,GUJARAT
BKDN0130822,Dena Bank,BKDN0130822,NON-MICR,VERABAR,"AT & POST.VERABAR.,IDAR TEHSIL,GUJARAT",,VERABAR,SABAR KANTHA,GUJARAT
BKDN0130834,Dena Bank,BKDN0130834,NON-MICR,UBHARAN,"UBHARAN.TEH.MALPUR,TAL.BHAYAD.,UBHARAN,GUJARAT-383335",,UBHARAN,SABAR KANTHA,GUJARAT
BKDN0130838,Dena Bank,BKDN0130838,NON-MICR,CHITHODA,"CHITHODA,TEH.VIJAY-NAGAR-383462,GUJARAT",,CHITHODA,SABAR KANTHA,GUJARAT
BKDN0130849,Dena Bank,BKDN0130849,NON-MICR,ISARI,"AT & POST.ISARI.,TAL.MALPUR,ISARI,GUJARAT",,ISARI,SABAR KANTHA,GUJARAT
BKDN0130851,Dena Bank,BKDN0130851,NON-MICR,KUKADIA,"KUKADIA,AT & POST.KUKADIA.,IDAR TALUKA,DIST SABARKHANTHAP-GUJARAT",,KUKADIA,SABAR KANTHA,GUJARAT
BKDN0130881,Dena Bank,BKDN0130881,NON MICR,SHAMLAJI,"VISHNU MANDIR BUILDING, TAL. BHILODA, SHAMLAJI,",,SHAMLAJI,SABARKANTHA,GUJARAT
BKDN0130885,Dena Bank,BKDN0130885,NON-MICR,BAMNA,"BAMNA.TEH.BHILODA,GUJARAT-383 240",,BAMNA,SABAR KANTHA,GUJARAT
BKDN0130900,Dena Bank,BKDN0130900,NON-MICR,ANIYOR,"ANIYOR,TEHSIL MALPUR,GUJARAT",,ANIYOR,SABAR KANTHA,GUJARAT
BKDN0130901,Dena Bank,BKDN0130901,NON-MICR,LAXMIPURA,"TEH.KHEDBRAHMA,LAXMIPURA.,GUJARAT",,LAXMIPURA,SABAR KANTHA,GUJARAT
BKDN0130906,Dena Bank,BKDN0130906,NON-MICR,CHANDARNI,"CHANDARANI.,TEH.HIMATNAGAR,GUJARAT",,CHANDARANI,SABAR KANTHA,GUJARAT
BKDN0130910,Dena Bank,BKDN0130910,NON-MICR,MUDETI,"OPP. SAHAKARI MANDLI,TAL. IDAR,GROUND FLOOR,AT & POST : MUDETI,GUJARAT-383450",,MUDETI,SABAR KANTHA,GUJARAT
BKDN0130918,Dena Bank,BKDN0130918,NON MICR,POR,NEAR ADALAJ.POR SWAMINARAYAN TEM.BUILDING POR GUJARAT,,POR,GANDHINAGAR,GUJARAT
BKDN0130920,Dena Bank,BKDN0130920,NON-MICR,GHADKAN,"GHADKAN.TEH.PRANTIJ,GUJARAT-383205",,GHADKAN,SABAR KANTHA,GUJARAT
BKDN0130932,Dena Bank,BKDN0130932,NON-MICR,MOYAD,"MOYAD.TEH.PRANTIJ,DIST SABARKANTHA-383120,GUJARAT",,MOYAD,SABAR KANTHA,GUJARAT
BKDN0130935,Dena Bank,BKDN0130935,NON-MICR,ANTARSUMA,"ANTARSUMA,TEH.VIJAYNAGAR,GUJARAT-383460",,ANTARSUMA,SABAR KANTHA,GUJARAT
BKDN0130940,Dena Bank,BKDN0130940,NON-MICR,TORDA,"TORDA.,TEH.BHILODA,GUJARAT",,TORDA,SABAR KANTHA,GUJARAT
BKDN0130957,Dena Bank,BKDN0130957,380018058,KOBA,"AT & POST : KOBA,KOBA-382 009.DIST. GANDHINAGAR.",,KOBA,GANDHINAGAR,GUJARAT
BKDN0130966,Dena Bank,BKDN0130966,NON-MICR,KHERADI,"KHERADI-383250.,TEH.BHILODA,GUJARAT-383250",,KHERADI,SABAR KANTHA,GUJARAT
BKDN0130973,Dena Bank,BKDN0130973,NONMICR,PAL,PAL TEH.VIJAYNAGAR GUJARAT 383460.,,PAL,SABAR KANTHA,GUJARAT
BKDN0130985,Dena Bank,BKDN0130985,380018052,GANDHINAGAR (SECTOR-16),"PLOT NO.320-321,GH RD,SEC.16,GH-4,GANDHINAGAR-382 016, GUJARAT",,GANDHINAGAR,GANDHINAGAR,GUJARAT
BKDN0131062,Dena Bank,BKDN0131062,380018050,BHAT,"POST BHAT,DIST.GANDHINAGAR BHAT - 382 428",,BHAT,GANDHINAGAR,GUJARAT
BKDN0131405,Dena Bank,BKDN0131405,,ANIYOD,"DENA BANK,ANIYOD,TALUKA :TALOD,DIST SABARKANTHA,GUJARAT",,09904688315 ;ANIYOD@DENABANK.CO.IN,TALOD,SABAR KANTHA
BKDN0131409,Dena Bank,BKDN0131409,,DANTRAL,"DENA BANK,AT & PO DANTRAL,TAL KHEDBRHAMA,DIST SABARKANTHA ,STATE GUJARAT",,9913033027;DANTRA@DENABANK.CO.IN,SABAR KANTHA,KHEDBRAHMA
BKDN0131423,Dena Bank,BKDN0131423,NON-MICR,CHITRODA,"DENA BANK,  AT & PO KOTDA TAL DIST SABARKANTHA",,,CHITRODA,SABAR KANTHA
BKDN0131424,Dena Bank,BKDN0131424,NON-MICR,KHEDBRAHMA,"DENA BANK,  AT & PO DUMTI TAL DIST SABARKANTHA",,,KHEDBRAHMA,SABAR KANTHA
BKDN0131425,Dena Bank,BKDN0131425,NON-MICR,GANDHINAGAR,"DENA BANK,  AT & PO KUNOL TAL DIST GANDHINAGAR",,,GANDHINAGAR,GANDHINAGAR
BKDN0140093,Dena Bank,BKDN0140093,NON-MICR,PALANPUR,"RAJGADHIAMIR ROAD,PALANPUR,DIST. BANASKANTHA.,GUJARAT-385001",,PALANPUR,BANASKANTHA,GUJARAT
BKDN0140266,Dena Bank,BKDN0140266,NON-MICR,DANTA,"DANTA, DANTA, DIST. BANASKANTHA, GUJARAT,",,DANTA,BANASKANTHA,GUJARAT
BKDN0140267,Dena Bank,BKDN0140267,NIN-MICR,GADH,"GADH,TAL. PALANPUR,DIST. BANASKANTHA,GUJARAT",,GADH,BANAS KANTHA,GUJARAT
BKDN0140295,Dena Bank,BKDN0140295,NON-MICR,VARAHI,"VARAHI,AT & PO VARAHI,TEH.SANTALPUR, PATAN,GUJARAT-385360",,VARAHI,MEHESANA,GUJARAT
BKDN0140296,Dena Bank,BKDN0140296,NON-MICR,SIHORI,"NR. BUS STAND, TAL. KANKREJ, SIHORI",,SIHORI,BANASKANTHA,GUJARAT
BKDN0140303,Dena Bank,BKDN0140303,NON-MICR,BHILDI,"HIGH WAY ROAD.,BHILADI-02744-233144,GUJARAT",,BHILADI,BANAS KANTHA,GUJARAT
BKDN0140304,Dena Bank,BKDN0140304,NON-MICR,KANODAR,"KANODAR,TAL.PALANPUR,GUJARAT-385520",,KANODAR,BANAS KANTHA,GUJARAT
BKDN0140323,Dena Bank,BKDN0140323,NON-MICR,BHABAR,"TAL. DEODAR,BHABHAR,DIST. BANASKANTHA,GUJARAT",,BHABHAR JUNA(VAS),BANAS KANTHA,GUJARAT
BKDN0140337,Dena Bank,BKDN0140337,NON-MICR,DEESA,DENA BANK S T STAND ROAD DEESA PIN-385535,,DEESA,BANASKANTHA,GUJARAT
BKDN0140340,Dena Bank,BKDN0140340,NON MICR,THARA,"NEAR APMC MARKET,TAL. KANKREJ. THARA,DIST. BANASKANTHA,GUJARAT,",,THARA,BANAS KANTHA,GUJARAT
BKDN0140341,Dena Bank,BKDN0140341,NON-MICR,WAV,"WAV,DISTT. BANASKANTHA,GUJARAT",,WAV,BANAS KANTHA,GUJARAT
BKDN0140367,Dena Bank,BKDN0140367,NON-MICR,VADGAM,"VADGAM + SO,DIST BANASKANTHA.-385410,GUJARAT",,VADGAM,BANAS KANTHA,GUJARAT
BKDN0140395,Dena Bank,BKDN0140395,NON-MICR,META,"TAL.VADGAM,META,GUJARAT",,META,BANAS KANTHA,GUJARAT
BKDN0140396,Dena Bank,BKDN0140396,NON-MICR,RADHANPUR,"ARMAN SHOPPING CENTRE,PATNI GATE,RADHANPUR,PATAN-385340,GUJARAT",,RADHANPUR,BANASKANTHA,GUJARAT
BKDN0140717,Dena Bank,BKDN0140717,NON-MICR,JUNA DEESA,"JUNA DEESA,TEH.DEESA.,JUNA,GUJARAT",,JUNA DEESA,BANAS KANTHA,GUJARAT
BKDN0140731,Dena Bank,BKDN0140731,NON-MICR,MALAN,"AT .& P.O.MALAN,BE S.T.BUS STAND. PALANPUR DISTT BANASKANTHA,MALAN,GUJARAT-384435",,MALAN,BANAS KANTHA,GUJARAT
BKDN0140732,Dena Bank,BKDN0140732,NON-MICR,PANTHAWADA,"VIA KHIMAT.TAL.DHANERA,BR.& P.O.PANTHAWADA-385545,GUJARAT",,PANTHAWADA,BANAS KANTHA,GUJARAT
BKDN0140748,Dena Bank,BKDN0140748,NON-MICR,CHITRASANI,"TEH.PALANPUR,CHITRASANI,GUJARAT-385010",,CHITRASANI,BANAS KANTHA,GUJARAT
BKDN0140763,Dena Bank,BKDN0140763,NON MICR,AMBAJI,"AT & POST : AMBAJI,TAL. DANTA, DIST. BANASKANTHA, GUJARAT,",,AMBAJI,BANAS KANTHA,GUJARAT
BKDN0140772,Dena Bank,BKDN0140772,NONMICR,NAVAWAS ADERAN,"A AND P.NAVAWAS ADERAN,TAL.DANTA,GUJARAT",,NAVAWAS ADERAN,BANAS KANTHA,GUJARAT
BKDN0140781,Dena Bank,BKDN0140781,NON-MICR,KODRAM,"AT & POST.KODRAM.,TEH.VADGAMMAHAL,GUJARAT-384329",,KODRAM,BANAS KANTHA,GUJARAT
BKDN0140813,Dena Bank,BKDN0140813,NON-MICR,THARAD,"MAIN BAZAR ROAD,TAL. THARAD,DIST. BANASKANTHA,GUJARAT",,THARAD,BANAS KANTHA,GUJARAT
BKDN0140817,Dena Bank,BKDN0140817,NON-MICR,DHANERA,"BAZAR RD.,A&P.DHANERA,GUJARAT-385310",,DHANERA,BANAS KANTHA,GUJARAT
BKDN0140818,Dena Bank,BKDN0140818,385018071,DEODAR,DEODAR TEHSIL AT & POST.DEODAR GUJARAT,,DEODAR,BANAS KANTHA,GUJARAT
BKDN0140845,Dena Bank,BKDN0140845,NON-MICR,SUIGAM,"SUIGAM,AT & POST.SUIGAM.,GUJARAT",,SUIGAM,BANAS KANTHA,GUJARAT
BKDN0141019,Dena Bank,BKDN0141019,NON-MICR,KHIMANA,"TAL. KANKERJ,DIST. BANASKANTHA,GUJARAT",,KHIMANA,BANAS KANTHA,GUJARAT
BKDN0141028,Dena Bank,BKDN0141028,NON-MICR,TETODA,"TETODA,TAL.DEESA,ZERDA ,GUJARAT",,TETODA,BANAS KANTHA,GUJARAT
BKDN0141039,Dena Bank,BKDN0141039,NON-MICR,SAROTHRA,"SAROTRA-DHANSURA,SAROTRA ROAD.,TAL.PALANPUR.,GUJARAT",,SAROTHRA,BANAS KANTHA,GUJARAT
BKDN0150056,Dena Bank,BKDN0150056,NON-MICR,PATAN,DENA BANK BAZAR ROAD KANTO BHAVAN PATAN PIN-384265,,PATAN,PATAN,GUJARAT
BKDN0150057,Dena Bank,BKDN0150057,NON-MICR,SIDHPUR,"JADIAVIR NAKA, SIDHPUR (N.G.)-384 051",,SIDHPUR,MEHSANA,GUJARAT
BKDN0150098,Dena Bank,BKDN0150098,NON-MICR,VISNAGAR,"OPP MAMLATDAR OFFICE,DARBAR ROAD,VISNAGAR, MEHSANA-384315",,VISNAGAR,MEHSANA,GUJARAT
BKDN0150104,Dena Bank,BKDN0150104,NON-MICR,MEHSANA (RAJMAHAL ROAD),"LAXMI NIVAS,P.B.NO.3,MEHSANA,GUJARAT-384001",,MAHESANA,MEHSANA,GUJARAT
BKDN0150105,Dena Bank,BKDN0150105,NON-MICR,UNJHA,"LAXMI BHAVAN,SARDAR V.P.ROAD,UNJHA (N.G.),DIST. MEHSANA,GUJARAT-384170",,UNJHA,PATAN,GUJARAT
BKDN0150132,Dena Bank,BKDN0150132,NON-MICR,VADNAGAR,"VADNAGAR,OPP.PUBLIC LIBRARY,NEAR BUS STAND,GUJARAT-384355",,VADNAGAR,MAHESANA,GUJARAT
BKDN0150133,Dena Bank,BKDN0150133,NON MICR,CHANASMA,"CHANASMA,DIST. PATAN,GUJARAT,",,CHANASMA,PATAN,GUJARAT
BKDN0150224,Dena Bank,BKDN0150224,NON-MICR,VALAM,"NEAR TOWER,TAL.VISNAGAR,VALAM,GUJARAT-384310",,VALAM,MAHESANA,GUJARAT
BKDN0150265,Dena Bank,BKDN0150265,NON-MICR,SAMI,"OPP.POLICE CHOWKY.,SAMI DISTT. PATAN-384245,GUJARAT",,SAMI,PATAN,GUJARAT
BKDN0150336,Dena Bank,BKDN0150336,NON-MICR,SIPORE,"SIPORE.,TAL.KHERALU,GUJARAT",,SIPOR,MAHESANA,GUJARAT
BKDN0150350,Dena Bank,BKDN0150350,NON-MICR,LINCH,"LINCH,TAL.MEHSANA,GUJARAT",,LINCH,MAHESANA,GUJARAT
BKDN0150359,Dena Bank,BKDN0150359,NON-MICR,DANGARWA,"DANGARWA,TAL.KADI DISTT MEHSANA,GUJARAT-382705",,DANGARWA,MAHESANA,GUJARAT
BKDN0150360,Dena Bank,BKDN0150360,NON-MICR,NANDASAN,"NANDASAN,,TAL.KADI,NEAR S.T.BUS STAND.,382705
GUJARAT",,NANDASAN,MAHESANA,GUJARAT
BKDN0150361,Dena Bank,BKDN0150361,NON-MICR,SAIJ,"TAL.KALOL,SAIJ,382721,GUJARAT",,SAIJ,GANDHINAGAR,GUJARAT
BKDN0150362,Dena Bank,BKDN0150362,NON-MICR,KAKOSHI,",MAIN BAZAR, KAKOSHI,TAL.SIDHPUR,GUJARAT",,KAKOSHI,PATAN,GUJARAT
BKDN0150364,Dena Bank,BKDN0150364,NON-MICR,AGLOD,"TAL.VIJAPUR,AGLOD,GUJARAT-382870",,AGLOD,GANDHINAGAR,GUJARAT
BKDN0150365,Dena Bank,BKDN0150365,NON-MICR,PANSAR,"PANSAR,TAL.KALOL,GUJARAT",,PANSAR,GANDHINAGAR,GUJARAT
BKDN0150366,Dena Bank,BKDN0150366,NON-MICR,SATLASANA,"SATLASANA,TAL.KHERALU,GUJARAT",,SATLASANA,MAHESANA,GUJARAT
BKDN0150387,Dena Bank,BKDN0150387,NON-MICR,HARIJ,"BAZAR ROAD,,TAL.HARIJ,GUJARAT-384240",,HARIJ,PATAN,GUJARAT
BKDN0150406,Dena Bank,BKDN0150406,NON-MICR,DELWADA,"DELWADA,TAL.MANSA.VIA CHARADA,BAZAR., GUJARAT",,DELWADA,GANDHINAGAR,GUJARAT
BKDN0150416,Dena Bank,BKDN0150416,NON-MICR,BECHARAJI,"MARKET YARD,TAL.CHANASMA,BECHRAJI-384210,GUJARAT",,BECHRAJI,MAHESANA,GUJARAT
BKDN0150417,Dena Bank,BKDN0150417,NON-MICR,GERITA - KOLWAD,"GERITA - KOLWADA,NEAR RAILWAY STATION,TAL.VIJAPUR,GUJARAT-382810",,GERITA-KOLWADA,MAHESANA,GUJARAT
BKDN0150418,Dena Bank,BKDN0150418,NON-MICR,GUNJA,"GUNJA,GORISAMATH MOHALLA.,TAL.VISNAGAR,GUJARAT-384385",,GUNJA,MAHESANA,GUJARAT
BKDN0150419,Dena Bank,BKDN0150419,NON MICR,BHUNAV,"TAL.SIDHPUR GRAM PANCHAYAT BLDG. BHUNAV, GUJARAT",,BHUNAV,PATAN,GUJARAT
BKDN0150420,Dena Bank,BKDN0150420,NON-MICR,MOKHASAN,"MANDIR.CHOWK.,MOKHASAN.,DIST GANDHINAGAR-382740,GUJARAT",,MOKHASAN,MAHESANA,GUJARAT
BKDN0150426,Dena Bank,BKDN0150426,380018054,KALOL(STATION ROAD),"STATION ROAD,TAL.KALOL,GANDHINAGAR-382721,GUJRAT",,KALOL,GANDHINAGAR,GUJARAT
BKDN0150427,Dena Bank,BKDN0150427,382018021,KADI,"KADI,NEAR S T BUS STAND,DATROJ ROAD,GUJARAT-382715",,KADI,MAHESANA,GUJARAT
BKDN0150485,Dena Bank,BKDN0150485,NONMICR,PILUDRA,"PILUDRA,GUJARAT",,PILUDRA,MAHESANA,GUJARAT
BKDN0150495,Dena Bank,BKDN0150495,NON-MICR,JAGUDAN,"JAGUDAN,DIST MEHSANA,AT & PO JAGUDAN,GUJARAT-382710",,JAGOODAN,MAHESANA,GUJARAT
BKDN0150506,Dena Bank,BKDN0150506,NON-MICR,KHERALU,"KHERALU,GUJARAT-384325",,KHERALU,MAHESANA,GUJARAT
BKDN0150634,Dena Bank,BKDN0150634,NON-MICR,JANTRAL,"JANTRAL,VIJAPUR TEHSIL,P.O.& BRANCH JANTRAL,GUJARAT",,JANTRAL,MAHESANA,GUJARAT
BKDN0150635,Dena Bank,BKDN0150635,NON-MICR,VADU,"P.O.& BRANCH VADU,KADI TEHSIL,GUJARAT",,VADU,VADODARA,GUJARAT
BKDN0150648,Dena Bank,BKDN0150648,NON-MICR,BALWA,"PANCHAYAT BLDG., TAL. KALOL,AT & POST BALWA,DIST. GANDHINAGAR,GUJARAT,",,BALVA,GANDHINAGAR,GUJARAT
BKDN0150653,Dena Bank,BKDN0150653,NON MICR,RAJPUR,VIA PANSAR.TAL KADI AT & POST.RAJPUR GUJARAT,,RAJPUR,MAHESANA,GUJARAT
BKDN0150660,Dena Bank,BKDN0150660,NON-MICR,CHHATRAL,"TAL. KALOL,CHHATRAL,DIST. GANDHINAGAR,GUJARAT",,CHHATRAL,GANDHINAGAR,GUJARAT
BKDN0150662,Dena Bank,BKDN0150662,382018001,VIJAPUR,"COURT ROAD,BAZAR,TAL.VIJAPUR,VIJAPUR -382 870 ",,VIJAPUR,MEHSANA,GUJARAT
BKDN0150695,Dena Bank,BKDN0150695,NON-MICR,DENAP,"AT & POST.DENAP,VISNAGAR,GUJARAT-384323",,DENAP,MAHESANA,GUJARAT
BKDN0150819,Dena Bank,BKDN0150819,NONMICR,PUNDHARA,"AT AND POST.PUNDHARA,TAL MANSA,GUJARAT",,PUNDHARA,GANDHINAGAR,GUJARAT
BKDN0150820,Dena Bank,BKDN0150820,NON MICR,ITADARA,TAL : MANSA AT & POST.ITADARA ITADARA GUJARAT,,ITADARA,GANDHINAGAR,GUJARAT
BKDN0150821,Dena Bank,BKDN0150821,NON-MICR,MANEKPUR - MAKA,"MANEKPUR - MAKAKHAD,TAL : MANSA,AT & PO.MANEKPUR-MAKAKHAD,GUJARAT-382845",,MANEKPUR,GANDHINAGAR,GUJARAT
BKDN0150823,Dena Bank,BKDN0150823,NON MICR,BRAHMANWADA,SIDHPUR TEHSIL AT & P.BRAHMANWADA BRAHMANWADA-MEHSANA,,BRAHMANWADA,PATAN,GUJARAT
BKDN0150827,Dena Bank,BKDN0150827,NON-MICR,LIMBODRA,"LIMBODARA,KALOL TEHSIL,AT & PO.LIMBODRA.,382721,GUJARAT",,LIMBODARA,GANDHINAGAR,GUJARAT
BKDN0150852,Dena Bank,BKDN0150852,NON-MICR,MEHESANA HIGHWAY ROAD,"HIGH WAY ROAD,MEHSANA 384002",,MEHSANA,MEHSANA,GUJARAT
BKDN0150867,Dena Bank,BKDN0150867,NON-MICR,KAMANA,"KAMANA.,TEH.VISNAGAR,DISTT MEHSANA,GUJARAT-384315",,KAMANA,MAHESANA,GUJARAT
BKDN0210026,Dena Bank,BKDN0210026,390018002,VADODARA (RAOPURA),"USHAKIRAN BLDG.,PB NO.69,RAOPURA,VADODARA,GUJARAT-390001",,VADODARA,VADODARA,GUJARAT
BKDN0210040,Dena Bank,BKDN0210040,392018002,L C  BHARUCH,"LALLUBHAI CHAKLA,BHARUCH DIST.BHARUCH - 392 001",,BHARUCH,BHARUCH,GUJARAT
BKDN0210073,Dena Bank,BKDN0210073,390018015,PADRA,"GANDHI CHOWK,PADRA,VADODARA-391440",,PADRA,VADODARA,GUJARAT
BKDN0210115,Dena Bank,BKDN0210115,390018003,VADODARA(SAYAJIGUNJ),"OPP SAYAJI GANJ COLLEGE,PB NO -154,VADODARA-390005",,VADODARA,VADODARA,GUJARAT
BKDN0210147,Dena Bank,BKDN0210147,NON-MICR,ANKLESHWAR(GOYA BAZAR),"ANKLESHWAR(GOYA BAZAR),BHARUCH,GUJARAT",,ANKLESHWAR,BHARUCH,GUJARAT
BKDN0210155,Dena Bank,BKDN0210155,NON-MICR,SINOR,"MOTA BAZAR.SINOR,TAL SINOR,GUJARAT",,SINOR,VADODARA,GUJARAT
BKDN0210202,Dena Bank,BKDN0210202,390018016,WAGHODIA,"SHEETAL APARTMENT,1ST FLOOR,OPP S.T BUS STAND,VADODARA-391760",,WAGHODIA,VADODARA,GUJARAT
BKDN0210302,Dena Bank,BKDN0210302,NON-MICR,DEDIAPADA,"VIA ANKALESHWAR, DIST. NARMADA, GUJARAT,",,DEDIAPADA,NARMADA,GUJARAT
BKDN0210381,Dena Bank,BKDN0210381,NON-MICR,DABHOI,"NEAR MOTI BANGLOW,DABHOI,DABHOI - 391 110.,DIST.VADODARA",,DABHOI,VADODARA,GUJARAT
BKDN0210471,Dena Bank,BKDN0210471,NON-MICR,CHANDOD,"TAL. DABHOI, DIST. VADODARA, GUJARAT,",,CHANDOD,VADODARA,GUJARAT
BKDN0210472,Dena Bank,BKDN0210472,NON-MICR,MANDALA,"MANDALA,TAL.DABHOI.,VIA MIYAGAM,GUJARAT",,MANDALA,VADODARA,GUJARAT
BKDN0210473,Dena Bank,BKDN0210473,392018071,DAHEJ,"TAL. VAGRA,DIST. BHARUCH,GUJARAT",,DAHEJ,BHARUCH,GUJARAT
BKDN0210476,Dena Bank,BKDN0210476,NON-MICR,SISODRA,"SISODRA,TAL.NANDOD.VIA VADODRA & SINOR-393145-GUJARAT",,SISODRA,NARMADA,GUJARAT
BKDN0210481,Dena Bank,BKDN0210481,NON-MICR,BHARUCH (STATION ROAD),"SHALIMAR SHOP.CENTRE,STATION ROAD,BHARUCH,DIST.BHARUCH.,GUJARAT-392001",,BHARUCH,BHARUCH,GUJARAT
BKDN0210490,Dena Bank,BKDN0210490,392018051,JAMBUSAR,"MAIN ROAD,AT & POST JAMBUSAR,DIST. BHARUCH,GUJARAT,",,JAMBUSAR,BHARUCH,GUJARAT
BKDN0210529,Dena Bank,BKDN0210529,NON-MICR,RAJPIPLA,"STATION ROAD,RAJPIPLA,NARMADA-393145,GUJARAT",,RAJPIPLA,NARMADA,GUJARAT
BKDN0210559,Dena Bank,BKDN0210559,390018012,VADODARA (MAKARPURA ROAD),"VIMAL SOCIETY CORNEROPP.O.N.G.C.,VADODARA,GUJARAT-390009",,VADODARA,VADODARA,GUJARAT
BKDN0210588,Dena Bank,BKDN0210588,390018006,VADODARA (MANGAL BAZAR),"BEHIND KALA MANDIR TALKIES,VADADARA-390001",,VADODARA,VADODARA,GUJARAT
BKDN0210599,Dena Bank,BKDN0210599,390018004,VADODARA (FATEHGANJ),"OPP.METHODIST CHURCH,FATEHGANJ,VADODARA,GUJARAT-390002",,VADODARA,VADODARA,GUJARAT
BKDN0210657,Dena Bank,BKDN0210657,NON-MICR,SANKARDA,"TEHSIL SAVLI,SANKARDA 391 350",,SANKARDA,VADODARA,GUJARAT
BKDN0210701,Dena Bank,BKDN0210701,NON-MICR,ANKODIA,"ANKODIA BR.LIB.BLDG.,VIA SEVASHI-391330,GUJARAT",,ANKODIA,VADODARA,GUJARAT
BKDN0210749,Dena Bank,BKDN0210749,390018009,VADODARA (ALKAPURI),"R.C.DUTT RD,PLOT.503,BEHIND CENTRE POINT,VADODARA,GUJARAT-390005",,VADODARA,VADODARA,GUJARAT
BKDN0210859,Dena Bank,BKDN0210859,NON-MICR,NIKORA,"NIKORA,AT & POST.NIKORA.,TEH.BHARUCH,392031,GUJARAT",,NIKORA,BHARUCH,GUJARAT
BKDN0210861,Dena Bank,BKDN0210861,390018008,VADODARA(R V DESAI ROAD),"JAIRATNA BUILDING,VADODARA-390001",,VADODARA,VADODARA,GUJARAT
BKDN0210868,Dena Bank,BKDN0210868,NON-MICR,ANKLESHWAR(GIDC IND. ESTATE),"OPP.DR.BACKS FACTORY,GIDC IND.EST.,ANKLESHWAR,DIST.BHARUCH.,GUJARAT-393002",,ANKLESHWAR,BHARUCH,GUJARAT
BKDN0210869,Dena Bank,BKDN0210869,390018010,VADODARA (SUBHANPURA),"SUBHANPURA RD""SARASWATI"",BEHIND KEDAR,VADODARA,GUJARAT-390007",,VADODARA,VADODARA,GUJARAT
BKDN0210873,Dena Bank,BKDN0210873,NON-MICR,KOSMADI,"POST KOSAMDI,TEH.ANKLESHWAR, DIST BHARUCH,GUJARAT-393001",,KUSAMDI,BHARUCH,GUJARAT
BKDN0210876,Dena Bank,BKDN0210876,NON-MICR,MANUBAR,"MANUBAR.T.SAGBARA VAGRA.,BHARUCH.,GUJARAT-392161",,MANUBAR,BHARUCH,GUJARAT
BKDN0210922,Dena Bank,BKDN0210922,390018013,VADODARA(AJWA ROAD),"MASTAN COMMERCIAL CHAMBERS,OUTSIDE PANIGATE,VADODARA",,VADODARA,VADODARA,GUJARAT
BKDN0210934,Dena Bank,BKDN0210934,NON-MICR,BHILAPUR,"BHILAPUR,""SHAKTIKRUPA"",TA DABHOI,GUJARAT-391107",,BHILAPUR,VADODARA,GUJARAT
BKDN0211065,Dena Bank,BKDN0211065,NONMICR,SAIDIVASAN,"SAIDIVASANE,TAL.CHHOTA UDEPUR,DIST.VADODARA,GUJARAT",,SAIDIVASAN,VADODARA,GUJARAT
BKDN0211081,Dena Bank,BKDN0211081,390018014,VADODARA (VIP ROAD),"AMIT COMPLEX,VIP ROAD,VADODARA,GUJARAT-390022",,VADODARA,VADODARA,GUJARAT
BKDN0211221,Dena Bank,BKDN0211221,NON-MICR,PAWAGADH,"PAWAGADH, JAIN DIGAMBER MANDIR, HALOL, VADODARA",,HALOL,PANCHMAHALS,GUJARAT
BKDN0211332,Dena Bank,BKDN0211332,388018514,BHETASHI,"PATITAR SAMAJ KHADKI,BHETASHI (TALPAD),TALUKA ANKLAV,DIST. ANAND ( GUJARAT)-388307",,ANKLAV,ANAND,GUJARAT
BKDN0211366,Dena Bank,BKDN0211366,NON-MICR,THASRA,"DENA BANK, VANIYAWAAD, OPP DURBARGADH,AT & PO SONIPUR, TAL THASHRA, DISTT.  KHEDA, PIN-388245",,SONIP@DENABANK.CO.IN,THASRA,KHEDA
BKDN0211367,Dena Bank,BKDN0211367,NON-MICR,BORSAD,"DENA BANK,MAIN BAZAR, VALVOD,TAL BORSAD,DIST.ANAND, PIN-388530",,VALVOD@DENABANK.CO.IN,BORSAD,ANAND
BKDN0211368,Dena Bank,BKDN0211368,388018517,MANJIPURA,"DENA BANK,PARISHRAM NEAR MAHADEV TAMPLE,MANJIPURA,GUJARAT-388230",,9979117902;MANJIP@DENABANK.CO.IN,VADODARA,VADODARA
BKDN0211369,Dena Bank,BKDN0211369,NON-MICR,KHEDA,"DENA BANK,  AT & PO VARSOLA NEAR DEVKIVANSOL,  TAL DIST KHEDA",,,KHEDA,KHEDA
BKDN0211427,Dena Bank,BKDN0211427,NON-MICR,KHEDA,"DENA BANK,  AT & PO BANTHALA TAL DIST KHEDA",,,KHEDA,KHEDA
BKDN0211444,Dena Bank,BKDN0211444,389018081,ZALOD,"   DENA BANK,  1ST FLOOR OF SHOPPING CENTRE, NEAR PRABHUTA PARTY PLOT,BANSAWADA ROAD, AT & PO ZALOD,DIST DAHOD,PIN 389170",02679-225899/09427584072;ZALOD@DENABANK.CO.IN,VADODARA,VADODARA,GUJARAT
BKDN0220034,Dena Bank,BKDN0220034,389018061,LUNAWADA,PALACE ROAD,,LUNAWADA,PANCHMAHALS,GUJARAT
BKDN0220035,Dena Bank,BKDN0220035,NON-MICR,GODHRA PANCHMAHAL,"NEVA BAZAR,GODHRA,GODHRA 389 001",,GODHRA,PANCHMAHALS,GUJARAT
BKDN0220036,Dena Bank,BKDN0220036,NON-MICR,NADIAD (SANTH PIPLI ),"P B NO-19,SANTH PIPLI,NADIAD-387001,KHEDA",,NADIAD,KHEDA,GUJARAT
BKDN0220039,Dena Bank,BKDN0220039,NON-MICR,ANAND (NEHRU ROAD),"NEHRU ROAD,ANAND,ANAND,DIST.KHEDA.,GUJARAT-388001",,ANAND,ANAND,GUJARAT
BKDN0220064,Dena Bank,BKDN0220064,388018071,BORSAD,"SHIV CHAMBER,SM PATEL CHAKLA",,BORSAD,ANAND,GUJARAT
BKDN0220083,Dena Bank,BKDN0220083,NON MICR,DHARMAJ,TAL. PETLAD,,DHARMAJ,ANAND,GUJARAT
BKDN0220090,Dena Bank,BKDN0220090,NON-MICR,UMRETH,"PANCHAVATI ROAD,DIST. ANAND,GUJARAT,",,UMRETH,ANAND,GUJARAT
BKDN0220091,Dena Bank,BKDN0220091,NON MICR,CAMBAY,"NEAR GAWARA TOWER., STN.ROAD.(KHAMBHAT)",,CAMBAY,ANAND,GUJARAT
BKDN0220103,Dena Bank,BKDN0220103,NON-MICR,PETLAD,"STATION ROAD, P.B. NO.12,DIST. ANAND,GUJARAT,",,PETLAD,ANAND,GUJARAT
BKDN0220116,Dena Bank,BKDN0220116,NON-MICR,KARAMSAD,"NEAR S.PATEL STATUE,BUS STAND,KARAMSAD,ANAND-388325,GUJARAT",,KARAMSAD,ANAND,GUJARAT
BKDN0220118,Dena Bank,BKDN0220118,NON MICR,MEHMEDABAD,"NADIADI GATE, BHAVSARVAD,DIST. KHEDA,GUJARAT,",,MEHMEDABAD,KHEDA,GUJARAT
BKDN0220119,Dena Bank,BKDN0220119,NON MICR,ODE,"OPP. BUS STAND,DIST. ANAND,GUJARAT,",,ODE,ANAND,GUJARAT
BKDN0220140,Dena Bank,BKDN0220140,NON-MICR,DAKOR,"MEVADA,KELVANI MANDLE BLD, GOPALAPURA, DAKOR -388 225",,DAKOR,KHEDA,GUJARAT
BKDN0220149,Dena Bank,BKDN0220149,NIN-MICR,MAHUDHA,"NAGARVANIAS POLE,VIA. NADIAD,DIST. KHEDA,GUJARAT",,MAHUDHA,KHEDA,GUJARAT
BKDN0220163,Dena Bank,BKDN0220163,NON-MICR,SEVALIA BAZAR,"SEVALIA BAZAR,DIST. KHEDA,GUJARAT",,SEVALIA R.S.,KHEDA,GUJARAT
BKDN0220190,Dena Bank,BKDN0220190,NIN-MICR,VEJALPORE (PANCHMAHAL),"RAIGADH ROAD SOCIETY,VEJALPORE, TAL. KALOL,DIST. PANCHMAHAL,GUJARAT",,VEJALPORE,PANCH MAHALS,GUJARAT
BKDN0220191,Dena Bank,BKDN0220191,NON MICR,SANTRAMPUR,"MOTI BAZAR, OPP. G.N. MANDIR,",,SANTRAMPUR,DAHOD,GUJARAT
BKDN0220192,Dena Bank,BKDN0220192,NON MICR,BALASINOR,"SALIAVADI DARVAJA BALASINOR, GUJARAT",,BALASINOR,KHEDA,GUJARAT
BKDN0220227,Dena Bank,BKDN0220227,NON-MICR,ADAS,"PATIDAR SAMAJ BLDG,OPP.TOWER,ADAS,GUJARAT",,ADAS,ANAND,GUJARAT
BKDN0220312,Dena Bank,BKDN0220312,NONMICR,SHIVRAJPUR,"SHIVRAJPUR,DARA MANSION,GUJARAT",,SHIVRAJPUR,PANCH MAHALS,GUJARAT
BKDN0220382,Dena Bank,BKDN0220382,NON-MICR,VADADLA (KHEDA),"VADADLA (KHEDA),OPP.BUS STAND,VADADLA.,TAL.PETLAD,GUJARAT",,VADADALA,ANAND,GUJARAT
BKDN0220449,Dena Bank,BKDN0220449,NON-MICR,AJARPURA,"GRAM PANCHAYAT BLDG.,AJARPURA,GUJARAT",,AJARPURA,ANAND,GUJARAT
BKDN0220477,Dena Bank,BKDN0220477,NON-MICR,NADIAD (DUMRAL BAZAR),"NADIAD,NADIAD-387 001.DIST.KHEDA.,GUJARAT-387001",,NADIAD,KHEDA,GUJARAT
BKDN0220478,Dena Bank,BKDN0220478,NON-MICR,BHADRAN,"AT & POST : BHADRAN,TAL. BORSAD,DIST. ANAND,GUJARAT",,BHADRAN,ANAND,GUJARAT
BKDN0220480,Dena Bank,BKDN0220480,NON-MICR,NAPA,"AT & POST NAPA,NAPA TALPAD,DIST. ANAND,GUJARAT",,NAPA TALPAD,ANAND,GUJARAT
BKDN0220488,Dena Bank,BKDN0220488,NON-MICR,ADADRA,"ADADRA.,VIA VEJALPUR.,DIST.PANCHMAHALS,GUJARAT-389018",,ADADRA,PANCH MAHALS,GUJARAT
BKDN0220530,Dena Bank,BKDN0220530,NON-MICR,ASODAR,"ASODAR,TAL.ANKALAV DISTT ANAND,GUJARAT",,ASODAR,ANAND,GUJARAT
BKDN0220644,Dena Bank,BKDN0220644,NON-MICR,MAHISHA,"MAHISA,TEHSIL NADIAD,AT & PO MAHISHA,DIST KHEDA,GUJARAT-387340",,MAHISHA,KHEDA,GUJARAT
BKDN0220704,Dena Bank,BKDN0220704,NON-MICR,ANAND (DAIRY ROAD),"AMUL DAIRY ROAD,ANAND-388 001.DIST.KHEDA,GUJARAT",,ANAND,ANAND,GUJARAT
BKDN0220747,Dena Bank,BKDN0220747,NON-MICR,WANAKBORI,"THERMAL POWER STATION,P.O : MENPURA, TAL. THASRA, DIST. KHEDA, GUJARAT",,WANAKBORI,KHEDA,GUJARAT
BKDN0220824,Dena Bank,BKDN0220824,NON-MICR,HALOL,"BANK ROAD,OPP SBI,HALOL,PANCHMAHAL,GUJARAT",,HALOL,PANCHMAHALS,GUJARAT
BKDN0220826,Dena Bank,BKDN0220826,NON MICR,KHEDA,"RAJA SHOPPING CENTRE,BAZAR ROAD,DIST. KHEDA,GUJARAT,",,KHEDA,KHEDA,GUJARAT
BKDN0220831,Dena Bank,BKDN0220831,NON MICR,DEVGADH BARIA,"AT & POST : DEVGAD BARIA,TOWER ROAD, TAL. DEVGAD BARIA",,DEVGADH BARIA,DAHOD,GUJARAT
BKDN0220862,Dena Bank,BKDN0220862,NON-MICR,SANDESAR,"SANDESAR,TEH.ANAND,DIST ANAND,GUJARAT-388132",,SANDESAR,ANAND,GUJARAT
BKDN0220874,Dena Bank,BKDN0220874,NONMICR,PARIEJ,"PARIEJ,TEH.MATAR,GUJARAT",,PARIEJ,KHEDA,GUJARAT
BKDN0220941,Dena Bank,BKDN0220941,387018031,KAPADVANJ,"DHOLIKUI,KAPADWANJ, DIST KHEDA-387620,GUJARAT",,KAPADWANJ,KHEDA,GUJARAT
BKDN0220969,Dena Bank,BKDN0220969,389018021,DAHOD,"4754, HANUMAN BAZAR, TAL DAHOD, DIST. DAHOD, GUJARAT",,DAHOD,DAHOD,GUJARAT
BKDN0220972,Dena Bank,BKDN0220972,NON-MICR,NENPUR,"NENPUR,ABOVE RAMJI MANDIR,TEH.MAHEMDABAD,DIST KHEDA,GUJARAT-387130",,NENPUR,KHEDA,GUJARAT
BKDN0221007,Dena Bank,BKDN0221007,NON-MICR,THASRA,"DENA BANK, NEAR AMBAJI TEMPLE,  P.O. SANDHELI, TAL THASRA,  DIST KHEDA, PIN 388250",,02699-287646 ;SANDHELI@DENABANK.CO.IN,THASRA,KHEDA
BKDN0221008,Dena Bank,BKDN0221008,NON-MICR,NADIAD(MISSION ROAD),"MISSION ROAD,NADIAD,KHEDA-387001",,NADIAD,KHEDA,GUJARAT
BKDN0221043,Dena Bank,BKDN0221043,NON-MICR,VANGAD,"TAL.SANTRAMPUR.,VIA ZALOD.,VANGAD-389172,GUJARAT",,VANGAD,DAHOD,GUJARAT
BKDN0230024,Dena Bank,BKDN0230024,395018002,SURAT (BURHANPURI BHAGOL),"ATASBAJIWALA MANSION,P.B. NO.47, K.ROAD,SURAT,GUJARAT-395003",,SURAT,SURAT,GUJARAT
BKDN0230046,Dena Bank,BKDN0230046,394018061,BARDOLI,"SHANTI NIWAS,SARDAR BAUG,BARDOLI-394602",,BARDOLI,SURAT,GUJARAT
BKDN0230102,Dena Bank,BKDN0230102,395018015,UDHANA,"NAVSARI ROAD, PB NO.12,UDHNA-394 210.,DIST. SURAT",,SURAT,SURAT,GUJARAT
BKDN0230120,Dena Bank,BKDN0230120,NON-MICR,KADOD,"KADOD,VIJAY SADAN.SONIFALI.,TAL.BARDOLI.,GUJARAT-394335",,KADOD,SURAT,GUJARAT
BKDN0230121,Dena Bank,BKDN0230121,395018009,SURAT NANPURA,"SAHER BUILDING,NEAR MAKKAI BRIDGE,NANPURA,SURAT-395001",,SURAT,SURAT,GUJARAT
BKDN0230135,Dena Bank,BKDN0230135,NON-MICR,MANDVI SURAT,"NAGAR FALIA,MANDVI 394160",,MANDVI,SURAT,GUJARAT
BKDN0230154,Dena Bank,BKDN0230154,394018502,PALSANA,"MAIN ROAD., PALSANA",,PALSANA,SURAT,GUJARAT
BKDN0230171,Dena Bank,BKDN0230171,395018011,RAMPURA,"SAMRITI,RAMPURA MAIN ROAD,SURAT-395003",,SURAT,SURAT,GUJARAT
BKDN0230201,Dena Bank,BKDN0230201,395018007,SURAT KATARGRAM,"NEAR BAL ASHRAM,KATARGAM MAIN ROAD,KATARGAM,SURAT-395004",,SURAT,SURAT,GUJARAT
BKDN0230208,Dena Bank,BKDN0230208,NON-MICR,TADKESHWAR,"AMEN MANZIL, TAL.MANDVI,DIST. SURAT,GUJARAT",,TADKESHWAR,SURAT,GUJARAT
BKDN0230226,Dena Bank,BKDN0230226,NON-MICR,BUHARI,"TALAV FALIA, TAL. VALOD,DIST. SURAT,GUJARAT",,BUHARI,SURAT,GUJARAT
BKDN0230234,Dena Bank,BKDN0230234,NON MICR,BAJIPURA,TAL.VALOD SARVAJANIK LIB.BLDG BAJIPURA,,BAJIPURA(KAMALCHHOD),SURAT,GUJARAT
BKDN0230245,Dena Bank,BKDN0230245,NON-MICR,SEVNI,"TAL.KAMREJ.,SEVNI,GUJARAT",,SEVNI,SURAT,GUJARAT
BKDN0230255,Dena Bank,BKDN0230255,395018018,KUMBHARIA,"NEAR S.T.STAND,CHORYASI,KUMBHARIA,SURAT-394210",,KUMBHARIA,SURAT,GUJARAT
BKDN0230288,Dena Bank,BKDN0230288,395018022,KAMREJ,"KAMREJ,KAMREJ394 180,DISTSURAT",,KAMREJ,SURAT,GUJARAT
BKDN0230297,Dena Bank,BKDN0230297,NON-MICR,NIZAR,MARKET YARD BLDG.NIJHAR-394 370.DIST. SURAT.,,NIJHAR,SURAT,GUJARAT
BKDN0230307,Dena Bank,BKDN0230307,395018008,NANA VARCHHA ROAD,"5,HANS COOPHOUSING SOCIE,NV ROAD,SURAT 395 006",,SURAT,SURAT,GUJARAT
BKDN0230347,Dena Bank,BKDN0230347,NON-MICR,SURALI,"STATION MADHI,SURALI. TAL.BARDOLI-394340,GUJARAT",,SURALI,SURAT,GUJARAT
BKDN0230384,Dena Bank,BKDN0230384,NON-MICR,KHOJ(PARDI),"OPP.SEVA SHKR.MANDLI,KHOJ PARDI.VIA BARDOLI-394355,GUJARAT",,KHOJ(PARDI),SURAT,GUJARAT
BKDN0230462,Dena Bank,BKDN0230462,NON-MICR,SINGOD,"TAL.BARDOLI.,SINGOD,GUJARAT",,SINGOD,SURAT,GUJARAT
BKDN0230463,Dena Bank,BKDN0230463,NON-MICR,AKOTI,"TAL. BARDOLI,DIST. SURAT,GUJARAT",,AKOTI,SURAT,GUJARAT
BKDN0230469,Dena Bank,BKDN0230469,395018019,PUNA-SURAT,"PUNA,TALCHORYASI394 210,DIST SURAT",,SURAT,SURAT,GUJARAT
BKDN0230535,Dena Bank,BKDN0230535,NON-MICR,HATHURAN,"HATHURAN,204 LIMBDA FALIA.OPP.RLY.STN,TAL.MANGROL.,GUJARAT-394125",,HATHURAN,SURAT,GUJARAT
BKDN0230546,Dena Bank,BKDN0230546,395018012,SURAT - SAHARA GATE,"YAKSHA KAMAL, RESHAMWALA MARKET,26-6 RING ROAD,SURAT - 395001",,SURAT,SURAT,GUJARAT
BKDN0230642,Dena Bank,BKDN0230642,NON-MICR,TARASADI,"605, SHANTI NIKETAN,ZANDA CHOWK,STATION KOSAMBA,TAL. MANGROL,GUJARAT",,TARASADI,SURAT,GUJARAT
BKDN0230654,Dena Bank,BKDN0230654,395018021,KHOLWAD,"685 MAIBLDG,MAIN ROAD,BAZAR,KHOLWAD394 190KAMREJ,DIST SURAT",,KHOLWAD,SURAT,GUJARAT
BKDN0230692,Dena Bank,BKDN0230692,395018003,SURAT BHESTAN,"NAVSARI ROAD,BHESTAN,SURAT-394210",,SURAT,SURAT,GUJARAT
BKDN0230800,Dena Bank,BKDN0230800,395018010,SURAT (RAMNAGAR),"SRIRANG SOCIEETY,RAMNAGAR,SURAT - 395 009",,SURAT,SURAT,GUJARAT
BKDN0230878,Dena Bank,BKDN0230878,395018017,SURAT (ZAMPA BAZAR),"FAIZE-E-QUTBI TRUST BUILDING, SURAT-395003",,SURAT,SURAT,GUJARAT
BKDN0230948,Dena Bank,BKDN0230948,NON-MICR,TARSADABAD,"TEH.MANDVI,TARASADABAD.-394160,GUJARAT",,TARSADABAD,SURAT,GUJARAT
BKDN0230949,Dena Bank,BKDN0230949,NON-MICR,GADAT,"GADAT,TAL.VAGRA.,DIST.TAPI,GUJARAT-394633",,GADAT,SURAT,GUJARAT
BKDN0231092,Dena Bank,BKDN0231092,395018016,SURAT(VISHAL NAGAR),"SANGHAVI TOWERS,ADAJAN ROAD,SURAT- 395009,GUJRAT",,SURAT,SURAT,GUJARAT
BKDN0231103,Dena Bank,BKDN0231103,NON MICR,KILLA PARDI,"STATION ROAD, NEAR JYOTI HOSPITAL, TAL PARDI, VALSAD",,KILLA PARDI,VALSAD,GUJARAT
BKDN0231111,Dena Bank,BKDN0231111,395018005,SURAT MEDICAL COLLEGE,"NEW CIVIL HOSPITAL,MAJURA GATE,RING ROAD,SURAT-395001",,SURAT,SURAT,GUJARAT
BKDN0231156,Dena Bank,BKDN0231156,395018020,SURAT-PARLE POINT,"PRABHUDARSHAN COMPLEX,OPP JAIN DERASAR,ATHWA LINES,PARLE POINT,SURAT ",,SURAT,SURAT,GUJARAT
BKDN0231180,Dena Bank,BKDN0231180,395018023,SURAT(BHATAR ROAD),"SHOP NO-U/12-14,GROUND FLOOR,ASHIRWAD COMPLEX,BHATAR ROAD,SURAT-395001",,SURAT,SURAT,GUJARAT
BKDN0231201,Dena Bank,BKDN0231201,NON-MICR,VYARA,"KANCHWALA STREET,VYARA",,VYARA,SURAT,GUJARAT
BKDN0231226,Dena Bank,BKDN0231226,395018024,"RETAIL ASSET BRANCH, SURAT","RETAIL ASSET BRANCH,NEAR MAKAI BRIDGE, NANPURA,SAMRUDDHI BUILDING, GROUND FLOOR,SURAT",,SURAT,SURAT,GUJARAT
BKDN0231333,Dena Bank,BKDN0231333,396018516,KILAVANI,"KILVANI,NEAR POLICE STATION,PATEL TALATI OFFICE BUILDING,DADRA AND NAGAR HAVELI-396230",,SILVASA,DADRA&NAGAR HAVELI,DADRA & NAGAR HAVELI
BKDN0231426,Dena Bank,BKDN0231426,NON-MICR,VYARA,"DENA BANK,  AT & PO ANTAPUR TAL DIST TAPI",,,VYARA,SURAT
BKDN0231445,Dena Bank,BKDN0231445,NA,PATI,"DENA BANK,   NISHAL FALIA,  VILLAGE PATI ,TALUK GANDEVI  DIST NAVSARI,   PIN 396360",02634-262564;PATI@DENABANK.CO.IN,GANDEVI,NAVSARI,GUJARAT
BKDN0231446,Dena Bank,BKDN0231446,NA,KANTWA,"DENA BANK,  KANTWA,  VILLAGE KANTWA VIA KOSAMBA, TALUK MANGROL  DIST SURAT,PIN 394405",02629-231210;KANTWA@DENABANK.CO.IN,MANGROL,SURAT,GUJARAT
BKDN0240037,Dena Bank,BKDN0240037,NON-MICR,VALSAD,"M.G ROAD,VALSAD-396001,GUJARAT",,VALSAD,VALSAD,GUJARAT
BKDN0240042,Dena Bank,BKDN0240042,396018061,NAVSARI,"P.B. NO.1, NAVSARI(SAYAJI ROAD),VALSAD-396445,GUJARAT",,NAVSARI,NAVSARI,GUJARAT
BKDN0240099,Dena Bank,BKDN0240099,NON-MICR,BILLIMORA (SONIWAD),"PANCHAL BHAVAN,LIMDA CHOWK,BILLIMORA-396 321.,DIST. VALSAD",,BILLIMORA,NAVSARI,GUJARAT
BKDN0240127,Dena Bank,BKDN0240127,NON MICR,GANDEVI,"PB NO.24.HINGRAJ STREET.BAZAR MUNICIPAL BLDG GANDEVI, GUJARAT",,GANDEVI,NAVSARI,GUJARAT
BKDN0240153,Dena Bank,BKDN0240153,396018062,JALALPORE,"JALALPORE ROAD, OPP. POST OFFICE,U,",,JALALPORE,NAVSARI,GUJARAT
BKDN0240230,Dena Bank,BKDN0240230,NON-MICR,KABILPORE,"OPP. S.T. BUS STAND,TAL. NAVSARI, DIST. VALSAD, GUJARAT,",,KABILPORE,NAVSARI,GUJARAT
BKDN0240246,Dena Bank,BKDN0240246,NON-MICR,DHARAMPUR,"SAMDI CHOWK, DHARAMPUR,VIA VALSAD,DIST. VALSAD,GUJARAT",,DHARAMPUR,VALSAD,GUJARAT
BKDN0240250,Dena Bank,BKDN0240250,396018301,SILVASSA,"KALYAN KUNJ,VIA VAPI,SILVASSA,DADRA & NAGAR HAVELI-396230",,SILVASA,DADRA & NAGAR HAVELI,DADRA & NAGAR HAVELI
BKDN0240257,Dena Bank,BKDN0240257,NON MICR,KHAREL,"OPP. K.V.S. HIGH SCHOOL,VIA NAVSARI,",,KHAREL,NAVSARI,GUJARAT
BKDN0240261,Dena Bank,BKDN0240261,NON-MICR,SAMROLI,"DESAI FALIA, P.O. CHIKHLI, SAMROLI-396 521",,CHIKHLI,NAVSARI,GUJARAT
BKDN0240263,Dena Bank,BKDN0240263,NON-MICR,AAT,"MAIN ROAD, TAL. NAVSARI, DIST. VALSAD, GUJARAT,",,VALSAD,VALSAD,GUJARAT
BKDN0240275,Dena Bank,BKDN0240275,NON MICR,KASBAPAR,"VIA NAVSARI, DIST. VALSAD, GUJARAT",,KASBAPAR,NAVSARI,GUJARAT
BKDN0240281,Dena Bank,BKDN0240281,NIN-MICR,NARGOL,"GANDHI ROAD, VIA SANJAN,,TAL. UMERGAON,,DIST. VALSAD,GUJARAT",,NARGOL,VALSAD,GUJARAT
BKDN0240298,Dena Bank,BKDN0240298,NON-MICR,KHATTALWADA,"BRAHMIN FALIA POST KHATTA,KHATTALWADA,GUJARAT",,KHATTALWADA,VALSAD,GUJARAT
BKDN0240317,Dena Bank,BKDN0240317,NON-MICR,FANSHA MAROLI,"OPP. S.T. BUS STAND, VIA SANJAN, SURAT",,FANSHA MAROLI,VALSAD,GUJARAT
BKDN0240335,Dena Bank,BKDN0240335,NON MICR,NAROLI,"VIA VAPI,DADAR AND NAGAR HAVELI, NAROLI",,NAROLI,DADRA & NAGAR HAVELI,DADRA & NAGAR HAVELI
BKDN0240339,Dena Bank,BKDN0240339,NON MICR,KHANVEL,"NASHIK ROAD VIA VAPI., KHANVEL",,KHANVEL,DADRA & NAGAR HAVELI,DADRA & NAGAR HAVELI
BKDN0240421,Dena Bank,BKDN0240421,396018302,AMLI,"VIA VAPI, AMLI - 396 230",,AMLI,DADRA & NAGAR HAVELI,DADRA & NAGAR HAVELI
BKDN0240456,Dena Bank,BKDN0240456,NON-MICR,DAMAN,"DAMAN, KAVI KHABARDAR ROAD, DAMAN - 396 210",,DAMAN,DAMAN,DAMAN & DIU
BKDN0240457,Dena Bank,BKDN0240457,NON-MICR,PARIA,"PARIA,VIA-UDWADA.,GUJARAT",,PARIA,VALSAD,GUJARAT
BKDN0240467,Dena Bank,BKDN0240467,NON-MICR,KUCHED,"VIA VESMA,DIST. VALSAD,GUJARAT",,KUCHED,NAVSARI,GUJARAT
BKDN0240468,Dena Bank,BKDN0240468,NON-MICR,UGAT,"UGAT.,VIA NAVSARI.,GUJARAT",,UGAT,NAVSARI,GUJARAT
BKDN0240484,Dena Bank,BKDN0240484,NON-MICR,"VAPI ,VALSAD, GUJARAT","ZANDA CHOWK, NEAR BUS STAND, VALSAD",,VAPI,VALSAD,GUJARAT
BKDN0240598,Dena Bank,BKDN0240598,NON MICR,PIPAL GABHAN,"CHIKHLI TALUKA., PIPALGABHAN",,PIPALGABHAN,NAVSARI,GUJARAT
BKDN0240643,Dena Bank,BKDN0240643,NON MICR,DHAMDACHHA,DHAMDACHA. VIA AHMEDABAD KACHHIAWADI ROAD DHAMDACHHA GUJARAT,,DHAMDACHHA,NAVSARI,GUJARAT
BKDN0240667,Dena Bank,BKDN0240667,NON MICR,SALEJ,TAL GANDEVI DIST NAVSARI  GUJARAT,,SALEJ,NAVSARI,GUJARAT
BKDN0240669,Dena Bank,BKDN0240669,NON MICR,KALWADA,RAMJI MANDIR.MAIN RD KALWADA.TEH.VALSAD GUJARAT,,KALWADA,VALSAD,GUJARAT
BKDN0240674,Dena Bank,BKDN0240674,NON-MICR,DABHEL,"JAMMAT BLDG.JALALPORE,TAL.NAVSARI,DABHEL,GUJARAT-396415",,DABHEL,NAVSARI,GUJARAT
BKDN0240797,Dena Bank,BKDN0240797,NON MICR,DADRA,"PITRU SMRITI BUILDING., DADRA NAGAR HAVELI.VIA VAPI",,DADRA,DADRA & NAGAR HAVELI,DADRA & NAGAR HAVELI
BKDN0240898,Dena Bank,BKDN0240898,NON-MICR,MOTA PONDA,"MOTA PONDHA.,TAL KAPRADA,VAI VAPI,GUJARAT,396191",,MOTAPONDHA,VALSAD,GUJARAT
BKDN0240974,Dena Bank,BKDN0240974,NON-MICR,UMBERGAON,"1ST FLOOR,SAJUTA COMPLEX,244/25 GIDC-UMBERGAON.,GUJARAT",,UMBERGAON,VALSAD,GUJARAT
BKDN0241027,Dena Bank,BKDN0241027,NIN-MICR,MADHUBAN,"MADHUBAN DAM ROAD,P.O. KARAD,,VIA. VAPI,DIST. DADRA NAGAR HAVELI (U.T.),GUJARAT,",,MADHUBAN,DADRA&NAGAR HAVELI,DADRA & NAGAR HAVELI
BKDN0310030,Dena Bank,BKDN0310030,360018002,RAJKOT (PARA BAZAR),"PARA BAZAR,RAJKOT-360 001,GUJARAT",,RAJKOT,RAJKOT,GUJARAT
BKDN0310044,Dena Bank,BKDN0310044,NON-MICR,PORBANDAR,"N.MODY ROAD, PB NO.94,DIST. JUNAGADH,PORBANDAR ,GUJARAT-360575",,PORBANDAR,PORBANDER,GUJARAT
BKDN0310049,Dena Bank,BKDN0310049,361018003,JAMNAGAR (KAPAD BAZAR),"ASHPURA ROAD, PB NO.61,KAPAD BAZAR,JAMNAGAR,GUJARAT-361001",,JAMNAGAR,JAMNAGAR,GUJARAT
BKDN0310052,Dena Bank,BKDN0310052,362018101,VERAVAL,"DR.GORDHANDAS ROAD,VERAVAL,GUJARAT",,VERAVAL,JUNAGADH,GUJARAT
BKDN0310053,Dena Bank,BKDN0310053,NON-MICR,MORBI (NEHRU GATE),"NEHRU GATE,MORBI - 363 641.DIST. RAJKOT,GUJARAT",,MORVI,RAJKOT,GUJARAT
BKDN0310085,Dena Bank,BKDN0310085,NON-MICR,GONDAL(BHAGWAT BAZAR),"18, BHAGWATA BAZAR,GONDAL,RAJKOT - 360311,GUJARAT",,GONDAL,RAJKOT,GUJARAT
BKDN0310086,Dena Bank,BKDN0310086,NON-MICR,DHORAJI,"STATION ROAD, PB NO.46,OPP NANDKUNVARBA , DHORAJI - 360 410",,DHORAJI,RAJKOT,GUJARAT
BKDN0310087,Dena Bank,BKDN0310087,NON-MICR,UPLETA,"GANDHI CHOWK, P.B. NO.4,DIST. RAJKOT,GUJARAT",,UPLETA,RAJKOT,GUJARAT
BKDN0310088,Dena Bank,BKDN0310088,NON-MICR,WANKANER,"PRATAP ROAD, WANKANER",,WANKANER,RAJKOT,GUJARAT
BKDN0310107,Dena Bank,BKDN0310107,NON-MICR,KESHOD,"KRISHNA KRIPA, STATION ROAD, KESHOD - 362 220",,KESHOD,JUNAGADH,GUJARAT
BKDN0310122,Dena Bank,BKDN0310122,361018001,JAMNAGAR(GRAIN MARKET),"P.B. NO.61,RANJIT ROAD,JAMNAGAR - 360 001.",,JAMNAGAR,JAMNAGAR,GUJARAT
BKDN0310134,Dena Bank,BKDN0310134,NON-MICR,CHORWAD,"STATION ROAD, CHORWAD,DIST. JUNAGADH,GUJARAT",,CHORIVAD,SABAR KANTHA,GUJARAT
BKDN0310152,Dena Bank,BKDN0310152,NON-MICR,SALAYA,"MAIN BAZAR SALAYA,TAL KHAMBALIYA,SALAYA,GUJARAT",,SALAYA,JAMNAGAR,GUJARAT
BKDN0310167,Dena Bank,BKDN0310167,NON-MICR,MENDARDA,"NEAR S.T.BUS STATION.,MENDARDA,GUJARAT",,MENDARDA,JUNAGADH,GUJARAT
BKDN0310189,Dena Bank,BKDN0310189,NON-MICR,JAMKANDORNA,"NEAR POST OFFICE,JAMKANDORNA-360189,GUJARAT",,JAM KANDORNA,RAJKOT,GUJARAT
BKDN0310195,Dena Bank,BKDN0310195,NON-MICR,BANTWA,"M.G. ROAD,TAL. MANAVADAR, BANTWA,DIST. JUNAGADH,GUJARAT",,BANTWA,JUNAGADH,GUJARAT
BKDN0310196,Dena Bank,BKDN0310196,360018004,RAJKOT(CANAL ROAD),"CANAL ROAD, RAJKOT-360002,GUJARAT",,RAJKOT,RAJKOT,GUJARAT
BKDN0310206,Dena Bank,BKDN0310206,NON-MICR,UNA,"J.PRAKASH MARG,HAVELI GALLI, UNA-362560,GUJARAT",,UNA,JUNAGADH,GUJARAT
BKDN0310215,Dena Bank,BKDN0310215,NON-MICR,DHANK,"MAIN ROAD,DHANK., VIA BHAYAVADAR.,GUJARAT",,DHANK,RAJKOT,GUJARAT
BKDN0310217,Dena Bank,BKDN0310217,NON-MICR,BALAMBHA,"GURJAR SAMAJ BLDG..MAIN ROAD.,BALAMBA.TAL.JODIA.-361240,GUJARAT",,BALAMBHA,JAMNAGAR,GUJARAT
BKDN0310233,Dena Bank,BKDN0310233,NON-MICR,KALAVAD,"MANDVI CHOWK, SITLA, KALAVAD - 361 160",,KALAVAD,JAMNAGAR,GUJARAT
BKDN0310238,Dena Bank,BKDN0310238,362018131,MANAVADAR,"JAVAHAR ROAD,,DIST. JUNAGADH,GUJARAT",,MANAVADAR,JUNAGADH,GUJARAT
BKDN0310241,Dena Bank,BKDN0310241,NIN-MICR,VISAVADAR,"OPP. LOHANA MAHAJAN WADI,MAIN BAZAR,DIST. JUNAGADH,GUJARAT",,VISAVADAR,JUNAGADH,GUJARAT
BKDN0310311,Dena Bank,BKDN0310311,NON-MICR,BYT (BET),"TAL.OKHA MANDAL.,BET- 361330,GUJARAT",,BYT,JAMNAGAR,GUJARAT
BKDN0310321,Dena Bank,BKDN0310321,NON-MICR,JASDAN,"9/464 - A, GITANAGAR, MAIN ROAD,JASDAN",,JASDAN,RAJKOT,GUJARAT
BKDN0310412,Dena Bank,BKDN0310412,NON MICR,RANAKANDORNA,"TAL. RANAVAV, DIST. JUNAGADH, GUJARAT,",,RANAKANDORNA,PORBANDAR,GUJARAT
BKDN0310424,Dena Bank,BKDN0310424,NON-MICR,SARAPDAD,"SARAPDAD,TAL PADADHARI,GUJARAT-360110",,SARAPDAD,RAJKOT,GUJARAT
BKDN0310425,Dena Bank,BKDN0310425,NON-MICR,AMRAN,"AMRAN,TAL.JODIA.,GUJARAT",,AMRAN,JAMNAGAR,GUJARAT
BKDN0310483,Dena Bank,BKDN0310483,NON-MICR,BHAYAVADAR,"PB NO.2.,UPLETA TALUKA,BHAYAVADAR,GUJARAT-360450",,BHAYAVADAR,RAJKOT,GUJARAT
BKDN0310508,Dena Bank,BKDN0310508,NON-MICR,MANGROL,"JAIL ROAD,JAIDEEP NAGAR,MANGROL-362225,GUJARAT",,MANGROL,JUNAGADH,GUJARAT
BKDN0310522,Dena Bank,BKDN0310522,NON-MICR,ADITYANA,"ADITYANA,TESH.RANAVAR-360545.GUJARAT",,ADITYANA,PORBANDAR,GUJARAT
BKDN0310532,Dena Bank,BKDN0310532,NON-MICR,JAMNAGAR (BUNDER ROAD),"PATEL COLONY,BUNDER ROAD,JAMNAGAR,GUJARAT-361001",,JAMNAGAR,JAMNAGAR,GUJARAT
BKDN0310540,Dena Bank,BKDN0310540,NON MICR,KUTIYANA,GANDHI ROAD. PB NO.3 KUTIYANA GUJARAT,,KUTIYANA,PORBANDAR,GUJARAT
BKDN0310545,Dena Bank,BKDN0310545,360018007,RAJKOT(JUNCTION PLOT),"JUNCTION PLOT,RAJKOT-360001",,RAJKOT,RAJKOT,GUJARAT
BKDN0310557,Dena Bank,BKDN0310557,NON-MICR,JAMNAGAR (HAWAI CHOWK),"HAWAI CHOWK,SHESTH FALI,YADVENDRA BHAVAN,JAMNAGAR,GUJARAT-361001",,JAMNAGAR,JAMNAGAR,GUJARAT
BKDN0310569,Dena Bank,BKDN0310569,360018009,RAJKOT(SONI BAZAR),"DASHA SHRIMALI VANIK MAHAJAN VADI,UNIT NO 3,1ST FLR,KOTHARIA NAKA,RAJKOT",,RAJKOT,RAJKOT,GUJARAT
BKDN0310574,Dena Bank,BKDN0310574,360018026,RAJKOT (JAGNATH PLOT),"OMAN BHUVAN,DR. YGNIK ROAD,RAJKOT,GUJARAT-360001",,RAJKOT,RAJKOT,GUJARAT
BKDN0310602,Dena Bank,BKDN0310602,360018005,RAJKOT(DHEBARBHAI ROAD),"DHEBARBHAI ROAD,NARSIBHAI SANITORIUM,RAJKOT",,RAJKOT,RAJKOT,GUJARAT
BKDN0310615,Dena Bank,BKDN0310615,NON-MICR,JUNAGADH(M.G.ROAD),"MAHATMA GANDHI ROAD RANAVAV CHOWK, P.B.NO. 67,",,JUNAGADH,JUNAGADH,GUJARAT
BKDN0310630,Dena Bank,BKDN0310630,NON MICR,JETPUR,KHODPARA MAIN ROAD,,JETPUR,RAJKOT,GUJARAT
BKDN0310656,Dena Bank,BKDN0310656,NON-MICR,FATANA,"TEH.PORBANDAR,AT & POST FATANA-360590,GUJARAT",,FATANA,PORBANDAR,GUJARAT
BKDN0310668,Dena Bank,BKDN0310668,NON-MICR,HADIYANA,"AT & POST HADIYANA,TAL.JODIA DIST JAMNAGAR,GUJARAT-361011",,HADIYANA,JAMNAGAR,GUJARAT
BKDN0310721,Dena Bank,BKDN0310721,NON-MICR,MOTI-MONPARI,"MOTI MONPARI,TAL.VISAVADAR DISTT. JUNAGARH-362133,GUJARAT",,MOTI MONPARI,JUNAGADH,GUJARAT
BKDN0310723,Dena Bank,BKDN0310723,NON-MICR,VISAVADA,"VISAVADA,AT & POST VISAVADA.,GUJARAT",,VISAVADA,JUNAGADH,GUJARAT
BKDN0310889,Dena Bank,BKDN0310889,360018003,RAJKOT(BHAKTI NAGAR),"AJI INDUSTRIAL AREA,DARBAR GOPALDAS MARG,RAJKOT",,RAJKOT,RAJKOT,GUJARAT
BKDN0310902,Dena Bank,BKDN0310902,NON-MICR,RAYADI,"RAYADI,TEH.JAMKANDORNA,GUJARAT-360400",,RAYADI,RAJKOT,GUJARAT
BKDN0310907,Dena Bank,BKDN0310907,NON-MICR,BEDLA,"BEDLA,TEH.RAJKOT,GUJARAT-360025",,BEDLA,RAJKOT,GUJARAT
BKDN0310914,Dena Bank,BKDN0310914,NON-MICR,MAHIYARI,"MAHIYARI,TEH.KUTIYANA,GUJARAT-362623",,MAHIYARI,PORBANDAR,GUJARAT
BKDN0310919,Dena Bank,BKDN0310919,NON-MICR,BHARADIYA,"BHARADIYA,TEH.VISAVADAR,DIST JUNAGADH,GUJARAT-362120",,BHARADIYA,JUNAGADH,GUJARAT
BKDN0310931,Dena Bank,BKDN0310931,360018008,RAJKOT (RACE COURSE ROAD),"RACE COURSE ROAD,KISANPARA CHOWK,RAJKOT - 360 001",,RAJKOT,RAJKOT,GUJARAT
BKDN0310951,Dena Bank,BKDN0310951,NON-MICR,SARSAI,"SARSAI,TEH.VISAVADAR,GUJARAT-362120",,SARSAI,JUNAGADH,GUJARAT
BKDN0310960,Dena Bank,BKDN0310960,NON-MICR,PORBANDAR(WADI PLOT),"3,WADI PLOT,PORBANDAR,JUNAGADH-360575,GUJARAT",,PORBANDAR,PORBANDER,GUJARAT
BKDN0311270,Dena Bank,BKDN0311270,360018501,METODA,"RAMRAJ COMM COMPLEX,OPP GIDC GATE 2, KALAWAD RD,METODA,GUJARAT-360021",,METODA,RAJKOT,GUJARAT
BKDN0311271,Dena Bank,BKDN0311271,NON-MICR,TANKARA,"1ST FLOOR, LATIPAR CHOWKDI,SHOP NO 1-6, GAYATRI CHAMBERS,TANKARA,GUJARAT,363650",,TANKARA,RAJKOT,GUJARAT
BKDN0311272,Dena Bank,BKDN0311272,363018501,TRAJPAR,"SHOP 46-48, SHAKTI CHAMBERS,OPP HOTEL ADARSH, N H NO 8A,TRAJPAR,GUJARAT-363642",,TRAJ,KHEDA,GUJARAT
BKDN0311273,Dena Bank,BKDN0311273,361018506,DWARKA,"HOTEL MEERA BUILDING OPP. GEB OFFICE, RAILWAY STATION ROAD",,DWARKA,JAMNAGAR,GUJARAT
BKDN0311410,Dena Bank,BKDN0311410,362018151,DIU,"DENA BANK, GROUND FLOOR,GHODIYA STREET,CHARPITH ROAD,DIU ( UT OF DAMAN AND DIU)-362520",,2875252778;DIU@DENABANK.CO.IN,DIU,DIU
BKDN0311411,Dena Bank,BKDN0311411,NON-MICR,KALAWAD,"DENA BANK, SHOP NO 105 FIRST FLOOR, THE IMPERIAL HEIGHTS, 150FT RING ROAD OPP BIG BAZAR, RAJKOT, PIN 360005",,94280104722; RINGRO@DENABANK.CO.IN,RAJKOT,RAJKOT
BKDN0320025,Dena Bank,BKDN0320025,NON-MICR,BHAVNAGAR (KHARGATE),"DENA BHAVAN, KHARGATE,PB NO.15,BHAVNAGAR-364 001,GUJARAT",,BHAVNAGAR,BHAVNAGAR,GUJARAT
BKDN0320028,Dena Bank,BKDN0320028,NON-MICR,AMRELI,"DENA BANK AMRELI, OPP. MAIN POST OFFICE, DIST - AMRELI GUJARAT - 364 601",,AMRELI,AMRELA,GUJARAT
BKDN0320033,Dena Bank,BKDN0320033,NON-MICR,SURENDRA NAGAR,"DENA BANK SURENDRA NAGAR, MAIN ROAD, DIST - SURENDRA NAGAR GUJARAT - 363001",,SURENDRA NAGAR,SURENDRANAGAR,GUJARAT
BKDN0320038,Dena Bank,BKDN0320038,NON-MICR,DHRANGADHRA,"DENA BANK DHRANGADHRA, SHAKTI MATA TEMPLE ROAD, DHRANGADHRA DIST- SURENDRA NAGAR GUJARAT - 363310",,DHRANGADHRA,SURENDRANAGAR,GUJARAT
BKDN0320051,Dena Bank,BKDN0320051,NON-MICR,MAHUVA,"DENA BANK MAHUVA, NEAR KANYASHALA, MAHUVA DIST - BHAVNAGAR GUJARAT - 364290",,MAHUVA,BHAVNAGAR,GUJARAT
BKDN0320055,Dena Bank,BKDN0320055,364018081,SAVARKUNDLA,"MAIN BAZAR, SAVARKUNDLA-364 515 ",,SAVARKUNDLA,AMRELA,GUJARAT
BKDN0320074,Dena Bank,BKDN0320074,NIN-MICR,DAMNAGAR,"TAL. LATHI,DIST. AMRELI,GUJARAT",,DAMNAGAR,AMRELI,GUJARAT
BKDN0320084,Dena Bank,BKDN0320084,NON-MICR,BOTAD,"DENA BANK BOTAD, STATION ROAD, BOTAD DIST - BHAVNAGAR GUJARAT - 364710",,BOTAD,BHAVNAGAR,GUJARAT
BKDN0320092,Dena Bank,BKDN0320092,NON-MICR,SIHOR,"MAIN BAZAR,DANA PITH,SIHOR-364240,GUJARAT",,SIHOR,BHAVNAGAR,GUJARAT
BKDN0320114,Dena Bank,BKDN0320114,NON-MICR,DHARI,"MAIN BAZAR, P.B. NO.1,DIST. AMRELI,GUJARAT",,DHARI,AMRELI,GUJARAT
BKDN0320148,Dena Bank,BKDN0320148,NON-MICR,BAGASARA,"VIJAY CHOWK, P.B. NO.24,TAL. KUNKAV,DIST. AMRELI,GUJARAT",,BAGASARA,AMRELI,GUJARAT
BKDN0320164,Dena Bank,BKDN0320164,NON-MICR,PALITANA,"DENA BANK PALITANA, MAIN ROAD, PALITANA DIST - BHAVNAGAR GUJARAT 364270",,PALITANA,BHAVNAGAR,GUJARAT
BKDN0320165,Dena Bank,BKDN0320165,NON-MICR,DHASA,"STATION ROAD,DHASA,GUJARAT",,DHASA,BHAVNAGAR,GUJARAT
BKDN0320174,Dena Bank,BKDN0320174,NON-MICR,PALIYAD,"PALIYAD,DISTT BHAVNAGAR,GUJARAT-364765",,PALIYAD,BHAVNAGAR,GUJARAT
BKDN0320252,Dena Bank,BKDN0320252,NON-MICR,VANDA,"VANDA,TAL.SAVARKONDLA,GUJARAT",,VANDA,AMRELI,GUJARAT
BKDN0320254,Dena Bank,BKDN0320254,NON-MICR,NESDI,"NESDI,DIST AMRELI,VIA SAVARKUNDLA,GUJARAT-364515",,NESDI,AMRELI,GUJARAT
BKDN0320256,Dena Bank,BKDN0320256,NON-MICR,HALVAD,"DENA BANK HALVAD, CHOWK, HALVAD DIST- SURENDRA NAGAR GUJARAT - 363 330",,HALVAD,SURENDRANAGAR,GUJARAT
BKDN0320258,Dena Bank,BKDN0320258,NON-MICR,CHALALA,"TILAK CHOWK,PB NO.8,CHALALA,GUJARAT-364630",,CHALALA,AMRELI,GUJARAT
BKDN0320276,Dena Bank,BKDN0320276,NON-MICR,TANA,"VIA SIHOR,DIST BHAVNAGAR,TANA,GUJARAT-364260",,TANA,BHAVNAGAR,GUJARAT
BKDN0320277,Dena Bank,BKDN0320277,NON-MICR,MOTA_ANKADIA,"MEHTA STREET,MOTA ANAKDIA, DISTT AMRELI,GUJARAT-364544",,MOTA ANKADIA,AMRELI,GUJARAT
BKDN0320291,Dena Bank,BKDN0320291,NON-MICR,SIYANI,"SIYANI-,GRAMPANCHAYAT BLDG..,GUJARAT-363427",,SIYANI,SURENDRANAGAR,GUJARAT
BKDN0320292,Dena Bank,BKDN0320292,NON-MICR,GOPALGRAM,"GOPALGRAM,PO CHALLA,GUJARAT-364630",,GOPALGRAM,AMRELI,GUJARAT
BKDN0320310,Dena Bank,BKDN0320310,NON-MICR,PANWADI,"DENA BANK PANWADI, KISHORE KUTIR, PANWADI ROAD, BHAVNAGAR DIST - BHAVNAGAR GUJARAT - 364001",,BHAVNAGAR,BHAVNAGAR,GUJARAT
BKDN0320314,Dena Bank,BKDN0320314,NON MICR,LIMBDI,"BAHELA PARA, LIMBDI,DIST. SURENDRANAGAR,GUJARAT,",,LIMBDI,SURENDRANAGAR,GUJARAT
BKDN0320378,Dena Bank,BKDN0320378,NONMICR,BHADROD,"BHADROD,TAL. MAHUA,GUJARAT",,BHADROD,BHAVNAGAR,GUJARAT
BKDN0320379,Dena Bank,BKDN0320379,NON-MICR,THANGADH,"P.B.NO.6,THANGADH,DIST. SURENDRANAGAR,GUJARAT",,THANGADH,SURENDRANAGAR,GUJARAT
BKDN0320383,Dena Bank,BKDN0320383,NON-MICR,LATHIDAD,"LATHIDAD,GUJARAT",,LATHIDAD,BHAVNAGAR,GUJARAT
BKDN0320390,Dena Bank,BKDN0320390,NON-MICR,SARASIYA,"SARASIYA TAL DHARI,DIST AMRELI,GUJARAT-364660",,SARASIYA,AMRELI,GUJARAT
BKDN0320392,Dena Bank,BKDN0320392,NON-MICR,KODINAR,"KODINAR,AZAD CHOWK,KODINAR - 362 720",,KODINAR,JUNAGADH,GUJARAT
BKDN0320393,Dena Bank,BKDN0320393,NIN-MICR,RAJULA,"RAJULA,DIST. AMRELI,GUJARAT",,RAJULA,AMRELI,GUJARAT
BKDN0320430,Dena Bank,BKDN0320430,NON-MICR,VIJAPADI,"VIJAPADI,TAL.SAVARKONDLA,GUJARAT",,VIJPADI,AMRELI,GUJARAT
BKDN0320431,Dena Bank,BKDN0320431,NON-MICR,MOTA_SAMADHIYALA,"MOTA_SAMADHIYALA,MEHTA STREET,DIST AMRELI,TAL.KHAMBHA.,GUJARAT-364635",,MOTA-SAMADHIYALA,AMRELI,GUJARAT
BKDN0320435,Dena Bank,BKDN0320435,NONMICR,TIKAR,"TIKAR RANG,TAL.HALVAD,GUJARAT",,TIKAR,SURENDRANAGAR,GUJARAT
BKDN0320436,Dena Bank,BKDN0320436,NON-MICR,BAJANA,"VIA VIRANGAM,TAL.  DASADA,BAJANA,GUJARAT-382745",,BAJANA,SURENDRANAGAR,GUJARAT
BKDN0320440,Dena Bank,BKDN0320440,NON-MICR,UGAMEDI,"TAL.GADADHA(SWAMINA.),UGAMEDI,GUJARAT",,UGAMEDI,BHAVNAGAR,GUJARAT
BKDN0320479,Dena Bank,BKDN0320479,NON-MICR,GARIADHAR,"DARBARGADH ROAD,GARIADHAR DIST BHAVNAGAR,GUJARAT-364505",,GARIADHAR,BHAVNAGAR,GUJARAT
BKDN0320518,Dena Bank,BKDN0320518,NON MICR,KOTDAPITHA,"TAL.BABRA KOTDAPITHA KOTDAPITHA, GUJARAT",,KOTDAPITHA,AMRELI,GUJARAT
BKDN0320519,Dena Bank,BKDN0320519,NON-MICR,VANKIA,"VANKIA,SARJANIK LIB.BLDG.,GUJARAT",,WANKIA,AMRELI,GUJARAT
BKDN0320645,Dena Bank,BKDN0320645,NON-MICR,PARAVADI,"TEH.GARIADHAR,PARAVADI,GUJARAT-364275",,PARAVADI,BHAVNAGAR,GUJARAT
BKDN0320661,Dena Bank,BKDN0320661,NON-MICR,CHITRA,"DENA BANK CHITRA, PLOT NO. 8, DESAI NAGAR, BHAVNAGAR DIST - BHVNAGAR GUJARAT - 364003",,BHAVNAGAR,BHAVNAGAR,GUJARAT
BKDN0320726,Dena Bank,BKDN0320726,NON-MICR,TAKHTESHWAR,"DENA BANK TAKHTESHWAR, GIJUBHAI BADHEKA MARG, OPP TAKHTESHWAR POST OFFICE, BHAVNAGAR GUJARAT - 364 002",,BHAVNAGAR,BHAVNAGAR,GUJARAT
BKDN0320740,Dena Bank,BKDN0320740,NON MICR,WADHWAN,"MASJID CHOWK,MAIN BAZARAT AND POWADHWAN",,WADHWAN,SURENDRANAGAR,GUJARAT
BKDN0320880,Dena Bank,BKDN0320880,NON-MICR,TANSA,"TEH.GHOGHA,TANSA,GUJARAT-364120",,TANSA,BHAVNAGAR,GUJARAT
BKDN0320887,Dena Bank,BKDN0320887,NON-MICR,DEVGANA,"TEH.SIHOR,DEVGANGA,GUJARAT-364260",,DEVGANA,BHAVNAGAR,GUJARAT
BKDN0320888,Dena Bank,BKDN0320888,NON-MICR,JIRA,"TEH.DHARI,JIRA,GUJARAT-365660",,JIRA,AMRELI,GUJARAT
BKDN0320890,Dena Bank,BKDN0320890,NONMICR,SUDAMDA,"SUDAMDA,TEH.SAYLA,GUJARAT",,SUDAMDA,SURENDRANAGAR,GUJARAT
BKDN0320892,Dena Bank,BKDN0320892,NON-MICR,ANIDA,"TEH.KUNKAVAV DISTT. AMRELI,ANIDA,GUJARAT-365450",,ANIEDA,AMRELI,GUJARAT
BKDN0320893,Dena Bank,BKDN0320893,NON-MICR,TORI RAMPAR,"TORI RAMPAR,TEH.KUNKAVAV,GUJARAT",,RAMPARA,SURENDRANAGAR,GUJARAT
BKDN0320905,Dena Bank,BKDN0320905,NON-MICR,CHAVAND,"CHAVAND,TEH.LATAHI,GUJARAT",,CHAVAND,AMRELI,GUJARAT
BKDN0320924,Dena Bank,BKDN0320924,NON-MICR,BAVLI,"TEH.DHRANGADHRA,BAVALI,GUJARAT-363310",,BAVALI,SURENDRANAGAR,GUJARAT
BKDN0320937,Dena Bank,BKDN0320937,NON-MICR,GADHADA,"STATION ROAD,,DIST. BHAVNAGAR,GUJARAT",,GADHADA,BHAVNAGAR,GUJARAT
BKDN0320939,Dena Bank,BKDN0320939,NON-MICR,KRISHNA NAGAR-DAWN,"2594 AMBAWADI ROAD,DIAMOND CHOWK,KRISHNA NAGAR,BHAVNAGAR-364001",,BHAVNAGAR,BHAVNAGAR,GUJARAT
BKDN0320945,Dena Bank,BKDN0320945,NON-MICR,SARAMBHADA,"SARAMBHADA,DIST AMRELI,TAL AMRELI,GUJARAT-365630",,SARAMBHADA,AMRELI,GUJARAT
BKDN0321021,Dena Bank,BKDN0321021,NON-MICR,DOLIYA,"DOLIYA,TAL. SAYLA,SURENDRANAGAR,GUJARAT-363430",,DOLIYA,SURENDRANAGAR,GUJARAT
BKDN0321132,Dena Bank,BKDN0321132,NON-MICR,AMBUJA NAGAR,"AMBUJA NAGAR,VADNAGAR, TAL - KODINAR, DIST - JUNGADH - 362715",,KODINAR,JUNAGADH,GUJARAT
BKDN0321363,Dena Bank,BKDN0321363,NON-MICR,DASADA,"DENA BANK,MAIN BAZAR, AKHIANA,TAL DASADA,DIST.. SURENDRANAGAR, PIN-364521",,,DASADA,SURENDRANAGAR
BKDN0321421,Dena Bank,BKDN0321421,NON-MICR,BHAVNAGAR,"DENA BANK,  AT & PO RANOL TAL DIST BHAVNAGAR",,,BHAVNAGAR,BHAVNAGAR
BKDN0321422,Dena Bank,BKDN0321422,NON-MICR,SURENDRANAGAR,"DENA BANK,  AT & PO KONDH  TAL DIST SURENDRANAGAR",,,SURENDRANAGAR,SURENDRANAGAR
BKDN0330169,Dena Bank,BKDN0330169,NON-MICR,ADIPUR,"RAJENDRA CHOWK,TBX 10,TALUKA-ANJAR,ADIPUR-370205",,ADIPUR,KUTCH,GUJARAT
BKDN0330170,Dena Bank,BKDN0330170,NON-MICR,KANDLA FTZ,"VIA GANDHIDHAM.TAL -  ANJAR ,KANDLA",,KANDLA,KUTCH,GUJARAT
BKDN0330186,Dena Bank,BKDN0330186,NON-MICR,MUNDRA,"NEAR BUS STAND, MUNDRA-370 421",,MUNDRA,KUTCH,GUJARAT
BKDN0330278,Dena Bank,BKDN0330278,NON-MICR,RAHPAR,"VANDHI BAZAR, RAHPAR, KUTCH, GUJARAT-370165",,RAHPAR,KUTCH,GUJARAT
BKDN0330289,Dena Bank,BKDN0330289,NON-MICR,MANKUVA,"TAL BHUJ,MANKUVA,DIST. KUTCH,GUJARAT",,MANKUVA,KACHCHH,GUJARAT
BKDN0330290,Dena Bank,BKDN0330290,NON-MICR,KERA,"TALUKA BHUJ, KERA, KUTCH, GUJARAT-370430",,KERA,KUTCH,GUJARAT
BKDN0330306,Dena Bank,BKDN0330306,NON-MICR,KHAWADA,"TAL BHUJ,KHAWADA,DIST. KUTCH,GUJARAT",,KHAVADA,KACHCHH,GUJARAT
BKDN0330324,Dena Bank,BKDN0330324,NON-MICR,BIDADA,"BIDADA.,TAL.MANDVI.,GUJARAT",,BIDADA,KACHCHH,GUJARAT
BKDN0330325,Dena Bank,BKDN0330325,NON-MICR,GADHSISA,"GADHSISA,TAL.MANDVI.,GUJARAT",,GADHSISA,KACHCHH,GUJARAT
BKDN0330326,Dena Bank,BKDN0330326,NON-MICR,KOTHARA,"KOTHARA.,TAL.ABDASA.,GUJARAT",,KOTHARA,KACHCHH,GUJARAT
BKDN0330354,Dena Bank,BKDN0330354,NONMICR,BHUJPUR,"BHUJPUR,K.L.SHAHS BLDG..MAIN ROAD,BHUJPUR. TAL.MUNDRA,GUJARAT",,BHUJPUR,KACHCHH,GUJARAT
BKDN0330369,Dena Bank,BKDN0330369,NON-MICR,KOTDA_JADODAR,"KOTADA (JADODAR).,TAL.NAKHAT RANA.,GUJARAT-370605",,KOTDA(JADODAR),KACHCHH,GUJARAT
BKDN0330370,Dena Bank,BKDN0330370,NON-MICR,BAHACHAU,"BHACHAU BAZAR,DIST - KUTCH,GUJARAT",,BHACHAU,KUTCH,GUJARAT
BKDN0330372,Dena Bank,BKDN0330372,NON-MICR,MIRZAPAR (KUTCH),"MIRZAPAR(KUTCH),TAL.BHUJ,MIRZAPUR,DIST. KUTCH,GUJARAT - 370 001",,MIRZAPUR,KUTCH,GUJARAT
BKDN0330373,Dena Bank,BKDN0330373,NON-MICR,RAVAPAR,"SWAMINARAYAN SATSANG SAMAJS BLDG,TAL. NAKHATRANA DIST.  KUTCH,RAVAPAR,GUJARAT-70625",,RAVAPAR,KACHCHH,GUJARAT
BKDN0330385,Dena Bank,BKDN0330385,NON-MICR,RAMPAR VEKRA,"K.NARANBHAI'S BLDG,TAL MANDVI RAMPAR VAKRA",,RAMPARVERKA,KUTCH,GUJARAT
BKDN0330386,Dena Bank,BKDN0330386,NON-MICR,MANDVI(KUTCH),"NEAR SUB.JAIL, MANDVI -370465, DIST.KUTCH",,MANDVI,KUTCH,GUJARAT
BKDN0330404,Dena Bank,BKDN0330404,NIN-MICR,SAMATRA,"NEAR SHRI SWAMINARAYAN TEMPLE,TAL BHUJ,SAMATRA,GUJARAT",,SAMATRA,KACHCHH,GUJARAT
BKDN0330405,Dena Bank,BKDN0330405,NON-MICR,BHARAPAR(SURAJAPAR),"BHARAPAR(SURAJAPAR),TALUKA BHUJ,BHARAPAR-370427",,BHUJ,KUTCH,GUJARAT
BKDN0330407,Dena Bank,BKDN0330407,NON-MICR,ADHOI_KUTCH,"NR.RES.LOCALITY.TAL.BACHAU.,OPP.POLICE STN..,ADHOI_KUTCH,GUJARAT-370135",,ADHOI,KACHCHH,GUJARAT
BKDN0330408,Dena Bank,BKDN0330408,NON-MICR,GODHRA,"DENA BANK,   GODHRA,,    TAL MANDVI KUTCH,   PIN 370450",,9723283007;GODBHU@DENABANK.CO.IN,GODHRA,KACHCHH
BKDN0330439,Dena Bank,BKDN0330439,NON-MICR,ADESAR,"TAL.RAHPAR.,ADESAR,GUJARAT-370155",,ADESAR,KACHCHH,GUJARAT
BKDN0330442,Dena Bank,BKDN0330442,NON-MICR,NETRA,"NETRA (MATANA).,TAL.NAKHATRANA.,GUJARAT",,NETRA,KACHCHH,GUJARAT
BKDN0330492,Dena Bank,BKDN0330492,NON-MICR,MADHAPAR,"MADHAPAR,SHRI SWAMINARAYAN MANDIRMADHAPAR,TAL.BHUJ, DIST. KUTCH,GUJARAT-370020",,MADHAPAR,KUTCH,GUJARAT
BKDN0330555,Dena Bank,BKDN0330555,NON-MICR,GANDHIDHAM,"PLOT NO.13,SECTOR-9, P.B.NO.8,GANDHIDHAM-370201",,GANDHIDHAM,KUTCH,GUJARAT
BKDN0330580,Dena Bank,BKDN0330580,NON-MICR,SUKHPAR ROHA,"NEAR SWAMI NARAYAN TEMPLE.,BAZAR ROAD.TAL.NAKHATRANA.,SUKHPAR ROHA,02835-286648,GUJARAT",,SUKHPAR ROHA,KACHCHH,GUJARAT
BKDN0330702,Dena Bank,BKDN0330702,NON-MICR,NAKHATRANA,"S.T ROAD,NAKHATRANA-370615",,NAKHATRANA,KUTCH,GUJARAT
BKDN0330715,Dena Bank,BKDN0330715,NON-MICR,BHADRESHWAR,"BHADRESHWAR.,TEH.MUNDRA.,BHADE,GUJARAT-370410",,BHADRESHWAR,KACHCHH,GUJARAT
BKDN0330716,Dena Bank,BKDN0330716,NON-MICR,DAYAPAR,"DAYAPAR,DAYAPAR. BAZAR.,TEH.LAKHPAT.,GUJARAT-370625",,DAYAPAR,KACHCHH,GUJARAT
BKDN0330719,Dena Bank,BKDN0330719,NON-MICR,PATRI,"PATRI,TAL.MUNDRA,DIST KUTCH,GUJARAT-370425",,PATRI,KACHCHH,GUJARAT
BKDN0330770,Dena Bank,BKDN0330770,NON-MICR,GUNDALA,"GUNDALA,GUNDALA.TEH.MUNDRA.,BAZAR CHOWK.,GUJARAT-370410",,GUNDALA,KACHCHH,GUJARAT
BKDN0330903,Dena Bank,BKDN0330903,NON-MICR,BHUJ (VIJAYNAGAR),"HOSPITAL RD.,VIJAYNAGAR,BHUJBHUJDIST. KUTCH,GUJARAT-370001",,BHUJ,KUTCH,GUJARAT
BKDN0330976,Dena Bank,BKDN0330976,NON-MICR,PANANDHRO,"S.K. VERMA NAGAR,TAL LAKHPAT, PANANDHRO, GUJARAT-370601",,PANANDHRO,KUTCH,GUJARAT
BKDN0331070,Dena Bank,BKDN0331070,NONMICR,KANDAGARA(MOTA),"KANDAGARA MOTA,TAL.MUNDRA,DIST. KUTCH,GUJARAT",,KANDAGARA(MOTA),KACHCHH,GUJARAT
BKDN0331071,Dena Bank,BKDN0331071,NON-MICR,NALIYA,"NALIYA,TAL- ABADASA,KUTCH-370 655,GUJARAT",,NALIA ABDASA,KUTCH,GUJARAT
BKDN0331082,Dena Bank,BKDN0331082,NON-MICR,NAYAANJAR,"THACKER BAPA VIDYARATHI ASHRAM BLDG. NEAR GSRTC BUS STATION, NAYA ANJAR - 370 110",,ANJAR,KUTCH,GUJARAT
BKDN0331163,Dena Bank,BKDN0331163,NON-MICR,BALADIA,"UPLO VAS SWAMINARAYAN MANDIR TRUST BUILDING ,BHUJ-KUTCH,BALADIA-370 427",,BALADIA,KUTCH,GUJARAT
BKDN0331224,Dena Bank,BKDN0331224,NON MICR,NARANPAR (RAVRI),"53, SHALIBHADRA SOCIETY,NARANPURA ROAD,",,NARANPAR (RAVRI),AHMEDABAD,GUJARAT
BKDN0331240,Dena Bank,BKDN0331240,NON-MICR,LILASHAH CIRCLE,"LILASHAH CIRCLE GANDHIDHAM,PLOT 616, WARD 12C, LILASHAH CIRCLE,GANDHIDHAM,GUJARAT-370201",,GANDHIDHAM,KACHCHH,GUJARAT
BKDN0331241,Dena Bank,BKDN0331241,370018530,KODKI,"SWANIRAYAN TEMPLE, KODKI,TAL : BHUJ, DIST KUTCH,GUJARAT-370030",,KOLKI,RAJKOT,GUJARAT
BKDN0331380,Dena Bank,BKDN0331380,NON-MICR,MANDVI,"DENA BANK, GROUND FLOOR, SHOP NO 1 & 2 ,  VRUNDAVAN SHOPPING CENTRE,  LAIJA MOTA, TAL MANDVI KUTCH,  PIN 370475",,,MANDVI,KACHCHH
BKDN0401115,Dena Bank,BKDN0401115,400018102,CAPITAL MARKET BRANCH,"17-B,HORNIMAN CIRCLE, FORT, MUMBAI,MAHARASHTRA",,MUMBAI,GREATER MUMBAI,MAHARASHTRA
BKDN0424101,Dena Bank,BKDN0424101,400018095,MUMBAI(OVERSEAS BRANCH),"NAVPRABHATR BLDG.,RANADE ROAD,DADAR WESTERN RLY,MUMBAI,MAHARASHTRA-400028",,MUMBAI,GREATER MUMBAI,MAHARASHTRA
BKDN0444444,Dena Bank,BKDN0444444,400018101,MUMBAI MAIN OFFICE,"DENA BANK, DENA BANK BUILDINGS, 17-B, HORNIMAN CIRCLE, FORT, MUMBAI - 400 023",,MUMBAI,GREATER MUMBAI,MAHARASHTRA
BKDN0450002,Dena Bank,BKDN0450002,400018029,THAKURDWAR,"322, DENA WADI,SHANKARSHETH ROAD,MUMBAI,MAHARASHTRA",,MUMBAI,GREATER MUMBAI,MAHARASHTRA
BKDN0450003,Dena Bank,BKDN0450003,400018009,SANDHURST BRIDGE,"434, DR DADASAHEB BHADKAMKAR ROAD, MUMBAI-400004",,MUMBAI,GREATER MUMBAI,MAHARASHTRA
BKDN0450008,Dena Bank,BKDN0450008,400018004,ZAVERI BAZAR,"262,GANESHWADI,MULJI JETHA BUILDING,SHEIKH MENON STREET,MUMBAI,MAHARASHTRA-400002",,MUMBAI,GREATER MUMBAI,MAHARASHTRA
BKDN0450010,Dena Bank,BKDN0450010,400018028,MUMBAI-DADAR (RANADE ROAD),"NAVPRABHAT CHAMBERS,RANADE ROAD,DADAR(WEST),MUMBAI,MAHARASHTRA-400028",,MUMBAI,GREATER MUMBAI,MAHARASHTRA
BKDN0450014,Dena Bank,BKDN0450014,400018051,COLABA,"DENA BANK BLDG,32,SHAHID BHAGATSING ROAD,MUMBAI,MAHARASHTRA-400005",,MUMBAI,GREATER MUMBAI,MAHARASHTRA
BKDN0450023,Dena Bank,BKDN0450023,400018007,SHARE BAZAR,"DENA BANK HOUSE,31/33,HAMAM STREET,FORT,MUMBAI,MAHARASHTRA-400001",,MUMBAI,GREATER MUMBAI,MAHARASHTRA
BKDN0450072,Dena Bank,BKDN0450072,400018030,GOLDEVAL,"GOLDEVAL,436,MAULANA AZAD ROAD,ALLANA BLD,MUMBAI-400004",,MUMBAI,GREATER MUMBAI,MAHARASHTRA
BKDN0450076,Dena Bank,BKDN0450076,400018046,MALABAR HILL,"ASMITA 204 ,WALKESHWAR ROAD,OPP TEEN BATTI,MUMBAI -400006",,MUMBAI,GREATER MUMBAI,MAHARASHTRA
BKDN0450077,Dena Bank,BKDN0450077,400018042,TARDEO,"8/11/A,EVEREST,2ND FLOOR,TARDEO ROAD,MUMBAI,MAHARASHTRA-400034",,MUMBAI,GREATER MUMBAI,MAHARASHTRA
BKDN0450095,Dena Bank,BKDN0450095,400018024,WORLI,"TULSI VIHAR,WORLI NAKA,DR.ANNIE BESANT ROAD,WORLMUMBAI,MAHARASHTRA-400018",,MUMBAI,GREATER MUMBAI,MAHARASHTRA
BKDN0450101,Dena Bank,BKDN0450101,400018041,PEDDER ROAD,"SHANTI NO.2/19,PEDDER ROAD,MUMBAI,MAHARASHTRA-400026",,MUMBAI,GREATER MUMBAI,MAHARASHTRA
BKDN0450117,Dena Bank,BKDN0450117,400018040,PAREL,"MADINA MANZIL,88,DR.AMBEDKAR ROAD,MUMBAI,MAHARASHTRA-400012",,MUMBAI,GREATER MUMBAI,MAHARASHTRA
BKDN0450123,Dena Bank,BKDN0450123,400018043,DADAR KHODADAD CIRCLE,"KHODADAD CIRCLE,IMPERIAL MAHAL,MUMBAI-400014",,MUMBAI,GREATER MUMBAI,MAHARASHTRA
BKDN0450130,Dena Bank,BKDN0450130,400018023,NAGDEVI STREET,"181, NAGDEVI STREET,MUMBAI-400 003.MAHARASHTRA",,MUMBAI,GREATER MUMBAI,MAHARASHTRA
BKDN0450146,Dena Bank,BKDN0450146,400018003,MUMBAI (BHAT BAZAR),"PREM BHAVAN,234 / 236 NARSINATHA STREET,MUMBAI- 400 009",,MUMBAI,GREATER MUMBAI,MAHARASHTRA
BKDN0450197,Dena Bank,BKDN0450197,400018056,NEW GAMDEVI,"NEW GAMDEVI,SHANTI SADAN,3 VACHHA GANDHI ROAD,MUMBAI-400007",,MUMBAI,GREATER MUMBAI,MAHARASHTRA
BKDN0450210,Dena Bank,BKDN0450210,400018008,GULALWADI,"12-13,3RD BHOIWADA,GULALWADI,MUMBAI,MAHARASHTRA-400002",,MUMBAI,GREATER MUMBAI,MAHARASHTRA
BKDN0450211,Dena Bank,BKDN0450211,400018019,SACHIVALAYA CORNER,"THE BEACON,MADAME CAMA ROAD,MUMBAI,MAHARASHTRA-400021",,MUMBAI,GREATER MUMBAI,MAHARASHTRA
BKDN0450513,Dena Bank,BKDN0450513,400018072,SUNMILL COMPOUND,"11/12/13,SUN IND.ESTATE,LOWER PAREL,MUMBAI,MAHARASHTRA-400013",,MUMBAI,GREATER MUMBAI,MAHARASHTRA
BKDN0450565,Dena Bank,BKDN0450565,400018064,MAZGAON,"PRABHAT,GROUND FLOOR,NESBIT RAOD,MUMBAI 400010",,MUMBAI,GREATER MUMBAI,MAHARASHTRA
BKDN0450573,Dena Bank,BKDN0450573,400018067,DONGRI,"DONGRI ,181,SHIVDAS CHAMPSI ROAD,OPP NOORBAUG,UMARKHADI -400009",,MUMBAI,GREATER MUMBAI,MAHARASHTRA
BKDN0450636,Dena Bank,BKDN0450636,400018065,LALBAUG,"101-108 HIRAMANI SUPER MARKET,JUNCTION OF DR AMBEDKAR,SS RAO ROAD,MUMBAI -400012",,MUMBAI,GREATER MUMBAI,MAHARASHTRA
BKDN0450666,Dena Bank,BKDN0450666,400018005,NEW MARINE LINES,"SHARADA CHAMBERS,33,NEW M.LINES,MUMBAI,MAHARASHTRA-400020",,MUMBAI,GREATER MUMBAI,MAHARASHTRA
BKDN0450708,Dena Bank,BKDN0450708,400018049,NAPEAN SEA ROAD,"SWAPNA LOK,L.J.MARG,NAPEAN SEA ROADMUMBAIMAHARASHTRA-400026",,MUMBAI,GREATER MUMBAI,MAHARASHTRA
BKDN0450725,Dena Bank,BKDN0450725,400018068,PRABHADEVI,"PRABHADEVI IND.ESTATE,MUMBAI,MAHARASHTRA-400025",,MUMBAI,GREATER MUMBAI,MAHARASHTRA
BKDN0451101,Dena Bank,BKDN0451101,NON-MICR,ASSET RECOVERY BRANCH MUMBAI,"1, 3RD PASTA LANE,  DENA BANK BHAVAN, GROUND FLOOR, COLABA, MUMBAI,400005",,MUMBAI,GREATER MUMBAI,MAHARASHTRA
BKDN0460015,Dena Bank,BKDN0460015,400018037,KHAR,"133,S.V.ROAD, NEW FOUNTAIN HEAD SOCIETY, MUMBAI-400 052.",,MUMBAI,GREATER MUMBAI,MAHARASHTRA
BKDN0460016,Dena Bank,BKDN0460016,400018035,SANTACRUZ (WEST),"TRIMURTI,S.V.ROAD,SANTACRUZ(WEST),MUMBAI,MAHARASHTRA-400054",,MUMBAI,GREATER MUMBAI,MAHARASHTRA
BKDN0460021,Dena Bank,BKDN0460021,400018031,MUMBAI VILE PARLE WEST,"MANOJ VILLA,D.J.RD, VILE PARLE (W), MUMBAI-400 056.",,MUMBAI,GREATER MUMBAI,MAHARASHTRA
BKDN0460032,Dena Bank,BKDN0460032,400018022,MATUNGA(MAHESHWARI UDYAN),"MAHESHWARI UDYAN,467-A,VORA BHUVAN,MATUNGA,CENTRAL RLY.,MUMBAI-400 019",,MUMBAI,GREATER MUMBAI,MAHARASHTRA
BKDN0460043,Dena Bank,BKDN0460043,400018010,ANDHERI (WEST),"DEEPAVALI, S.V.RD.,ANDHERI(W)-400 058.ALSO AT: SUKHMANI BLDG.,S.V. ROAD,MAHARASHTRA-400058",,MUMBAI,GREATER MUMBAI,MAHARASHTRA
BKDN0460050,Dena Bank,BKDN0460050,400018014,GHATKOPAR (EAST),"KHIMJI DAYAL BUNGLOW,M.G.ROAD,GHATKOPAR(E),MUMBAI,MAHARASHTRA-400077",,MUMBAI,GREATER MUMBAI,MAHARASHTRA
BKDN0460060,Dena Bank,BKDN0460060,400018025,BORIVALI(WEST),"COURT CHAMBERS,1ST FLOOR,ABOVE RASOI RESTAURANT,S.V.ROAD,BORIVALI(WEST),MUMBAI-400 092",,MUMBAI,GREATER MUMBAI,MAHARASHTRA
BKDN0460061,Dena Bank,BKDN0460061,400018011,MUMBAI - MALAD(WEST),"SSI BR., STATION ROAD, HARIHAR NIWAS, MUMBAI-400 064",,MUMBAI,GREATER MUMBAI,MAHARASHTRA
BKDN0460062,Dena Bank,BKDN0460062,400018032,KANDIVLI (WEST),"S.V.ROAD,KANDIVLI(WEST),MAHARASHTRA-400067",,MUMBAI,GREATER MUMBAI,MAHARASHTRA
BKDN0460066,Dena Bank,BKDN0460066,400018026,VILE PARLE (EAST),"67-A,KRISHNA BHUVAN,NEHRU ROAD,VILE-PARLE(EASMUMBAI,MAHARASHTRA-400057",,MUMBAI,GREATER MUMBAI,MAHARASHTRA
BKDN0460067,Dena Bank,BKDN0460067,400018061,CHEMBUR,"MANI BHAVAN,SION-TROMBAY ROAD,CHEMBUR,MUMBAI-400071",,MUMBAI,GREATER MUMBAI,MAHARASHTRA
BKDN0460070,Dena Bank,BKDN0460070,400018027,KURLA (MAIN),"ARPAN ARCADE, 565,C.S.T., NEW MILL ROAD, MUMBAI400 070",,MUMBAI,GREATER MUMBAI,MAHARASHTRA
BKDN0460071,Dena Bank,BKDN0460071,400018054,GOREGAON (WEST),"JAYKAR SMRUTI, ARREY ROAD, GOREGAON WEST, MUMBAI-400 062",,MUMBAI,GREATER MUMBAI,MAHARASHTRA
BKDN0460094,Dena Bank,BKDN0460094,400018069,MULUND (WEST),"SURYA PRAKASH,11,M.G.ROADMULUND(WEST),MUMBAI,MAHARASHTRA-400080",,MUMBAI,GREATER MUMBAI,MAHARASHTRA
BKDN0460096,Dena Bank,BKDN0460096,400018047,SION - MUMBAI,"PREMKUNJ, MAHARANI LAXMIBAI CHOWK,43/B,SION CIRCLE,MUMBAI-400022",,MUMBAI,GREATER MUMBAI,MAHARASHTRA
BKDN0460108,Dena Bank,BKDN0460108,400018033,SANTACRUZ (EAST),"PT.J.NEHRU ROAD, SANTACRUZ (EAST), MUMBAI-400 055.",,MUMBAI,GREATER MUMBAI,MAHARASHTRA
BKDN0460109,Dena Bank,BKDN0460109,400018074,JOGESHWARI (EAST),"DEV SMRUTI,JOGESHWARI(EAST)-60.,ALSO AT : SHIV VASANTI,16H.F. SOCIETY RD.,MAHARASHTRA-400060",,MUMBAI,GREATER MUMBAI,MAHARASHTRA
BKDN0460110,Dena Bank,BKDN0460110,400018018,MUMBAI - MALAD(EAST),"SADHANA,DAFTARY ROAD,MALAD EAST,MUMBAI-400 064",,MUMBAI,GREATER MUMBAI,MAHARASHTRA
BKDN0460111,Dena Bank,BKDN0460111,400018036,WADALA,"RAJKAMAL, 247, STATION ROAD, WADALA, MUMBAI-400 031.",,MUMBAI,GREATER MUMBAI,MAHARASHTRA
BKDN0460112,Dena Bank,BKDN0460112,400018021,MAHIM,"SOLITUDE, PLOT NO.410,TPS-III, BHAGOJI KEER MARG,MUMBAI",,MUMBAI,GREATER MUMBAI,MAHARASHTRA
BKDN0460126,Dena Bank,BKDN0460126,400018044,BHANDUP(WEST) - MUMBAI,"BURJOR BAUG,SHASTRI MARG,MUMBAI-400078",,MUMBAI,GREATER MUMBAI,MAHARASHTRA
BKDN0460131,Dena Bank,BKDN0460131,400018057,JUHU VILE PARLE,"SHARDA BHUVAN,V.M.ROAD,JUHU-VILE PARLE(WEST),MUMBAI,\MAHARASHTRA-400056",,MUMBAI,GREATER MUMBAI,MAHARASHTRA
BKDN0460144,Dena Bank,BKDN0460144,400018012,MUMBAI - BANDRA(WEST),"KHIMJI PALACE, HILL ROAD, MUMBAI-400050",,MUMBAI,GREATER MUMBAI,MAHARASHTRA
BKDN0460166,Dena Bank,BKDN0460166,400018038,VERSOVA,"88-A, VERSOVA ROADJ.P.ROAD, ANDHERI WEST, MUMBAI - 400058.",,MUMBAI,GREATER MUMBAI,MAHARASHTRA
BKDN0460209,Dena Bank,BKDN0460209,400018052,JOGESHWARI(WEST) - MUMBAI,"GOOL-DHUN-A-BAD,OPP. MALCOLM BAUG,SV ROAD,MUMBAI-400060",,MUMBAI,GREATER MUMBAI,MAHARASHTRA
BKDN0460260,Dena Bank,BKDN0460260,400018080,TROMBAY,"ANIK CHAMBERS, RAMKRISHNA CH.MARG, TROMBAY, MUMBAI - 400074.",,MUMBAI,GREATER MUMBAI,MAHARASHTRA
BKDN0460353,Dena Bank,BKDN0460353,400018073,GOVANDI DEONAR,"STATION ROAD, MUMBAI-400 088",,MUMBAI,GREATER MUMBAI,MAHARASHTRA
BKDN0460413,Dena Bank,BKDN0460413,400018075,MAROL - MUMBAI,"THE HERITAGE, ANDHERI(EAST), MUMBAI-400019",,MUMBAI,GREATER MUMBAI,MAHARASHTRA
BKDN0460461,Dena Bank,BKDN0460461,400018062,KURLA (NORTH),"HABIB TERACE,AGRA RD,KURLA NORTH,MUMBAI-400 070",,MUMBAI,GREATER MUMBAI,MAHARASHTRA
BKDN0460486,Dena Bank,BKDN0460486,400018078,ORLEM - MALAD (WEST),"ANTHSIL,O.M.RD.,MARVE ROAD,MALAD(WEST),MUMBAI,MAHARASHTRA-400064",,MUMBAI,GREATER MUMBAI,MAHARASHTRA
BKDN0460487,Dena Bank,BKDN0460487,400018077,MOUNT POINSUR,"ANAND BHUVAN,GRD.FL, SARDAR V.P.ROAD,MT.POINSUR,BORIVALI(WEST),MUMBAI-400 092.",,MUMBAI,GREATER MUMBAI,MAHARASHTRA
BKDN0460533,Dena Bank,BKDN0460533,400018055,MUMBAI (SHIVAJI PARK),"JILKAR HOUSE,15-A,VEER SAVARKAR MARG,NORTH SHIVJI PARK,DADAR,MUMBAI",,MUMBAI,GREATER MUMBAI,MAHARASHTRA
BKDN0460543,Dena Bank,BKDN0460543,400018079,KALINA,"176CSTRD,DENABANK EMPCOOPHSBLDG,MUMBAI400 098",,MUMBAI,GREATER MUMBAI,MAHARASHTRA
BKDN0460551,Dena Bank,BKDN0460551,400018020,MUMBAI (BORIVLI (EAST)),"LAXMI NARRAYAN, KASTURBA ROAD NO.1, BORIVLI(EAST),MUMBAI-400066",,MUMBAI,GREATER MUMBAI,MAHARASHTRA
BKDN0460629,Dena Bank,BKDN0460629,400018045,MUMBAI (GHATKOPAR (WEST)),"38,SANGHANI ESTATE, LBS MARG, GHATKOPAR(WEST), MUMBAI-400086",,MUMBAI,GREATER MUMBAI,MAHARASHTRA
BKDN0460684,Dena Bank,BKDN0460684,400018053,KANDIVLI (EAST),"PRAGYA APT.,AKURLI MAIN RD.,KANDIVALI,MUMBAI,MAHARASHTRA-400101",,MUMBAI,GREATER MUMBAI,MAHARASHTRA
BKDN0460705,Dena Bank,BKDN0460705,400018034,MUMBAI (GOREGAON(EAST)),"JAGDAMBA HOUSE,ANUPAM CINEMA,STATION ROAD,GOREGOAN(EAST),MUMBAI-400063",,MUMBAI,GREATER MUMBAI,MAHARASHTRA
BKDN0460778,Dena Bank,BKDN0460778,400018066,MANISH NAGAR - ANDHERI(W),"MANISH NAGAR,PLOT-5 & 6,JAYAPRAKASH RD.ANDHERI(WEST),MUMBAI,MAHARASHTRA-400064",,MUMBAI,GREATER MUMBAI,MAHARASHTRA
BKDN0460786,Dena Bank,BKDN0460786,400018076,DAHISAR (EAST),"1ST FLR,L.BAI JAV.AP., BHARUCHA RD, DAHISAR EAST, MUMBAI 400 068.",,MUMBAI,GREATER MUMBAI,MAHARASHTRA
BKDN0460799,Dena Bank,BKDN0460799,400018059,MULUND(EAST) - MUMBAI,"ASHOKA APARTMENT,MAHATMA PHULE ROAD,MUMBAI-400081",,MUMBAI,GREATER MUMBAI,MAHARASHTRA
BKDN0460911,Dena Bank,BKDN0460911,400018081,YOGINAGAR (BORIVILI -WEST,"BLDG.NO.E-20,B WING,YOGINAGAR,BORIVILI(WEST),MUMBAI,MAHARASHTRA-400092",,MUMBAI,GREATER MUMBAI,MAHARASHTRA
BKDN0461149,Dena Bank,BKDN0461149,400018106,CHARKOP,"CHAMUNDA CHS,PLOT 265,SECTOR 1,RDP - 4,KANDIVLI (WEST, MUMBAI-400067",,MUMBAI,GREATER MUMBAI,MAHARASHTRA
BKDN0461162,Dena Bank,BKDN0461162,400018110,CORPORATE BUSSINESS BRANCH,"C-10,G BLOCK,DENA CORPORATE CENTRE,BANDRA KURLA COMPLEX,MUMBAI-400 051",,MUMBAI,GREATER MUMBAI,MAHARASHTRA
BKDN0461200,Dena Bank,BKDN0461200,400018116,LOKHANDWALA,"TARAPUR TOWERS CHS LTD.,GROUND FLOOR,PHASE-II,NEW LINK ROAD,MUMBAI,MAHARASHTRA,",,MUMBAI,GREATER MUMBAI,MAHARASHTRA
BKDN0461220,Dena Bank,BKDN0461220,400018119,RETAIL ASSET BR.(MUMBAI),"SHARDA BHAVAN,OPP:- MITHIBAI COLLEGE,V M ROAD,JVPD SCHEME,MUMBAI,MAHARASHTRA",,MUMBAI,GREATER MUMBAI,MAHARASHTRA
BKDN0461237,Dena Bank,BKDN0461237,NON-MICR,"RETAIL ASSET BRANCH, BHANDUP","RETAIL ASSET BRANCH, BURJOR  BAUG, L.B.S. ROAD,BHANDUP,MAHARASHTRA",,MUMBAI,GREATER MUMBAI,MAHARASHTRA
BKDN0461328,Dena Bank,BKDN0461328,NON-MICR,MANDI GOBINGARH,"IRIN AND STEEL ROLLING MILLS,AMLOH ROAD,MANDI GOBINGARH,PUNJAB",,GOBIND GARH,FATEHGARH SAHIB,PUNJAB
BKDN0470143,Dena Bank,BKDN0470143,403018002,PANAJI(GOA),"INDRAPRASTHA, GROUND FLOOR,DR. SHIRGAOKAR ROAD,P.B. NO.141,PANAJI,GOA,",,PANAJI,NORTH GOA,GOA
BKDN0470150,Dena Bank,BKDN0470150,400018063,THANE,"SHANTA SADAN,GOKHALE RD.,THANE-400602,ALSO AT MANEESHA, 272,THANE-400601",,THANE,THANE,MAHARASHTRA
BKDN0470157,Dena Bank,BKDN0470157,400018060,BHAYANDAR WEST,"STATION ROAD,MIRA BHAYANDAR,BHAYANDAR 401 101,DIST THANE",,MIRA-BHAYANDAR,THANE,MAHARASHTRA
BKDN0470178,Dena Bank,BKDN0470178,403018005,ALDONA,"CHURCH ROAD,ALDONA.DIST.BARDEZ.,PANAJI,GOA-403508",,ALDONA,NORTH GOA,GOA
BKDN0470179,Dena Bank,BKDN0470179,403018013,PONDA-GOA,"MEGHJI DADA MANSION,PB. NO.14,PONDA-403401",,PONDA,NORTH GOA,GOA
BKDN0470216,Dena Bank,BKDN0470216,NON-MICR,GOAVELHA,"GOA VELHA,TEHTISWADI,GOA VELHA 403 108",,GOA VELHA,NORTH GOA,GOA
BKDN0470218,Dena Bank,BKDN0470218,403018007,TIVIM,"DENA BANK CASA MENEZES( NEAR POST OFFICE),TIVIM, DIST.BARDEZ.,PANAJI,GOA-403502",,TIVIM,NORTH GOA,GOA
BKDN0470219,Dena Bank,BKDN0470219,403018015,LOUTULIM,"NEAR CHURCH,LOUTULIM SALSETTE,GOA 403 718",,LOUTULIM,SOUTH GOA,GOA
BKDN0470242,Dena Bank,BKDN0470242,400018112,KELWA MAHIM,"GRAMPANCHAYAT BLDG,TAL PALGHAR,KELVA MAHIM 401 402",,KELWA MAHIM,THANE,MAHARASHTRA
BKDN0470243,Dena Bank,BKDN0470243,400018111,PALGHAR,"MANOR ROAD,PALGHAR,THANE-401404",,PALGHAR,THANE,MAHARASHTRA
BKDN0470244,Dena Bank,BKDN0470244,NON-MICR,CHINCHANI,"GANDHI CHOWK.,CHINCHANI.TAL.DAHANU.,MAHARASHTR",,CHINCHANI,THANE,MAHARASHTRA
BKDN0470262,Dena Bank,BKDN0470262,NON-MICR,DAHANU,"DAHANU ROAD,TEH.DAHANU,DAHANU - 401 602.",,DAHANU,THANE,MAHARASHTRA
BKDN0470264,Dena Bank,BKDN0470264,400018113,SAPHALA,"STATION ROAD,POSTUMBERPADA401 102",,SAPHALA,THANE,MAHARASHTRA
BKDN0470285,Dena Bank,BKDN0470285,NON-MICR,REVDANDA,"PANDURANG NIWAS BAZAR PETH.,REVDANDA.TAL.ALIBAUG.,MAHARASHTRA",,REVDANDA,RAIGAD,MAHARASHTRA
BKDN0470348,Dena Bank,BKDN0470348,400018096,UTTAN,"UTTAN,VIA BHAYANDAR,UTTAN 401 001",,MIRA-BHAYANDAR,THANE,MAHARASHTRA
BKDN0470376,Dena Bank,BKDN0470376,NON-MICR,POMBURPA (GOA),"PO ALDONA. DIST.BARDEZ.POMBURPA-OLAULIM,PANAJI,GOA,MAHARASHTRA",,POMBURPA OLAULIM,NORTH GOA,GOA
BKDN0470380,Dena Bank,BKDN0470380,NON-MICR,MOKHADA,"MOKHADA. VIA JAWAHAR.,MAHARASHTRA",,MOKHADA,THANE,MAHARASHTRA
BKDN0470443,Dena Bank,BKDN0470443,NIN-MICR,CHOWK,"TAL. KHALAPUR, CHOWK,DIST. RAIGAD,MAHARASHTRA",,CHOWK,RAIGAD,MAHARASHTRA
BKDN0470445,Dena Bank,BKDN0470445,NON MICR,BOISAR,"OPP. STATION, PALGHAR ROAD",,BOISAR,THANE,MAHARASHTRA
BKDN0470455,Dena Bank,BKDN0470455,NON-MICR,NAGOTHANE,"BAZAR PETH, TAL. ROHA,DIST. RAIGAD,MAHARASHTRA",,NAGOTHANA,RAIGAD,MAHARASHTRA
BKDN0470459,Dena Bank,BKDN0470459,400018092,ULHASNAGAR SEC-5,"PLOT NO.405,MAIN ROAD,ULHASNAGAR,THANE- 421005",,ULHASNAGAR,THANE,MAHARASHTRA
BKDN0470494,Dena Bank,BKDN0470494,NON MICR,VANGAON,"1ST FLOOR LATE S.S.T.S.TR.BLDG VANGAON, MAHARASHTRA",,VANGAON,THANE,MAHARASHTRA
BKDN0470497,Dena Bank,BKDN0470497,403018006,ARPORA (GOA),"DIWAN BHATI, ARPORA, DIST.BARDEZ.,PANAJI,GOA-403516",,ARPORA,NORTH GOA,GOA
BKDN0470498,Dena Bank,BKDN0470498,403018008,PARRA(GOA),"PARAA GOA.,BARDEZ.,PANAJI,GOA-403510",,PARRA,NORTH GOA,GOA
BKDN0470499,Dena Bank,BKDN0470499,403018010,VEREM,"MAIN ROAD,PO RESHMAGOS,GOA 403 114",,VEREM,NORTH GOA,GOA
BKDN0470505,Dena Bank,BKDN0470505,400018099,AMBARNATH(E),"506, DATTA PRASAD,TEMPLE ROAD,AMBARNATH (EAST),THANE-421501",,AMBARNATH,THANE,MAHARASHTRA
BKDN0470520,Dena Bank,BKDN0470520,400018086,KALYAN,"PLOT NO.1962 BY 1963,SHIVAJI CHOWK,KALYAN - 421 301.,DIST. THANE",,KALYAN,THANE,MAHARASHTRA
BKDN0470527,Dena Bank,BKDN0470527,NON MICR,WASHIND,NR. HANUMAN MANDIR MIRJANKAR COMPOUND WASHIND,,WASHIND,THANE,MAHARASHTRA
BKDN0470541,Dena Bank,BKDN0470541,NON-MICR,CHIPLUN,"BAZAR PETH, MAIN ROAD, DIST. RATNAGIRI, MAHARASHTRA",,CHIPLUN,RATNAGIRI,MAHARASHTRA
BKDN0470542,Dena Bank,BKDN0470542,NON-MICR,SHRIVARDHAN,"CH.SHIVAJI MAH.ROAD.,BAZAR PETH,SHRIVARDHAN-402110,MAHARASHTRA",,SHRIVARDHAN,RAIGAD,MAHARASHTRA
BKDN0470567,Dena Bank,BKDN0470567,400018105,PANVEL,"SHIV SMRUTI,M.G ROAD,PANVEL,RAIGAD-410206",,PANVEL,RAIGAD,MAHARASHTRA
BKDN0470575,Dena Bank,BKDN0470575,NON MICR,RATNAGIRI,"2417, LAXMI CHOWK,SUBHASH ROAD,DIST. RATNAGIRI,MAHARASHTRA,",,RATNAGIRI,RATNAGIRI,MAHARASHTRA
BKDN0470582,Dena Bank,BKDN0470582,403018016,MARGAON,"GARDEN VIEW APARTMENT,DR. ANTONIO COLACO RD.,MARGAO,GOA-403601",,MARGAO,SOUTH GOA,GOA
BKDN0470595,Dena Bank,BKDN0470595,400018087,DOMBIVLI(E),"RAGHUKUL DEEP VYAPAR KNR.,1ST FLOOR,PHADKE ROAD,DOMBIVALI,THANE-421201",,DOMBIVLI,THANE,MAHARASHTRA
BKDN0470601,Dena Bank,BKDN0470601,NON MICR,KUDAL,"AT & POST KUDAL 475, BAZAR PETH KUDAL MAHARASHTRA",,KUDAL,SINDHUDURG,MAHARASHTRA
BKDN0470605,Dena Bank,BKDN0470605,400018091,BHIWANDI,"NAVI CHAWL,BAZAR PETH,BHIWANDI,THANE-421302",,BHIWANDI,THANE,MAHARASHTRA
BKDN0470613,Dena Bank,BKDN0470613,403018011,MAPUSA (GOA),"LAKSHMI BUILDING,PETENCHEM BATTA,BARDEZ,MAPUSA-403 507",,MAPUSA,NORTH GOA,GOA
BKDN0470614,Dena Bank,BKDN0470614,403018017,VASCO-DA-GAMA (GOA),"PARRKOT HOUSE,MAIN DOUBLE ROAD,VASCODAGAMA-403802",,PANAJI,NORTH GOA,GOA
BKDN0470638,Dena Bank,BKDN0470638,NON-MICR,KHOPOLI,"OPP.V.HANUMAN MANDIR,BAZAR PETH,KHOPOLI,KHOPOLI - 410 203,DIST. THANE,MAHARASHTRA",,KHOPOLI,RAIGAD,MAHARASHTRA
BKDN0470650,Dena Bank,BKDN0470650,NON-MICR,MANGAON,"BAZAR ROAD, TAL. KUDAL,,DIST. SINDHUDURG,MAHARASHTRA",,MANGAON,RAIGAD,MAHARASHTRA
BKDN0470658,Dena Bank,BKDN0470658,400018082,VASHI (SECTOR-6),"SHOP.CENTRE,SEC.NO.6,TURBHE (VASHI),P.O. NAVI MUMBAI,VASHI, DIST. THANE.,MAHARASHTRA-400703",,MUMBAI,GREATER MUMBAI,MAHARASHTRA
BKDN0470677,Dena Bank,BKDN0470677,403018014,BALLI,"BALLINATH,HOUSE NO35,BALLICONCOLIM,DIST BARDEZ",,BALI,SOUTH GOA,GOA
BKDN0470703,Dena Bank,BKDN0470703,400018100,TALOJA,"M.I.D.C.AREA,C.F.C.CENTRE,TALOJA,RAIGAD - 410208",,TALOJA,RAIGAD,MAHARASHTRA
BKDN0470706,Dena Bank,BKDN0470706,403018012,CANSA,"POST TIVIM,DIST BARDEZ,GOA 403 502",,TIVIM,NORTH GOA,GOA
BKDN0470720,Dena Bank,BKDN0470720,400018088,VIRAR(WEST),"SHRIPANT SAMARTH APTT,1ST FLR,VITHAL MANDIR,AGASHI ROAD,VIRAR (W),THANE,MAHARASHTRA",,VIRAR,THANE,MAHARASHTRA
BKDN0470811,Dena Bank,BKDN0470811,400018109,URAN KEGAON,"AT & POST.KEGAON,URAN TEHSIL,DIST. RAIGAD,MAHARASHTRA",,URAN,RAIGAD,MAHARASHTRA
BKDN0470909,Dena Bank,BKDN0470909,NON-MICR,KALAMB,"HOUSE NO.198.,OPP.PANCHAYAT,KALAMB,DIST RAIGADH,MAHARASHTRA",,KALAMB,RAIGAD,MAHARASHTRA
BKDN0470913,Dena Bank,BKDN0470913,400018093,ULHASNAGAR ( SECTOR 2),"MAIN ROAD, SECTOR 2,ULHASNAGAR,THANE",,ULHASNAGAR,THANE,MAHARASHTRA
BKDN0470928,Dena Bank,BKDN0470928,NON-MICR,DIGASHI,"BHIWAMDI GANESHPURI, AMBADI NAKA,DIGASHI-421302",,DIGASHI,THANE,MAHARASHTRA
BKDN0470953,Dena Bank,BKDN0470953,400018089,DOMBIVLI(W),"POORNAYAN, 1ST FLOORPANDIT DEENDAYAL MARG,DOMBIVALI,THANE-421202",,DOMBIVLI,THANE,MAHARASHTRA
BKDN0471002,Dena Bank,BKDN0471002,400018097,SATIVALI,"GRAM PANCHAYAT BHAVAN,SATIVALI 401 208 TAL VASAI",,SATIVALI,THANE,MAHARASHTRA
BKDN0471041,Dena Bank,BKDN0471041,NON-MICR,DHAMANI,"BAILMARE BUILDING,AT & PO SAVROLI. TAL: KHALAPUR-410202,MAHARASHTRA",,DHAMANI,RAIGAD,MAHARASHTRA
BKDN0471072,Dena Bank,BKDN0471072,400018094,THANE (SHREE NAGAR),"SHREE NAGAR,BLDG NO.A.13/1,SECTOR 4,NEAR TATA FISION,THANE-400 604.",,THANE,THANE,MAHARASHTRA
BKDN0471083,Dena Bank,BKDN0471083,400018098,KALAMBOLI NEW BOMBAY,"117A,STEEL MARKET YARD,KALAMBOLI,NAVI MUMBAI411 218",,KALAMBOLI,RAIGAD,MAHARASHTRA
BKDN0471108,Dena Bank,BKDN0471108,400018103,BHAYANDAR(EAST),"SHEETAL SHOPPING COMPLEX, 1ST FLOOR,NEAR RAILWAY STATION,B.P.MAIN ROAD,THANE",,MIRA-BHAYANDAR,THANE,MAHARASHTRA
BKDN0471113,Dena Bank,BKDN0471113,400018104,VASHI-SEC 19,"SEC-19,K-34,APMC MARKET-1,PHASE-2,TURBHE,NAVI MUMBAI-400705",,MUMBAI,GREATER MUMBAI,MAHARASHTRA
BKDN0471114,Dena Bank,BKDN0471114,403018003,PILLAR,"FATHER AGNEL HIGH SCHOOL, PILAR (GOA) ILHAS-GOA, TAL. TISWADI, DIST. NORTH GOA.",,PILAR,NORTH GOA,GOA
BKDN0471152,Dena Bank,BKDN0471152,400018107,AIROLI,"PLOT NO. 35-36SECTOT 6,AIROLI, NAVI MUMBAI",,MUMBAI,GREATER MUMBAI,MAHARASHTRA
BKDN0471167,Dena Bank,BKDN0471167,400018114,MUMBAI - MIRA ROAD,"SHOP NO.1AND2,FLAT NO.35BY001 AND 35BY002,GROUND FLOOR, SHANTI PLAZA,SHANTI PARK,MIRA ROAD E 401107",,MIRA-BHAYANDAR,THANE,MAHARASHTRA
BKDN0471168,Dena Bank,BKDN0471168,400018115,MUMBAI - NERUL,"SHOP NO.3,4,5,6 SUN CITY, PLOT NO.39, SECTOR 44, BEHIND HP PETROL STATION, NERUL - 400706",,MUMBAI,GREATER MUMBAI,MAHARASHTRA
BKDN0471202,Dena Bank,BKDN0471202,NON-MICR,VASAI,"SWAMI NARAYAN TEMPLE, SAMTA NAGAR, OFF AMBADI ROAD, VASAI ROAD(WEST) DIST - THANE 401 202",,VASAI,THANE,MAHARASHTRA
BKDN0471203,Dena Bank,BKDN0471203,400018118,GHODBUNDER,"SHOP NO.2,3,3A,CHARANAMRUT COOP HSG SOCIETY, NEAR SURAJ WATER PARK, THANE-400601",,THANE,THANE,MAHARASHTRA
BKDN0471204,Dena Bank,BKDN0471204,400018117,KHARGHAR,"SAI COOP HSG SOC, PLOT NO.F84, SECTOR12, KHARGHAR-410210",,MUMBAI,GREATER MUMBAI,MAHARASHTRA
BKDN0471350,Dena Bank,BKDN0471350,NON-MICR,URAN,"DENA BANK,  AT & PO PIRKONE ,TAL: RAIGAD",,PIRKON@DENABANK.CO.IN,URAN,RAIGAD
BKDN0471376,Dena Bank,BKDN0471376,NON-MICR,ASE,"ASE,DIST THANE,ASE TAL: MOKHADA,MAHARASHTRA",,THANE,THANE,MAHARASHTRA
BKDN0471412,Dena Bank,BKDN0471412,NON-MICR,PALGHAR,"DENA BANK,  AT & PO DHANSAR ,TAL: THANE",,DHANSA@DENABANK.CO.IN,PALGHAR,THANE
BKDN0471413,Dena Bank,BKDN0471413,NON-MICR,THANE,"DENA BANK,  AT & PO MANERE ,TAL: THANE",,MANARE@DENABANK.CO.IN,THANE,THANE
BKDN0471414,Dena Bank,BKDN0471414,NON-MICR,THANE,"DENA BANK,  AT & PO LONAD SHIVNAGAR ,TAL: THANE",,LONAD@DENABANK.CO.IN,THANE,THANE
BKDN0471415,Dena Bank,BKDN0471415,NON-MICR,SAWANTWADI,"                  DENA BANK,  AUDUMBER PLAZA BEHIND S T DEPOT,  CHITIRALLI SAWANTWADI,   DIST SINDHUDURG,     PIN 416510",SAWANT@DENABANK.CO.IN,SAWANTWADI,SINDHUDURG,MAHARASHTRA
BKDN0510017,Dena Bank,BKDN0510017,413018002,SOLAPUR CHATTI GALLI,"2,WEST MANGALWAR PETH,BATIWAR,PBNO119,SOLAPUR 413 002",,SOLAPUR,SHOLAPUR,MAHARASHTRA
BKDN0510019,Dena Bank,BKDN0510019,411018002,PUNE RAVIWAR PETH,"NEW RAVIWAR PETH,1557,SHUKRAWAR PETH,PUNE-411 002",,PUNE,PUNE,MAHARASHTRA
BKDN0510022,Dena Bank,BKDN0510022,411018003,PUNE (CAMP),"31/32,M.G.ROAD,PUNE CAMP,PUNE,MAHARASHTRA-411001",,PUNE,PUNE,MAHARASHTRA
BKDN0510031,Dena Bank,BKDN0510031,NON-MICR,AHMEDNAGAR,"4596,M.G.ROAD,P B NO. 6 AHMEDNAGAR 414 001",,AHMADNAGAR,AHMEDNAGAR,MAHARASHTRA
BKDN0510045,Dena Bank,BKDN0510045,NON MICR,WALCHANDNAGAR,"VIA BHIGAWAN RLY. STATION,TAL. INDAPUR",,WALCHANDNAGAR,PUNE,MAHARASHTRA
BKDN0510047,Dena Bank,BKDN0510047,NON-MICR,BARAMATI,"242,MAIN ROAD,P.B.NO.17,BARAMATI -413 102,DIST. PUNE",,PUNE,PUNE,MAHARASHTRA
BKDN0510106,Dena Bank,BKDN0510106,411018008,PUNE (DECCAN GYMKHANA),"JANGLI MAHARAJ RD.,ASHOK CHAMBERS,PUNE,MAHARASHTRA-411004",,PUNE,PUNE,MAHARASHTRA
BKDN0510113,Dena Bank,BKDN0510113,NON-MICR,KOLHAPUR,"357,SHAHUPURI STN RD,P.B.NO.187,KOLHAPUR -416 001",,KOLHAPUR,KOLHAPUR,MAHARASHTRA
BKDN0510176,Dena Bank,BKDN0510176,431018003,AURANGABAD (JUNA BAZAR),"JUNA BAZAR,SARAFA ROAD,AURANGABAD 431 001",,AURANGABAD,AURANGABAD,MAHARASHTRA
BKDN0510198,Dena Bank,BKDN0510198,NONMICR,NANDED,"GURU GOBINDSINGH RD NANDED,NANDED 431 601",,NANDED,JALGAON,MAHARASHTRA
BKDN0510199,Dena Bank,BKDN0510199,413018003,KAGAL,"MAIN ROAD, KAGAL-416 216,DIST. KOLHAPUR,MAHARASHTRA",,KAGAL,KOLHAPUR,MAHARASHTRA
BKDN0510259,Dena Bank,BKDN0510259,411018006,PUNE-SWARGATE,"LALWANI ESTATE,396 BY 2,PUNE SATARA ROAD,SWARGATEPUNE411 009",,PUNE,PUNE,MAHARASHTRA
BKDN0510284,Dena Bank,BKDN0510284,416018003,GANDHINAGAR - KOLHAPUR,"TAL KARVEER GURUNANAK MARKET GANPOO, MAHARASHTRA",,GANDHINAGAR,KOLHAPUR,MAHARASHTRA
BKDN0510309,Dena Bank,BKDN0510309,NON-MICR,SAILU,"KRANTI CHOWK,DIST. PARBHANI,MAHARASHTRA",,SAILU,PARBHANI,MAHARASHTRA
BKDN0510318,Dena Bank,BKDN0510318,NON-MICR,KUNDALWADI,"KUNDALWADI,MAIN MARKET,KUNDALWADI -431 711.",,KUNDALWADI,NANDED,MAHARASHTRA
BKDN0510319,Dena Bank,BKDN0510319,NON-MICR,PETH UMRI,"1ST FL. NEAR UMRI RLY ST,SHANKARRAO DOPALWAR COMPLEX,PETH UMRI,MAHARASHTRA",,PETH,PUNE,MAHARASHTRA
BKDN0510320,Dena Bank,BKDN0510320,NON-MICR,MUDKHED,"MUDKHED,DIST. NANDED,MAHARASHTRA",,MUKHED,NANDED,MAHARASHTRA
BKDN0510414,Dena Bank,BKDN0510414,413018003,NP SOLAPUR,"PARAS ESTATE.,SOLAPUR - NAVI PETH,MAHARASHTRA",,SOLAPUR,SOLAPUR,MAHARASHTRA
BKDN0510437,Dena Bank,BKDN0510437,NON MICR,MURUD,"LATUR ROAD.MURUD, MAHARASHTRA",,MURUD,LATUR,MAHARASHTRA
BKDN0510438,Dena Bank,BKDN0510438,NON-MICR,ANGAR,"GANDHI CHOWK,DIST. SOLAPUR,MAHARASHTRA",,ANGAR,SOLAPUR,MAHARASHTRA
BKDN0510441,Dena Bank,BKDN0510441,431018002,AURANGABAD (KRANTI CHOWK),"VIJAY KUNJ,ADALAT RD.,KRANTI CHOWK,AURANGABAD,MAHARASHTRA-431001",,AURANGABAD,AURANGABAD,MAHARASHTRA
BKDN0510450,Dena Bank,BKDN0510450,NON MICR,DEGAON,TAL  NORTH SOLAPUR DEGAON,,DEGAON,SOLAPUR,MAHARASHTRA
BKDN0510451,Dena Bank,BKDN0510451,NON-MICR,MAHAGAON,"SHRI R.B.DHARAMAGATTIS BLDG..,MAHAGAON,MAHARASHTRA",,MAHAGAON,YAVATMAL,MAHARASHTRA
BKDN0510491,Dena Bank,BKDN0510491,NON-MICR,LOHA,"NARAYAN SMRUTI. MAIN ROAD,OPP CIVIL COURT, LOHA ,DIST NANDED -431 708",,LOHA,NANDED,MAHARASHTRA
BKDN0510528,Dena Bank,BKDN0510528,NON-MICR,ARVI,"ARVI,TAL.JUNNAR,MAHARASHTRA",,ARVI,PUNE,MAHARASHTRA
BKDN0510539,Dena Bank,BKDN0510539,NON-MICR,KOREGAON,"KOREGAON,TALUKA.KARJAT,MAHARASHTRA",,KOREGAON-BHIMA,PUNE,MAHARASHTRA
BKDN0510576,Dena Bank,BKDN0510576,NON-MICR,KARAD,"LAXMI NIVAS,PLOT.32,SHANIWAR PETH,KARAD -415 110",,KARAD,SATARA,MAHARASHTRA
BKDN0510610,Dena Bank,BKDN0510610,411018005,PUNE-BHAVANI PETH,"266, A.T.P.SCHEME 3,N.T.MARKET,PUNE-411002",,PUNE,PUNE,MAHARASHTRA
BKDN0510627,Dena Bank,BKDN0510627,NON-MICR,SANGLI,"CITY SURVEY NO.290, SAMRAT MANSION, M NAGAR SANGALI 416 416",,SANGLI-MIRAJ-KUPWAD,SANGLI,MAHARASHTRA
BKDN0510628,Dena Bank,BKDN0510628,411018012,PUNE-BHOSARI IND EST,"DR.MANGUDKAR'S BLDG.,NATIONAL HIGHWAY,PUNE-411026",,PUNE,PUNE,MAHARASHTRA
BKDN0510637,Dena Bank,BKDN0510637,411018011,PUNE-PIMPRI CHINCHWAD,"P.NO.7-8,BHOSLE BLDG.,MUMBAI-PUNE,PIMPRI-CHINCHWAD,PUNE-411019",,PIMPRI CHINCHWAD,PUNE,MAHARASHTRA
BKDN0510652,Dena Bank,BKDN0510652,NON MICR,PARITE,"B.S.S.KHARKHANA COMP SHAHUNAGAR PARITE, MAHARASHTRA",,SHAHUNAGAR PARITE,KOLHAPUR,MAHARASHTRA
BKDN0510696,Dena Bank,BKDN0510696,NON-MICR,HALKARNI,"HALKARNI,D.S.S.KARKHANA COMP.,P.O.KARVE.TAL.CHANDGAD.-416552,MAHARASHTRA",,HALKARNI,KOLHAPUR,MAHARASHTRA
BKDN0510744,Dena Bank,BKDN0510744,411018010,PUNE-SADASHIV PETH,"395 B, SADASHIV PETH,OPP.MAH.SAHITYA PARISHAD,TILAK ROAD,PUNE -411030",,PUNE,PUNE,MAHARASHTRA
BKDN0510789,Dena Bank,BKDN0510789,NON-MICR,PIMPALWADI,"AT & POST : PIMPALWADI,TAL. PAITHAN,DIST. AURANGABAD,MAHARASHTRA",,PIMPALWADI,AURANGABAD,MAHARASHTRA
BKDN0510807,Dena Bank,BKDN0510807,NON-MICR,BELANKI,"AT & POST.BELANKI,MIRAJ TEHSIL,BELANKI-416428,MAHARASHTRA",,BELANKI,SANGLI,MAHARASHTRA
BKDN0510866,Dena Bank,BKDN0510866,411018009,PUNE-KOTHRUD,"5,CTS.284,S.V.COLONY,PAUD FATA KOTHRUD,PUNE -411038",,PUNE,PUNE,MAHARASHTRA
BKDN0510944,Dena Bank,BKDN0510944,NON-MICR,ICHALKARANJI,"597,MAIN ROAD,ICHALKARANJI,ICHALKARANJI -416 115,DIST. KOLHAPUR,MAHARASHTRA",,ICHALKARNJI,KOLHAPUR,MAHARASHTRA
BKDN0510946,Dena Bank,BKDN0510946,NON-MICR,LATUR,"DENA BANK, OPP ST STAND, LATUR-414512",,LATUR,LATUR,MAHARASHTRA
BKDN0510950,Dena Bank,BKDN0510950,NON-MICR,JALNA,"PLOT NO. 4058/23, SAROJINIDEVI RD., MONDHA,  431203 MAHARASHTRA",,JALNA,JALNA,MAHARASHTRA
BKDN0510956,Dena Bank,BKDN0510956,411018007,PUNE SHIVAJI HOUSING SOCIETY,"ANAND BUNGLOW,64SHIVAJI COOPSOC,PUNE 411 016",,PUNE,PUNE,MAHARASHTRA
BKDN0510970,Dena Bank,BKDN0510970,NON-MICR,GUHA,"TEL .RAHURI,GUHA-413706,MAHARASHTRA",,GUHA,AHMADNAGAR,MAHARASHTRA
BKDN0510980,Dena Bank,BKDN0510980,NON-MICR,DEOLALI PRAVARA,"THOMBARE BLDG,SHRIRAM MANDIR CHOWK,DEOLALI PRAVARA-413716,MAHARASHTRA",,DEOLALI PRAVARA,AHMADNAGAR,MAHARASHTRA
BKDN0510981,Dena Bank,BKDN0510981,NON-MICR,LONI - DEOKAR,"LONI - DEOKAR,TEH.INDAPUR,MAHARASHTRA-413132",,LONI-DEOKAR,PUNE,MAHARASHTRA
BKDN0510995,Dena Bank,BKDN0510995,NON MICR,SIDDHANERLI,TAL. KAGAL DIST. KOLHAPUR MAHARASHTRA,,SIDDHANERLI,KOLHAPUR,MAHARASHTRA
BKDN0510999,Dena Bank,BKDN0510999,NON-MICR,NANDED ANANDNAGAR,"103,ANANDNAGAR,NANDED - 431 602,MAHARASHTRA",,NANDED,NANDED,MAHARASHTRA
BKDN0511012,Dena Bank,BKDN0511012,NON-MICR,NIRA-NARSINGPUR,"NIRA-NARSINGPUR,VIA TEMBHURNI,TAL. INDAPUR,MAHARASHTRA",,NARSINGPUR,PUNE,MAHARASHTRA
BKDN0511022,Dena Bank,BKDN0511022,NON-MICR,MANGAON,"MANGAON  PO,TALUKA CHANDGARH,DIST KOLHAPUR  416507,MAHARASHTRA",,CHANDGAD,KOLHAPUR,MAHARASHTRA
BKDN0511029,Dena Bank,BKDN0511029,NONMICR,SHIVALI,"AT AND POST SHIVALI,TAL.AUSA,MAHARASHTRA",,AUSA,LATUR,MAHARASHTRA
BKDN0511031,Dena Bank,BKDN0511031,NON-MICR,MALKAWTHA,"MALKAWTHA.,TAL NANDED,MAHARASHTRA",,KAVATHE,PUNE,MAHARASHTRA
BKDN0511051,Dena Bank,BKDN0511051,NON-MICR,BHOSI,"TAL.BHOKAR.,DIST.NANDED,BHOSI,MAHARASHTRA-431745",,BHOSI,NANDED,MAHARASHTRA
BKDN0511061,Dena Bank,BKDN0511061,NON MICR,LOHEGAON,TAL.PAITHAN DIST.AURANGABAD LOHEGAON MAHARASHTRA,,LOHAGAON BK.,AURANGABAD,MAHARASHTRA
BKDN0511074,Dena Bank,BKDN0511074,NON-MICR,SANGAMNER,"SATHI BHASKARRAO DURVESMARK,PRATHISTHAN BLDG.,MOMINPURA DIST-AHMEDNAGAR",,SANGAMNER,AHMEDNAGAR,MAHARASHTRA
BKDN0511173,Dena Bank,BKDN0511173,NON-MICR,SATARA,"RAMVILAS MANOR, PLOT NO.1, SHIVAJI NAGAR CHS LTD., SADAR BAZAR CAMP, SATARA- 415001",,SATARA,SATARA,MAHARASHTRA
BKDN0511216,Dena Bank,BKDN0511216,NON-MICR,BEED,"6/10 , SAGAR HIGH OPP : - BEED BUS STAND AURANGABAD,SDAPUR HIGHWAY BEED - 431122",,AURANGABAD,AURANGABAD,MAHARASHTRA
BKDN0511236,Dena Bank,BKDN0511236,411018013,"RETAIL ASSET BRANCH, PUNE","RETAIL ASSET BR PUNE,212 GANDHI COMPLEX, NARAYAN PETH,PUNE-411016,MAHARASHTRA",,PUNE,PUNE,MAHARASHTRA
BKDN0511242,Dena Bank,BKDN0511242,NON-MICR,MAHALUNGE,"GAT NO 392./1, MAHALUNGE,CHAKAN TALEGAON RD, DIST PUNE,MAHARASHTRA-410501",,CHAKAN,PUNE,MAHARASHTRA
BKDN0511336,Dena Bank,BKDN0511336,NON-MICR,PALUS,"PRABHU LILA PLAZA, GAT NO 5, S NO 4029/11,AT MAUJE PALUS,TAL PALUS, DIST. SANGLI,PIN-416310 ",,PALUS,SANGLI,MAHARASHTRA
BKDN0511408,Dena Bank,BKDN0511408,,THIKPURLI,"DENA BANK,THIKPURLI,,TAL RADHANAGARI,DIST KOLHAPUR,MAHARASHTRA-416208",,9850515530;THIKPU@DENABANK.CO.IN,RADHANAGRI,KOLHAPUR
BKDN0511418,Dena Bank,BKDN0511418,NON-MICR,SANGLI-MIRAJ-KUPWAD,"DENA BANK,  AT & PO SHIPUR ,TAL: SANGLI",,SHIPU@DENABANK.CO.IN,SANGLI-MIRAJ-KUPWAD,SANGLI
BKDN0511428,Dena Bank,BKDN0511428,NON-MICR,SANGAMNER,"DENA BANK,  AT & PO AMBHORE TAL DIST AHMEDNAGAR",,AMBHO@DENABANK.CO.IN,SANGAMNER,AHMADNAGAR
BKDN0511429,Dena Bank,BKDN0511429,NON-MICR,KARAD,"DENA BANK,  AT & PO VADOLI NILESHWAR TAL DIST SATARA",,VADOL@DENABANK.CO.IN,KARAD,SATARA
BKDN0511430,Dena Bank,BKDN0511430,NON-MICR,BARAMATI,"DENA BANK,  AT & PO MEDAD ,TAL: PUNE",,MEDAD@DENABANK.CO.IN,BARAMATI,PUNE
BKDN0520006,Dena Bank,BKDN0520006,422018002,NASHIK RAVIWAR KARANJA,"16,RAVIWAR KARANJA,PB NO 45,NASIK422 001",,NASHIK,NASHIK,MAHARASHTRA
BKDN0520007,Dena Bank,BKDN0520007,422018005,NASHIK ROAD,"13/135,KHORSHED MANSION,SHIVAJI ROAD,NASHIK ROAD,NASIK-422101",,NASHIK,NASHIK,MAHARASHTRA
BKDN0520029,Dena Bank,BKDN0520029,NON-MICR,MANMAD,"PANDIT NEHRU ROAD,MANMAD,NASHIK-423104,MAHARASHTRA ",,MANMAD,NASHIK,MAHARASHTRA
BKDN0520048,Dena Bank,BKDN0520048,NON-MICR,MALEGAON CITY,"TILAK ROAD,P.B. NO.12,SHANIVAR PETH,MALEGAON,NASHIK-423203",,MALEGAON,NASHIK,MAHARASHTRA
BKDN0520089,Dena Bank,BKDN0520089,NON-MICR,NANDURBAR,"GANPATI ROAD, P B NO. 46 NANDURBAR 425 412",,NANDURBAR,NANDURBAR,MAHARASHTRA
BKDN0520138,Dena Bank,BKDN0520138,440018004,NAGPUR (ITWARI),"1157,CENTRAL AVENUE RD.,ITWARI,NAGPUR,MAHARASHTRA-440002",,NAGPUR,NAGPUR,MAHARASHTRA
BKDN0520168,Dena Bank,BKDN0520168,NIN-MICR,YEOLA,"TAL. YEOLA,DIST. NASHIK,DIST. NASHIK,",,YEOLA,NASIK,MAHARASHTRA
BKDN0520181,Dena Bank,BKDN0520181,NON-MICR,RAVALGAON,"RAVALGAON, DIST. NASHIK, MAHARASHTRA",,RAVALGAON,NASIK,MAHARASHTRA
BKDN0520182,Dena Bank,BKDN0520182,NON-MICR,GONDIA,"ANSARI WARD,NEAR KHOJA MASJID S S GIRLS COLLEGE RD. P B NO. 32  GONDIA",,GONDIYA,GONDIA,MAHARASHTRA
BKDN0520193,Dena Bank,BKDN0520193,NON-MICR,ERANDOL,"MARWADI GALLI,ERANDOL.JALGAON,MAHARASHTRA",,ERANDOL,JALGAON,MAHARASHTRA
BKDN0520213,Dena Bank,BKDN0520213,NON-MICR,JALGAON NAVI PETH,"MAHAJI BAZAR,NAVI PETH, JALGAON 425 001",,JALGAON,JALGAON,MAHARASHTRA
BKDN0520231,Dena Bank,BKDN0520231,NON-MICR,DHULE KHOLGALLI,"KHOL GALLI,PANDIT DINDAYAL UPADHAYA MARG,DHULE-424001",,DHULE,DHULE,MAHARASHTRA
BKDN0520249,Dena Bank,BKDN0520249,NON-MICR,VINCHUR,"865.MARWADI PETH.VINCHUR,422305,GUJARAT",,VINCHUR,NASIK,MAHARASHTRA
BKDN0520274,Dena Bank,BKDN0520274,NON-MICR,TRIMBAK,"BALGANDHARVA MARG,TRYAMBAKESHWAR-422212, MAHARASHTRA",,TRIMBAK,NASIK,MAHARASHTRA
BKDN0520282,Dena Bank,BKDN0520282,NON-MICR,CHOPDA,"CHOPDA BRANCH,1ST FLOOR, B.K. PLAZA, AMBEDKAR CHOUK, CHOPDA",,CHOPDA,JALGAON,MAHARASHTRA
BKDN0520283,Dena Bank,BKDN0520283,NON-MICR,SHIRPUR,"SHIRPUR TAL SHIRPUR DIST DHULE, MAHARASHTRA 425405",,SHIRPUR,DHULE,MAHARASHTRA
BKDN0520315,Dena Bank,BKDN0520315,NON-MICR,NAMPUR,"NAMPUR, NAMPUR  423204",,NAMPUR,NASHIK,MAHARASHTRA
BKDN0520322,Dena Bank,BKDN0520322,NON-MICR,SURGANA,"SURGANA, SURGANA  422 211",,SURGANA,NASHIK,MAHARASHTRA
BKDN0520327,Dena Bank,BKDN0520327,NON-MICR,KHAPA,"AT & POST SOMNI,CHHATTISGARH",,KHAPA,NAGPUR,MAHARASHTRA
BKDN0520343,Dena Bank,BKDN0520343,NON-MICR,DEOLA,"DEOLA BRANCH,TAL.KALWAN,   DEOLA , DIST- NASIK",,DEOLA,NASHIK,MAHARASHTRA
BKDN0520355,Dena Bank,BKDN0520355,NON-MICR,SATANA,"TILAK ROAD,SATANA,NASHIK-423301",,SATANA,NASHIK,MAHARASHTRA
BKDN0520411,Dena Bank,BKDN0520411,NON-MICR,TIRORA,"MAIN  ROAD,TIRORA-441911,MAHARASHTRA",,TIRORA,GONDIA,MAHARASHTRA
BKDN0520447,Dena Bank,BKDN0520447,NON-MICR,IGATPURI,"MAIN BAZAR,IGATPURI. HOUSE NO 118-A IGATPURI 422 403",,IGATPURI,NASHIK,MAHARASHTRA
BKDN0520501,Dena Bank,BKDN0520501,NON-MICR,ARJUNI MOREGAON,"ARJUNI MOREGAON-441701,MAHARASHTRA",,ARJUNI MOREGAON,GONDIA,MAHARASHTRA
BKDN0520502,Dena Bank,BKDN0520502,NON-MICR,NAVEGAON BANDH,"NAVEGAON BANDH,MAHARASHTRA",,NAVEGAON BANDH,GONDIA,MAHARASHTRA
BKDN0520503,Dena Bank,BKDN0520503,NON MICR,DEORI,"DURGA CHOWK DEORI, MAHARASHTRA",,DEORI,GONDIA,MAHARASHTRA
BKDN0520517,Dena Bank,BKDN0520517,NON-MICR,SHAHADA,"OPP HOTEL SHERE PUNJAB,MANJU SETH MARKET, SHAHADA  425 409",,DHULE,DHULE,MAHARASHTRA
BKDN0520523,Dena Bank,BKDN0520523,440018002,DHARAMPETH,"WEST HIGH COURT ROAD,DHARAMPETH,NAGPUR-440010",,NAGPUR,NAGPUR,MAHARASHTRA
BKDN0520537,Dena Bank,BKDN0520537,NON-MICR,NERI,"NERI,BAZAR,MAHARASHTRA",,NERI,JALGAON,MAHARASHTRA
BKDN0520538,Dena Bank,BKDN0520538,440018005,KHAPARKHEDA,"MSEB QUARTERS,KHAPARKHEDA,NAGPUR-441102",,NAGPUR,NAGPUR,MAHARASHTRA
BKDN0520552,Dena Bank,BKDN0520552,NON-MICR,AMRAVATI,"MEERA CHAMBERS,PRATAP CHK INSIDE JAE GATE P B NO 93 AMRAVATI 444 601",,AMRAVATI,AMRAVATI,MAHARASHTRA
BKDN0520594,Dena Bank,BKDN0520594,NON MICR,HARSUL,"PEINT TEHSIL MAIN BAZAR.HARSUL.HARSUL, MAHARASHTRA",,HARSUL,NASIK,MAHARASHTRA
BKDN0520606,Dena Bank,BKDN0520606,NON-MICR,AMALNER,"RANI LAXMIBAI CHOWK, BAZARPETH,DIST. JALGAON,MAHARASHTRA",,AMALNER,JALGAON,MAHARASHTRA
BKDN0520623,Dena Bank,BKDN0520623,NON-MICR,MALEGAON CAMP,"MAIN ROAD,MALEGAON CAMP, MALEGOAN -423105",,MALEGAON,NASHIK,MAHARASHTRA
BKDN0520639,Dena Bank,BKDN0520639,422018003,BHADRAKALI,"RENUKA PLAZA, NEAR GPO, TRYAMBAK ROAD, BHADRAKALI, NASHIK CITY - 422001",,NASHIK,NASHIK,MAHARASHTRA
BKDN0520671,Dena Bank,BKDN0520671,440018003,SITABULDI,"4,PANCHSHEEL,JNEHRU MARG,NAGPUR 440 012",,NAGPUR,NAGPUR,MAHARASHTRA
BKDN0520672,Dena Bank,BKDN0520672,NON-MICR,TAHARABAD,"TAHARABAD,TAL. BAGLAN,DIST. NASHIK,MAHARASHTRA",,TAHARABAD,NASIK,MAHARASHTRA
BKDN0520689,Dena Bank,BKDN0520689,NON-MICR,JANORI,"ANORI,TAL.DINDORI, JANORI-422 106. DIST. NASHIK",,JANORI,NASHIK,MAHARASHTRA
BKDN0520742,Dena Bank,BKDN0520742,NON-MICR,NANDGAON,"KASAR LANE,SHANKER SANKUL,NANDGAON,MAHARASHTRA",,NANDGAON,NASIK,MAHARASHTRA
BKDN0520754,Dena Bank,BKDN0520754,422018006,"DEOLALI CAMP,NASIK,","OPP CANTT BOARD HOSPITA, VADNER ROAD, DEOLALI CAMP, NASHIK-422401",,DEOLALI,NASHIK,MAHARASHTRA
BKDN0520782,Dena Bank,BKDN0520782,NON-MICR,SADAK ARJUNI,"AT & P.SADAK ARJUNI.,TEH.SAKOLI.TAL.DEORI.,MAHARASHTRA",,SADAK ARJUNI,GONDIA,MAHARASHTRA
BKDN0520791,Dena Bank,BKDN0520791,422018004,NASHIK-PANCHAVATI,"DENA BANK, 4315, SARASWATI BHUVAN, MALVIYA CHOWK, PANCHAVATI, NASHIK - 422 003",,NASHIK,NASHIK,MAHARASHTRA
BKDN0520815,Dena Bank,BKDN0520815,NONMICR,SHIRALA,SHANKARLAL NARANDAS BLDG CHANDUR BAZAR ROAD SHIRALA 444 421,,SHIRALA,AMRAVATI,MAHARASHTRA
BKDN0520825,Dena Bank,BKDN0520825,NON-MICR,AKOLA,"114,NEW CLOTH MARKET NEAR OPEN THEATRE AKOLA 444 001",,AKOLA,AKOLA,MAHARASHTRA
BKDN0520829,Dena Bank,BKDN0520829,NON-MICR,KELIVELI,"KELIVELI,AKOT TEHSIL,AT & POST.KELIWELI.,MAHARASHTRA-444111",,KELIWELI,AKOLA,MAHARASHTRA
BKDN0520856,Dena Bank,BKDN0520856,NONMICR,KHARTALEGAON,"A AND P.KHARTALEGAON,GULABKUNJ.TAL.BHATKULI,MAHARASHTRA",,KHARTALEGAON,AMRAVATI,MAHARASHTRA
BKDN0520882,Dena Bank,BKDN0520882,NONMICR,VARWADE,"JUGNU CHOWK,STATION AREA THE SHINDKHEDA",,DONDAICHA,DHULE,MAHARASHTRA
BKDN0520962,Dena Bank,BKDN0520962,NON-MICR,BRAHMANGAON,"TEH.BAGLAN,BRAHMANGAON,MAHARASHTRA",,BRAHMANGAON,NASIK,MAHARASHTRA
BKDN0520978,Dena Bank,BKDN0520978,NON-MICR,CHANDRAPUR,"112,BAZAR WARD, CHANDRAPUR 442 401",,CHANDRAPUR,CHANDRAPUR,MAHARASHTRA
BKDN0520993,Dena Bank,BKDN0520993,NON-MICR,DHAKAMBE,"TAL. DINDORI,DHAKAMBE,422004,MAHARASHTRA",,DHAKAMBE,NASIK,MAHARASHTRA
BKDN0521048,Dena Bank,BKDN0521048,NON-MICR,GORGAVLE,"TAL.CHOPDA.,DIST.JALGAON.,GORGAVALE,MAHARASHTRA-425107",,GORGAWALE (BK),JALGAON,MAHARASHTRA
BKDN0521054,Dena Bank,BKDN0521054,NON-MICR,GONDUMARI,"GONDUMARI,TAL.ARJUNI MOREGOAN.,DIST.BHANDARA.,MAHARASHTRA",,GONDUMARI,GONDIA,MAHARASHTRA
BKDN0521084,Dena Bank,BKDN0521084,NONMICR,BHUSAWAL,"RPDBHUSAWAL,BHUSAWAL 425 203",,BHUSAWAL,JALGAON,MAHARASHTRA
BKDN0521094,Dena Bank,BKDN0521094,NON-MICR,SINNAR,"SINNOR IND. ESTATE,SINNOR.DIST.:NASHIK-422103",,SINNAR,NASIK,MAHARASHTRA
BKDN0521106,Dena Bank,BKDN0521106,NON-MICR,CHALISGAON,"CAPTAINS CORNER, BHADGAON ROAD,DIST. CHALISGAON,MAHARASHTRA",,CHALISGAON,JALGAON,MAHARASHTRA
BKDN0521161,Dena Bank,BKDN0521161,440018006,NAGPUR-CIVIL LINES,"INDIAN AIRLINES BUILDING,318-B,CIVIL LINES,TBC/SDV,NAGPUR-440001",,NAGPUR,NAGPUR,MAHARASHTRA
BKDN0521176,Dena Bank,BKDN0521176,422018007,GANGAPUR ROAD,"01, SUKHSHANTI HEIGHTS, NARSINGH NAGAR, GANGAPUR ROAD, NASHIK",,NASHIK,NASHIK,MAHARASHTRA
BKDN0521211,Dena Bank,BKDN0521211,NON-MICR,CHANDUR BAZAR AMRAVATI,"KRISHARPAN COMPLEX, MAIN ROAD, CHANDUR BAZAR, DIST AMARAVATI-444704",,AMRAVATI,AMRAVATI,MAHARASHTRA
BKDN0521219,Dena Bank,BKDN0521219,444018103,AMRAVATI CAMP,"VIDYA JYOTI COLLEGE CAMPUS, AMRAVATI CITY",,AMRAVATI,AMRAVATI,MAHARASHTRA
BKDN0521257,Dena Bank,BKDN0521257,NON-MICR,KHAMGAON,"KHAMGAON,GAURAVANAND ARCADE, N H NO 6,NANDURA ROAD, DIST BULDHANA,MAHARASHTRA-444303",,KHAMGAON,BULDHANA,MAHARASHTRA
BKDN0521258,Dena Bank,BKDN0521258,444018104,MIDC AMRAWATI,"MIDC AMRAWATI,PLOT 39, SURYA 24, 38 MAUZE,RAJAPEETH, PRAGNE, DASTUR ROAD,AMRAVATI,MAHARASHTRA",,AMRAVATI,AMRAVATI,MAHARASHTRA
BKDN0521259,Dena Bank,BKDN0521259,441018102,BHANDARA,"SHIVPARVATI BUILDING, OPP S T BUS STAND, BHANDARA, MAHARASHTRA - 441 904",,BHANDARA,BHANDARA,MAHARASHTRA
BKDN0521260,Dena Bank,BKDN0521260,425018504,RAVER,"NAIK COMPLEX,BHURANPUR ROAD,RAVER,DIST JALGAON,NASHIK-425508",,RAVER,JALGAON,MAHARASHTRA
BKDN0521261,Dena Bank,BKDN0521261,442018002,WARDHA,"SUKHAKARTA COMPLEX, 1ST FLOOR,ARVI NAKA CHOWK, VARDHA,MAHARASHTRA-442001",,WARDHA,WARDHA,MAHARASHTRA
BKDN0521406,Dena Bank,BKDN0521406,,NIMGAON MADH,"NIMGAON MADH,TAL YEOLA,DIST NASHIK,MAHARASHTRA-423401",,9822013103;NIMGAO@DENABANK.CO.IN,YEOLA,NASIK
BKDN0521407,Dena Bank,BKDN0521407,NON-MICR,NIMBHORA,"DENA BANK,  AT & PO NIMBORA ,TAL: JALGAON",,,NIMBHORA,JALGAON
BKDN0521419,Dena Bank,BKDN0521419,NON-MICR,SINNAR,"DENA BANK., INDUSTRIAL COMPLEX, GALA NO. 39,40,59 & 60, STICE,SINNAR-SHIRDI ROAD, MUSALGAON 422122, THASIL SINNAR MAHARASHTRA",,,SINNAR,NASIK
BKDN0521434,Dena Bank,BKDN0521434,NON-MICR,DINDORI,"DENA BANK,  AT & PO RAMSHEJ ,TAL: NASHIK",,,DINDORI,NASIK
BKDN0521435,Dena Bank,BKDN0521435,NON-MICR,DEOLA,"DENA BANK,  AT & PO LOHONER SAVAKI ,TAL: NASHIK",,,DEOLA,NASIK
BKDN0521436,Dena Bank,BKDN0521436,NON-MICR,SATANA,"DENA BANK,  AT & PO YASHWANT NAGAR ,TAL: NASHIK",,,SATANA,NASIK
BKDN0521437,Dena Bank,BKDN0521437,NON-MICR,SATANA,"DENA BANK,  AT & PO MUNJWAD ,TAL: NASHIK",,,SATANA,NASIK
BKDN0521438,Dena Bank,BKDN0521438,NON-MICR,IGATPURI,"DENA BANK,  AT & PO DHARGAON VIR ,TAL: NASHIK",,,IGATPURI,NASIK
BKDN0521442,Dena Bank,BKDN0521442,NON-MICR,PIMPALGAON BASWANT,"DENA BANK,  GR FLR NEAR BORASTE AGRO ENTERPRISES,  PIMPALGAON BASWANT,  TAL NIPHAD DIST NASHIK,  PIN 422209",9850260825;PIMPALG@DENABANK.CO.IN,NIPHAD,NASIK,MAHARASHTRA
BKDN0521443,Dena Bank,BKDN0521443,NON-MICR,SAKRI,"DENA BANK,   CTS NO 726 LAXMI ROAD, SAKRI,  DIST DHULE,    PIN 424304",9860902905;SAKRI@DENABANK.CO.IN,DHULE,DHULE,MAHARASHTRA
BKDN0610078,Dena Bank,BKDN0610078,560018002,BANGALORE(KEMPEGOWDA RD.),"KEMPEGOWDA ROAD,PB NO.9901,BANGALORE,KARNATAKA-560009",,BANGALORE,BANGALORE URBAN,KARNATAKA
BKDN0610079,Dena Bank,BKDN0610079,575018002,MANGALORE,"NELLIKAI ROAD,OPP.GUJARAT MAHAJAN SCHOO,BUNDER,MANGALORE-575001",,MANGALORE,DAKSHINA KANNADA,KARNATAKA
BKDN0610124,Dena Bank,BKDN0610124,500018002,HYDERABAD (BANK STREET),"BANK STREET,PB NO.104,HYDERABAD,ANDHRA PRADESH-500195",,HYDERABAD,HYDERABAD URBAN,ANDHRA PRADESH
BKDN0610159,Dena Bank,BKDN0610159,500018005,SECUNDERABAD (M.G.ROAD),"2,4,14-16, 1ST FLOOR,M.G.ROAD,NEAR M. GANDHI STATUE,SECUNDERABAD,ANDHRA PRADESH-500003",,SECUNDERABAD CANTONMENT,HYDERABAD URBAN,ANDHRA PRADESH
BKDN0610194,Dena Bank,BKDN0610194,500018011,SHAMSHABAD,"DIST. RANGA REDDY, TAL RAJENDRANAGAR,SHAMASHABAD 509 218",,SHAMSHABAD,RANGA REDDY,ANDHRA PRADESH
BKDN0610207,Dena Bank,BKDN0610207,NON-MICR,SARJAPURA,"NO.353-354,MAIN ROAD,TAL.ANEKAL,DIST BANGALORE SARJAPURA-562 125",,SARJAPURA,BANGALORE URBAN,KARNATAKA
BKDN0610279,Dena Bank,BKDN0610279,560018003,BANGALORE-JC ROAD,"2, CORPORATION SHOPS,JAYACHAMRAJENDRA ROAD,BANGALORE-560002",,BANGALORE,BANGALORE URBAN,KARNATAKA
BKDN0610294,Dena Bank,BKDN0610294,NON-MICR,PATRENAHALLI,"PATRENAHALLI,UPPARA BYRAPPA BLDG,POST.AJVARA,KARNATAKA",,PATREHALLI,CHITRADURGA,KARNATAKA
BKDN0610410,Dena Bank,BKDN0610410,500018008,HYDERABAD (SAROORNAGAR),"SAROORNAGAR,RANGA REDDY,HYDERABAD-500035",,HYDERABAD,HYDERABAD URBAN,ANDHRA PRADESH
BKDN0610432,Dena Bank,BKDN0610432,NON-MICR,JIGANI,"COMMERCIAL COMPLEX, INDUSTRIAL AREA, JIGANI - 562 106",,JIGANI,BANGALORE URBAN,KARNATAKA
BKDN0610433,Dena Bank,BKDN0610433,NON-MICR,BUDIGERE,"433, MAIN ROAD,TAL. DEVANAHALLI,VIA SULIBELE,DIST. BUDIGERE",,BANGALORE RURAL,BANGALORE RURAL,KARNATAKA
BKDN0610454,Dena Bank,BKDN0610454,NON-MICR,TANDUR,"DENA BANK, NEHRU GANJ,TANDUR,ANDHRA PRADESH-501141",,HYDERABAD,HYDERABAD,ANDHRA PRADESH
BKDN0610458,Dena Bank,BKDN0610458,NON-MICR,DHARMARAM,"DHARMARAM, DIST. NIZAMABAD,ANDHRA PRADESH",,DHARMARAM,NIZAMABAD,ANDHRA PRADESH
BKDN0610515,Dena Bank,BKDN0610515,520018001,VIJAYAWADA,"23-6-123, PRAKASAM ROAD,PB NO.401, GOVERNORPET,VIJAYAWADA-520002",,VIJAYAWADA,KRISHNA,ANDHRA PRADESH
BKDN0610521,Dena Bank,BKDN0610521,560018006,BANGALORE (INDIRA NAGAR),"NO.2990/C,12TH ""A""MAIN,HAL,IISTAGE,INDIRA NAGAR,BANGALORE-560038",,BANGALORE,BANGALORE URBAN,KARNATAKA
BKDN0610534,Dena Bank,BKDN0610534,500018006,NAMPALLY,"11/5/8 BAZARGHAT,PB NO.28,NAMPALLY,HYDERABAD-500004",,HYDERABAD,HYDERABAD URBAN,ANDHRA PRADESH
BKDN0610536,Dena Bank,BKDN0610536,570018003,MYSORE,"618, CHAMRAJA D.ROAD,P.B.NO.205,MYSORE-570024",,MYSORE,MYSORE,KARNATAKA
BKDN0610560,Dena Bank,BKDN0610560,500018004,SECUNDERABAD(EAST MAREDPALLY),"PLOT NO.32,EAST MARREDPALY,SECUNDERABAD -500 026.ANDHRA PRADESH",,HYDERABAD,HYDERABAD URBAN,ANDHRA PRADESH
BKDN0610561,Dena Bank,BKDN0610561,500018009,SECUNDERABAD-RP ROAD,"DUNDOO CHAMBERS, 4/3/16,RASHTRAPATI  RD.,STATION ROAD,SECUNDERABAD-500003",,HYDERABAD,HYDERABAD URBAN,ANDHRA PRADESH
BKDN0610583,Dena Bank,BKDN0610583,580018302,DHARWAR,"KOTHUR BLDG,SILVER JUBLEE CIRCLE,PB NO 6,DHARWAR-580001",,DHARWAD,DHARWAD,KARNATAKA
BKDN0610584,Dena Bank,BKDN0610584,580018002,HUBLI,"NEAR MOORUSAVIR MATH, DIST. DHARWAR,HUBLI,DHARWAR -580028",,HUBLI-DHARWAD,DHARWAD,KARNATAKA
BKDN0610597,Dena Bank,BKDN0610597,NON-MICR,NIZAMABAD,"7/5/484, KUMAR GALLI, P.B. NO. 43 , NIZAMABAD - 503 001",,NIZAMABAD,KARIM NAGAR,ANDHRA PRADESH
BKDN0610604,Dena Bank,BKDN0610604,NON-MICR,TIRUPATHI,"66, G.CAR STREET, TIRUPATHI - 517 501",,TIRUPATI,CHITTOR,ANDHRA PRADESH
BKDN0610612,Dena Bank,BKDN0610612,NON-MICR,BELGAUM,"694, RAVIVAR PETH BELGAUM - 590 002",,BELGAUM,BELGAUM,KARNATAKA
BKDN0610670,Dena Bank,BKDN0610670,560018004,BANGALORE (BRIGADE ROAD),"SRI SABARI COMLEX NO. 24,RESEDENCY ROAD,BANGALORE-560025",,BANGALORE,BANGALORE URBAN,KARNATAKA
BKDN0610685,Dena Bank,BKDN0610685,530018001,VISHAKHAPATNAM,"30-9-24/3, SHARDA STREET,DABA GARDENS, P.B.NO.2056VISAKHAPATNAM,ANDHRA PRADESH-530020",,VISAKHAPATNAM,VISHAKAPATNAM,ANDHRA PRADESH
BKDN0610713,Dena Bank,BKDN0610713,NON-MICR,BIJAPUR,"1ST FLOOR,BALAJI TEMPLE,RAM MANDIR ROAD,BIJAPUR-586101,KARNATAKA",,BIJAPUR,BIJAPUR,KARNATAKA
BKDN0610733,Dena Bank,BKDN0610733,560018005,BANGALORE-PEENYA IND EST,"VISHNU FORGE PVT.BLDG, SUBROTO MUKHERJEE ROAD,JALAHALLI WEST,BANGALORE-560015",,PEENYA,BANGALORE URBAN,KARNATAKA
BKDN0610734,Dena Bank,BKDN0610734,500018007,HYDERABAD(SANAT NAGAR),"IND.ESTATE.COMMERCIAL COM, SANAT NAGAR,HYDERABAD-500018",,HYDERABAD,HYDERABAD URBAN,ANDHRA PRADESH
BKDN0610792,Dena Bank,BKDN0610792,520016102,GUNTUR,"23/5/34 SHIVAJI BLDG., PATNAM BAZAR, P.B. NO.138 GUNTUR - 522 003",,GUNTUR,GUNTUR,ANDHRA PRADESH
BKDN0610930,Dena Bank,BKDN0610930,560018007,BANGALORE(JAYANAGAR),"36 BY A CROSS, 9TH MAIN ROAD,5TH BLOCK, JAYANAGAR, DIST. BANGALORE, KARNATAKA",,BANGALORE,BANGALORE URBAN,KARNATAKA
BKDN0610982,Dena Bank,BKDN0610982,NON-MICR,DAVANAGERE,"NO.187/2, ""VASAVIKRUPA"" P B ROAD , DAVANAGERE-577002",,DAVANGERE,DAVANAGARE,KARNATAKA
BKDN0610984,Dena Bank,BKDN0610984,500018003,HYDERABAD (GAGAN MAHAL),"1-2-3/6,GAGAN MAHAL ROAD, DOMALGADA,HYDERABAD-500029",,HYDERABAD,HYDERABAD URBAN,ANDHRA PRADESH
BKDN0610987,Dena Bank,BKDN0610987,560018008,BANGALORE-KODIHALLY,"247/A, AIR PORT RD, KODIHALLY,BANGALORE- 560008",,KODIHALLI,BANGALORE RURAL,KARNATAKA
BKDN0611018,Dena Bank,BKDN0611018,560018009,BANGALORE-RT NAGAR,"P & T COLONY, R.T.NAGAR,BANGLORE- 560032",,BANGALORE,BANGALORE URBAN,KARNATAKA
BKDN0611080,Dena Bank,BKDN0611080,560018010,BANGALORE (NAGASHETTI HALLI),"MARUTHI COMPLEX,1ST FLOOR, NAGASETTY HALLI,",,BANGALORE,BANGALORE URBAN,KARNATAKA
BKDN0611091,Dena Bank,BKDN0611091,577018202,SHIMOGA,"IST FLOOR,SHANKAR COMPLEX  B.H. ROAD, SHIMOGA 577 201",,SHIMOGA,SHIMOGA,KARNATAKA
BKDN0611102,Dena Bank,BKDN0611102,500018010,SECUNDERABAD(JAMIA-OSMANIA),"HOUSE NO: 12/11/1264/A,WARASIGUDA,BHOUDANAGAR,SECUNDERABAD-500361",,HYDERABAD,HYDERABAD URBAN,ANDHRA PRADESH
BKDN0611110,Dena Bank,BKDN0611110,560018019,ASSET RECOVERY BRANCH - BANGAL,"DENA BANK, REGIONAL OFFICE,SONA TOWERS, 1ST FLOOR,71, MILLERS ROAD,DIST. BANGALORE,KARNATAKA",,BANGALORE,BANGALORE URBAN,KARNATAKA
BKDN0611150,Dena Bank,BKDN0611150,560018011,BANGALORE-JP NAGAR,"127 / A, 8TH MAIN,  J.P.NAGAR, III PHASE,BANGALORE-560078",,BANGALORE,BANGALORE URBAN,KARNATAKA
BKDN0611157,Dena Bank,BKDN0611157,575018003,MANGALORE-KANKANADY,"GEETHA COMPLEX, 1ST FLOOR, BENDOORWELL,KANKANADY,MANGALORE",,MANGALORE,DAKSHINA KANNADA,KARNATAKA
BKDN0611174,Dena Bank,BKDN0611174,533018102,RAJAHMUNDRY,"1ST FLOOR, DOOR-46-12-21-B, TTD ROAD, DANVAIPET, RAJAMUNDRY-533103",,RAJAHMUNDRY,EAST GODAVARI,ANDHRA PRADESH
BKDN0611192,Dena Bank,BKDN0611192,560018012,NAGARBHAVI,"5.SRS COMPLEX,80 FEET ROAD,NGEF LAYOUT BANGALORE-560072",,BANGALORE,BANGALORE URBAN,KARNATAKA
BKDN0611213,Dena Bank,BKDN0611213,560018013,CHOLA NAGAR,"# 38 , C I L MAIN ROAD, THIMMAKKA LAYOUT,NEAR ACHARYA INSTITUTE,CHOLANAGAR,BANGALORE-560032",,BANGALORE,BANGALORE URBAN,KARNATAKA
BKDN0611214,Dena Bank,BKDN0611214,500018012,KUKATPALLY,"# 4 - 32-110/19,KAMALA PRASANNA NAGAR COLONY,NEAR HANUMAN TEMPLE,KUKATPALLY,HYDERABAD - 500072",,KUKATPALLY,RANGA REDDY,ANDHRA PRADESH
BKDN0611232,Dena Bank,BKDN0611232,NON-MICR,RETAIL ASSET BRANCH BANGALORE,"NO.110/1, 1ST FLOOR, 4 TH MAIN ,9TH CROSS,BANGALORE,KARNATAKA",,BANGALORE,BANGALORE URBAN,KARNATAKA
BKDN0611233,Dena Bank,BKDN0611233,NON-MICR,RETAIL ASSET BRANCH HYDERABAD,"2,4 14-16,1 ST FLOOR,M.G. ROAD,,SECUMDERABAD,ANDHRA PRADESH,",,HYDERABAD,HYDERABAD,ANDHRA PRADESH
BKDN0611246,Dena Bank,BKDN0611246,583018202,HOSPET,"PARWAZ MANZIL, 12/792, DEVI NAGAR, CHITWADGI, BELLARY DIST. HOSPET 583201",,HOSPET,BELLARY,KARNATAKA
BKDN0611255,Dena Bank,BKDN0611255,500018014,MADHAPUR,"MADHAPUR,S R R NIWAS, H NO 1-98/11, ARUNODAY COLONY,HYDERABAD,ANDHRA PRADESH-50086",,HYDERABAD,HYDERABAD,ANDHRA PRADESH
BKDN0611274,Dena Bank,BKDN0611274,522018542,VINUKONDA,"23-208 PALNADU ROAD,DIST GUNTUR,VINUKONDA,ANDHRA PRADESH",,VINUKONDA,GUNTUR,ANDHRA PRADESH
BKDN0611294,Dena Bank,BKDN0611294,560018015,DEVANAHALLY,"NO-83, SR LAYOUT, PRASHNAT NAGAR, BUDIGERE ROAD, DEVANAHALLY, PIN CODE-562110",,DEVANAHALLI,BANGALORE RURAL,KARNATAKA
BKDN0611302,Dena Bank,BKDN0611302,533018002,KAKINADA,"25-6-35, OPP LALITA PHARMA,GANJAMVARI STREET,ANDHRA PRADESH-533001,",,KAKINADA,EAST GODAVARI,ANDHRA PRADESH
BKDN0611335,Dena Bank,BKDN0611335,506018002,WARANGAL,"NO: 1-8-274, ESHILA PARK, BALA SAMUDRAM, HANUMAKONDA, WARANGAL, ANDHRA PRADESH. ,PIN - 506001",,WARANGAL,WARANGAL,ANDHRA PRADESH
BKDN0611370,Dena Bank,BKDN0611370,NON-MICR,NELAMANGALA,"DENA BANK,  NO 3, KS NO 4702/3 NARAYANAPPA LAYOUT, NEAR CHENNAPPA DEDAVANE (WEAVER COLONY BUS STOP),   NELAMANGALA 560213  KARNATAKA",,,NELAMANGALA,BANGALORE RURAL
BKDN0611441,Dena Bank,BKDN0611441,575018005,KINNIGOLI,"DENA BANK, KINNOGOLI BRANCH CHURCJH BLDG MAIN ROAD,MOODBIDIRI MULKI MAIN RAOD,KINNIGOLI ,DIST  DAKSHIN ,PIN 574150KANNDA MANGALORE",KINNI@DENABANK.CO.IN;9449224532,KINNIGOLI,DAKSHIN KANNAD,KARNATAKA
BKDN0620063,Dena Bank,BKDN0620063,600018004,CHENNAI (GEORGE TOWN),"KADEL CHAMBERS, 340,MINT STREET,CHENNAI-600 001.",,CHENNAI,CHENNAI,TAMIL NADU
BKDN0620137,Dena Bank,BKDN0620137,600018004,CHENNAI (MOUNT RD),"SATYA COMPLEX, 1/1 G.P.RD1ST FLOOR,(MOUNT ROAD)CHENNAI,TAMILNADU-600002",,CHENNAI,CHENNAI,TAMIL NADU
BKDN0620212,Dena Bank,BKDN0620212,600018014,GUMMIDIPUNDI,"G.N.T.ROAD,GUMMUDIPUNDI 601201",,GUMMIDIPUNDI,TIRUVALLUR,TAMIL NADU
BKDN0620371,Dena Bank,BKDN0620371,682018001,ERNAKULAM,"PB NO.1792,XXX/537,M.G.ROAD,ERNAKULAM,COCHIN,KERALA-682016",,KOCHI,ERNAKULAM,KERALA
BKDN0620377,Dena Bank,BKDN0620377,682018004,UDYOGMANDAL,"FACT. SHOPPING CENTRE, FLOOR, DIST. ERNAKULAM,UDYOGMANDAL-683501",,UDYOGMANDAL,ERNAKULAM,KERALA
BKDN0620465,Dena Bank,BKDN0620465,682018003,COCHIN-NAVAL BASE,"INCS COMPLEX,NAVAL BASE,COCHIN-682004",,KOCHI,ERNAKULAM,KERALA
BKDN0620504,Dena Bank,BKDN0620504,625018002,MADURAI,"203, EAST MARKET STREET,MADURAI-625 001.",,MADURAI,MADURAI,TAMIL NADU
BKDN0620511,Dena Bank,BKDN0620511,600018010,CHENNAI (HAMILTON BRIDGE),"6-A, EDWARD ELLIOT RD.,HAMILTON BRIDGE,CHENNAI,TAMILNADU-600004",,CHENNAI,CHENNAI,TAMIL NADU
BKDN0620512,Dena Bank,BKDN0620512,600018005,CHENNAI (T.NAGAR),"OPP.POWER HOUSE, NO. 1,T.C.RD.,T.NAGAR,CHENNAI,TAMILNADU-600017",,CHENNAI,CHENNAI,TAMIL NADU
BKDN0620525,Dena Bank,BKDN0620525,600018009,CHENNAI TONDIARPET,"637,T.H.ROAD,TONDIARPET,CHENNAI-600081",,CHENNAI,CHENNAI,TAMIL NADU
BKDN0620531,Dena Bank,BKDN0620531,NON-MICR,CANNANORE,"FORT ROAD, P.B. NO. 24 XXIX/CC/217",,CANNUR,KANNUR,KERALA
BKDN0620586,Dena Bank,BKDN0620586,641081002,COIMBATORE,"PB NO 40,BHARAT BLDG,53,OPPANKARA STREET,COIMBATORE-641001",,COIMBATORE,COIMBOTORE,TAMIL NADU
BKDN0620591,Dena Bank,BKDN0620591,695018002,TRIVANDRUM,"T.C.NO.37/1392,4, RAJDHANI BLDG.,EAST FORT,TRIVANDRUM,KERALA-695023",,THIRUVANANTHAPURAM,TRIVANDRUM,KERALA
BKDN0620603,Dena Bank,BKDN0620603,600018015,KANCHEEPURAM,"217, GANDHI ROAD,KANCHEEPURAM 631 501",,KANCHIPURAM,KANCHEEPURAM,TAMIL NADU
BKDN0620611,Dena Bank,BKDN0620611,636018002,SALEM,"108, SHEVAPET, MAIN ROAD,KUMMATTI PLACE,SALEM-636002",,SALEM,SALEM,TAMIL NADU
BKDN0620619,Dena Bank,BKDN0620619,600018011,CHENNAI (NUNGAMBAKKAM),"HOTEL GANPAT BLDG.,103, M.G. ROAD, NUNGAMBAKKAM, CHENNAI,TAMILNADU",,CHENNAI,CHENNAI,TAMIL NADU
BKDN0620622,Dena Bank,BKDN0620622,673018002,CALICUT,"11/192 F, TRIKORIL LANE,",,CALICUT,KOZHIKODE,KERALA
BKDN0620678,Dena Bank,BKDN0620678,600018008,AMMINJIKARAI,"703,POONAMALLE HIGH ROAD,AMMINJIKARAI,CHENNAI",,CHENNAI,CHENNAI,TAMIL NADU
BKDN0620679,Dena Bank,BKDN0620679,NON-MICR,VELLORE,"1-2, KATPADDY ROAD, VELLORE - 632 004",,VELLORE,VELLORE,TAMIL NADU
BKDN0620680,Dena Bank,BKDN0620680,613018002,THANJAVUR,"1/2, GANDHIJI ROAD, TANJAVORE-613 001 TAMILNADU",,THANJAVUR,THANJAVUR,TAMIL NADU
BKDN0620683,Dena Bank,BKDN0620683,600018003,CHENNAI (SEMBUDOSS STREET),"80/81,BROADWAY, CHENNAI-600108",,CHENNAI,CHENNAI,TAMIL NADU
BKDN0620688,Dena Bank,BKDN0620688,691018001,QUILON,"SHINES COMPLEX, CHAMAKKADA, HOSPITAL ROAD, QUILON-691 001",,KOLLAM,KOLLAM,KERALA
BKDN0620712,Dena Bank,BKDN0620712,620018002,TRICHY (TIRUCHIRA PALLI),"2-A,FORT STATION ROAD,TIRUCHIRAPALLI,TRICHY,TAMILNADU-620008",,TIRUCHIRAPPALLI,TIRUCHIORAPPALLI,TAMIL NADU
BKDN0620863,Dena Bank,BKDN0620863,600018007,CHENNAI (ALWARPET),"APTHAGIRI APT.,83, MOWBRAYS RD.,CHENNAI,TAMILNADU-600018",,CHENNAI,CHENNAI,TAMIL NADU
BKDN0620927,Dena Bank,BKDN0620927,638018002,ERODE,"264, 1ST FLOOR, BROUGH ROAD,PERIYAR",,ERODE,ERODE,TAMIL NADU
BKDN0621030,Dena Bank,BKDN0621030,600018012,CHENNAI (PURASAWALKAM),"1,RAJA ANNAMALAI ROAD, 1ST FLOOR,PURASAWALKAM,MADRAS-600084",,CHENNAI,CHENNAI,TAMIL NADU
BKDN0621118,Dena Bank,BKDN0621118,680018002,TRICHUR,"TRINITI COMPLEX, P.B. NO.128,SAKHAN THAMURAN NAGAR,THRISSOR-68000",,THRISSUR,TRISSUR,KERALA
BKDN0621121,Dena Bank,BKDN0621121,NON-MICR,NAGERCOIL,"612, CAPE ROAD, KOTTAR, NAGARCOIL",,NAGERCOIL,KANNIYAKUMARI,TAMIL NADU
BKDN0621137,Dena Bank,BKDN0621137,NON-MICR,KOTTAYAM,"GOOD SHEPHERD SHOPPING COMPLEX, GOOD SHEPHERD STREET,KOTTAYAM",,KOTTAYAM,KOTTAYAM,KERALA
BKDN0621169,Dena Bank,BKDN0621169,605018002,PUDUCHERRY,"99, AMBALAL THADIYAR MADAM STREET, M.G.ROAD JUNCTION, PUDUCHERRY - 605011",,PONDICHERRY,PONDICHERRY,PONDICHERRY
BKDN0621193,Dena Bank,BKDN0621193,NON-MICR,PALAKKAD,"1ST FLOOR,SOORYA CITY,SUDEVAN ROAD,SULTANPET,PALAKKAD",,PALAKKAD,PALAKKAD,KERALA
BKDN0621230,Dena Bank,BKDN0621230,682018005,KAKKANAD,"BHASKARA, C- PORT,AIRPORT ROAD, MAVELIPURAM,KAKKANAD , P.O. -ERNAKULAM, KERALA,",,KAKKANAD,ERNAKULAM,KERALA
BKDN0621235,Dena Bank,BKDN0621235,600018016,"RETAIL ASSET BRANCH,CHENNAI","RETAIL ASSET BR,83, T.T.K ROAD, ALWARPET,CHENNAI",,CHENNAI,CHENNAI,TAMIL NADU
BKDN0621238,Dena Bank,BKDN0621238,NOT AVAILABLE,CORPORATE BUSINESS BRANCH,"FIRST FLOOR, BETA WING, RAHEJA TOWERS, 177, ANNA SALAI, CHENNAI - 600 002",,CHENNAI,CHENNAI,TAMIL NADU
BKDN0621276,Dena Bank,BKDN0621276,600018018,GUDUVANCHERRY,"FIRST FLOOR,1 STATION ROAD,GUDUVANCHERRY,CHENNAI,TAMIL NADU-603202",,GUDUVANCHERI,KANCHEEPURAM,TAMIL NADU
BKDN0621277,Dena Bank,BKDN0621277,600018019,REDHILLS CHENNAI,"121/4, NEHRU STREET, MONDI AMMAN NAGAR,REDHILLS, CHENNAI,TAMIL NADU-600052",,CHENNAI,CHENNAI,TAMIL NADU
BKDN0621278,Dena Bank,BKDN0621278,627018002,THOOTHUKUDI,"4B/A-2 , MANI NAGAR,MANGAL MALL COMPLEX,THOOTHUKUDI,TAMIL NADU",,TIRUNELVELI,TIRUNELVALI,TAMIL NADU
BKDN0621279,Dena Bank,BKDN0621279,NON-MICR,MUVATTAPUZHA,"B7/B8, VETTUVAZHI PLAZA,T B JUNCTION,MUVATTUPUZHA,KERALA-686661",,MUVATTUPUZHA,ERNAKULAM,KERALA
BKDN0621292,Dena Bank,BKDN0621292,NON-MICR,ANGAMALLY,"KPB PRIME TRADE CENTRE,NEAR GOVT HOSPITAL, T B RD,ANGAMALY,KERALA-686572",,ANGAMALY,ERNAKULAM,KERALA
BKDN0621295,Dena Bank,BKDN0621295,641018003,SIDHPUDUR,"SIDHAPUDUR DHANALAXMI NAGAR,37, SAROJINI NAIDU ROAD,COIMBATORE,TAMIL NADU-641044",,COIMBATORE,COIMBATORE,TAMIL NADU
BKDN0621301,Dena Bank,BKDN0621301,600018020,TAMBARAM,"203 MUDICHUR ROAD, TAMBARAM WEST,CHENNAI-45",,TAMBARAM,KANCHEEPURAM,TAMIL NADU
BKDN0621416,Dena Bank,BKDN0621416,NA,AMBATTUR,"DENA BANK,   PLOT NO 4D8,4D9 3RD MAIN ROAD, OPP INDIA LAND BUILDING , AMBATTUR ESTATE,   PIN 600058",044-26241162;AMBATT@DENABANK.CO.IN,AMBATTUR,THIRUVALLUR,TAMIL NADU
BKDN0621417,Dena Bank,BKDN0621417,NA,KOTHAGIRI," DENA BANK,   1109/4A DONNINGTON ROAD,  KOTHAGIRI ,   THE NILGIRIS,  PIN 634217","04266-271417, 04266-272417;KOTHAG@DENABANK.CO.IN",KOTAGIRI,NILGIRIS,TAMIL NADU
BKDN0700000,Dena Bank,BKDN0700000,NON MICR,DENA GUJARAT GRAMIN BANK,Block 7/2 At & Post Gandhinagar 382007,,GANDHINAGAR,GANDHINAGAR,GUJARAT
BKDN0710059,Dena Bank,BKDN0710059,110018002,NEW DELHI CHANDNI CHOWK,"5456,LAXMI BUILDING,NEAR CLOCKTOWER,P.B.NO.1126,DELHI 110 006",,DELHI,NEW DELHI,DELHI
BKDN0710065,Dena Bank,BKDN0710065,110018006,NEW DELHI (CONNAUGHT CIRCUS),"M-36, CON.CIRCUS,P.B.NO.498,NEW DELHI-110001",,DELHI,NEW DELHI,DELHI
BKDN0710129,Dena Bank,BKDN0710129,110018007,NEW DELHI-SUBJI MANDI,"24 / 156,G.T.ROAD,SUBZI MANDI,SHAKTI NAGAR,DELHI 110007",,DELHI,NEW DELHI,DELHI
BKDN0710136,Dena Bank,BKDN0710136,110018005,NEW DELHI-KAROLBAUG,"MANGAL BHAVAN,ARYA SAMAJ RD,KAROL BAUG,NEW DEHLI",,DELHI,NEW DELHI,DELHI
BKDN0710142,Dena Bank,BKDN0710142,302018022,JAIPUR (M.I.ROAD),"NEAR PANCH BATTI CHOWKMAJOR V.K.MARG,P.B.NO.89,JAIPUR, RAJASTHAN-302001",,JAIPUR,JAIPUR,RAJASTHAN
BKDN0710160,Dena Bank,BKDN0710160,110018008,NEW DELHI (DARYAGANJ),"3631, N.S.MARG,DARYAGANJ,NEW DELHI-110002",,DELHI,NEW DELHI,DELHI
BKDN0710161,Dena Bank,BKDN0710161,110018009,NEW DELHI-GB ROAD,"48,G B ROAD,SHRADHANAND MARG,NEW DELHI",,DELHI,NEW DELHI,DELHI
BKDN0710200,Dena Bank,BKDN0710200,143018002,AMRITSAR NEWMARKET,"10,NEW MARKET, BAZAR SABUNIA,AMRITSAR143001",,AMRITSAR,AMRITSAR,PUNJAB
BKDN0710214,Dena Bank,BKDN0710214,144018001,JALANDHAR,"GRAND TRUNK ROAD., CIVIL LINES., JALANDHAR",,JALANDHAR,JALANDHAR,PUNJAB
BKDN0710235,Dena Bank,BKDN0710235,NON MICR,RAMGARH,RAMGARH (SHEKHAVATI),,RAMGARH,SIKAR,RAJASTHAN
BKDN0710240,Dena Bank,BKDN0710240,110018019,NEW DELHI(CHATTARPUR),"VIDYA BHAVAN,CHHATARPUR,NEW DELHI-110030",,CHHATARPUR,NEW DELHI,DELHI
BKDN0710248,Dena Bank,BKDN0710248,141018002,"MATA RANI CHOWK, LUDHIANA","GPO MARG,P.B NO 154,LUDHIANA",,LUDHIANA,LUDHIANA,PUNJAB
BKDN0710251,Dena Bank,BKDN0710251,110018014,NEW DELHI(OKHLA INDUSTRIAL ESTATE),"OKHLA IND.ESTATE,ADMIN.BLOCK,NEW DELHI-110020",,DELHI,NEW DELHI,DELHI
BKDN0710351,Dena Bank,BKDN0710351,110018010,NEW DELHI (NAJAFGARH ROAD),"NAZAFGARH,A-3, KIRTI NAGAR,NEW DELHI-110015",,DELHI,NEW DELHI,DELHI
BKDN0710409,Dena Bank,BKDN0710409,110018016,NEW DELHI-ALIPORE MARG,"32,ALIPORE MARG,NEAR ISBT,DELHI 110054",,DELHI,NEW DELHI,DELHI
BKDN0710470,Dena Bank,BKDN0710470,160018001,CHANDIGARH,"SECTOR NO.7-C,MADHYA MARG,CHANDIGARH-160 007",,CHANDIGARH,CHANDIGARH,CHANDIGARH
BKDN0710514,Dena Bank,BKDN0710514,110018011,NEW DELHI-WAZIRPUR,"DEEP CINEMA BLDG.,WAZIRPUR,NEW DELHI 110052",,DELHI,NEW DELHI,DELHI
BKDN0710516,Dena Bank,BKDN0710516,NON-MICR,ROHTAK,"719/2, CIVIL ROAD,QUILLA MOHALLA,ROHTAK -124 001",,ROHTAK,ROHTAK,HARYANA
BKDN0710526,Dena Bank,BKDN0710526,110018003,NEW DELHI-CHAWRI BAZAR,"2408,WARD NO 5,CHAWRI BAZAR,NEW DELHI",,DELHI,NEW DELHI,DELHI
BKDN0710553,Dena Bank,BKDN0710553,180018002,JAMMU,"JAMMU,RAGHUNATH MANDIR CHOWK,RAGHUNATH BAZAR.,JAMMU AND KASHMIR",,JAMMU,JAMMU,JAMMU & KASHMIR
BKDN0710554,Dena Bank,BKDN0710554,143018003,AMRITSAR(CIVIL LINES),"C L MADAN MOHAN MALVIYA ROAD,AMRITSAR,PUNJAB",,AMRITSAR,AMRITSAR,PUNJAB
BKDN0710564,Dena Bank,BKDN0710564,110018013,NDELHI-SAFDARGUNJ ENCLAVE,"SHOPPING CENTRE,SAFDARJUNG ENCLAVE,NEW DELHI-110016",,DELHI,NEW DELHI,DELHI
BKDN0710616,Dena Bank,BKDN0710616,NON-MICR,SRINAGAR,"EXCHANGE ROAD-3 ,DIST.SRINAGAR,JAMMU & KASHMIR,",,SRINAGAR,SRINAGAR,JAMMU & KASHMIR
BKDN0710617,Dena Bank,BKDN0710617,313018001,UDAIPUR,"7/A, BAPU NAGAR,RAJASTHAN.UDAIPUR, RAJASTHAN - 313001",,UDAIPUR,UDAIPUR,RAJASTHAN
BKDN0710618,Dena Bank,BKDN0710618,145018002,PATHANKOT,"DALHOUSIE ROAD, PATHANKOT",,PATHANKOT,GURDASPUR,PUNJAB
BKDN0710640,Dena Bank,BKDN0710640,110018012,NEW DELHI (NEHRU PLACE),"NEHRU PLACE,GOVARDHAN 53-54,NEW DELHI-100019",,DELHI,NEW DELHI,DELHI
BKDN0710649,Dena Bank,BKDN0710649,110018023,FARIDABAD,"36,NEELAM BATA ROAD, NIT,FARIDABAD-121001,HARYANA",,FARIDABAD,FARIDABAD,HARYANA
BKDN0710655,Dena Bank,BKDN0710655,NON-MICR,SAMANBAHU,"MAIN ROAD TALUKA-KARNAL SAMANABHAU,,DIST. KARNAL,HARYANA",,SAMNABHAU,KARNAL,HARYANA
BKDN0710710,Dena Bank,BKDN0710710,110018004,DELHI MAYAPURI,"15,COMMUNITY CENTRE,PHASE-1,MAYAPURI,NEW DELHI-110064",,DELHI,NEW DELHI,DELHI
BKDN0710714,Dena Bank,BKDN0710714,NON-MICR,AJMER,"LAXMI BHAVAN,PRITHVIRAJ RD.,AJMER-305 001,RAJASTHAN",,AJMER,AJMER,RAJASTHAN
BKDN0710727,Dena Bank,BKDN0710727,110018033,SONEPAT,"SUBASH CHOWK,U ATLAS ROAD,ROHTAK ROAD,SONEPAT,HARYANA",,SONEPAT,ROHTAK,HARYANA
BKDN0710735,Dena Bank,BKDN0710735,342018002,JODHPUR,"PRATAP SCHOOL BLDG.,M.G.HOSP.ROAD,JODHPUR-342 001.RAJASTHAN.",,JODHPUR,JODHPUR,RAJASTHAN
BKDN0710738,Dena Bank,BKDN0710738,413018003,BHATINDA,"BHATINDA,11/09.BANK STREET.,AT & P.BHATINDA,PUNJAB",,BATHINDA,BATHINDA,PUNJAB
BKDN0710743,Dena Bank,BKDN0710743,110018015,NEW DELHI-HARINAGAR,"GL-16-A,JAIL ROAD, HARINAGAR,DELHI-110064",,DELHI,NEW DELHI,DELHI
BKDN0710745,Dena Bank,BKDN0710745,NON MICR,PARSAD,"AT & POST PARSAD,,PARSAD (DISTT. UDAIPUR),RAJASTHAN,",,PARSAD,UDAIPUR,RAJASTHAN
BKDN0710746,Dena Bank,BKDN0710746,334018002,BIKANER,"BIKANER,K.E.M.ROAD.,AT & PO.BIKANER,RAJASTHAN-334001",,BIKANER,BIKANER,RAJASTHAN
BKDN0710756,Dena Bank,BKDN0710756,332018000,SIKAR,"TRUPATI COMPLEX, TPAADIYA BAGEECHI BAJAJ ROAD ",,SIKAR,SIKAR,RAJASTHAN
BKDN0710758,Dena Bank,BKDN0710758,NON-MICR,PATIALA,"ARMY PRESS BLDG.,DHARAMPUR BAZAR,PATIALA-147 001",,PATIALA,PATIALA,PUNJAB
BKDN0710783,Dena Bank,BKDN0710783,NON MICR,GURUDASPUR,"G.T. ROAD, GURUDASPUR",,GURUDASPUR,GURDASPUR,PUNJAB
BKDN0710844,Dena Bank,BKDN0710844,110018017,NEW DELHI (RAJENDRA PLACE),"GOPALA BLDG.,1ST FLOOR25, RAJENDRA PLACE,NEW DELHI-110016",,DELHI,NEW DELHI,DELHI
BKDN0710864,Dena Bank,BKDN0710864,NON-MICR,KOTA JHALAWAR ROAD,"21,JHALAWAR ROAD, KOTA-334 007, ",,KOTA,KOTA,RAJASTHAN
BKDN0710916,Dena Bank,BKDN0710916,110018018,NEW DELHI-LODHI ROAD,"48/49,LODHI ROAD, NEW MUN.MARKET,NEW DELHI-110003",,DELHI,NEW DELHI,DELHI
BKDN0710952,Dena Bank,BKDN0710952,110018020,NEW DELHI-LAXMI NAGAR,"L-10, LAXMI NAGAR,VIJAY CHOWK,DELHI-110 092",,DELHI,NEW DELHI,DELHI
BKDN0710954,Dena Bank,BKDN0710954,302018003,JAIPUR(AMBAWADI),"SHOP NO.C 3536, MAIN SHOPPING CENTRE,AMBAVADI ,JAIPUR302012",,JAIPUR,JAIPUR,RAJASTHAN
BKDN0711047,Dena Bank,BKDN0711047,NON MICR,BHARATPUR,"1ST FLOOR, NUMAISH ROAD,AV.B AGENCIES, DIST. BHARATPUR, RAJASTHAN,",,BHARATPUR,BHARATPUR,RAJASTHAN
BKDN0711050,Dena Bank,BKDN0711050,110018021,NEW DELHI (SCOPE COMPLEX),"CORE-6, GROUND FLR.,LODHI ROAD,NEW DELHI-110003",,DELHI,NEW DELHI,DELHI
BKDN0711088,Dena Bank,BKDN0711088,NON-MICR,LADHOT,"LADHOT,VILLAGE & POST LODHOT,DIST: ROHTAK-124001,HARYANA",,LADHOT,ROHTAK,HARYANA
BKDN0711093,Dena Bank,BKDN0711093,110018022,NEW DELHI (PITAMPURA),"170, SHIVA MARKET,PITAMPURA WEST,NEW DELHI,110034",,DELHI,NEW DELHI,DELHI
BKDN0711096,Dena Bank,BKDN0711096,NON-MICR,ALANPUR SAWAI MADHOPUR,SAWAI MADHOPAR-322021.,,SAWAI MADHOPUR,SAWAI MADHOPUR,RAJASTHAN
BKDN0711098,Dena Bank,BKDN0711098,NON-MICR,PANIPAT,"35-B, 8 MARLAS,JADDAL ROAD (EKTA CHOWK),PANIPAT,HARYANA",,PANIPAT,PANIPAT,HARYANA
BKDN0711099,Dena Bank,BKDN0711099,302018004,JAIPUR(HALDIO-KA-RASTA),"CHOWKRI GATE, MANI RAMJI, JOHRI BAZAR,KI KHOTHI,JAIPUR302003",,JAIPUR,JAIPUR,RAJASTHAN
BKDN0711100,Dena Bank,BKDN0711100,NON-MICR,YAMUNANAGAR,"88, KRISHNA COLONY,DRUMWALA CHOWK,YAMUNA NAGAR - 135 001",,YAMUNANAGAR,YAMUNANAGAR,HARYANA
BKDN0711109,Dena Bank,BKDN0711109,110018999,ASSET REC BR - NEW DELHI,"RAJENDRA PLACE.,25.GOPALA BLDG..1ST FLOOR.,ASSET REC BR - NEW DELHI",,DELHI,DELHI,DELHI
BKDN0711124,Dena Bank,BKDN0711124,110018025,GURGAON,"SCO-17-18, SECTOR 7, HUDA SHOPPING COMPLEX,GURGAON-122011,HARYANA",,GURGAON,GURGAON,HARYANA
BKDN0711133,Dena Bank,BKDN0711133,NON-MICR,ALWAR,"MOHALA SHEESH GROUND, NEAR GOPALA CINEMA HAL , ALWAR",,ALWAR,ALWAR,RAJASTHAN
BKDN0711134,Dena Bank,BKDN0711134,311018002,BHILWARA,"JAITILIYA CHAMBER TEXTYLE MARKET,BHILWARA,RAJASTHAN",,BHILWARA,BHILWARA,RAJASTHAN
BKDN0711138,Dena Bank,BKDN0711138,NON-MICR,AMBALA,"6330, PUNJABI MOHALLA, NICHOLSON ROAD, AMBALA ",,AMBALA,AMBALA,HARYANA
BKDN0711144,Dena Bank,BKDN0711144,110018028,NEW DELHI-SOUTH EXTN,"D / 38, COMMERCIAL CENTRE,N.D.S.E. PART II,NEW DELHI-110049",,DELHI,NEW DELHI,DELHI
BKDN0711151,Dena Bank,BKDN0711151,NON-MICR,HISSAR,"PLOT NO-26-27 , COMMERCIAL URBAN STATE ROAD , SQUARE MARKET",,HISAR,HISSAR,HARYANA
BKDN0711154,Dena Bank,BKDN0711154,NON-MICR,PHAGWARA,"B- 30/184 NEHRU NAGAR,NEAR BUS STAND,G T ROAD",,PHAGWARA,KAPURTHALA,PUNJAB
BKDN0711155,Dena Bank,BKDN0711155,141018003,LUDHIANA BHARATCHOWK,"LUDHIANA BHARAT NGR HOTEL,KAMAL BUILDING,FATEHPUR ROAD",,LUDHIANA,LUDHIANA,PUNJAB
BKDN0711158,Dena Bank,BKDN0711158,110018030,NEW DELHI-PASCHIM VIHAR,"B2/1,JAWALA HERI MARKET,PASCHIM VIHAR,DELHI 110063",,DELHI,NEW DELHI,DELHI
BKDN0711159,Dena Bank,BKDN0711159,110018031,NAWADA,"265A,NAWADA VILLAGE,UTTAM NAGAR,NEW DELHI",,NAWADA,NEW DELHI,DELHI
BKDN0711160,Dena Bank,BKDN0711160,302018005,MALVIYA NAGAR,"MAIN ROAD,MALVIYA NAGAR,JAIPUR",,JAIPUR,JAIPUR,RAJASTHAN
BKDN0711175,Dena Bank,BKDN0711175,110018034,NEW DELHI - DWARKA,"GROUND FLOOR, PLOT NO-43, SECTOR 12B, OPP. BAL BHAVAN INT.SCHOOL, DWARKA, NEW DELHI-110077",,DELHI,NEW DELHI,DELHI
BKDN0711177,Dena Bank,BKDN0711177,NON-MICR,HOSHIARPUR,"BEHL COMPLEX,OPP LOVELY FAST FOOD,RAILWAY ROAD,HOSHIARPUR HEAD P.O,HOSHIARPUR",,HOSHIARPUR,HOSIARPUR,PUNJAB
BKDN0711178,Dena Bank,BKDN0711178,160018002,BADDI,"GROUND FLOOR, DOON METRO MALL, SAI ROAD,BADDI, THESIL-NALGARH, SOLAN, HIMACHAL PRADESH",,BADDI,SOLAN,HIMACHAL PRADESH
BKDN0711181,Dena Bank,BKDN0711181,NON-MICR,SHIMLA,"SARAB COMPLEX,GROUND FLOOR,A-60,MORNING SITE,SANJAULI,SHIMLA-171 006",,SIMLA,SHIMLA,HIMACHAL PRADESH
BKDN0711182,Dena Bank,BKDN0711182,NON-MICR,SOLAN,"GULERIA HOUSE,BYE PASS,KATHER,SOLAN-173 212",,SOLAN,SOLAN,HIMACHAL PRADESH
BKDN0711183,Dena Bank,BKDN0711183,NON-MICR,KARNAL,"SCF-27,SECTOR 13,MAIN MARKET,KARNAL-132 001",,KARNAL,KARNAL,HARYANA
BKDN0711205,Dena Bank,BKDN0711205,NON-MICR,JIND,"25/SCF,DEWAN KHANA MARKET,HUDA COMPLEX,RANI TALAB,JIND-126102",,JIND,JIND,HARYANA
BKDN0711206,Dena Bank,BKDN0711206,160018004,PUNCHKULA,"DENA BANK SCF-89, SECTOR-21, PUNCHKULA, HARYANA PIN-134109",,PANCHKULA,PANCHKULA,HARYANA
BKDN0711207,Dena Bank,BKDN0711207,160018003,MOHALI,DENA BANK SCF-127 PHASE-3-B-2 SAS NAGAR MOHALI PUNJAB PIN-160059,,SAS NAGAR(MOHALI),RUPNAGAR,PUNJAB
BKDN0711208,Dena Bank,BKDN0711208,136018002,KURUKSHETRA,"SCF-31, SECTOR-13, KURUKSHETRA,HARYANA-136118",,KURUKSHETRA,KURUKSHETRA,HARYANA
BKDN0711209,Dena Bank,BKDN0711209,302018006,MANSAROVER,"105/1127 VIJAY PATH,MANSAROVER JAIPUR - 302020",,JAIPUR,JAIPUR,RAJASTHAN
BKDN0711212,Dena Bank,BKDN0711212,110018036,DENA BANK RETAIL ASSET BRANCH,"2ND, FLOOR, KELTRON CHAMBERS,ARYA SAMAJ ROAD,16, SANSAD MARG,DELHI,",,DELHI,DELHI,DELHI
BKDN0711229,Dena Bank,BKDN0711229,110018005,ROHINI,"PLOT NO. 35-36, POCKET F 22, SECTOR 3, NEW DELHI ",,DELHI,NEW DELHI,DELHI
BKDN0711239,Dena Bank,BKDN0711239,110018038,"CORPORATE BUSINESS BRANCH, NEW DELHI ","E-13/29, GROUND FLOOR, HARSHA BHAWAN, CONNAUGHT CIRCUS, NEW DELHI-110 001 ",,DELHI,DELHI,DELHI
BKDN0711280,Dena Bank,BKDN0711280,110018040,PATPARGANJ,"I P EXTENSION,B 83, MANDAWALI, FAZALPUR,PATPARGANJ,DELHI-110092",,PAPRAWAT,DELHI,DELHI
BKDN0711281,Dena Bank,BKDN0711281,110018041,NANGLOI,"C 1, YADAV PARK,ROHTAK, NANGLOI,DELHI-110085",,NANGAL DEWAT,DELHI,DELHI
BKDN0711282,Dena Bank,BKDN0711282,110018042,MAYUR VIHAR,"C-53, SHASHI GARDEN, GURUDWARA ROAD, MAYUR VIHAR,PHASE-I,DELHI-91",,DELHI,DELHI,DELHI
BKDN0711283,Dena Bank,BKDN0711283,306018002,PALI,"CHANDA PLAZ-II,SUMERPUR ROAD,PALI,RAJASTHAN-306401",,PALI,PALI,RAJASTHAN
BKDN0711284,Dena Bank,BKDN0711284,305018004,KISHANGARH,"PLOT NO D, 108,A-2 PHASE I AND 2,RIICO IND AREA,KISHANGARH,RAJASTHAN",,KISHANGARH,AJMER,RAJASTHAN
BKDN0711304,Dena Bank,BKDN0711304,110018043,SAKET,"DENA BANK,181-A KHIKDI EXTENSION ,PRESS ENCLAVE ROAD, SAKET DELHI -110017",,DELHI,DELHI,DELHI
BKDN0711305,Dena Bank,BKDN0711305,335018002,HANUMANGARH,"68 INDIRA CHOWK, COLLOEGE ROAD,HANUMANGAR,RAJASTHAN-335513",,HANUMANGARH,HANUMANGARH,RAJASTHAN
BKDN0711306,Dena Bank,BKDN0711306,335018003,SHRI GANGANAGAR,"94, VRIDARAN VIHAR PATH,SHRI GANGANAGAR,RAJASTHAN",,GANGANAGAR,GANGANAGAR,RAJASTHAN
BKDN0711327,Dena Bank,BKDN0711327,302018007,CHITRAKOOT,"B-1/5, GANDHI PATH, CHITRAKOOT, JAIPUR,RAJASTHAN-302001",,JAIPUR,JAIPUR,RAJASTHAN
BKDN0711378,Dena Bank,BKDN0711378,NON-MICR,CHANDWAJI,"DENA BANK BHAVAN,  AT & PO CHANADWA,TAL: UDAIPUR",,,CHANDWAJI,JAIPUR
BKDN0711452,Dena Bank,BKDN0711452,342018003,BANAR ROAD,"DENA BANK, BLOCK NO 3, KHASRA NO 22,BANAR ROAD NANDARHI DISTT",9636191451/9414294230  ;BANJOD@DENABANK.CO.IN,BANAD,JODHPUR,RAJASTHAN
BKDN0720185,Dena Bank,BKDN0720185,226018002,LUCKNOW (HAZRATGANJ),"11, M.G. ROAD,PB NO.114,HAZRAT GANJ,LUCKNOW,UTTAR PRADESH-226001",,LUCKNOW,LUCKNOW,UTTAR PRADESH
BKDN0720220,Dena Bank,BKDN0720220,NON-MICR,LALGANJ,"AT & POST: LALGANJ, TAL. DALMAU, DIST. RAE BARELI",,LALGANJ,RAEBAREILI,UTTAR PRADESH
BKDN0720239,Dena Bank,BKDN0720239,226018005,"NADAN MAHAL ROAD,LUCKNOW","NADAN MAHAL ROAD,LUCKNOW 226 001",,LUCKNOW,LUCKNOW,UTTAR PRADESH
BKDN0720352,Dena Bank,BKDN0720352,250018001,MEERUT CANTT,"297, D.C. ABU LANE,P.B. NO.97, MEERUT CANTT",,MEERUT CANTT,MEERUT,UTTAR PRADESH
BKDN0720397,Dena Bank,BKDN0720397,NON-MICR,"SHAH KAMAL ROAD, ALIGARH","SHAH KAMAL ROAD,ALIGARH - 202001",,ALIGARH,ALIGARH,UTTAR PRADESH
BKDN0720415,Dena Bank,BKDN0720415,NON MICR,MORADABAD,"PB 236,TOWN HALL,MORADABAD",,MORADABAD,MORADABAD,UTTAR PRADESH
BKDN0720453,Dena Bank,BKDN0720453,NON-MICR,AIHAR,"OPP.SRI GANESH ,NR RAIL COACH FACTORY,AIHAR-229121,UTTAR PRADESH",,AIHAR,BARA BANKI,UTTAR PRADESH
BKDN0720466,Dena Bank,BKDN0720466,NON-MICR,RAI BAREILY,"VILAYAT ALIKHAN BLDG,KAPAR GANJ,KAPAR GANJ ",,RAI BARELI,RAEBAREILI,UTTAR PRADESH
BKDN0720500,Dena Bank,BKDN0720500,211018002,ALLAHABAD-JOHNSTONGANJ,"12 14 JOHNSTON GANJ,ALLAHABAD-211003",,ALLAHABAD,ALLAHABAD,UTTAR PRADESH
BKDN0720568,Dena Bank,BKDN0720568,NON-MICR,HARCHANDPUR,"AT & POST : HARCHANDPUR,DIST. RAE BARELI,UTTAR PRADESH",,HARCHANDPUR,RAI BARELI,UTTAR PRADESH
BKDN0720607,Dena Bank,BKDN0720607,221018002,VARANASI BULANALA,"BULANALA,GODOLIA ROAD,VARANASI221 001",,VARANASI,VARANASI,UTTAR PRADESH
BKDN0720608,Dena Bank,BKDN0720608,NON-MICR,ALIGARH CIVIL LINES,"HAJI ABDULKADIR MKT,BADER BAGH,CIVIL LINES,ALIGARH-202001",,ALIGARH,ALIGARH,UTTAR PRADESH
BKDN0720631,Dena Bank,BKDN0720631,226018006,LUCKNOW (SHIVAJI MARG),"7,SHIVAJI MARG,LUCKNOW-226001,UTTAR PRADESH",,LUCKNOW,LUCKNOW,UTTAR PRADESH
BKDN0720659,Dena Bank,BKDN0720659,NON-MICR,PAPHUNDA,"MEERUT HAPUR ROAD.,AT&PO.PHAPHUNDA,UTTAR PRADESH-245206",,PHAPHUND,AURAIYA,UTTAR PRADESH
BKDN0720687,Dena Bank,BKDN0720687,110018029,GHAZIABAD,"17, NAVAYUG MARKET, GHAZIABAD - 201 001",,GHAZIABAD,GHAZIABAD,UTTAR PRADESH
BKDN0720724,Dena Bank,BKDN0720724,282018002,AGRA,"BANK BUILDING, HARI PRABHAT, DELHI GATE,AGRA, U.P",,AGRA,AGRA,UTTAR PRADESH
BKDN0720730,Dena Bank,BKDN0720730,208018002,KANPUR,"24/57,BIRHAN ROAD,PO.KANPUR,KANPUR,UTTAR PRADESH-208001",,KANPUR,KANPUR NAGAR,UTTAR PRADESH
BKDN0720736,Dena Bank,BKDN0720736,226018003,LUCKNOW (BANGLA BAZAR),"RAIL NAGAR,BANGLA BAZAR,LUCKNOW,UTTAR PRADESH",,LUCKNOW,LUCKNOW,UTTAR PRADESH
BKDN0720750,Dena Bank,BKDN0720750,NON-MICR,BABUGANJ,"AT & PO.BABUGANJ.,TEH.PHULPUR.,UTTAR PRADESH-212507",,BABUGANJ,RAI BARELI,UTTAR PRADESH
BKDN0720751,Dena Bank,BKDN0720751,NON-MICR,SHEOGARH,"AT & PO.SHEOGARH.DIST.ALLAHABAD,UTTAR PRADESH-12502",,SHEOGARH,RAI BARELI,UTTAR PRADESH
BKDN0720753,Dena Bank,BKDN0720753,110018032,SAHPUR-BAMATA,"BULAND SHAHAPUR ROAD,SHAHPUR BAMATA,GHAZIABAD",,SHAHPUR BAMATA,GHAZIABAD,UTTAR PRADESH
BKDN0720757,Dena Bank,BKDN0720757,NON-MICR,NIGOHAN,"STATION ROAD, POST-NIGOHAN,DIST-LUCKNOW,UTTAR PRADESH",,NIGOHAN,LUCKNOW,UTTAR PRADESH
BKDN0720761,Dena Bank,BKDN0720761,NON-MICR,LODHA,"KHAIR ROAD.,AT & PO.LODHA.,UTTAR PRADESH-202140",,LODHA,ALIGARH,UTTAR PRADESH
BKDN0720766,Dena Bank,BKDN0720766,NON-MICR,RAHIMABAD,"RAHIMABAD BAZAR CHOURAHA,TAL. MALIHABAD,DIST. LUCKNOW,UTTAR PRADESH",,RAHIMABAD,LUCKNOW,UTTAR PRADESH
BKDN0720769,Dena Bank,BKDN0720769,273018001,GORAKHPUR,"LAXMANDAS PLAZA,AYODHYA DAS MARG,BANK ROAD,GORAKHPUR,UTTAR PRADESH",,GORAKHPUR,GORAKPUR,UTTAR PRADESH
BKDN0720794,Dena Bank,BKDN0720794,NON-MICR,MATHURA,"SUDHAKAR BHAVAN.,CHHATTA BAZAR.,MATHURA,UTTAR PRADESH",,MATHURA,MATHURA,UTTAR PRADESH
BKDN0720806,Dena Bank,BKDN0720806,NON-MICR,MEERUT CITY,"SUBHASH BAZAR 1, KRISHNA PARA, MEERUT",,MEERUT,MEERUT,UTTAR PRADESH
BKDN0720837,Dena Bank,BKDN0720837,243018002,BAREILLY,"10/26,MARWARI GANJ, NEAR NAI BASTI, UTTAR PRADESH",,BAREILLY,BAREILLY,UTTAR PRADESH
BKDN0720840,Dena Bank,BKDN0720840,226018004,LUCKNOW (GHOSPURA),"B/1015, GHOSPURA, RAMSAGAR MISRA SADAN,INDIRANAGAR,GHOSPURA, DIST.LUCKNOW, UTTAR PRADESH",,LUCKNOW,LUCKNOW,UTTAR PRADESH
BKDN0720860,Dena Bank,BKDN0720860,226018008,"DUBAGGA, LUCKNOW","RAMJIVAN BLDG,HARODIA RD,DUBAGGA,DIST LUCKNOW",,LUCKNOW,LUCKNOW,UTTAR PRADESH
BKDN0721024,Dena Bank,BKDN0721024,251018001,MUZAFFARNAGAR,"80/I, LAMBA BAZAR, MEERUT ROAD",,MUZAFFAR NAGAR,MUZAFFAR NAGAR,UTTAR PRADESH
BKDN0721076,Dena Bank,BKDN0721076,211018003,ALLAHABAD-NYAYNAGAR,"WARSI MARKET, G.T. ROAD,NYAYA NAGAR,ALLAHABAD-221506",,ALLAHABAD,ALLAHABAD,UTTAR PRADESH
BKDN0721085,Dena Bank,BKDN0721085,248018002,DEHRADUN,"8/B,LAXMI ROAD,BALBIR ROAD CROSSING,DEHRADUN,UTTRANCHAL",,DEHRADUN,DEHRADUN,UTTARAKHAND
BKDN0721089,Dena Bank,BKDN0721089,226018007,LUCKNOW(UTHRATHIA),"LUCKNOW(UTHRATHIA)RAI BARELI ROAD,UTHRATHIA,LUCKNOW-226 01",,LUCKNOW,LUCKNOW,UTTAR PRADESH
BKDN0721107,Dena Bank,BKDN0721107,247018002,SAHARANPUR,"OPP. S A M INTER COLLEGE, RAMNAGAR. DEHRADUN ROAD",,SAHARANPUR,SAHARANPUR,UTTAR PRADESH
BKDN0721125,Dena Bank,BKDN0721125,110018026,NOIDA,"C-136, SECTOR-19, NOIDA-201 301",,NOIDA,GAUTAM BODDA NAGAR,UTTAR PRADESH
BKDN0721126,Dena Bank,BKDN0721126,245018002,HAPUR,"SWARG-ASHRAM ROAD, DIST. GHAZIABAD,",,HAPUR,GHAZIABAD,UTTAR PRADESH
BKDN0721128,Dena Bank,BKDN0721128,221018003,VARANASI (MAHMOORGANJ),"B37/122,SEHGAL COMPLEX,RATHYATRA,MAHMOORGANJ,VARANASI",,VARANASI,VARANASI,UTTAR PRADESH
BKDN0721129,Dena Bank,BKDN0721129,224018202,FAIZABAD,"230, RAKABGANJ",,FAIZABAD,FAIZABAD,UTTAR PRADESH
BKDN0721135,Dena Bank,BKDN0721135,226018009,LUCKNOW(GOMTI NAGAR),"3/107, VIDHAYAKPURAM,GOMTINAGAR,LUCKNOW,UTTAR PRADESH",,LUCKNOW,LUCKNOW,UTTAR PRADESH
BKDN0721140,Dena Bank,BKDN0721140,284018002,JHANSI,"98, CIVIL LINES ,DIST. JHANSI",,JHANSI,JHANSI,UTTAR PRADESH
BKDN0721145,Dena Bank,BKDN0721145,226018010,LUCKNOW(RAJAJIPURAM),"SKD PLAZA,E BLOCK,RAJAJIPURAM,LUCKNOW,UTTAR PRADESH",,LUCKNOW,LUCKNOW,UTTAR PRADESH
BKDN0721153,Dena Bank,BKDN0721153,211018004,RAMBAG ALLAHABAD,"SUNDARAM TOWERS,164/147, S.V. MARG,RAMBAGH CROSSING,ALLAHABAD",,ALLAHABAD,ALLAHABAD,UTTAR PRADESH
BKDN0721171,Dena Bank,BKDN0721171,248018003,DEHRADUN (GMS ROAD),"17/2, ENGINEERS ENCLAVE, GMS ROAD,MAUJA KAONLI, DEHRADUN-721171",,DEHRADUN,DEHRADUN,UTTARAKHAND
BKDN0721172,Dena Bank,BKDN0721172,110018035,GREATER NOIDA,"KAILASH HOSPITAL,23 INSTITUTIONAL AREA,GREATER NOIDA-201308,UTTAR PRADESH",,NOIDA,GAUTAM BODDA NAGAR,UTTAR PRADESH
BKDN0721187,Dena Bank,BKDN0721187,NON-MICR,ROORKEE,"5/1,PURVABALI,DEHRADUN ROAD,ROORKEE",,ROORKEE,HARIDWAR,UTTARAKHAND
BKDN0721188,Dena Bank,BKDN0721188,208018003,BARRA(KANPUR),185/Z-1 BARRA,,KANPUR,KANPUR NAGAR,UTTAR PRADESH
BKDN0721189,Dena Bank,BKDN0721189,NON-MICR,RUDRAPUR,"43/1/1,GABA COMPLEX,KASHIPUR ROAD,RUDRAPUR-263153",,RUDRAPUR,UDHAMSINGH NAGAR,UTTARAKHAND
BKDN0721190,Dena Bank,BKDN0721190,226018011,ALIGANJ LUCKNOW,"C-1,SECTOR-M,ALIGANJ,LUCKNOW-226 024",,LUCKNOW,LUCKNOW,UTTAR PRADESH
BKDN0721191,Dena Bank,BKDN0721191,NON-MICR,HARIDWAR,"DENA BANK, RAM NAGAR, JWALAPUR - KANKHAL ROAD, OPP. BAJRANG DHAM, JWALAPUR, HARIDWAR - 249407, UTTRAKHAND",,HARDWAR,HARIDWAR,UTTARAKHAND
BKDN0721234,Dena Bank,BKDN0721234,226018012,"RETAIL ASSET BRANCH, LUCKNOW","RETAIL ASSET BR LUCKNOW,B 1015, 1ST FLOOR,INDIRA NAGAR,LUCKNOW,UTTAR PRADESH",,LUCKNOW,LUCKNOW,UTTAR PRADESH
BKDN0721256,Dena Bank,BKDN0721256,248018004,PREMNAGAR DEHRADUN,"PREMNAGAR DEHRADUN,65/66 SPECIAL WING, CHAKRATA ROAD,NEAR IMA, PREMNAGAR,DEHRADUN,UTTARAKHAND-248001",,PREM NAGAR,DEHRA DUN,UTTARAKHAND
BKDN0721275,Dena Bank,BKDN0721275,225018002,BARABANKI,"B-405 A, CIVIL LINES,NEAR DIST JUDGE RESIDENCE,BARABANKI,UTTAR PRADESH",,BARA BANKI,BARA BANKI,UTTAR PRADESH
BKDN0721291,Dena Bank,BKDN0721291,263018002,HALDWANI,"OPP M G INTER COLLEGE,HALDWANI-CUM-KATHGODAM,BAREILLY ROAD,HALDWANI-263135,UTTARAKHAND",,HALDWANI,NAINITAL,UTTARAKHAND
BKDN0721299,Dena Bank,BKDN0721299,NON-MICR,SHAHJAHANPUR,"NEAR DURGA HOTEL. SADAR CIVIL LINE -2, STATION ROAD,SHAHJAHANPUR,UTTAR PRADESH-242001",,SHAHJAHANPUR,SHAHJAHANPUR,UTTAR PRADESH
BKDN0721300,Dena Bank,BKDN0721300,244018202,KASHIPUR,"RAM NAGAR ROAD, KASHIPUR,UDHAM SINGH NAGAR, LUCKNOW, UTTARAKHAND- 244713
",,KASHIPUR,UDHAM SINGH NAGAR,UTTARAKHAND
BKDN0721307,Dena Bank,BKDN0721307,NON-MICR,SITAPUR,"43-A, 44-A, VIJAY LAXMI NAGAR,BUS STATION ROAD, NEAR VISHAL MEGAMART, PIN 261001",,SITAPUR,SITAPUR,UTTAR PRADESH
BKDN0721334,Dena Bank,BKDN0721334,NON-MICR,SULTANPUR,"H/O SURENDRA KHURANA, 1202 KAIRABAD,  ALLAHABAD ROAD ,NEAR SUNDER DEVI EYE HOSPITAL,SULTANPUR-228001",,SULTANPUR,SULTANPUR,UTTAR PRADESH
BKDN0721433,Dena Bank,BKDN0721433,NON-MICR,RAE BARELI,"DENA BANK,  AT & PO DINSHAH GAURA,TAL: RAI BAREILLY",,,RAE BARELI,RAI BARELI
BKDN0731225,Dena Bank,BKDN0731225,NON MICR,SECTOR 38 CHANDIGARH,"SCO-182, CHANDIGARH, SECTOR 38/C,CHANDIGARH",,CHANDIGARH,CHANDIGARH,CHANDIGARH
BKDN0731243,Dena Bank,BKDN0731243,NON-MICR,BALIANA,"BALIANA,VILL BALIANA, BLOCK SAMPLA,DIST ROHTAK,HARYANA-126001",,ROHTAK,ROHTAK,HARYANA
BKDN0731308,Dena Bank,BKDN0731308,160018006,DERA BASSI,"PARAS RAM MKT, NH12,CHANDIGARH AMBALA RD,DERA,PUNJAB-160005",,DERA BASSI,PATIALA,PUNJAB
BKDN0731309,Dena Bank,BKDN0731309,141018004,MOGA,"DENA BANK, SCF 22 , IMPROVEMENT TRUST SCHEME, G T ROAD , MOGA, PUNJAB-142001",,MOGA,MOGA,PUNJAB
BKDN0731312,Dena Bank,BKDN0731312,NON-MICR,MUKTSAR,"DENA BANK, MUKTSAR ,SCF 10,NEW GRAIN MARKET,DIST     MUKTSAR,PUNJAB-152026",,MUKTSAR,MUKTSAR,PUNJAB
BKDN0731313,Dena Bank,BKDN0731313,142018002,IND AREA LUDHIANA,"DENA BANK, SAI TOWERS , 202, INDUSTRIAL AREA LUDHIANA,  DIST LUDHIANA, PUNJAB-141003",,LUDHIANA,LUDHIANA,PUNJAB
BKDN0731315,Dena Bank,BKDN0731315,NON-MICR,SIRSA,"OM BUILDING, LAL BATTI CHOWK DABWALI ROAD, HARYANA,PIN - 125055",,SIRSA,SIRSA,HARYANA
BKDN0731316,Dena Bank,BKDN0731316,NON-MICR,TOHANA,"SHOP NO 509-512, JAMALPUR ROAD, TOHANA 126120",,TOHANA,TOHANA,HARYANA
BKDN0731317,Dena Bank,BKDN0731317,NON-MICR,MANESAR,"NR BHAGWATI COMPLEX,KASAN ROAD MOTHER DAIRY,MANESAR,HARYANA",,MANESAR,GURGAON,HARYANA
BKDN0731318,Dena Bank,BKDN0731318,110018039,KUNDLI,"DENA BANK ,PLOT NO 33 ( 55/55/04/33) AND PLOT NO 43,KUNDLI , TEHSIL & DISTRICT SONEPAT  ",,KUNDLI,SONIPAT,HARYANA
BKDN0731319,Dena Bank,BKDN0731319,NON-MICR,JHANDIALA,"JHANDIALA,GORAYA ROAD,DIST JALLANDHAR,PUNJAB-130001",,JUNDIALA,JALANDHAR,PUNJAB
BKDN0731320,Dena Bank,BKDN0731320,133018003,AMBALA CITY,"NR KARAN PLAZA,GANPATI TOWER 91 PREM NAGAR,AMBALA CITY,HARYANA-134003",,AMBALA,AMBALA,HARYANA
BKDN0731323,Dena Bank,BKDN0731323,NON-MICR,BHIWANI,"BHIWANI ,HANSI GATE,HALWASIA MALL, UPPER GOOUND FLOOR,HARYANA-131001",,BHIWANI,BHIWANI,HARYANA
BKDN0731324,Dena Bank,BKDN0731324,NON-MICR,JHAJJAR,"OPP MAIN BUS STAND,JHAJJAR,HARYANA",,JHAJJAR,JHAJJAR,HARYANA
BKDN0731325,Dena Bank,BKDN0731325,NON-MICR,FIROZPUR,"BAJAJ EMPIRE, CIRCULAR ROAD, OUTSIDE BAGDADI GATE, FIROZPUR CITY - 151002 ",,FIROZPUR,FEROZPUR,PUNJAB
BKDN0731328,Dena Bank,BKDN0731328,NON-MICR,MANDI GOBINGARH,"IRIN AND STEEL ROLLING MILLS,AMLOH ROAD,MANDI GOBINGARH,PUNJAB",,GOBIND GARH,FATEHGARH SAHIB,PUNJAB
BKDN0731329,Dena Bank,BKDN0731329,NON-MICR,BAHADURGARH,"3/369, NEAR KUNDAN CINEMA,JHAJJAR ROAD,BAHADURGARH,HARYANA-124507",,BAHADURGARH,JHAJJAR,HARYANA
BKDN0731330,Dena Bank,BKDN0731330,NON-MICR,NAWANSHAHR,"LAJPAT COMPLEX, MAIN RD,BUS STAND CHOWK,NAWANSHAHR,PUNJAB",,NAWANSHAHAR,NAWANSHAHR,PUNJAB
BKDN0731331,Dena Bank,BKDN0731331,NON-MICR,ZIRAKPUR,"PATIALA NATIONAL HIGWAY,SHOP NO 16, NEAR GURUDWRA SAHIB,ZIRAKPUR,PUNJAB-1406",,ZIRAKPUR,PATIALA,PUNJAB
BKDN0731339,Dena Bank,BKDN0731339,180018003,JAMMU KUNJWAN,"OPPOSITE BATA SHOW ROOM, JAMMU-PATHANKOT HATIONAL HIGHWAY, KUNJWANI, GANGYAL JAMMUKURNOOL,PIN 180010",,JAMMU,JAMMU,JAMMU & KASHMIR
BKDN0731353,Dena Bank,BKDN0731353,730181353                   ,GURGAON MVL,"MVL PARK, CHANDAN NAGAR,RAJESH SAIGAL,SEC 15, PART III, GURGAON,HARYANA-122001",,GURGAON,GURGAON,HARYANA
BKDN0731353 ,Dena Bank,BKDN0731353 ,NON MICR,GURGAON,"MVL PARK, CHANDAN NAGAR,RAJESH SAIGAL,SEC 15, PART III, GURGAON,HARYANA-122001",,GURGAON,GURGAON,HARYANA
BKDN0731382,Dena Bank,BKDN0731382,NON-MICR,DHARUHERA,"SHARMILA DEVI & SHASHI DEVI,NAND RAMPUR BASS ROAD,DHARUHERA,HARYANA",,DHARUHERA,REWARI,HARYANA
BKDN0800000,Dena Bank,BKDN0800000,NON MICR,DURG RAJNANDGAON GRAMIN BANK,"RAMADHIN MARG,RAJNANDGAON,CHATTISGARH-491441",,RAJNANDGAON,RAJNANDGAON,CHHATTISGARH
BKDN0810027,Dena Bank,BKDN0810027,NON-MICR,LALBAG BURHANPUR,"P.B. NO.13, STATION ROAD,DIST. KHANDWA,MADHYA PRADESH,",,BURHANPUR,BURHANPUR,MADHYA PRADESH
BKDN0810125,Dena Bank,BKDN0810125,462018002,BHOPAL(AZAD MARKET),"MARWADI ROAD NAKA,AZAD MARKET,PB NO-54,BHOPAL-462001",,BHOPAL,BHOPAL,MADHYA PRADESH
BKDN0810141,Dena Bank,BKDN0810141,452018002,INDORE (SITLAMATA ROAD),"45 BY 46, SITLAMATA ROAD,PB NO.9,INDORE - 452 002.,M.P.",,INDORE,INDORE,MADHYA PRADESH
BKDN0810162,Dena Bank,BKDN0810162,NON-MICR,TILAK MARG UJJAIN,"117, TILAK MARG, UJJAIN",,UJJAIN,UJJAIN,MADHYA PRADESH
BKDN0810180,Dena Bank,BKDN0810180,452018004,INDORE (SIYAGANJ),"SIYA GANJ, OLD IDA BLDG.,2ND FLR., JAWAHAR MARGINDORE,MADHYA PRADESH-452007",,INDORE,INDORE,MADHYA PRADESH
BKDN0810204,Dena Bank,BKDN0810204,474018001,GWALIOR,"RAJ PAYGA ROAD,NAYA BAZAR,GWALIOR,MADHYA PRADESH",,GWALIOR,GWALIOR,MADHYA PRADESH
BKDN0810222,Dena Bank,BKDN0810222,NON-MICR,SHAHPUR,"BADA BAZAR,SHABHO,SHAHPUR-450445,MADHYA PRADESH",,SHAHPUR,BHOPAL,MADHYA PRADESH
BKDN0810225,Dena Bank,BKDN0810225,454018001,DHAR,"63, JAWAHAR MARG, DHAR-454 001",,DHAR,DHAR,MADHYA PRADESH
BKDN0810229,Dena Bank,BKDN0810229,NON-MICR,BIR,"MANDI ROAD,BIR,DIST: WEST NIMAR,KHANDWA,MADHYA PRADESH-450110",,BIR,EAST NIMAR,MADHYA PRADESH
BKDN0810301,Dena Bank,BKDN0810301,NON-MICR,KHANDWA,"OPP.TOWN HALL,PB NO.27,KHANDWA-450 001.,DIST.EAST NIMAR (M.P)",,KHANDWA,KHANDWA,MADHYA PRADESH
BKDN0810375,Dena Bank,BKDN0810375,450018001,BURHANPUR CITY,"68 TILAK MARG.PB NO.9., BURHANPUR CITY",,BURHANPUR,BURHANPUR,MADHYA PRADESH
BKDN0810493,Dena Bank,BKDN0810493,458018001,MANDSAUR,"GANDHI CHOURAHA, MANDSAUR",,MANDSAUR,MANDSAUR,MADHYA PRADESH
BKDN0810507,Dena Bank,BKDN0810507,NON-MICR,HARDA,"LAXMI NIWAS,PB.NO.9, DISTT. HOSHANGABD,HARDA 461 331",,HARDA,HARDA,MADHYA PRADESH
BKDN0810558,Dena Bank,BKDN0810558,NON-MICR,UJJAIN (FREEGANJ),"10 MADAN BHAVAN,SHANKU MARG,FREEGANJ UJJAIN 456 001",,UJJAIN,UJJAIN,MADHYA PRADESH
BKDN0810563,Dena Bank,BKDN0810563,NON-MICR,RATLAM,"12, KOTHARI MARKET, RATLAM,RATLAM - 457 001",,RATLAM,RATLAM,MADHYA PRADESH
BKDN0810566,Dena Bank,BKDN0810566,482018001,JABALPUR (CIVIC CENTRE),"BLOCK NO.10, 1ST FLOOR, JDA BUILDING,CIVIC CENTRE,JABALPUR-482001",,JABALPUR,JABALPUR,MADHYA PRADESH
BKDN0810581,Dena Bank,BKDN0810581,452018005,INDORE (NAVALAKHA),"NAVALAKHA CHOURAHA,MUMBAI- AGRA ROAD,INDORE,MADHYA PRADESH-452001",,INDORE,INDORE,MADHYA PRADESH
BKDN0810592,Dena Bank,BKDN0810592,452018003,INDORE (JAIL ROAD),"17, JAIL ROAD,SONARWADA,INDORE,MADHYA PRADESH-452003",,INDORE,INDORE,MADHYA PRADESH
BKDN0810625,Dena Bank,BKDN0810625,462018003,BHOPAL-TT NAGAR,"BETWA APARTMENT,PB NO 307,ROSHANPURA NAKA,TT NAGAR,BHOPAL-462003",,BHOPAL,BHOPAL,MADHYA PRADESH
BKDN0810632,Dena Bank,BKDN0810632,NON-MICR,ITARSI,"M.G. ROAD, OPP. RLY. STATION, ITARSI",,ITARSI,HOSHANGABAD,MADHYA PRADESH
BKDN0810694,Dena Bank,BKDN0810694,NON MICR,NAGDA,"NAGDA,DIST. DHAR,MADHYA PRADESH,",,NAGDA,DHAR,MADHYA PRADESH
BKDN0810752,Dena Bank,BKDN0810752,NON-MICR,BAKHATGARH,"BADNAWAR TEHSIL,BAKHATGARH,MADHYA PRADESH",,BAKHATBARH,DHAR,MADHYA PRADESH
BKDN0810777,Dena Bank,BKDN0810777,451018001,BARWANI,"BARWANI BRANCH, ZANDA CHOWK, BARWANI, MADHYA PRADESH",,BARWANI,BADWANI,MADHYA PRADESH
BKDN0810842,Dena Bank,BKDN0810842,462018004,BHOPAL-HAMIDIA ROAD,"HAMIDIA ROAD, BHOPAL TALUKA,BHOPAL-462001",,BHOPAL,BHOPAL,MADHYA PRADESH
BKDN0810894,Dena Bank,BKDN0810894,470018001,SAGAR,"AJIJ RAIN MANJIL, GUJRATI BAZAR",,SAGAR,SAGAR,MADHYA PRADESH
BKDN0811075,Dena Bank,BKDN0811075,462018005,"KOH-E-FIZA, MADHYA PRADESH","PLOT-38 A,,BDA COLONY,SINGHAI APARTMENT,KOH-E-FIZA,BHOPAL-462001",,BHOPAL,BHOPAL,MADHYA PRADESH
BKDN0811087,Dena Bank,BKDN0811087,452018006,INDORE (SANWER ROAD),"4-A, SANWER ROAD,SUKLHLIYA JUNCTION,INDORE-452 008.,DIST. M.P",,INDORE,INDORE,MADHYA PRADESH
BKDN0811090,Dena Bank,BKDN0811090,482018002,JABALPUR (ANAND NAGAR),"265,ANAND NAGAR, ADHAR TAL, JABALPUR - 482 004",,JABALPUR,JABALPUR,MADHYA PRADESH
BKDN0811119,Dena Bank,BKDN0811119,482018003,JABALPUR (WRIGHT TOWN),"MLB GIRLS SCHOOL, OPP.STADIUM GATE NO.1, JABALPUR-482 002",,JABALPUR,JABALPUR,MADHYA PRADESH
BKDN0811122,Dena Bank,BKDN0811122,452018007,INDORE(PALASIA),"NAVNEET DARSHAN APART.,GROUND FLR.,OLD PALASIA,INDORE,MADHYA PRADESH-452001",,INDORE,INDORE,MADHYA PRADESH
BKDN0811142,Dena Bank,BKDN0811142,462018006,BHOPAL(M.P.NAGAR),"209-210, JYOTI SHOPPING COMPLEXZONE-1, M.P.NAGARDIST. BHOPAL,MADHYA PRADESH",,BHOPAL,BHOPAL,MADHYA PRADESH
BKDN0811148,Dena Bank,BKDN0811148,NON-MICR,KATNI,"JANKI COMPLEX,TILAK WARD,NEAR GHANTAGHAR,KATNI",,KATNI(MURWARA),KATNI,MADHYA PRADESH
BKDN0811184,Dena Bank,BKDN0811184,462018007,ARERA COLONY BHOPAL,"E-8/1,RAILWAY SOCIETY,NEAR 12 NO. BUS STOP,ARERA COLONY,BHOPAL",,BHOPAL,BHOPAL,MADHYA PRADESH
BKDN0811185,Dena Bank,BKDN0811185,NON-MICR,DEWAS,"2 CIVIL LINES, NEAR INDIA GANDHI STATUE, DEWAS-455001",,DEWAS,DEWAS,MADHYA PRADESH
BKDN0811186,Dena Bank,BKDN0811186,NON-MICR,SATANA,"MADHAV COMPLEX,J.D.BIRLA ROAD,SINDHI CAMP TURN,BESIDES DEPOT SATNA-485001",,SATNA,SATNA,MADHYA PRADESH
BKDN0811222,Dena Bank,BKDN0811222,452018008,FUTHI KOTHI INDORE,"983 A , SUDAMA NAGAR , FOOTI KOTHI MAIN ROAD , INDORE - 452009 , MADHYA PRADESH",,INDORE,INDORE,MADHYA PRADESH
BKDN0811231,Dena Bank,BKDN0811231,NON-MICR,"RETAIL ASSET BRANCH, BHOPAL","RETAIL ASSET BRANCH,BHOPA,PLOT NO. 274, ZONE -II,  M.P. NAGAR,BHOPAL-462016",,BHOPAL,BHOPAL,MADHYA PRADESH
BKDN0811285,Dena Bank,BKDN0811285,473018001,CHHINDWARA,"10/65 NEAR GURUDWARA RAILWAY STATION ROAD, CHHINDWARA, MADHYA PRADESH",,CHHINDWARA,CHHINDWARA,MADHYA PRADESH
BKDN0811286,Dena Bank,BKDN0811286,476018001,MORENA,"MORENA,WARD 14, OPP BDO OFFICE,M D ROAD,MADHYA PRADESH-476001",,MORENA,MORENA,MADHYA PRADESH
BKDN0811287,Dena Bank,BKDN0811287,486018001,REWA,"HOUSE NO. 12/669, SIRMOR CHAURAHA,REWA (M.P.)-486001",,REWA,REWA,MADHYA PRADESH
BKDN0811288,Dena Bank,BKDN0811288,460018001,BETUL,"DENA BANK,ABKARI ROAD,LOHIYA WARD,BETUL GANJ,BETUL - 460001",,BETUL,BETUL,MADHYA PRADESH
BKDN0811289,Dena Bank,BKDN0811289,464018201,VIDISHA,"KUSH NIWAS, NEAR KHARI PHATAK SQUARE, VIDISHA 464001",,VIDISHA,VIDISHA,MADHYA PRADESH
BKDN0811290,Dena Bank,BKDN0811290,473018001,GUNA,"A B ROAD,NEAR HDFC BANK,GUNA,MADHYA PRADESH-473001",,GUNA,GUNA,MADHYA PRADESH
BKDN0811450,Dena Bank,BKDN0811450,NON-MICR,ASHOK NAGAR,"  DENA BANK, ALOK PRATAP SINGH RAGHUVANSHI, WARD NO 7 GANESH COLONY,   VIDHISHA ROAD BYE PASS, ASHOK NAGAR,  PIN 473331",8966873619; ASHOKN@DENABANK.CO.IN,ASHOKNAGAR,ASHOK NAGAR,MADHYA PRADESH
BKDN0811451,Dena Bank,BKDN0811451,NON-MICR,GODARWARA,"DENA BANK, SHRI RAM NARAYAN UPADHYAY,  GAYATRI NAGAR PIPARIYA ROAD,  GADARWARA DIST NARSINGHPUR, PIN 487551",8966873619;  GODARW@DENABANK.CO.IN,GADARWARA,NARSIMHAPUR,MADHYA PRADESH
BKDN0811463,Dena Bank,BKDN0811463,,SHAHDOL,"DENA BANK, HOUSE OF SUSHILA DEVI,NEAR POOJA PRINTERS GANJ ROAD,SHAHDOL (M P) 484001, ",SHAHDO@DENABANK.CO.IN;9993778482,DHULE,DHULE,MAHARASHTRA
BKDN0811464,Dena Bank,BKDN0811464,,PITHAMPUR,"DENA BANK,  TIWARI COMPLEX ,MHOW NEEMUCH ROAD,PITHAMPUR (M P) ,DIST  INDORE,PIN  - 454475",PITHAM@DENABANK.CO.IN;9200594431,INDORE,INDORE,MADHYA PRADESH
BKDN0811465,Dena Bank,BKDN0811465,,KHARGONE,"DENA BANK, TRAOFFICE BSNL KHARGONE,DIVERSION ROAD,DIST KHARGONE, PIN  - 451001",KHARGO@DENABANK.CO.IN;9826744809,KHARGONE,RAISEN,MADHYA PRADESH
BKDN0820188,Dena Bank,BKDN0820188,492018002,RAIPUR(JAWAHAR NAGAR),"MAKHIJA BHAVAN,JAWAHAR NAGAR,RAIPUR,CHHATISGARH-492001",,RAIPUR,RAIPUR,CHHATTISGARH
BKDN0820236,Dena Bank,BKDN0820236,NON-MICR,ARANG,"MAIN ROAD,ARANG, ARANG - 493 441",,ARANG,RAIPUR,CHHATTISGARH
BKDN0820237,Dena Bank,BKDN0820237,NON-MICR,KURUD,"KURUD, TAL DHAMTARI, KURUD - 493 663 ",,KURUD,DHAMTARI,CHHATTISGARH
BKDN0820270,Dena Bank,BKDN0820270,NIN-MICR,ABHANPUR,"ABHANPUR,DIST. RAIPUR,CHATTISGARH",,ABHANPUR,RAIPUR,CHHATTISGARH
BKDN0820271,Dena Bank,BKDN0820271,NON MICR,RAJIM,"73 M. CHALANI BLDG.,NAWAPARA, DIST. RAIPUR, CHATTISGARH,",,RAJIM,RAIPUR,CHHATTISGARH
BKDN0820272,Dena Bank,BKDN0820272,NON-MICR,DHAMTARI,"BASTAR ROAD, DHAMTARI - 493 773",,DHAMTARI,DHAMTARI,CHHATTISGARH
BKDN0820273,Dena Bank,BKDN0820273,NON-MICR,TILDA,"TILDA, POST. NEORA, TILDA - 493 114 DIST. RAIPUR(M.P.) CHHATISGARH",,TILDA,RAIPUR,CHHATTISGARH
BKDN0820293,Dena Bank,BKDN0820293,491018003,DURG,"DURG(SURANA COMPLEX, SRD) GANJPARA,DIST. DURG(M.P.),DURG -491 001",,DURG,DURG,CHHATTISGARH
BKDN0820342,Dena Bank,BKDN0820342,NON-MICR,GUNDERDEHI,"GUNDERDEHI,DIST. DURG,CHATTISGARH",,GURDERDEHI,DURG,CHHATTISGARH
BKDN0820344,Dena Bank,BKDN0820344,NON-MICR,GARIABAND,"SEMRA,AT & POST SEMARA.(BHAKHARA).,DEOBHOG BLOCK. VIA DHAMTARI.,CHHATTISGARH",,GARIABAND,RAIPUR,CHHATTISGARH
BKDN0820345,Dena Bank,BKDN0820345,NON-MICR,CHUIKHADAN,"BAZAR LINE,CHUIKHADAN,DIST RAJNANDGAON,CHHATTISGARH",,CHUIKHADAM,RAJNANDGAON,CHHATTISGARH
BKDN0820346,Dena Bank,BKDN0820346,NON-MICR,DONGARGARH,"10-JAISTAMBH CHOWK,DONGARGARH,CHHATTISGARH-491445",,DONGARGARH,RAJNANDGAON,CHHATTISGARH
BKDN0820374,Dena Bank,BKDN0820374,NON-MICR,RAJNANDGAON,"KAMPTEE LINE,RAJNANDGAON, DIST. RAJNANDGAON, CHATTISGARH",,RAJNANDGAON,RAJNANDGAON,CHHATTISGARH
BKDN0820434,Dena Bank,BKDN0820434,NONMICR,THANKHAMARIA,"THANKAMARIA,CHHATTISGARH",,THANK LAMARIA,DURG,CHHATTISGARH
BKDN0820446,Dena Bank,BKDN0820446,492018004,RAIPUR(GUDIARI),"GUDIARI,DIST. RAIPUR(M.P.),GUDIARI -492 001.",,RAIPUR,RAIPUR,CHHATTISGARH
BKDN0820448,Dena Bank,BKDN0820448,NON MICR,KHURSIPAR,"NEW KHURSIPAR, BHILAINAGAR",,BHILAINAGAR,DURG,CHHATTISGARH
BKDN0820509,Dena Bank,BKDN0820509,NON-MICR,KHARORA,"MAIN ROAD, KHARORA,DIST. RAIPUR,CHATTISGARH",,KHARORA,RAIPUR,CHHATTISGARH
BKDN0820510,Dena Bank,BKDN0820510,NON-MICR,BASNA,"JAGDISHPUR ROAD.DIST MAHASAMUND,BASNA-493554,CHHATTISGARH",,BASNA,MAHASAMUND,CHHATTISGARH
BKDN0820556,Dena Bank,BKDN0820556,NON-MICR,CHARMA (BASTAR),"CHARAMA,DIST. KANKER,CHATTISGARH,",,CHARMA,KANKER,CHHATTISGARH
BKDN0820609,Dena Bank,BKDN0820609,493018001,BHATAPARA,"GANDHI MANDIR ROAD, BHATAPARA -493 118. DIST. RAIPUR.",,BHATAPARA,RAIPUR,CHHATTISGARH
BKDN0820641,Dena Bank,BKDN0820641,NON MICR,AMBAGARH CHOWKI,"AMBAGARH CHOWKI, TAL. RAJNANDGAON",,RAJNANDGAON,RAJNANDGAON,CHHATTISGARH
BKDN0820681,Dena Bank,BKDN0820681,NON-MICR,PIPARIA,"PIPAR,KAWARDHA TEHSIL,CHHATTISGARH",,PIPARIA,KAWARDHA,CHHATTISGARH
BKDN0820682,Dena Bank,BKDN0820682,NON-MICR,PATAN(DURG),"PATAN,DURG TEHSIL,PATAD-491111,CHHATTISGARH",,PATAN,DURG,CHHATTISGARH
BKDN0820691,Dena Bank,BKDN0820691,NON MICR,BERLA,"TAL. BERLA,DIST. DURG,CHATTISGARH,",,BERLA,DURG,CHHATTISGARH
BKDN0820707,Dena Bank,BKDN0820707,NON-MICR,NAGRI SIHAVA,"DHAMTARI SIHAVA ROAD,TAL. DHAMTARI,DIST. DHAMTARI,CHATTISGARH",,NAGRI SIHAVA,DHAMTARI,CHHATTISGARH
BKDN0820709,Dena Bank,BKDN0820709,NON-MICR,DHARSIVA,"DHARSHIVA,CHHATTISGARH",,DHARSIVA,RAIPUR,CHHATTISGARH
BKDN0820718,Dena Bank,BKDN0820718,NON-MICR,MOHALLA,"MOHALLA,AT & POST MOHALLA,CHHATTISGARH",,MOHALLA,RAJNANDGAON,CHHATTISGARH
BKDN0820722,Dena Bank,BKDN0820722,NON-MICR,DEOBHOG,"AT & POST DEOBHOG,DISTT-RAIPUR-493890,CHHATTISGARH",,DEOBHOG,RAIPUR,CHHATTISGARH
BKDN0820728,Dena Bank,BKDN0820728,NON MICR,KANKER,"TAUNK BHAWAN ,MAIN ROAD, NEAR OLD BUS STAND,",,KANKER,KANKER,CHHATTISGARH
BKDN0820762,Dena Bank,BKDN0820762,NON-MICR,BHILAI(POWER HOUSE),"NANDINI ROAD,BHILAINAGAR -490 011.DIST. DURG, CHATTISGARH,",,BHILAINAGAR,DURG,CHHATTISGARH
BKDN0820776,Dena Bank,BKDN0820776,NON-MICR,DAMAKHEDA,"DAMAKHEDA,AT & POST DAMAKHEDA,SIMGA TEHSIL,CHHATTISGARH",,DAMAKHEDA,RAIPUR,CHHATTISGARH
BKDN0820785,Dena Bank,BKDN0820785,NON-MICR,SOMNI,"AT & POST SOMNI,CHHATTISGARH",,SOMNI,RAJNANDGAON,CHHATTISGARH
BKDN0820801,Dena Bank,BKDN0820801,NON-MICR,BOTHILI,"AT&POSTS BHOTHLI.,DHAMTARI TEHSIL,CHHATTISGARH",,BHOTHLI,DHAMTARI,CHHATTISGARH
BKDN0820802,Dena Bank,BKDN0820802,NON-MICR,KHORPA,"AT & POST KHORPA,ABHANPUR TEHSIL,CHHATTISGARH",,KHORPA,RAIPUR,CHHATTISGARH
BKDN0820812,Dena Bank,BKDN0820812,NON-MICR,BHAISMUNDI,"AT&POST BHAISMUNDI,TEH.MANGARLOD.DHAMTARI,CHHATTISGARH",,BHAISMUDI,DHAMTARI,CHHATTISGARH
BKDN0820830,Dena Bank,BKDN0820830,NON-MICR,SEMRA,"SEMRA,AT & POST SEMARA.(BHAKHARA).,DEOBHOG BLOCK. VIA DHAMTARI.,CHHATTISGARH",,SEMRA,JANJGIR-CHAMPA,CHHATTISGARH
BKDN0820853,Dena Bank,BKDN0820853,NON-MICR,TORLA,"AT & POST TORLA,ABHANPUR TEHSIL,CHHATTISGARH",,TORLA,RAIPUR,CHHATTISGARH
BKDN0820854,Dena Bank,BKDN0820854,NON-MICR,MOHRA,"AT & POST MOHRA,BALODA BAZAR.TAL.SIMGA,CHHATTISGARH",,MOHRA,RAIPUR,CHHATTISGARH
BKDN0820855,Dena Bank,BKDN0820855,NON-MICR,BUNDELI,"BUNDELI,AT&POST BUNDELI,PITHORA TALUKA,CHHATTISGARH",,BUNDELI,MAHASAMUND,CHHATTISGARH
BKDN0820917,Dena Bank,BKDN0820917,492018003,BHANPURI,"BILASPUR RD.BHANUPURI IND.ESTATE, RAIPUR CHHATISGARH",,BHANPURI,RAIPUR,CHHATTISGARH
BKDN0820938,Dena Bank,BKDN0820938,NON-MICR,BHILAI SECTOR 10,"SECTOR 10 , ANCHAL MARKET , BHILAI",,BHILAINAGAR,DURG,CHHATTISGARH
BKDN0820992,Dena Bank,BKDN0820992,NON-MICR,DIDGABHATA,"DIDGABHATA.BLOCK-PATAN,PO RANITARA.,DIDGA,CHHATTISGARH-491223",,DIDGABHATA,DURG,CHHATTISGARH
BKDN0820998,Dena Bank,BKDN0820998,NON-MICR,BANA,"BANA,AT & POST-KOSRANGI,TEH ARANG,DISTT-RAIPUR,CHHATTISGARH-493225",,BANA,RAIPUR,CHHATTISGARH
BKDN0821000,Dena Bank,BKDN0821000,NON-MICR,KHAUNA,"KHAUNA(BANGOLI),VILLAGE - KHAUNA,BLOCK - TILDA,CHHATTISGARH",,KHAUNA,RAIPUR,CHHATTISGARH
BKDN0821011,Dena Bank,BKDN0821011,NON-MICR,GODHI,"GODHI,BLOCK ARANG,CHHATTISGARH",,GODHI,MORADABAD,UTTAR PRADESH
BKDN0821016,Dena Bank,BKDN0821016,NONMICR,SAMODA,"SAMODA,BLOCK ARANG,CHHATTISGARH",,SAMODA,RAIPUR,CHHATTISGARH
BKDN0821034,Dena Bank,BKDN0821034,NONMICR,MEGHA,"BLOCK MAGARLOD, VIA KURUD, DIST. DHAMTARI",,MEGHA,DHAMTARI,CHHATTISGARH
BKDN0821037,Dena Bank,BKDN0821037,NON-MICR,NARRA,"NARRA,BLOCK-BAGBAHRA.,CHHATTISGARH",,NARRA,MAHASAMUND,CHHATTISGARH
BKDN0821040,Dena Bank,BKDN0821040,NON-MICR,URIA,"URIA.KHURD.,TAL: KAWARDHA-491995,CHHATTISGARH",,URIA-KHURD,KAWARDHA,CHHATTISGARH
BKDN0821046,Dena Bank,BKDN0821046,NON-MICR,SARDA,"SARDA,BLOCK - BERLA.,DIST. DURG.,CHHATTISGARH",,SARDA,DURG,CHHATTISGARH
BKDN0821057,Dena Bank,BKDN0821057,NON-MICR,LAHOD,"BLOCK-BALODA BAZAR.,LAHOD,CHHATTISGARH",,LAHOD,RAIPUR,CHHATTISGARH
BKDN0821064,Dena Bank,BKDN0821064,NON-MICR,NARRI TOLIA,"NARRT-TOLA,TAL: BALOD,BLOCK-DOUNDI,CHHATTISGARH",,NARRATOLA,DURG,CHHATTISGARH
BKDN0821068,Dena Bank,BKDN0821068,NON-MICR,AMATOLA,"AMATOLA,DIST.RAJNANDGAON.,BLOCK.AMBAGARH CHOWKI,CHHATTISGARH",,AMATOLA,RAJNANDGAON,CHHATTISGARH
BKDN0821077,Dena Bank,BKDN0821077,NON-MICR,JAMUL,"NANDINI ROAD, JAMUL,,DIST. DURG,CHATTISGARH",,JAMUL,DURG,CHHATTISGARH
BKDN0821078,Dena Bank,BKDN0821078,491018002,MOHAN NAGAR DURG,"OM PARISAR ROAD,DURG-491 001.",,DURG,DURG,CHHATTISGARH
BKDN0821079,Dena Bank,BKDN0821079,492018005,TATIBANDH,"S.DAYANAND SEWASHRAM, G.E.ROAD,TATIBANDH,RAIPUR-492010",,TATIBANDH,RAIPUR,CHHATTISGARH
BKDN0821105,Dena Bank,BKDN0821105,NON-MICR,MAHASAMUNDE,"AIMEN COMPLEX, MAIN RD., MAHASAMUND - 493 445 ",,MAHASAMUND,MAHASAMUND,CHHATTISGARH
BKDN0821117,Dena Bank,BKDN0821117,NON-MICR,BILASPUR,"NEW CLOTH MARKET, 1ST FLOOR,NEAR TELEPHONE EXCHANGE,AGRESSEN CHOWK,CHHATISGARH",,BILASPUR,BILASPUR,CHHATTISGARH
BKDN0821131,Dena Bank,BKDN0821131,NON-MICR,SARAIPALLY,"SARAIPALI. MAHASAMUND,PADMAPUR ROAD.,CHHATTISGARH",,SARAIPALI,MAHASAMUND,CHHATTISGARH
BKDN0821139,Dena Bank,BKDN0821139,NON MICR,KAWARDHA,"MAIN ROAD,KAWARDHA, KAWARDHA, CHATTISGARH",,KAWARDHA,KAWARDHA,CHHATTISGARH
BKDN0821223,Dena Bank,BKDN0821223,496018002,RAIGARH,"OPP. CARMEL SCHOOL, JAGATPUR, GHARGHONDA ROAD,,RAIGARH,CHATTISGARH",,RAIGARH,RAIGARH,CHHATTISGARH
BKDN0821293,Dena Bank,BKDN0821293,492018006,SUNDER NAGAR,"SUNDER NAGAR ROAD, ASHWINI NAGAR,BESIDES BINDA SONKAR SCHOOL, RAIPUR,CHHATTISGARH-492013",,RAIPUR,RAIPUR,CHHATTISGARH
BKDN0821296,Dena Bank,BKDN0821296,495018003,VYAPAR VIHAR,"ANUSHTHAN, OPP PRIYADASRSHINI NAGAR,VYAPAR VIHAR ROAD,BILASPUR,CHHATTISGARH-495001",,BILASPUR,BILASPUR,CHHATTISGARH
BKDN0821297,Dena Bank,BKDN0821297,490018007,SMRITI NAGAR,"SMRITI NAGAR,JUNWANI ROAD, NEAR APOLO HOSP,BHILAI NAGAR,CHHATTISGARH-490020",,BHILAINAGAR,BHILAINAGAR,CHHATTISGARH
BKDN0821298,Dena Bank,BKDN0821298,492018008,MOWA,"RAJ CHAMBER, NEAR MUNICIPAL SCHOOL, MAIN ROAD, MOWA, CITY - RAIPUR, CHHATTISGARH - 492007",,MOWA,RAIPUR,CHHATTISGARH
BKDN0821303,Dena Bank,BKDN0821303,492018009,KATORA TALAB,"C-156, SAILENDRA NAGAR, NEAR RATAN PALACE,KATORA TALAB RAIPUR,CHHATTISGARH-492001",,RAIPUR,RAIPUR,CHHATTISGARH
BKDN0821314,Dena Bank,BKDN0821314,493018501,BAGBAHARA,"WARD 8, MAIN ROAD,DIST MAHASAMAND,BAGBAHARA,CHHATTISGARH-493449",,BAGBAHARA,JASHPUR,CHHATTISGARH
BKDN0821322,Dena Bank,BKDN0821322,NON-MICR,KORBA,"35, INDIRA COMM COMPLEX,,TRANSPORT NAGAR,KORBA,CHHATTISGARH",,KORBA,KORBA,CHHATTISGARH
BKDN0821326,Dena Bank,BKDN0821326,492018010,AWANTI VIHAR,"DAVARA COMPLEX, GEETANJALI NAGAR, RAIPUR, CHHATTISGARH - 492007 ",,RAIPUR,RAIPUR,CHHATTISGARH
BKDN0821379,Dena Bank,BKDN0821379,NON-MICR,RAMGARH,"RAMGARH,SANJAY SONI, RAMGARH,DIST MUMGELI,CHHATTISGARH-495334",,RAIPUR,RAIPUR,CHHATTISGARH
BKDN0821431,Dena Bank,BKDN0821431,NON-MICR,KAWARDHA,"DENA BANK,  AT & PO BIRKONA ,TAL: KAWARDHA",,,KAWARDHA,KAWARDHA
BKDN0910058,Dena Bank,BKDN0910058,700018002,CALCUTTA (BRABOURNE ROAD),"16 A, BRABOURNE RD.,P.B.NO.32.,CALCUTTA,WEST BENGAL-700001",,KOTA,KOTA,RAJASTHAN
BKDN0910075,Dena Bank,BKDN0910075,700018004,CALCUTTA (BURRA BAZAR),"112, RABINDRA SARANI,P.B.NO.704,BURRA BAZAR,CALCUTTA,WEST BENGAL-700073",,KOLKATA,KOLKATA,WEST BENGAL
BKDN0910081,Dena Bank,BKDN0910081,700018008,CALCUTTA (BHOWANIPORE),"109/D,ASHUTOSH MUKHERJEE ROAD,BHOWANIPORE,CALCUTTA,WEST BENGAL700025",,KOLKATA,KOLKATA,WEST BENGAL
BKDN0910172,Dena Bank,BKDN0910172,700018012,CALCUTTA SHYAM BAZAR,"83/1,BIDHAN SARANI,SHYAM BAZAR,CALCUTTA-700004",,KOLKATA,KOLKATA,WEST BENGAL
BKDN0910173,Dena Bank,BKDN0910173,700018011,KOLKOTA RASHBIHARI AVENU,"41 A (C), RASH BEHARI AVENUE,KOLKOTA",,KOLKATA,KOLKATA,WEST BENGAL
BKDN0910183,Dena Bank,BKDN0910183,800018002,PATNA,"DENA BANK, MOURYA LOK COMPLEX, DAK BUNGALOW ROAD, PB NO.34, PATNA - 800 001",,PATNA,PATNA,BIHAR
BKDN0910221,Dena Bank,BKDN0910221,831018002,JAMSHEDPUR,"MAIN ROAD, P.B.NO.123,BISTUPUR, JAMSHEDPUR",,JAMSHEDPUR,PASCHIMI SINGHBHUM,JHARKHAND
BKDN0910223,Dena Bank,BKDN0910223,700018009,HOWRAH-SALKIA,"64/65, SIR AUROBINDO ROAD,SALKIA,HOWARAH-711 106",,HOWARAH,KOLKATA,WEST BENGAL
BKDN0910247,Dena Bank,BKDN0910247,NON-MICR,ASANSOL,"G.T. ROAD,POST. BOX. NO.102,ASANSOL.,DIST-BURDWAN,WEST BENGAL",,ASANSOL,BARDHAMAN,WEST BENGAL
BKDN0910253,Dena Bank,BKDN0910253,NON-MICR,BAKHTIYARPUR,"BAKHTIARPUR, PIN 803 212",,BAKHTIARPUR,PATNA,BIHAR
BKDN0910300,Dena Bank,BKDN0910300,700018005,CALCUTTA (PARK STREET),"3,PARK STREET,CALCUTTA,WEST BENGAL-700016",,KOLKATA,KOLKATA,WEST BENGAL
BKDN0910464,Dena Bank,BKDN0910464,812018002,BHAGALPUR,"44,D.N.SINGH ROAD, BHAGALPUR-812 002. DIST. BHAGALPUR(BIHAR).",,BHAGALPUR,BHAGALPUR,BIHAR
BKDN0910475,Dena Bank,BKDN0910475,751018007,CUTTACK,"NAYA SARAK, CUTTACK, ORISSA - 753 002",,CUTTACK,CUTTAK,ORISSA
BKDN0910547,Dena Bank,BKDN0910547,700018007,CALCUTTA (BECKBAGAN-PARK CIR),"BECK BAGAN,3, MRIGENDRA LAL MITRA RDCALCUTTA,WEST BENGAL-700017",,KOLKATA,KOLKATA,WEST BENGAL
BKDN0910587,Dena Bank,BKDN0910587,781018002,GUWAHATI,"OPPMEDICAL COLLEGE,PAN BAZAR,GUWAHATI781 001",,GUWAHATI,KAMRUP,ASSAM
BKDN0910647,Dena Bank,BKDN0910647,700018015,SEALDAH,"20A,RAMNATH BISWAS LAN SEALDAH 700009     ",,KOLKATA,KOLKATA,WEST BENGAL
BKDN0910651,Dena Bank,BKDN0910651,NON-MICR,TINSUKHIA,"RANGAGOR ROAD, TINSUKHIA-786 125",,TINSUKIA,TINSUKIA,ASSAM
BKDN0910690,Dena Bank,BKDN0910690,700018016,CALCUTTA-BEHALA,"427/A,DIAMOND HARBOUR ROAD, CALCUTTA-700 034.",,KOLKATA,KOLKATA,WEST BENGAL
BKDN0910693,Dena Bank,BKDN0910693,700018014,COLLEGE STREET,"52 BY 11A,COLLEGE STREET,CALCUTTA700 073",,KOLKATA,KOLKATA,WEST BENGAL
BKDN0910697,Dena Bank,BKDN0910697,700018010,KOLKATA(MANIKTALLA),"P-241,CIT RD.SCHEME-IV(M),KANKURGACHI,MANICKTALLA,CALCUTTA-700054, WEST BENGAL",,KOLKATA,KOLKATA,WEST BENGAL
BKDN0910700,Dena Bank,BKDN0910700,700018003,KOLKOTA DHARAMTALA,"P BY 15,GANESHCHANDRA AVENUE,DHARAMTALLA,CALCUTTA13",,KOLKATA,KOLKATA,WEST BENGAL
BKDN0910759,Dena Bank,BKDN0910759,751018002,BHUBANESWAR KHURDA,"78, JANAPATH, KHARVELA NAGAR, BHUBANESHWAR, ORISSA-751 001.",,BHUBANESWAR,KHURDA,ORISSA
BKDN0910760,Dena Bank,BKDN0910760,NON-MICR,DURGAPUR,"GHATAK HOUSE,NACHAN ROAD,BHIRINGI,DIST-DURGAPUR",,DURGAPUR,BARDHAMAN,WEST BENGAL
BKDN0910780,Dena Bank,BKDN0910780,NON-MICR,BOKARO STEEL CITY,"PLOT NO.24/B,CITY CENTRE, BOKARO CITY,DIST - DHANBAD,JHARKHAND",,BOKARO STEEL CITY,BOKARO,JHARKHAND
BKDN0910836,Dena Bank,BKDN0910836,700018020,KOLKOTA (BUDGE BUDGE),"525, MAHATMA GANDHI ROAD, BUDGE BUDGE, SOUTH 24 PARGANAS, WEST BENGAL",,BUDGE BUDGE,SOUTH 24 PARGANAS,WEST BENGAL
BKDN0910865,Dena Bank,BKDN0910865,NON-MICR,GAYA,"15-D,GYANODAYA,MIRABU SALEH RD.,GAYA-823 001.,BIHAR",,GAYA,GAYA,BIHAR
BKDN0910870,Dena Bank,BKDN0910870,NON-MICR,KRISHNAGAR,"39,M.M.GHOSH STREET,KRISHNANAGAR,DIST. NADIA,WEST BENGAL",,DOGACHHI(KRISHNAGAR),NADIA,WEST BENGAL
BKDN0910871,Dena Bank,BKDN0910871,742018001,BEHRAMPORE,"99,BRAJBHUSAN GUPTA ROAD, POST KHAGRA ,DIST :- MURSHIDABAD ,WEST BENBAL",,BAHARAMPUR,MURSHIDABAD,WEST BENGAL
BKDN0910875,Dena Bank,BKDN0910875,834018002,RANCHI,"UPPER BAZAR, RANCHI-834001",,RANCHI,RANCHI,JHARKHAND
BKDN0910912,Dena Bank,BKDN0910912,NON-MICR,HOWRAH CENTRAL,"75,1ST FLOOR,NEAR MALLIK FATAK,GRAND TRUNK ROAD,HOWRAH",,HOWRAH,HOWRAH,WEST BENGAL
BKDN0910986,Dena Bank,BKDN0910986,NON MICR,CALCUTTA PALM AVENUE,"13,PALM AVENUE,OLD BALLIYAGANJ,CALCUTTA700 019",,KOLKATA,KOLKATA,WEST BENGAL
BKDN0910988,Dena Bank,BKDN0910988,700018019,KANKULIA ROAD,"12,FERN PALACE,KANKULIA ROAD,CALCUTTA700 019",,KOLKATA,KOLKATA,WEST BENGAL
BKDN0911069,Dena Bank,BKDN0911069,NON-MICR,GHAGRI,"GHAGRI,BLOCK-ICHALGARH.,DIST.SINGHBHUM.,JHARKHAND",,GHAGRI,SARAIKELA-KHARSAWAN,JHARKHAND
BKDN0911073,Dena Bank,BKDN0911073,NON-MICR,RARHIYA,"RARHIYA,BLOCK - MOHANPUR,DIST. - DEOGHAR,JHARKHAND",,RARHIYA,DEOGHAR,JHARKHAND
BKDN0911097,Dena Bank,BKDN0911097,NON MICR,CALCUTTA BEDIAPARA,"6 BY 1,RABINDRANATH TAGRE ROAD,BEDIAPARA,CALCUTTA77",,KOLKATA,KOLKATA,WEST BENGAL
BKDN0911116,Dena Bank,BKDN0911116,700018999,ASSET REC BR - CALCUTTA,"24. SHAKESPHEARE SARANI,MANGAL KALSH 5TH FLOOR,ASSET REC BR - CALCUTTA, 700071",,KOLKATA,KOLKATA,WEST BENGAL
BKDN0911123,Dena Bank,BKDN0911123,NON-MICR,BURDWAN,"101,GTRD,OPP TOWN HALL,DHALDIGHI,DIST BURDWAN,WEST BENGAL",,BARDDHAMAN,BARDHAMAN,WEST BENGAL
BKDN0911127,Dena Bank,BKDN0911127,846018002,DARBHANGA,"CHANDNI MARKET COMPLEX, 1ST FLR., S.B.SINGH CHOWK, LALBAG,DIST - DARBHANGA",,DARBHANGA,DARBHANGA,BIHAR
BKDN0911130,Dena Bank,BKDN0911130,NON-MICR,BALASORE,"CHIRIAPUL, 1ST FLR.,VIVEKANAND RD.,BALASORE-756 001,ORISSA",,BALASORE,BALASORE,ORISSA
BKDN0911141,Dena Bank,BKDN0911141,NON-MICR,SAMASTIPUR,"HAJI MOHAMMED YUSUF BLDG,1ST FLOOR, HOLDING NO.221,SARDAR BAZAR,SAMASTIPUR 848101",,SAMASTIPUR,SAMASTIPUR,BIHAR
BKDN0911146,Dena Bank,BKDN0911146,NON-MICR,MUZAFFARPUR,"MAHAVIR GRAIN STORES, AKHARA GHAT ROAD, MUZAFFARPUR",,MUZAFFARPUR,MUZAFFARPUR,BIHAR
BKDN0911147,Dena Bank,BKDN0911147,734018001,SILIGURI,33/34 SEVOKE ROAD 734001,,SILIGURI,DARJEELING,WEST BENGAL
BKDN0911164,Dena Bank,BKDN0911164,NON-MICR,BEHRAMPUR,"GROUND FLOOR, ST. VINCENT SCHOOL ROAD, KHALIKOTE COLLEGE SQUARE, BHERAMPUR - 760001",,BERHAMPUR,BALASORE,ORISSA
BKDN0911165,Dena Bank,BKDN0911165,NON-MICR,SAMBALPUR,"GROUND FLOOR, HANSINI TOWER, AINTHAPALLI, SAMBALPUR - 768004",,SAMBALPUR,SAMBALPUR,ORISSA
BKDN0911166,Dena Bank,BKDN0911166,NON-MICR,DHANBAD,"1ST FLOOR, SHRI KRISHNA COMPLEX, SARAI DHELA, DHANBAD, JHARKHAND",,DHANBAD,DHANBAD,JHARKHAND
BKDN0911179,Dena Bank,BKDN0911179,700018022,KOLKATA ( SALT LAKE ),"AB - 02, SECTOR- I, SALT LAKE CITY, KOLKATA, WEST BENGAL",,KOLKATA,KOLKATA,WEST BENGAL
BKDN0911194,Dena Bank,BKDN0911194,700018023,EASTERN METROPOLITIAN,"FC219,DEVALAYA,SANTOSHPUR SYRVEY PARK,NEAR AJOY NAGAR EM BYPASS,KOLKOTA",,KOLKATA,KOLKATA,WEST BENGAL
BKDN0911195,Dena Bank,BKDN0911195,NON-MICR,HAJIPUR,"KANHAWALI COMPLEX,HOSPITAL ROAD,HAZIPUR,BIHAR-844101",,HAJIPUR,VAISHALI,BIHAR
BKDN0911196,Dena Bank,BKDN0911196,NON-MICR,ANGUL,"AMLAPADA 2ND LANE,NH 42,:ANGUL ORISSA-759122",,ANGUL,ANGUL,ORISSA
BKDN0911197,Dena Bank,BKDN0911197,700018024,RAJARHAT,"R S PLOT NO. 572, GOPAL MANSION INDIRA NAGAR,RAJARHAT BAGUIHATI ROAD,KOLKATA-700 135",,KOLKATA,KOLKATA,WEST BENGAL
BKDN0911198,Dena Bank,BKDN0911198,NON-MICR,BALIGHATA,"BALIGHATA CHHACK,P.O BALIGHATA,DIST. PURI ORISSA-752002",,BALIGHATA,PURI,ORISSA
BKDN0911199,Dena Bank,BKDN0911199,NON-MICR,HAZARI BAUG,"WARD NO. 16,MALIYA MARG,HAZARI BAUG,JHARKHAND-825301",,HAZARIBAGH,HAZARIBAGH,JHARKHAND
BKDN0911215,Dena Bank,BKDN0911215,700018025,RETAIL ASSET BRANCH KOLKATA,"2ND FLOOR, 109/ 109/D ASHUTOSH MUKHARJEE ROAD,KOLKATA,W. BENGAL,",,KOLKATA,KOLKATA,WEST BENGAL
BKDN0911227,Dena Bank,BKDN0911227,NON-MICR,SHILLONG,"1 ST FLOOR, H.NO. 72, W.N0 9, POLICE BAZAR, SHILLONG - 793001",,SHILLONG,EAST KHASI HILL,MEGHALAYA
BKDN0911228,Dena Bank,BKDN0911228,737018002,GANGTOK,"NAM NANG ROAD, BELOW ASSEMBLY HOUSE, GANGTOK-EAST SIKKIM ,PIN 737101 ",,GANGTOK,EAST SIKKIM,SIKKIM
BKDN0911247,Dena Bank,BKDN0911247,700018026,"CORPORATE BUSINESS BRANCH,KOLKATA","238 B,A.J.C BOSE RD,KOLLKATA-700020",,KOLKATA,KOLKATA,WEST BENGAL
BKDN0911248,Dena Bank,BKDN0911248,700018027,KHARDA,"26/15, I.C. ROAD WARD NO. 4, P.O. RAHARA, PS KHARDA, 24-PARANAS (N) - 700118",,KOLKATA,KOLKATA,WEST BENGAL
BKDN0911249,Dena Bank,BKDN0911249,785018002,JORHAT,"FIRST FLOOR,A.T ROAD, OPP.BOC PETROL PUMP,DEEPALI MEDICAL COMPLEX,JORHAT,ASSAM-785001",,JORHAT,JORHAT,ASSAM
BKDN0911250,Dena Bank,BKDN0911250,721018102,KHARAGPUR,"839/609, MALANCHA ROAD,PO NIMPURA, KARAGPUR,WEST BENGAL-721304",,KHARAGPUR,MEDINIPUR,WEST BENGAL
BKDN0911251,Dena Bank,BKDN0911251,NON-MICR,RAGHUNATHGANJ,"RAGHUNATHGANJ,PHOOLTALA BANGANBARI,DIST MURSHIDABAD,WEST BENGAL-742225",,RAGHUNATHGANJ,MURSHIDABAD,WEST BENGAL
BKDN0911252,Dena Bank,BKDN0911252,781018003,BELTOLA,"1ST FLOOR, BELTOLA SURVEY,BASISTHA ROAD,GUWAHATI,ASSAM-785001 ",,GUWAHATI,KAMRUP,ASSAM
BKDN0911253,Dena Bank,BKDN0911253,755018102,JAJPUR ROAD,"JAJPUR ROAD,CHORDA BYEPASS,ORISSA-755019",,JAJPUR ROAD,JAJPUR,ORISSA
BKDN0911254,Dena Bank,BKDN0911254,851018102,BEGUSARAI,"POWER HOUSE CHOWK,NATIONAL HIGHWAY 31,BEGUSARAI - 851101",,BEGUSARAI,BEGUSARAI,BIHAR
BKDN0911262,Dena Bank,BKDN0911262,841018202,SIWAN,"NEAR LIC BLDG,MAHADEV ROAD,SIWAN,BIHAR-841226",,SIWAN,SIWAN,BIHAR
BKDN0911263,Dena Bank,BKDN0911263,827018003,CHAS,"CHECK POST,NAND NIWAS, NEAR GARGA BRIDGE,CHAS,JHARKHAND-827013",,CHAS,BOKARO,JHARKHAND
BKDN0911264,Dena Bank,BKDN0911264,829018002,RAMGARH,"GP 117, GOLA ROAD, JHANDA CHOWK  RAMGARH-CANTONMENT, RAMGARH - 829122",,RAMGARH,HAZARIBAG,JHARKHAND
BKDN0911265,Dena Bank,BKDN0911265,831018001,ADITYAPUR,"GAYATRI BHAWAN,S TYPE,INDUSTRIAL AREA ROAD,ADITYAPUR.JHARKHAND-831013",,JAMSHEDPUR,SARAIKELA_KHARSAWAN,JHARKHAND
BKDN0911266,Dena Bank,BKDN0911266,834018003,DORANDA,"SUSHILA NIWAS,HINOO MAIN ROAD,DORANDA,RANCHI-JHARKHAND-834002",,RANCHI,RANCHI,JHARKHAND
BKDN0911267,Dena Bank,BKDN0911267,700018028,BARUIPUR,"CANNING ROAD, PAL PARA   WARD NO:16, BARUIPUR -700144 WEST BENGAL",,BARUIPUR,SOUTH 24 PARGANAS,WEST BENGAL
BKDN0911268,Dena Bank,BKDN0911268,788018002,SILCHAR,"U K DUTTA SARANI,SP ROAD,SILCHAR,ASSAM-788001",,SILCHAR,CACHAR,ASSAM
BKDN0911269,Dena Bank,BKDN0911269,800018003,BORING ROAD PATNA,"M2/2 BORING ROAD,PATNA,BIHAR-800001",,PATNA,PATNA,BIHAR
BKDN0911375,Dena Bank,BKDN0911375,829018003,PATRATU,"PATRATU VILL, DIST RAMGARH,NEAR BHAGATSINGH CHOWK,JHARKHAND",,9925457645;PATRAT@DENABANK.CO.IN,PATRATU,HAZARIBAG
BKDN0911386,Dena Bank,BKDN0911386,NA,KANKAR BAUGH,"DENA BANK,   B/96 HOUSING COLONY,  NEAR PANCH SHEO MANDIR, KANKAR BAUGH PATNA,  PIN 800020",KANKAR@DENABANK.CO.IN,PATNA,PATNA,BIHAR
BKDN0911389,Dena Bank,BKDN0911389,NA,BIHTA,"DENA BANK,  VILL & PO BIHTA, DIST PATNA,  BIHAR,PIN 800020",BIHTA@DENABANK.CO.IN,BIHTA,PATNA,BIHAR
BKDN0911396,Dena Bank,BKDN0911396,NA,KALINGANAGAR,"DENA BANK,  VILL & PO DUBURI,  PS: KALINGANAGAR DIST JAJPUR, ODHISHA, PIN 755026",KALING@DENABANK.CO.IN,DUBURI,JAJPUR,ORISSA
BKDN0911404,Dena Bank,BKDN0911404,NON-MICR,RAHIKA,"DENA BANK,  AT & PO SAURATH,TAL: MADHUBANI",,,RAHIKA,MADHUBANI
BKDN0911420,Dena Bank,BKDN0911420,NON-MICR,SAMASTIPUR,"DENA BANK, SHRI DINESH KR. ROY, GROUND FLOOR,  PO & VILL JITWARPUR 848134, DISTT. SAMASTIPUR, BIHAR",,06274-223501 ;JITWAR@DENABANK.CO.IN,SAMASTIPUR,SAMASTIPUR
BKDN0911432,Dena Bank,BKDN0911432,NON-MICR,MADHUBAN,"DENA BANK,  AT & PO GURUMAHA PANCHAYAT, TAL: MADHUBANI",,,MADHUBAN,PURBI CHAMPARAN
BKDN0911439,Dena Bank,BKDN0911439,NA,BUDDHA DENTAL HOSPITAL,"DENA BANK, MAHATAMA GANDHI NAGAR, PATNA BUDHA DENTAL COLLEGE   ,  KANKARBAGH ,   PATNA , BIHAR - 800 020",0612-3295022;BUDDHA@DENABANK.CO.IN,PATNA,PATNA,BIHAR
BKDN0CIRCLE,Dena Bank,BKDN0CIRCLE,400018002,"MAIN OFFICE,MUMBAI","DENA BANK,MUMBAI MAIN OFFICE,HORNIMON CIRCLE,MUMBAI",,MUMBAI,GREATER MUMBAI,MAHARASHTRA
BKDN0INDFIN,Dena Bank,BKDN0INDFIN,400018084,MUMBAI (IND. FIN. BR.),"9TH FLOOR, MAKER TOWER 'E', CUFFE PARADE, MUMBAI, MAHARASHTRA - 400 051",,MUMBAI,GREATER MUMBAI,MAHARASHTRA
BKDN0131351,Dena Bank,BKDN0131351,NA,INFOCITY AREA,"SHOP NO. 1 TO 5 , SWAGAT RAINFOREST 1, KUDASAN, GANDHINAGAR-382421",,GANDHINAGAR,GANDHINAGAR,GUJARAT
BKDN0231374,Dena Bank,BKDN0231374,NON-MICR,ANDHARWADIDUR,"ANDHARWADIDUR( NISHAL FALIA); POST PANCHOL, TAL VYARA, DISTT. TAPI-394650",,SURAT,SURAT,GUJARAT
BKDN0241352,Dena Bank,BKDN0241352,NON-MICR,AMBHETI,"SHRI AMBHETI VIVIDH KARYAKARI SAHAKARI LTD., AMBHETI, TAL KAPRADA, DISTT. VALSAD, SURAT, GUJARAT",,AMBHETI,SURAT,GUJARAT
BKDN0311372,Dena Bank,BKDN0311372,362018510,ARENA,"DENA BANK, MANGROL-CHARWAD HIGHWAY,  VILLAGE ARENA TAL MANGROL, DIST JUNAGADH, PIN 362250, GUJARAT",,JUNAGADH,JUNAGADH,GUJARAT
BKDN0311373,Dena Bank,BKDN0311373,360018512,GHOGHAVADAR,"YAMUNA CEMENT, MAIN ROAD, GHOGHAVADAR, TALUKA GONDAL, DISTT. RAJKOT",,GONDAL,RAJKOT,GUJARAT
BKDN0321341,Dena Bank,BKDN0321341,457018501,GALTHAR,"DENA BANK, MAIN BAZAR, VILLAGE, GALTHAR, TAL MAHUA, DISTT. BHAVNAGAR, PIN-364295, GUJARAT",,BHAVNAGAR,BHAVNAGAR,GUJARAT
BKDN0321364,Dena Bank,BKDN0321364,NON-MICR,TUVA,"NEAR MAIN BAZAR, VILLAGE TUVA,TALUKS WADHWAN, DIST. SURENDRANAGAR,GUJARAT-363421",,SURENDRANAGAR,SURENDRANAGAR,GUJARAT
BKDN0331343,Dena Bank,BKDN0331343,NA,JIRA SAVARKUNDLA,"DENA BANK,JIRA SAVARKUNDLA BRANCH, DISTT. AMRELI,STATE GUJARAT-364521",,JIRA,AMRELI,GUJARAT
BKDN0331371,Dena Bank,BKDN0331371,NON-MICR,SELARI,"SWAMI NARAYAN MANDIR ROAD,MAIN BAZAR, SELARI, TALUKA: RAHPAR,DIST KUTCH, GUJARAT 370165",,BHUJ,KACHCHH,GUJARAT
BKDN0331381,Dena Bank,BKDN0331381,NON-MICR,RAYAN MOTI,"DENA BANK,NEAR BUS STAND,RAYAN MOTI,KUTCH,PIN-370465",,GODHRA,KACHCHH,GUJARAT
BKDN0511344,Dena Bank,BKDN0511344,411018016,PIRANGUT,"GAT 73, PUNE PAUD ROAD,CAMP AREA,PIRANGUT,MAHARASHTRA-412115",,PIRANGUT,PUNE,MAHARASHTRA
BKDN0611244,Dena Bank,BKDN0611244,572018002,TUMKUR," YOGI COMPLEX, ADJACENT TO BANGALORE HIGHWAY ROAD, 1ST CROSS, NEAR SUZUKI SHOWROOM, ASHOK NAGAR, TUMKUR- 572701",,TUMKUR,TUMKUR,KARNATAKA
BKDN0611245,Dena Bank,BKDN0611245,575018004,PUTTUR," SURYAPRABHA BUILDING, BOLWAR, PUTTUR, D.K 574201",,PUTTUR,DAKSHIN KANNAD,KARNATAKA
BKDN0611337,Dena Bank,BKDN0611337,518018002,KURNOOL,"43/133 N R PET, MAIN ROAD, KURNOOL, 518004 ANDHRA PRADESH",,KURNOOL,KURNOOL,ANDHRA PRADESH
BKDN0711310,Dena Bank,BKDN0711310,110018045,SHAHDARA,"DENA BANK,SANGEETA ANIJA 1157-A EAST ROHTAS NAGAR, DELHI 110032",,DELHI,DELHI,DELHI
BKDN0711311,Dena Bank,BKDN0711311,110018046,BAWANA,"VARDHMAN MALL CLUSTER-J,BAWANA INDUSTRIAL AREA,BAWANA,NEW DELHI-110092",,DELHI,DELHI,DELHI
BKDN0711354,Dena Bank,BKDN0711354,303018501,KALA DERA,"DENA BANK, 212, BEHIND GOVT. HOSPITAL, TEHSIL CHOMU, DIST. JAIPUR, RAJASTHAN",,CHOMU,JAIPUR,RAJASTHAN
BKDN0711374,Dena Bank,BKDN0711374,NON-MICR,MAIDAN GARHI,"80-A BUS STAND CHOWK, MAIDAN GARHI, NEW DELHI-110068",,MAIDANGARHI,DELHI,DELHI
BKDN0711377,Dena Bank,BKDN0711377,NON-MICR,BHIWADI," GAURAV PATH MAIN ROAD NIT , SHOP NO 12 SECTOR-2,BHIWADI 301019,RAJASTHAN",,BHIWADI,ALWAR,RAJASTHAN
BKDN0711381,Dena Bank,BKDN0711381,NON-MICR,BHIWADI," GAURAV PATH MAIN ROAD NIT , SHOP NO 12 SECTOR-2,BHIWADI 301019,RAJASTHAN",,BHIWADI,ALWAR,RAJASTHAN
BKDN0721349,Dena Bank,BKDN0721349,NON-MICR,VRINDAVAN,8650915704,,VRINDABAN,MATHURA,UTTAR PRADESH
BKDN0731338,Dena Bank,BKDN0731338,,RAMPUR BUSHAHR,"DENA BANK,NARSINGH TAMPLE COMPLEX,OPPT. SBI, RAMPUR BUSHAHR,DIST SHIMLA HIMACHAL PRADESH,",,RAMPUR BUSHAHR,SIMLA,HIMACHAL PRADESH
BKDN0731340,Dena Bank,BKDN0731340,NON-MICR,BANGA,"STAR COMPLEX BUILDING, MAIN ROAD, BANGA, TAL : S B SINGH NAGAR, DISTT. FAISALABAD,PUNJAB",,RAHON,SHAHID BHAGAT SINGH NAGAR,PUNJAB
BKDN0811345,Dena Bank,BKDN0811345,NON-MICR,BANI,NEAR BUS STAND;VILLAGE BANI;TEHSIL DALAUDA;DIST: MANDSAUR;PIN-458667,,MANDSAUR,MANDSAUR,MADHYA PRADESH
BKDN0811346,Dena Bank,BKDN0811346,NA,BIJASAN,"DENA BANK, BAU SINGH SILANKI,BIJASAN,DISTT. BARWANI, M.P-4515511",,BHOPAL,BHOPAL,MADHYA PRADESH
BKDN0811347,Dena Bank,BKDN0811347,457018501,PRITAM NAGAR," DENA BANK, C/O SHRI PRUSHOTTAM SHARMA, VILLAGE PRITAM NAGAR,  DIST RATLAM,  MADHYAPRADESH",,RATLAM,RATLAM,MADHYA PRADESH
BKDN0811348,Dena Bank,BKDN0811348,483018501,PADUA,"ALPA MARKET , NH-7,GRAM PADUA, DISTT. KATNI, PIN-483442",,KATNI(MURWARA),KATNI,MADHYA PRADESH
BKDN0821321,Dena Bank,BKDN0821321,491018505,BEMETARA,"RAJENDRA SHARMA, WARD NO 3,PRATAP CJOWK MOHBHATA ROAD,BEMETARA, DIST DURG.  PIN 491335",,BEMETARA,DURG,CHHATTISGARH
BKDN0911400,Dena Bank,BKDN0911400,844018003,RANDAHA,"DENA BANK, RANDAHA BR, VILL-PO RANDAHA, PS RAJAPAKER, DIST. VAISHALI, STATE-BIHAR",,VAISHALI,VAISHALI,BIHAR
BKDN0911401,Dena Bank,BKDN0911401,844018004,ISMAILPUR,"DENA BANK, ISMAILPUR,DISTT. BHAGALPUR, STATE-BIHAR",,BHAGALPUR,BHAGALPUR,BIHAR
BKDN0911402,Dena Bank,BKDN0911402,825018003,SALGAWAN,"DENA BANK, VILL SALGAWAN,PO-KADAM BLOCK, KATKMDAG, DISTT. HAZARIBAUG, STATE JHARKHAND",,HAZARIBAGH,HAZARIBAG,JHARKHAND
BKDN0911403,Dena Bank,BKDN0911403,786018501,CHOTAHAPJAN,"DENA BANK, CHOTAHAPJAN BRANCH, GROUND FLOOR, VILL-1 NO, PO MAKUM, DISTT. TINSUKHIA, STATE-ASSAM",,TINSUKIA,TINSUKIA,ASSAM
"BKDN0111361
",Dena Bank,"BKDN0111361
",380018070,SOLA ROAD,"SHOP NO 15-16, AGRAWAL TOWER, BHYYANG DEV CHAR RASTA GHATLODIYA, AHMEDABAD 380061",079-27450356,SOLA,AHMADABAD,GUJARAT
BKDN0511493,Dena Bank,BKDN0511493,NON-MICR,OZAR,"MILKAT NO.60, AT & POST OZAR , NEAR OZAR GANPATI TEMPLE, TAL: JUNNAR; DIST: PUNE 410504",02132-288444OZAR@DENABANK.CO.IN,JUNNAR,PUNE,MAHARASHTRA
BKDN0611454,Dena Bank,BKDN0611454,534018102,TADEPALLIGUDEM,"D NO. 11-1-54, NEAR VIJAYA TALKIES, OPP. SATYANARAYANA SWAMY TEMPLE, TADEPALLIGUDEM - 534102",08818-226766,TADEPALLIGUDEM,WEST GODAVARI,ANDHRA PRADESH
BKDN0611455,Dena Bank,BKDN0611455,505018002,KARIMNAGAR,"D NO. 1-16-24 TO 27, SRINIVASA TOWERS, 1ST FLOOR, SASTRI ROAD, MAIN MARKET, KARIMNAGAR-505001",0878-2246677,KARIMNAGAR,KARIMNAGAR,ANDHRA PRADESH
BKDN0611456,Dena Bank,BKDN0611456,530018122,VIZIANAGARAM,"NO. 6-1-1, MAHAJAN BUILDING, PERLAVARI STREET, VIZIANAGARAM-535002 ",08922-223722,VIZIANAGARAM,VIZIANAGARAM,ANDHRA PRADESH
BKDN0611457,Dena Bank,BKDN0611457,534018002,ELURU,"D NO. 23B-5-2/3, EDARAVARI STREET, ELURU-534001",08812-232360,ELURU,WEST GODAVARI,ANDHRA PRADESH
BKDN0711447,Dena Bank,BKDN0711447,303018002,DAUSA,"NAI MANDI(LINC ROAD), NEAR RAILWAY CROSSING, DAUSA, RAJASTHAN-303303 ",9818058554DAUSA@DENABANK.CO.IN,DAUSA,DAUSA,RAJASTHAN
BKDN0711448,Dena Bank,BKDN0711448, 110018049       ,Najafgarh,"RZ38, Uggrasain Park, Nagloi Road, Najaf, New Delhi- 110043",011-28012757,DELHI,DELHI,DELHI
BKDN0711449,Dena Bank,BKDN0711449,NON-MICR,YAMUNA VIHAR,"C-2/25A, YAMUNA VIHAR, DELHI-110053",9971368815;YAMUNAV@DENABANK.CO.IN,DELHI,DELHI,DELHI
BKDN0711453,Dena Bank,BKDN0711453,110018051,KALKAJI,"F6, main Road, Kalkaji, new Delhi- 110019",011-26283667/8,DELHI,DELHI,DELHI
BKDN0711461,Dena Bank,BKDN0711461,110018052,KHANPUR,"A-8, MAIN ROAD, JAWARHAR PARK, DEVLI ROAD, KHANPUR, DELHI- 110062",9818058554;KHANPU@DENABANK.CO.IN,DELHI,DELHI,DELHI
BKDN0711483,Dena Bank,BKDN0711483,110018054,VIKASPURI,"G-25, G BLOCK, DDA COMMERCIAL CENTRE, VIKASPURI, NEW DELHI- 110018",VIKASP@DENABANK.CO.IN,DELHI,DELHI,DELHI
BKDN0711492,Dena Bank,BKDN0711492,303018003,BUNDI,"CHANDRA RESIDENCY, NAINWA ROAD, BUNDI, RAJASTHAN - 32300",8696925425 BUNDI@DENABANK.CO.IN,BUNDI,BUNDI,RAJASTHAN
"BKDN0721440
",Dena Bank,"BKDN0721440
",249018102,RISHIKESH,"Dena bank,Haridwar road,Rishikesh ,distt-dehradun pin 249201,uttrakhand ",0135-2432996,RISHIKESH,DEHRA DUN,UTTARANCHAL
"BKDN0721462
",Dena Bank,"BKDN0721462
",248018202,VIKAS NAGAR," 5/281 MANDI CHOWK , BABUGARH  VIKAS NAGAR , DISTT DEHRADUN -248198 (U.K.).",01360-252960,VIKAS NAGAR,DEHRA DUN,UTTARANCHAL
BKDN0721489,Dena Bank,BKDN0721489,208018004,UNNAO,"DENA BANK, SUBHASH NAGAR, RAEBARELI ROAD, UNNAO-209801",9721459201UNNAO@DENABANK.CO.IN,UNNAO,UNNAO,UTTAR PRADESH
BKDN0811469,Dena Bank,BKDN0811469,NON-MICR,SINGROLI,"C/O CHINTRANSH AGENCY VINDHYA NAGAR ROAD ,NEAR HOTEL RAJKAMAL,BAITHAN,SINGROLI MADHYAPRADESH,PIN - 486886 ",9630257265,BHOPAL,BHOPAL,MADHYA PRADESH
BKDN0821471,Dena Bank,BKDN0821471,NON-MICR,"HOUSING BOARD CAMPUS, SHANKAR NAGAR","DENA BANK, SHANKAR NAGAR, RAIPUR HOUSING BOARD CAMPUS, SHANKAR NAGAR, RAIPUR, DIST. RAIPUR (CHHATTISGARH), PIN: 492007
","0771 - 2426810;SHARAI@DENABANK.CO.IN
",SANKARA(NAGRI),RAIPUR,CHHATTISGARH
BKDN0821472,Dena Bank,BKDN0821472,NON-MICR,DURGA COLLEGE,"DENA BANK, DURGA COLLEGE, RAIPUR, DURGA COLLEGE CAMPUS, MOUHDAPARA, RAIPUR, DIST RAIPUR (CHHATTISGARH), PIN : 492001
","0771 - 2888464;DURG@DENABANK.CO.IN
",RAIPUR,RAIPUR,CHHATTISGARH
BKDN0821473,Dena Bank,BKDN0821473,NON-MICR,"VISHWADEEP SCHOOL, PADMNABHPUR","DENA BANK, PADMNABHPUR, DURG, BORSHI ROAD ADARSH NAGAR, PADMNABHPUR, DURG, DIST. DURG (CHHATTISGARH), PIN : 491001

","0788 - 2210616;PADMNA@DENABANK.CO.IN
",PADMANABHPUR,DURG,CHHATTISGARH
BKDN0821474,Dena Bank,BKDN0821474,NON-MICR,"HOUSING BOARD COLONY, BHILAI","DENA BANK, HOUSING BOARD, BHILAI,MP HOUSING BOARD COLONY, BHILAI, DIST. DURG, (CHHATTISGARH), PIN: 490026
","0788 - 2286681;HOUSBI@DENABANK.CO.IN
",BHILAINAGAR,DURG,CHHATTISGARH
BKDN0911383,Dena Bank,BKDN0911383,NON-MICR,PURNEA," NH-31, FORD COMPANY CHOWK, NEAR HONDA SHOWROOM, DIST :-PURNEA, BIHAR 854301",PURNEA@DENABANK.CO.IN9835648390,PURNEA,PURNIA,BIHAR
BKDN0911385,Dena Bank,BKDN0911385,NON-MICR,BIHARSHARIF,"CHISTI TOLA, THANA-117, WARD NO.10, KACHAHARI MORE, BEHIND S S BALIKA HIGH SCHOOL, BIHARSHARIF, DIST-NALANDA, BIHAR, 803101.","06112-233599
BIHARS@DENABANK.CO.IN",BIHAR SHARIF,NALANDA,BIHAR
BKDN0911387,Dena Bank,BKDN0911387,NON-MICR,NOKHA,"SHASHI KANT VISHWAKARMA,C/O SHRI RAMBILASH VISHWAKARMA, STATION ROAD, NEAR PNB, NOKHA, DIST. ROHTAS, BIHAR 802215 ",6184273027NOKHA@DENABANK.CO.IN,NOKHA,ROHTAS,BIHAR
BKDN0911388,Dena Bank,BKDN0911388,855018002,KISHANGANJ,"1ST FLOOR,ASHANAND COMPL.HOSIPITAL RD.GANDHI CHOWK.KISHANGANJ 855108,BIHAR, ","06456-222995,9931815523;KISHANGANJ@DENABANK.CO.IN",KISHANGANJ,KISHANGANJ,BIHAR
BKDN0911390,Dena Bank,BKDN0911390,NON-MICR,PHULWARISHARIF,"SHAILESH KR. SINHA,C/O SRI JAGDISHWAR SINHA,JITU MARKET,BOCHA CHAK,NEAR VALMI,AIIMS ROAD,PHULWARSHARIF PATNA, BIHAR 801505",9308737937PHULWA@DENABANK.CO.IN,PHULWARI SHARIF,PATNA,BIHAR
BKDN0911391,Dena Bank,BKDN0911391,NON-MICR,GIRIDIH,"H/O S P N DEO RAJA BANGLA MAIN ROAD, (NEAR AXIS BANK) AT & PO GIRIDIH, JHARKHAND 815301",7677108100GIRIDI@DENABANK.CO.IN,GIRIDIH,GIRIDIH,JHARKHAND
BKDN0911392,Dena Bank,BKDN0911392,NON-MICR,DEOGHAR,MAIN ROAD (COURT ROAD) PURANDAHA MORE DIST DEOGHAR JHARKHAND 814112,DEOGAR@DENABANK.CO.IN9471174701,DEOGHAR,DEOGHAR,JHARKHAND
BKDN0911393,Dena Bank,BKDN0911393,NON-MICR,CHAIBASA,"1ST FLOOR, BEHIND HERO HONDA SHOW ROOM, MAIN ROAD, SADAR BAZAR, CHAIBASA DIST. WEST SINGHBHUM, JHARKHAND 833 201",8292435004CHAIBA@DENABANK.CO.IN,CHAIBASA,PASCHIMI SINGHBHUM,JHARKHAND
BKDN0911394,Dena Bank,BKDN0911394,NON-MICR,BARBIL,"SHRI SHYAM KUNJ, MAIN ROAD, BARBIL. DIST KEONJHAR STATE ODISHA 758035",9861542596,BARBIL,KEONJHAR,ORISSA
BKDN0911395,Dena Bank,BKDN0911395,759018002,DHENKANAL,"GUDIANALI,IN FRONT OF  B B   SCHOOL,DHENKANAL,ODISHA",06762 221118,DHENKANAL,DHENKANAL,ORISSA
BKDN0911397,Dena Bank,BKDN0911397,NON-MICR,PARADIP,"MR. AKHTAR HASSAIN 1ST FLOOR. MAIN ROAD, MARINA COMPLEX PLOT NO. 1472/1473, UDAYABAT PARADIP, DIST :-JAGATSINGPUR STATE:- ODISHA 754142.",8895129921PARADI@DENABANK.CO.IN,PARADEEP,JAGATSINGHPUR,ORISSA
BKDN0911398,Dena Bank,BKDN0911398,NON-MICR,NAMCHI,"GEETA LAXMI BUILDING,AGAM SINGH MARG (BHANJYANG ROAD),NAMCHI BAZAR, CENTRAL PARK, SIKKIM   737126  ",8017654997,NAMCHI,SOUTH SIKKIM,SIKKIM
BKDN0911399,Dena Bank,BKDN0911399,NON-MICR,BARASAT,"N/14, JESSORE ROAD(SOUTH), NEAR DAKBANGALOW ROAD OPP M P JELLERS, KOLKATA WEST BENGAL 700 124 ",9474340265BARASA@DENABANK.CO.IN,BARASAT,NORTH 24 PARGANAS,WEST BENGAL
BKDN0151508,Dena Bank,BKDN0151508,NON-MICR,CHADA,"CHADA, TAL KHERALU,                                                                             DISTT. MEHSANA , GUJARAT
",9974600796CHADA@DENABANK.CO.IN,KHERALU,MAHESANA,GUJARAT
BKDN0231470,Dena Bank,BKDN0231470,NON-MICR,VESU,"VESU BRANCH,12/14, WESTERN BUSINESS PARK,VESU CHAR RASTA, SURAT - 395007",9979344850VESU@DENABANK.CO.IN,VESU,SURAT,GUJARAT
BKDN0311499,Dena Bank,BKDN0311499,229018502,ALIDAR ,"DENA BANK, ALIDAR, TALUKA KODINAR,DIST. JUNAGADH PINCODE - 362720
",9721459208  ALIDAR@DENABANK.CO.IN,KODINAR,JUNAGADH,GUJARAT
"BKDN0711452
",Dena Bank,"BKDN0711452
",342018003,BANAR ROAD,"BLOCK NO 3, NEAR SHANTI PETROL PUMP, BANAR ROAD, JODHPUR 342027",9461673763BANJOD@DENABANK.CO.IN,JODHPUR,JODHPUR,RAJASTHAN
BKDN0711505,Dena Bank,BKDN0711505,NON-MICR,MAHUKALAN,"MAHUKALAN, TAL GANGAPUR,  DISTT. SWAI MADHOPUR , RAJASTHAN PIN-- 322202",9530094013,MAHUKALAN,SAWAI MADHOPUR,RAJASTHAN
BKDN0711506,Dena Bank,BKDN0711506,NON-MICR,MOHANPURA,"MOHANPURA, TAL SHRI GANGANAGAR,  DISTT. SHRI GANGANAGAR, RAJASTHAN,PIN-- 335001
                                                                                     
",9413881881,GANGANAGAR,GANGANAGAR,RAJASTHAN
BKDN0721490,Dena Bank,BKDN0721490,203018002,BULANDSHAHAR ,"DENA BANK, MAMAN CHUNGI CHAURAHA, BYPASS ROAD, BULANDSHAHAR, U.P.-203001","9818919625BULAND@DENABANK.CO.IN
",BULANDSHAHR,BULANDSHAHR,UTTAR PRADESH
BKDN0721491,Dena Bank,BKDN0721491,262018502,SITARGANJ,"DENA BANK, ASHOKA INDUSTRIAL COMPOUND, KHATIMA ROAD, SITARGANJ, UDHAM SINGH NAGAR, UTTARAKHAND-262405","9639512511 SITALU@DENABANK.CO.IN
",SITARGANJ,UDHAM SINGH NAGAR,UTTARANCHAL
"BKDN0451507
",Dena Bank,"BKDN0451507
",NON-MICR,SMALLB," SMALLB BRANCH, DENA BANK BUILDING,HORNIMAN CIRCLE, FORT. MUMBAI 400023.  ",9619480258,MUMBAI,GREATER BOMBAY,MAHARASHTRA
BKDN0521467,Dena Bank,BKDN0521467,440018007,WARDHAMAN NAGAR,"WARDHMAN NAGAR BRANCH, PLOT 18, TELEPHONE EXCHANGE CHOWK,NAGPUR-440008",0712-2767720,NAGPUR,NAGPUR,MAHARASHTRA
BKDN0721488,Dena Bank,BKDN0721488,272018102,MAU,"DENA BANK, 77, MOGALPURA, MAUNATH BHANJAN, NEAR ARYA SAMAJ ROAD, MAU, U.P.-275101",9721459207   ,MAU,RAI BARELI,UTTAR PRADESH
BKDN0141509,Dena Bank,BKDN0141509,NON-MICR,AMIRGADH,"DENA BANK, AMIRGADH, MAMALATDAR OFFICE RD,DISTT. BANASKANTHA , GUJARAT
 PIN-- 385130
",AMIRGA@DENABANK.CO.IN9601301948,AMIRGADH,BANAS KANTHA,GUJARAT
BKDN0141510,Dena Bank,BKDN0141510,NON-MICR,DANTIWADA,"DANTIWADA, MAIN HIGHWAY RD,OPP. BSF COMLEX, DANTIWADA COLONY, TAL. DANTIWADA, DISTT. BANASKANTHA,GUJARAT
 PIN-- 385505
                                                                                                          ","DANTIW@DENABANK.CO.IN9624776636
",DANTIWADA,BANAS KANTHA,GUJARAT
BKDN0731466,Dena Bank,BKDN0731466,NON-MICR,SEC 14 PANCHKULA,"SCO - 204, SECTOR - 14, PART B, PANCHKULA - 134112",9624776636PANCH@DENABANK.CO.IN,PANCHKULA,PANCHKULA,HARYANA
BKDN0911513,Dena Bank,BKDN0911513,NON-MICR,GARACHARMA,"PORT BLAIR,VILLAGE &P.O-GARACHARMA(NEAR SUSAN ROSES,OPP.PHC)PORT BLAIR-744103","(03192)252050GARACHARMA@DENABANK.CO.IN
",GARACHARAMA,ANDAMAN,ANDAMAN & NICOBAR
BKDN0911514,Dena Bank,BKDN0911514,NON-MICR,BAMBOOFLAT,"SOUTH ANDAMAN,VILLAGE &P.O -BAMBOOFLAT(NEAR REHMANIA MASJID) ,ANDAMAN-744103","03192-2521512BAMBOOFLAT@DENABANK.CO.IN
",BAMBOO FLAT,ANDAMAN,ANDAMAN & NICOBAR
BKDN0331515,Dena Bank,BKDN0331515,NON-MICR,Sukhpar,"Dena Bank Sukhpar,Shri Madanpur Swaminarayan Satsang Mandal,Taluka Bhuj, Distt - Kutch 370040    ",sukhpa@denabank.co.in,SUKHPAR,KACHCHH,GUJARAT
BKDN0331516,Dena Bank,BKDN0331516,NON-MICR,Dahisara,"Dena Bank Dahisara, H.No. 4/39, Village & Post Office Dahisara,Taluka Bhuj, Distt. Kutch-370485",02832-286386dahisa@denabank.co.in,DAHISARA,KACHCHH,GUJARAT
BKDN0411520,Dena Bank,BKDN0411520,NON-MICR,CPPC,"HEAD OFFICE,MUMBAI",022-26545543 CPPCDENA@DENABANK.CO.IN,MUMBAI,GREATER BOMBAY,MAHARASHTRA
BKDN0731482,Dena Bank,BKDN0731482,NON-MICR,AURA MALL BHATINDA ,"AURA HEIGHTS, NEAR ANDHRA BANK, GONIANA ROAD, BHATINDA - 151001                                                                ",91731482 BHATIND@DENABANK.CO.IN,BATHINDA,BATHINDA,PUNJAB
BKDN0311517,Dena Bank,BKDN0311517,NON-MICR,GHED BAGASARA,"BAGASARA(GHED),   TALUKA-MANGROL,        DISTRICT-JUNAGADH,    PIN-- 362620",02878257333BAGRAJ@DENABANK.CO.IN,MANGROL,JUNAGADH,GUJARAT
BKDN0911384,Dena Bank,BKDN0911384,831018003,MADHUBANI,"VIMAL COMPLEX, GANGA SAGAR CHOWK, STATION ROAD, MADHUBANI, BIHAR 847211",  06276222032MADHU@DENABANK.CO.IN,MADHUBANI,MADHUBANI,BIHAR
BKDN0821484,Dena Bank,BKDN0821484,NON-MICR,ROHNIPURAM,"MAIN ROAD,ROHNI PURAM GOL CHOWK TO RING ROAD NO 1,ROHNI PURAM GOL CHOWK,ROHNIPURAM,RAIPUR",7389900261ROHRAI@DENABANK.CO.IN,RAIPUR,RAIPUR,CHHATTISGARH
BKDN0821485,Dena Bank,BKDN0821485,NON-MICR,PACHPEDI NAKA,"SHOP NO 1,2,3,4,5,CAPITAL PLAZA,OPP MANGLAM HUNDAI,/RIO COMPLEX,ABHANPUR ROAD,RAIPUR",7389900242PACHNA@DENABANK.CO.IN,RAIPUR,RAIPUR,CHHATTISGARH
BKDN0821486,Dena Bank,BKDN0821486,NON-MICR,PULGAON CHOWK,"SHRI AWADESH MISRA, MAHARAJA COMPLEX, PHULGAON CHOWK,DISTRICT : DURG,STATE :CHATTISGARH ",7389900228PULGAO@DENABANK.CO.IN,DURG,DURG,CHHATTISGARH
BKDN0821487,Dena Bank,BKDN0821487,NON-MICR,JAGDALPUR,"KHASARA NO 61,PLOT 163/4,165/1,161,RAMAIYA PARA ,INDIRA WARD NO 16,SANJAY MARKET,JAGDALPUR,",7389900235JAGDAL@DENABANK.CO.IN,JAGDALPUR,BASTAR,CHHATTISGARH
BKDN0231362,Dena Bank,BKDN0231362,NON-MICR,ANDHARWADI DUR,"ANDHARWADI DUR(NISHAL FALIA),POST PANCHOL,VYARA TALUKA,DIST VAPI",9825641078,VYARA,SURAT,GUJARAT
BKDN0231374,Dena Bank,BKDN0231374,NON-MICR,MAIDAN GURHI,"MAIDAN GARHI , 80-A,BUS STAND CHOWK , MAIDAN GARHI , NEW DELHI 110068",011-26302711,MAIDANGARHI,DELHI,DELHI
BKDN0311518,Dena Bank,BKDN0311518,NON-MICR,DHOLIDHAR,"DENA BANK, DHOLIDHAR, TALUKA JAM KANDORNA, DIST. RAJKOT PINCODE - 360405",02824 – 276146,JAM KANDORNA,RAJKOT,GUJARAT
BKDN0311519,Dena Bank,BKDN0311519,NON-MICR,GANOD,"     DENA BANK GANOD, TAL UPLETA  DISTT. RAJKOT , GUJARAT PIN-360490",02826 – 286331,UPLETA,RAJKOT,GUJARAT
BKDN0311501,Dena Bank,BKDN0311501,NON-MICR,BHESAN,"BHEASN,SHIV COMPLEX,JIN PLOT,NEAR NEW S.T.BUS STAND,BHESAN,TALUKA BHESAN,DIST JUNAGADH-362020",02873253250BHESAN@DENABANK.CO.IN,BHESAN,JUNAGADH,GUJARAT
BKDN0621475,Dena Bank,BKDN0621475,NON-MICR,HOSUR,"HOSUR BRANCH,NO.29/85 HIG,OLD ASTC,HUDCO,HOSUR-635109,TAMIL NADU",9444053622,KRISHNAGIRI,KRISHNAGIRI,TAMIL NADU
BKDN0711522,Dena Bank,BKDN0711522,NON-MICR,"BURARI,SANT NAGAR","787/2,MAIN ROAD,SANT NAGAR,BURARI-110084",9540582435,DELHI,DELHI,DELHI
BKDN0121521,Dena Bank,BKDN0121521,NON-MICR,ROJID,"DENA BANK,ROJID BRANCH, SHUKLA SHERI AT & POST. ROJID , TA-BARWALA,DIST. AHMEDABAD  PIN-- 382450
",8141148186,BARWALA,AHMADABAD,GUJARAT
BKDN0311502,Dena Bank,BKDN0311502,NON-MICR,TALALA,"DENA BANK C/O YOGESH BHAI KUMBHANI TALALA-SASAN ROAD   NEAR PETROL PUMP KUMBHANI PARA TALALA , DISTT. JUNAGARH PIN-- 362150",8238001842,TALALA,JUNAGADH,GUJARAT
BKDN0521537,Dena Bank,BKDN0521537,NON-MICR,SHIRDI,"  DENA BANK, GROUND FLOOR, HOTEL SAISH PVT LTD,PIPALWADI ROAD,SHIRDI , TALUKA RAHATA, DISTRICT-AHMEDNAGAR   PIN-- 423109
",9822013103,RAHATA,AHMADNAGAR,MAHARASHTRA
BKDN0521542,Dena Bank,BKDN0521542,NON-MICR,NIPHAD,"DENA BANK, HNO. 1945,1ST FLOOR,UGAON ROAD, NIPHAD,DIST. NASHIK,PIN-- 422303

",9892450445,NIPHAD,NASIK,MAHARASHTRA
BKDN0311494,Dena Bank,BKDN0311494,NON-MICR,KHAMBHALIA,"DENA BANK, 1 VISHVAKARMA NAGAR, C/O ASHWIN INDUSTRIES, GROUND FLOOR, JODHPUR GATE, KHAMBHALIA PINCODE-361305 DISTRICT JAMNAGAR",02833-237411KHAMBA@DENABANK.CO.IN,KHAMBHALIA,JAMNAGAR,GUJARAT
BKDN0311495,Dena Bank,BKDN0311495,NON-MICR,GIDC PHASE 3 DARED,"R. K. COMMERCIAL COMPLEX , GROUND FLOOR PLOT NO : 4041 NEAR RAJHANS ALLOYS CIRCLE GIDC PHASE-3 DARED DISTRICT JAMNAGAR",9998863364GIDDAR@DENABANK.CO.IN,DARED,JAMNAGAR,GUJARAT
BKDN0311496,Dena Bank,BKDN0311496,NON-MICR,OKHA,"DENA BANK, OKHA RAGHUNATH ROAD, OPP : PRINTING PRESS, OKHA 361350 DISTTRICT : JAMNAGAR",7567897785OKHA@DENABANK.CO.IN,JAMNAGAR,JAMNAGAR,GUJARAT
BKDN0811538,Dena Bank,BKDN0811538,NON-MICR,SEHORE," ADITI APARTMENT,PLOT NO 4, NEAR JAISWAL HOSPITAL,OPP NEW BUS STAND SEHORE
",9826744809SEHORE@DENABANK.CO.IN,SEHORE,SEHORE,MADHYA PRADESH
BKDN0621477,Dena Bank,BKDN0621477,NON-MICR,DINDIGUL,"DINDIGUL BRANCH ,95-C,  THIRUVALLUVAR,NEAR RAJARAJESHWARI HOSPITAL ,
DINDIGUL 624 003
TAMIL NADU ",9952412974,DINDIGUL,DINDIGUL,TAMIL NADU
BKDN0611458,Dena Bank,BKDN0611458,585018002,GULBARGA,"NO.1-217, STATION BAZAR, BESIDE GURUDATTA BHOJANALAYA, GULBARGA – 585102 ",08472-273344,GULBARGA,GULBARGA,KARNATAKA
BKDN0611459,Dena Bank,BKDN0611459,584018002,RAICHUR,"D.NO.11-9-13 & 11-09-13/1,PATEL ROAD, RAICHUR-584101",08532-225435 ,RAICHUR,RAICHUR,KARNATAKA
BKDN0611460,Dena Bank,BKDN0611460,522018402,CHILAKALURIPETA ,"D.NO.7-18, CHOWTRA CENTRE,GABBITAVARI STREET, HERO HONDA SHOWROOM LINE, CHILAKALURIPET – 522616, ",08647-258444,CHILAKALURIPET,GUNTUR,ANDHRA PRADESH
BKDN0611478,Dena Bank,BKDN0611478,571018352,CHAMRAJNAGAR,"1ST CROSS, BUJENGESWARA EXTENSION, CHAMRAJNAGAR – 571313",0-9448402328 ,BANGALORE,BANGALORE URBAN,KARNATAKA
BKDN0611479,Dena Bank,BKDN0611479,515018302,GUNTAKAL,"D.NO. 9/246, DMM GATE ROAD,GUNTAKAL – 515801",08552-220552,GUNTAKAL,ANANTAPUR,ANDHRA PRADESH
BKDN0611480,Dena Bank,BKDN0611480,533018003,RAMANAYYAPETA,"D.NO. 4-322, GAIGOLUPADU CENTER,SARPAVARAM ROAD,RAMANAYYA PETA,KAKINADA-533005", 0884-2355455,KAKINADA,EAST GODAVARI,ANDHRA PRADESH
BKDN0611481,Dena Bank,BKDN0611481,520018622,BAPULAPADU (HANUMAN JUNCTION),"D.NO.4-49, NUZIVIDU ROAD, BAPULAPADU (HANUMAN JUNCTION) – 521105 ",08656-244282,HANUMAN JUNCTION,KRISHNA,ANDHRA PRADESH