ID,BANK,IFSC_CODE,MICR_CODE,BRANCH_NAME,ADDRESS,CONTACT,CITY,DISTRICT,STATE
PSIB0000002,Punjab and Sind Bank,PSIB0000002,141023016,"LUDHIANA SABUN BAZAR, LUDHIANA","SABAN BAZAR, LUDHIANA",,0161-2722767/2722806,LUDHIANA,LUDHIANA
PSIB0000003,Punjab and Sind Bank,PSIB0000003,NON MICR,KHANNA,"G. T. ROAD KHANNA, DISTT.LUDHIANA, PUNJAB-141401",,234219,KHANNA,LUDHIANA
PSIB0000004,Punjab and Sind Bank,PSIB0000004,NON MICR,AMBALA CITY,DEV SAMAJ COLLEGE ROAD AMBALA CITY-134404,,0171 2510777,AMBALA,AMBALA
PSIB0000005,Punjab and Sind Bank,PSIB0000005,248023003,"A.K. ROAD, DEHRADUN","AMRIT KAUR ROAD, DEHRADUN",,2652459,DEHRADUN,DEHRADUN
PSIB0000006,Punjab and Sind Bank,PSIB0000006,NON MICR,GUR MANDI PATIALA,"GUR MANDI, PATIALA-147001",,1752321437,PATIALA,PATIALA
PSIB0000007,Punjab and Sind Bank,PSIB0000007,110023016,DELHI CHANDNI CHOWK,FOUNTAIN CHANDNI CHOWK DELHI-110006,,011-23862751/23860470,DELHI,NEW DELHI
PSIB0000008,Punjab and Sind Bank,PSIB0000008,NON MICR,JALANDHAR MITHAPUR,"OPP. BABA MAKHAN SHAH,  LUBANA NAGAR, MITHAPUR ROAD, JALANDHAR, PUNJAB -144003",,0181 - 2440956/5027956,MITHEPUR,JALANDHAR
PSIB0000009,Punjab and Sind Bank,PSIB0000009,NON-MICR,HOSHIARPUR RAILWAY ROAD," RAILWAY ROAD,HOSHIARPUR-146001",,01882-222439,HOSHIARPUR,HOSIARPUR
PSIB0000010,Punjab and Sind Bank,PSIB0000010,110023030,KAROL BAGH,"HARDHIAN SINGH ROAD, KAROL BAGH N.DELHI 110005",,,DELHI,NEW DELHI
PSIB0000011,Punjab and Sind Bank,PSIB0000011,NON-MICR,"LATOUCHE ROAD, KANPUR","78/56, LATOUCHE ROAD, KANPUR",,2367617,KANPUR,KANPUR
PSIB0000012,Punjab and Sind Bank,PSIB0000012,NON MICR,KARNAL,"G.T.ROAD, KARNAL, HARYANA",,2272533,KARNAL,KARNAL
PSIB0000013,Punjab and Sind Bank,PSIB0000013,110023005,"H-BLOCK, NEW DELHI","H-BLOCK, CONNAUGHT CIRCUSNEW DELHI",,011-27472921/23320703,DELHI,NEW DELHI
PSIB0000016,Punjab and Sind Bank,PSIB0000016,NON MICR,KHAMANO MANDI,"KHAUMANON MANDI, DISTT. FATEHGARH SAHIB, PUNJAB-141127",,01628 268180,KHAMANON,FATEHGARH SAHIB
PSIB0000017,Punjab and Sind Bank,PSIB0000017,NON-MICR,MOGA THE MALL,"RAILWAY ROAD,MOGA-142055",,01636-222382,FARIDKOT,FARIDKOT
PSIB0000018,Punjab and Sind Bank,PSIB0000018,208023002,GUMTI NO 5 KANPUR,"GUMTI NO. 5,G.T. ROAD,KANPUR-208012",,0512 2291617,KANPUR,KANPUR CITY
PSIB0000019,Punjab and Sind Bank,PSIB0000019,110023011,PAHARGANJ,"5/1, D.B. GUPTA ROAD, PAHAR GANJ NEW DELHI",,011-23617738/23616447,DELHI,NEW DELHI
PSIB0000020,Punjab and Sind Bank,PSIB0000020,NON MICR,RAMRAJ,"RAM RAJ DISTT.MUZAFFAR NAGAR, UTTAR PRADESH - 251302",,01396-246483,RAM RAJ,MUZAFFARNAGAR
PSIB0000021,Punjab and Sind Bank,PSIB0000021,140023019,GILL  LUDHIANA,GURU NANAK ENGG. COLLEGE GILL LUDHIANA -141006,,0161-2490056,LUDHIANA,LUDHIANA
PSIB0000024,Punjab and Sind Bank,PSIB0000024,NON MICR,"PIPLI, DISTT. KURUKSHETRA, HARYANA","G.T. ROAD, PIPLI, DISTT. KURUKSHETRA, HARYANA-132131",,01744 230244,PIPLI,KURUKSHETRA
PSIB0000025,Punjab and Sind Bank,PSIB0000025,NON MICR,CHAMKAUR SAHIB,"GG SINGH MARG, CHAMKAUR SAHIB, DISTT.ROPAR, PUNJAB-140112",,01881 260128,CHAMKAUR SAHIB,RUPNAGAR
PSIB0000029,Punjab and Sind Bank,PSIB0000029,NON MICR,"MAHILPUR, DISTT. HOSHIARPUR, PUNJAB","VILLAGE & POST OFFICE MAHILPUR DISTT. HOSHIARPUR, PUNJAB-146105",,01884-245226,MAHALPUR,HOSHIARPUR
PSIB0000031,Punjab and Sind Bank,PSIB0000031,143023016,AMRITSAR KHALSA COLLEGE,"KHALSA COLLEGE, AMRITSAR",,0183-2482571,AMRITSAR,AMRITSAR
PSIB0000032,Punjab and Sind Bank,PSIB0000032,160023006,CHANDIGARH SECTOR17-C,SECTOR 17-C CHANDIGARH,,0172-702970/713698,CHANDIGARH,CHANDIGARH
PSIB0000033,Punjab and Sind Bank,PSIB0000033,NON.MICR,MALOUT,"MALOUT, MUKATSAR",,2624221,MALOUT,MUKATSAR
PSIB0000036,Punjab and Sind Bank,PSIB0000036,NON.MICR,SRI GANGA NAGAR,"106, DAYANAD MARG, SRI GANGA NAGAR",,2420720,SRI GANGA NAGAR,SRI GANGA NAGAR
PSIB0000037,Punjab and Sind Bank,PSIB0000037,NON-MICR,ROPAR,"OLD HOSPITAL ROAD, ROPAR",,222047,RUPNAGAR,RUPNAGAR
PSIB0000038,Punjab and Sind Bank,PSIB0000038,110023037,TILAK NAGAR,"43-44,NEW MARKET,TILAK NAGAR,NEW DELHI-110018",,011-25190097,DELHI,NEW DELHI
PSIB0000039,Punjab and Sind Bank,PSIB0000039,NON-MICR,FATEHGARH SAHIB,GURUDWARA FATEHGARH SAHIB,,232263,FATEHGARH SAHIB,FATEHGARH SAHIB
PSIB0000040,Punjab and Sind Bank,PSIB0000040,110023036,GREEN PARK EXTN.,"GREEN PARK EXTN., NEW DELHI -110016",,,DELHI,NEW DELHI
PSIB0000041,Punjab and Sind Bank,PSIB0000041,NON MICR,SARSAWA,"SARSAWA, DISTT.SAHARANPUR, UTTAR PRADESH-247232",,01331 244143,SARSAWAN,SAHARANPUR
PSIB0000042,Punjab and Sind Bank,PSIB0000042,NON MICR,KHARAR,KHARAR DISTT. ROPAR -140301,,01888-245784,0,RUPNAGAR
PSIB0000043,Punjab and Sind Bank,PSIB0000043,NON-MICR,SULTANPUR LODHI,"SULTANPUR LODHI ,KAPURTHALA",,01828-222064,SULTANPUR LODHI,KAPURTHALA
PSIB0000044,Punjab and Sind Bank,PSIB0000044,110023012,KAILASH COLONY,"HS-18, KAILAH COLONY MARKET NEW DELHI-110048",,011-26468649/264322043,DELHI,NEW DELHI
PSIB0000047,Punjab and Sind Bank,PSIB0000047,NON.MICR,YAMUNA NAGAR,"JAGDHARI ROAD, YAMUNA NAGAR",,223614,YAMUNA NAGAR,YAMUNA NAGAR
PSIB0000048,Punjab and Sind Bank,PSIB0000048,NON MICR,"JODHAN, LUDHIANA","JODHAN,DISTT. LUDHIANA,PUNJAB,PIN CODE-142029",,0161-2842241,JODHAN,LUDHIANA
"PSIB0000051
",Punjab and Sind Bank,"PSIB0000051
",NON MICR,"KOT ISSE KHAN
","KOT ISSE KHAN, DISTT. MOGA,  PUNJAB-142043",,01682 240021,KOT ISA KHAN,MOGA
PSIB0000052,Punjab and Sind Bank,PSIB0000052,NON MICR,PAKHOWAL,"PAKHOWAL,  DISTT. LUDHIANA, PUNJAB-141108",,"0161-2866210, 2867310",PAKHOWAL,LUDHIANA
PSIB0000054,Punjab and Sind Bank,PSIB0000054,110023037,WEST PATEL NAGAR,"24,WEST PATEL NAGAR,NEW DELHI-110008",,011-25726236,DELHI,NEW DELHI
PSIB0000055,Punjab and Sind Bank,PSIB0000055,248023009,MAJRA DISTT DEHRADUN,"MAJRA (WARD NO 46 (NEAR SHIV MANDIR) SAHARANPUR, DISTT.DEHRADUN, UTTAR PRADESH-248171",,0135 2620564,KAMBOH MAJRA,SAHARANPUR
PSIB0000056,Punjab and Sind Bank,PSIB0000056,NON MICR,DHULKOT,"BALDEV NAGAR CAMP, DHULKOT, HARYANA-134003",,0171-2540226,DHULKOT,AMBALA
PSIB0000057,Punjab and Sind Bank,PSIB0000057,NON MICR,GARHI CANTT,"GARHI CANTT, DISTT. DEHRADUN, UTTARAKHAND-248003",,0135 2757073,GARHI(CANTT.),DEHRA DUN
PSIB0000061,Punjab and Sind Bank,PSIB0000061,NON MICR,"BHAGTA, DISTT. BHATINDA, PUNJAB","BHAGTA, DISTT. BHATINDA, PUNJAB-151206",,01651 257710,BHAGTA,BATHINDA
PSIB0000065,Punjab and Sind Bank,PSIB0000065,143023009,JALALABAD (DARSHANI DEORI AMRITSAR),"DARSHANI DEORI, AMRITSAR, PUNJAB-143001",,0183 2557305,JALALABAD,AMRITSAR
PSIB0000066,Punjab and Sind Bank,PSIB0000066,142023402,"BAGHA PURANA, MOGA, PUNJAB","BAGHA PURANA,DISTT. MOGA, PUNJAB-142038",,01636 240063,BAGHA PURANA,MOGA
PSIB0000067,Punjab and Sind Bank,PSIB0000067,NON MICR,SANGRUR,"PATIALA GATE P.B.21,SANGRUR-148001",,234013,SANGRUR,PATIALA
PSIB0000069,Punjab and Sind Bank,PSIB0000069,NON-MICR,NADALA,"VILLAGE & POST OFFICE,NADALA,DISTT-KAPURTHALA-144624",,01822-271830,KAPURTHALA,KAPURTHALA
PSIB0000073,Punjab and Sind Bank,PSIB0000073,NON MICR,BAJA KHANA,"BAJA KHANA,  DISTT. FARIDKOT, PUNJAB-151205",,01635 246423,BAJA KHANA,FARIDKOT
PSIB0000074,Punjab and Sind Bank,PSIB0000074,NON MICR,FEROZPUR CANTT.,"65, JHOKE ROAD, FEROZEPUR CANTT.-152001",,01632 244274,FIROZPUR,FEROZPUR
PSIB0000075,Punjab and Sind Bank,PSIB0000075,110023013,RAJOURI GARDEN,"J-13/37 , RAJOURI GARDEN, NEW DELHI-110027",,25103558,DELHI,DELHI
PSIB0000076,Punjab and Sind Bank,PSIB0000076,NON-MICR,POLICE LINES,"POLICE LINES ROAD,GURDASPUR-143521",,01874-230017,GURDASPUR,GURDASPUR
PSIB0000078,Punjab and Sind Bank,PSIB0000078,NON MICR,"BULHOWAL,DISTT. HOSHIARPUR, PUNJAB","VILLAGE & POST OFFICE BULHOWAL, DISTT. HOSHIARPUR, PUNJAB-146113",,01882-265229,BULHOWAL,HOSHIARPUR
PSIB0000083,Punjab and Sind Bank,PSIB0000083,NON MICR,"PASONDA, DISTT. GHAZIABAD, UTTAR PRADESH","G.T. ROAD, PASONDA, DISTT. GHAZIABAD, UTTAR PRADESH-251005",,0120 2627612,PASONDA,GHAZIABAD
PSIB0000084,Punjab and Sind Bank,PSIB0000084,NON-MICR,BHOGPUR,VILLAGE & POST OFFICE BHOGPUR DISTT. JALANDHAR-144201,,0181-2722024,BHOGPUR,JALANDHAR
PSIB0000085,Punjab and Sind Bank,PSIB0000085,NON MICR,"DEHLON, LUDHIANA","DEHLON,DISTT. LUDHIANA,PUNJAB-141118",,0161 2850042,DEHLON,LUDHIANA
PSIB0000087,Punjab and Sind Bank,PSIB0000087,143023019,SHARIFPURA,"SHARIFPURA, AMRITSAR-143001",,0183-2584321,AMRITSAR,AMRITSAR
PSIB0000088,Punjab and Sind Bank,PSIB0000088,NON-MICR,TARAN TARAN,"TARAN TARAN,DISTT.AMRITSAR-143401",,01852-222076,AMRITSAR,AMRITSAR
PSIB0000089,Punjab and Sind Bank,PSIB0000089,NON-MICR,"THE MALL, FARIDKOT","THE MALL, FARIDKOT",,250043,FARIDKOT,FARIDKOT
PSIB0000090,Punjab and Sind Bank,PSIB0000090,NON-MICR,KOTKAPURA,"RAILWAY ROAD,MAIN CHOWK KOTKAPURA DISTT. FARIDKOT-151204",,01635-220203,KOT KAPURA,FARIDKOT
PSIB0000091,Punjab and Sind Bank,PSIB0000091,NON-MICR,"THE MALL, BHATINDA","THE MAL, BHATINDA",,2254815,BHATINDA,BHATINDA
PSIB0000092,Punjab and Sind Bank,PSIB0000092,NON MICR,NABHA,"PATIALA GATE, NABHA, DISTRICT PATIALA-147201",,220106,NABHA,PATIALA
PSIB0000093,Punjab and Sind Bank,PSIB0000093,144023017,DAKOHA,RAMA MANDI DAKOHA JALANDHAR CANTT. 144005,,0181-2260497,JALANDHAR,JALANDHAR
PSIB0000094,Punjab and Sind Bank,PSIB0000094,NON-MICR,CINEMA ROAD BATALA,"CINEMA ROAD,BATALA-143505",,01871-240702,BATALA,GURDASPUR
PSIB0000098,Punjab and Sind Bank,PSIB0000098,144023008,JALANDHAR LAJPAT NAGAR,LAJPAT NAGAR JALANDHAR,,0181-2458292/2458293,JALANDHAR,JALANDHAR
PSIB0000100,Punjab and Sind Bank,PSIB0000100,248023002,DEHRADUN RAJPUR ROAD,"7,ESLLAY HALL RAJPUR ROAD DEHRADUN-248001",,0135-2747962,DEHRADUN,DEHRADUN
PSIB0000101,Punjab and Sind Bank,PSIB0000101,474023001,JAYENDRA GANJ GWALIOR,25/583 JAYENDRA GANJ GWALIOR-474009,,0751-2327351,GWALIOR,GWALIOR
PSIB0000102,Punjab and Sind Bank,PSIB0000102,143023006,CIVIL LINES,"12-LAWRENCE ROAD, CIVIL LINES AMRITSAR-143001",,0183-2221675,AMRITSAR,AMRITSAR
PSIB0000103,Punjab and Sind Bank,PSIB0000103,452023002,P.Y. ROAD INDORE,"13 , P.Y ROAD, INDORE-452004",,0731-2367490,INDORE,INDORE
PSIB0000104,Punjab and Sind Bank,PSIB0000104,482023001,JABALPUR,"FOURTH BRIDGE,ANAND TALKIES ROAD, JABALPUR-482001",,0761-2403074,JABALPUR,JABALPUR
PSIB0000105,Punjab and Sind Bank,PSIB0000105,110023031,JANAKPURI,"B22 COMMUNITY CENTRE , JANAKPURI N.DELHI-58",,,DELHI,NEW DELHI
PSIB0000106,Punjab and Sind Bank,PSIB0000106,NON-MICR,JAGRAON,"JAGRAON , LUDHIANA",,222469,JAGRAON,LUDHIANA
PSIB0000107,Punjab and Sind Bank,PSIB0000107,NON-MICR,TANDA URMAR,TANDA URMAR DISTT. HOSHIARPUR-144204,,01886-227427,HOSHIARPUR,HOSIARPUR
PSIB0000108,Punjab and Sind Bank,PSIB0000108,NON MICR,MALERKOTLA,"COLLEGE ROAD, MALERKOTLA DISTRICT SANGRUR-148023",,01675 253196,MALERKOTLA,SANGRUR
PSIB0000110,Punjab and Sind Bank,PSIB0000110,NON-MICR,RAYYA MANDI,"RAYYA MANDI, AMRITSAR-143112",,01853-222067,AMRITSAR,AMRITSAR
PSIB0000111,Punjab and Sind Bank,PSIB0000111,NON-MICR,PHAGWARA G.T. ROAD,"G.T ROAD PHAGWARA,DISTT.KAPURTHALA-144002",,01824-260354,KAPURTHALA,KAPURTHALA
PSIB0000112,Punjab and Sind Bank,PSIB0000112,NON-MICR,RUDRAPUR,UDAM SINGH NAGAR NAINITAL,,05944-243251,RUDRAPUR,UDHAMSINGH NAGAR
PSIB0000113,Punjab and Sind Bank,PSIB0000113,NON MICR,"NAKODAR, DISTT. JALANDHAR, PUNJAB","OPPOSITE BUS STAND, NAKODAR, DISTT. JALANDHAR, PUNJAB-141310",,01821 220081,NAKODAR,JALANDHAR
PSIB0000114,Punjab and Sind Bank,PSIB0000114,110023010,KASHMERE GATE DELHI,"2781/1, LOTHIAN ROAD KASHMERE GATE DELHI-110006",,011 23968885,DELHI,DELHI
PSIB0000115,Punjab and Sind Bank,PSIB0000115,NON-MICR,MUKATSAR,"MALL GODAM ROAD, MUKATSAR",,260292,MUKATSAR,MUKATSAR
PSIB0000116,Punjab and Sind Bank,PSIB0000116,NON MICR,"JAITU, DISTT. FARIDKOT, PUNJAB","BISHANDI BAZAR, JAITU, FARIDKOT, PUNJAB-151202",,01635 230704,JAITU,FARIDKOT
PSIB0000117,Punjab and Sind Bank,PSIB0000117,400023002,MUMBAI OPERA HOUSE,"78,GIRGAUM ROAD OPERA HOUSE MUMBAI-400004",,022-23690936,MUMBAI,GREATER MUMBAI
PSIB0000118,Punjab and Sind Bank,PSIB0000118,NON-MICR,SUNAM,"ANAJ MANDI, SUNAM, SANGRUR",,220153,SUNAM,SANGRUR
PSIB0000119,Punjab and Sind Bank,PSIB0000119,462023002,HAMADIA ROAD BHOPAL,"7, HAMIDIA ROAD BHOPAL -462016",,0755-2537279,BHOPAL,BHOPAL
PSIB0000120,Punjab and Sind Bank,PSIB0000120,NON-MICR,JANDIALA GURU,"JANDIALA GURU, AMRITSAR",,2432205,JANDIALA GURU,AMRITSAR
PSIB0000121,Punjab and Sind Bank,PSIB0000121,110023065,"SECTOR 16A, AJRONDA, FARIDABAD, HARYANA","SECTOR 16A AJRONDA, FARIDABAD, HARYANA-121001",,0129 5288065,FARIDABAD,FARIDABAD
PSIB0000123,Punjab and Sind Bank,PSIB0000123,NON MICR,"SAMANA, DISTRICT PATIALA, PUNJAB","MAIN BAZAR, SAMANA,DISTRICT PATIALA, PUNJAB-147101",,01764-220144,SAMANA,PATIALA
PSIB0000129,Punjab and Sind Bank,PSIB0000129,NON MICR,"QUADIAN, DISTT. GURDASPUR","QUADIAN,DISTT. GURDASPUR, PUNJAB-143516",,01872 220065,GURDASPUR,GURDASPUR
PSIB0000134,Punjab and Sind Bank,PSIB0000134,NON MICR,JOGIWALA,"MOHKAMPUR JOGIWALA, DISTT. DEHRADUN, UTTARAKHAND-248005",,0135 2677128,JOGIWALA,DEHRA DUN
PSIB0000135,Punjab and Sind Bank,PSIB0000135,302023002,STATION ROAD  JAIPUR,"12- PARK STREET,STATION ROAD, JAIPUR-302006",,0141-2624714,JAIPUR,JAIPUR
PSIB0000137,Punjab and Sind Bank,PSIB0000137,NON MICR,AMB,"AMB, DISTT. UNA, HIMACHAL PRADESH-177203",,01976-260027,AMB,UNA
PSIB0000139,Punjab and Sind Bank,PSIB0000139,NON.MICR,AMBALA ROAD,"AMBALA ROAD, SAHARANPUR",,2648454,SAHARANPUR,SAHARANPUR
PSIB0000142,Punjab and Sind Bank,PSIB0000142,NON MICR,GOLEWALA,"V & P. O. GOLEWALA,DISTT. FARIDKOT, PUNJAB-151203",,01639-270044,GOLEWALA,FARIDKOT
PSIB0000145,Punjab and Sind Bank,PSIB0000145,141023002,CIVIL LINE LUDHIANA,"KAILASH CHOWK, CIVIL LINES ,LUDHIANA-141001",,0161-2490056/2496156,LUDHIANA,LUDHIANA
PSIB0000147,Punjab and Sind Bank,PSIB0000147,700023002,KOLKATA MAIN,"8,OLD COURT HOUSE STREET KOLKATA",,033-22103469/22207578,KOLKATA,KOLKATA
PSIB0000152,Punjab and Sind Bank,PSIB0000152,NON MICR,KARAMSAR,"KHATRA KARAMSAR    VIA SIHAR DISTT.LUDHIANA, PUNJAB",,01628 273031,KARAMSAR(RANA SAHIB),LUDHIANA
PSIB0000154,Punjab and Sind Bank,PSIB0000154,143023010,"DHAB WASTI RAM, AMRITSAR","DHAB WASTI RAM, AMRITSAR-143001",,0183-2554101,AMRITSAR,AMRITSAR
PSIB0000157,Punjab and Sind Bank,PSIB0000157,144023002,JALANDHAR G.T.ROAD,"G.T ROAD,JALANDHAR-144001",,0181-2234261,JALANDHAR,JALANDHAR
PSIB0000159,Punjab and Sind Bank,PSIB0000159,141023025,SUNET,OPP MILK PLANT FEROZPUR ROAD SUNET LUDHIANA,,0161-2456115,LUDHIANA,LUDHIANA
PSIB0000160,Punjab and Sind Bank,PSIB0000160,NON MICR,CHAUKIMAN,"CHAUKIMAN, DISTT. LUDHIANA, PUNJAB-142023",,01624 234334,CHAUKIMAN,LUDHIANA
PSIB0000161,Punjab and Sind Bank,PSIB0000161,143023014,"ISLAMABAD, AMRITSAR","ISLAMABAD,AMRITSAR,PUNJAB-143001",,0183-2565013,AMRITSAR,AMRITSAR
PSIB0000162,Punjab and Sind Bank,PSIB0000162,560023003,"J.C.ROAD, BANGALORE","78/1, J. C. ROAD , BANGALORE",,2224827,BANGALORE,BANGALORE
PSIB0000163,Punjab and Sind Bank,PSIB0000163,NON MICR,"MANDI, HIMACHAL PRADESH","LAL BHAWAN, MANDI, HIMACHAL PRADESH-175001",,01905 223300,MANDI,MANDI
PSIB0000164,Punjab and Sind Bank,PSIB0000164,NON MICR,MUBARKPUR,"MUBARKARPUR, DISTT. UNA, HIMACHAL PRADESH",,01976 264230,MUBARAKPUR,UNA
PSIB0000165,Punjab and Sind Bank,PSIB0000165,110023026,HEMKUNT COLONY,"HEMKUNT COLONY,GURU NANAK MARKET, GREATER KAILASH -1, NEW DELHI-110048",,011-26433719/26417992,DELHI,NEW DELHI
PSIB0000166,Punjab and Sind Bank,PSIB0000166,226023002,"HAZRAT GANJ, LUCKNOW","11  M.G.ROAD,HAZRAT GANJ, HABIBULLAH ESTATE,LUCKNOW, UTTAR PRADESH-226001",,0522 2228639,LUCKNOW,LUCKNOW
PSIB0000167,Punjab and Sind Bank,PSIB0000167,NON MICR,HALDWANI,"NAINITAL ROAD, HALDWANI, UTTARAKHAND - 263139",,05946-220516,HALDWANI,NAINITAL
PSIB0000168,Punjab and Sind Bank,PSIB0000168,141023012,LUDHIANA MILLERGANJ,MILLER GANJ GILL ROAD LUDHIANA,,0161-2538493/2545463,LUDHIANA,LUDHIANA
PSIB0000169,Punjab and Sind Bank,PSIB0000169,NON-MICR,MEERUT BEGUM BRIDGE,BEGUM BRIDGE MEERUT,,0121-2663163/2656071,MEERUT,MEERUT
PSIB0000170,Punjab and Sind Bank,PSIB0000170,500023002,HYDERABAD,"METRO ESTATE ABIDS, HYDERABAD-500001",,040-24754330/24758065,HYDERABAD,HYDERABAD URBAN
PSIB0000171,Punjab and Sind Bank,PSIB0000171,NON-MICR,"THE RIDGE, SHIMLA","RITZ  BUILDING,RIDGE,THE MALL, SHIMLA",,2658353,SHIMLA,SHIMLA
PSIB0000173,Punjab and Sind Bank,PSIB0000173,180023001,"JAMMU (MAIN),SHALIMAR ROAD","SHALIMAR ROAD, JAMMU",,2543373,JAMMU,JAMMU
PSIB0000174,Punjab and Sind Bank,PSIB0000174,800023002,"FRASER ROAD , PATNA","42, FRASER ROAD, PATNA",,2221850,PATNA,PATNA
PSIB0000175,Punjab and Sind Bank,PSIB0000175,110023034,"NAYA BAZAR, NEW DELHI ","2612/13 NAYA BAZAR,DELHI-110006",,011-23962457,DELHI,DELHI
PSIB0000179,Punjab and Sind Bank,PSIB0000179,NON-MICR,THE MALL KAPURTHALA,THE MALL KAPURTHALA-144601,,01822-232460,KAPURTHALA,KAPURTHALA
PSIB0000181,Punjab and Sind Bank,PSIB0000181,110023019,NARAINA,"B38/39 INDUSTRIAL AREA, PHASE 1 NARAINA N. DELHI, PIN CODE-110028",,,DELHI,NEW DELHI
PSIB0000182,Punjab and Sind Bank,PSIB0000182,NON MICR,BANKHERPUR,"BANKHERPUR, DISTT. PATIALA, PUNJAB-140203",,01762-280047,PATIALA,PATIALA
PSIB0000186,Punjab and Sind Bank,PSIB0000186,160023013,"MOHALI , PHASE-5","S.C.F.-23-25, PHASE-5, MOHALI",,228904,MOHALI,MOHALI
PSIB0000187,Punjab and Sind Bank,PSIB0000187,NON MICR,"UMARPURA, BATALA, PUNJAB","UMARPURA, BATALA, DISTT. GURDASPUR, PUNJAB-143505",,01871 241072,BATALA,GURDASPUR
PSIB0000189,Punjab and Sind Bank,PSIB0000189,144023714,"CHACHOKI,  KAPURTHALA","CHACHOKI, DISTT. KAPURTHALA, PUNJAB-144632",,01824 260294,CHACHOKE,KAPURTHALA
PSIB0000191,Punjab and Sind Bank,PSIB0000191,110023067,GHAZIABAD G.T. ROAD,"58,G.T ROAD GHAZIABAD-201009",,0120-2731237,GHAZIABAD,GHAZIABAD
PSIB0000192,Punjab and Sind Bank,PSIB0000192,110023004,AZADPUR,"C-7 NEW SUBZI MANDI, AZADPUR DELHI-33",,,DELHI,NEW DELHI
PSIB0000194,Punjab and Sind Bank,PSIB0000194,NON MICR,KURALI,"MAN COMPLEX, BUS STAND, SISWAN ROAD, BLOCK MAJRI KURALI DISTT S.A.S.NAGAR (MOHALI)",,01888-640126,KURALI,RUPNAGAR
PSIB0000195,Punjab and Sind Bank,PSIB0000195,NON.MICR,KUKAR MAJRA,"GT ROAD, GOBINDGARH, FATEHGARH SAHIB",,254929,FATEHGARH SAHIB,FATEHGARH SAHIB
PSIB0000197,Punjab and Sind Bank,PSIB0000197,NON-MICR,GOBINDGARH MANDI,"AMLOH ROAD ,GOBINDGARH MANDI, FATEHGARH SAHIB",,258570,GOBIND GARH,FATEHGARH SAHIB
PSIB0000198,Punjab and Sind Bank,PSIB0000198,160023032,MUNDI KHARAR,MUNDI KHARAR DISTT. ROPAR- 140301,,01888-245752,KHARAR,RUPNAGAR
PSIB0000200,Punjab and Sind Bank,PSIB0000200,600023002,CHENNAI MOUNT ROAD,"161 MOUNT ROAD PB NO.2729,CHENNAI,TAMIL NADU-600002",,"044-28523048,28547057",CHENNAI,CHENNAI
PSIB0000201,Punjab and Sind Bank,PSIB0000201,NON-MICR,PATHANKOT,"DALHOUSIE ROAD, PATHANKOT-145001",,0186-2221125,PATHANKOT,GURDASPUR
PSIB0000202,Punjab and Sind Bank,PSIB0000202,143023015,AMRITSAR KOT MANGAL SINGH,"KOT MANGAL SINGH, TARN TARAN ROAD,AMRITSAR, PUNJAB - 143401",,"0183-5057563,64",AMRITSAR,AMRITSAR
PSIB0000204,Punjab and Sind Bank,PSIB0000204,144023012,BASTI BABA KHEL JALANDHAR,BASTI BABA KHEL  DISTT. JALANDHAR 144021,,0181 2651878,JALANDHAR,JALANDHAR
PSIB0000206,Punjab and Sind Bank,PSIB0000206,144023018,"BIRRING, JALANDHAR","BIRRING G. T. ROAD, JALANDHAR CANTT,PUNJAB-144005",,0181 2260567,JALANDHAR,JALANDHAR
PSIB0000207,Punjab and Sind Bank,PSIB0000207,NON MICR,PALAHI,"PALAHI TEH. PHAGEARA, DISTT. KAPURTHALA, PUNJAB-144403",,0182-4228209,PALAHI,KAPURTHALA
PSIB0000208,Punjab and Sind Bank,PSIB0000208,NON MICR,PAONTA SAHIB,"PAONTA SAHIB, DISTT. SIRMUR,  HIMACHAL PRADESH-173025",,01704 222366,PAONTA SAHIB,SIRMAUR
PSIB0000209,Punjab and Sind Bank,PSIB0000209,NON MICR,"SANJAULI, SIMLA","SANJAULI,DISTT. SIMLA, HIMACHAL PRADESH-171006",,0177 2841072,SIMLA,SIMLA
PSIB0000211,Punjab and Sind Bank,PSIB0000211,144023007,"RERU,JALANDHAR",VILLAGE & POST OFFICE RERU JALANDHAR,,0181-2291220,JALANDHAR,JALANDHAR
PSIB0000212,Punjab and Sind Bank,PSIB0000212,144023010,BASTI GUZAN JALANDHAR,BASTI GUZAN JALANDHAR-144002,,0181 2253604,JALANDHAR,JALANDHAR
PSIB0000213,Punjab and Sind Bank,PSIB0000213,NON MICR,ANANDPUR SAHIB,"ANANDPUR SAHIB, DISTT. ROPAR-140118",,232054,ANANDPUR SAHIB,ROPER
PSIB0000219,Punjab and Sind Bank,PSIB0000219,NON MICR,"BIRLA ROAD, HARDWAR ","1 BIRLA ROAD,,HARDWAR,UTTARAKHAND-249401",,01334 227480,HARDWAR,HARIDWAR
PSIB0000220,Punjab and Sind Bank,PSIB0000220,NON MICR,NANDED,SRI GURU GOVIND SINGH ROAD NANDED-431 601,,02462 242016,NANDED,JALGAON
PSIB0000221,Punjab and Sind Bank,PSIB0000221,342023002,"CHOPASNI ROAD, JODHPUR","CHOPASANI ROAD,JODHPUR,RAJASTHAN-342003",,0291 2434054,JODHPUR,JODHPUR
PSIB0000222,Punjab and Sind Bank,PSIB0000222,NON MICR,"PALLIA (KHERI), UTTAR PRADESH","PALLIA (KHERI), MILL ROAD PALLIA,DISTT. KHERI, UTTAR PRADESH-262902",,05871-233354,PALIA KALAN,LAKHIMPUR KHERI
PSIB0000223,Punjab and Sind Bank,PSIB0000223,NON-MICR,RAJPUR,"RAJPURA TOWN, DISTT. PATIALA-140401",,01762-224111,RAIPUR,JALANDHAR
PSIB0000224,Punjab and Sind Bank,PSIB0000224,NON-MICR,BANGA,"RAILWAY ROAD , BANGA, DISTT-JALANDHAR-144505",,01823-260165,HOSHIARPUR,HOSIARPUR
PSIB0000225,Punjab and Sind Bank,PSIB0000225,NON MICR,"RISHIKESH, UTTARAKHAND","GHAT ROAD, RISHIKESH, DISTT. DEHRADUN,UTTARAKHAND-249201",,0135 2430449,RISHIKESH,DEHRA DUN
PSIB0000226,Punjab and Sind Bank,PSIB0000226,NON-MICR,G.T.ROAD PANIPAT,"G.T.ROAD ,PANIPAT-132104",,01742-630504,PANIPAT,PANIPAT
PSIB0000234,Punjab and Sind Bank,PSIB0000234,282023002,"HING KI MANDI, AGRA","HING KI MANDI, AGRA",,2364099,AGRA,AGRA
PSIB0000235,Punjab and Sind Bank,PSIB0000235,NON MICR,OANCHGHAT,"OACHGHAT, DISTT. SOLAN, HIMACHAL PRADESH-173223",,01792 252341,OACH GATH,SOLAN
PSIB0000237,Punjab and Sind Bank,PSIB0000237,NON MICR,SRINAGAR MAIN,"JEHANGIR HOTEL BUILDING, BADSHAH CHOWK, SRINAGAR, JAMMU & KASHMIR-190001",,0194 2455180,SRINAGAR,SRINAGAR
PSIB0000238,Punjab and Sind Bank,PSIB0000238,831023002,"JAMSHEDPUR, JHARKHAND","DIAGONAL ROAD, BISTUPUR, JAMSHEDPUR, JHARKHAND-831001",,0657 2433674,JAMSHEDPUR,PURBI SINGHBHUM
"PSIB0000239
",Punjab and Sind Bank,"PSIB0000239
",NON MICR,"UDHAMPUR

","LAL CHOWK, UDHAMPUR,  JAMMU & KASHMIR.-182101",,01992 270158,UDHAMPUR,UDHAMPUR
PSIB0000240,Punjab and Sind Bank,PSIB0000240,380023002,GANDHI ROAD AHMEDABAD,"GANDHI ROAD, AHMEDABAD-380001",,079-2145869,AHMEDABAD,AHMEDABAD
PSIB0000241,Punjab and Sind Bank,PSIB0000241,NON MICR,HAPUR,"TIMBER NAGAR, GARH ROAD, HAPUR, UTTAR PRADESH-245101",,0122 2313368,HAPUR,GHAZIABAD
PSIB0000242,Punjab and Sind Bank,PSIB0000242,160023010,CHANDIGARH SECTOR 34,"S.C.O.371-373 SECTOR-34A,CHANDIGARH-160022",,0172-790896/791441,CHANDIGARH,CHANDIGARH
PSIB0000245,Punjab and Sind Bank,PSIB0000245,160023010,CHANDIGARH INDUSTRIAL AREA,4-5 M.W.MARKET INDUSTRIAL AREA PHASE-I CHANDIGARH-160002,,0172-650173,CHANDIGARH,CHANDIGARH
PSIB0000248,Punjab and Sind Bank,PSIB0000248,NON MICR,"GURU HAR SAHAI, PUNJAB","GURU HAR SAHAI, DISTT. FEROZEPUR, PUNJAB-152021",,01685 230067,GURUHARSAHAI,FEROZPUR
PSIB0000249,Punjab and Sind Bank,PSIB0000249,NON MICR,LAMBA PIND,"OLD HOSHIRPUR ROAD, SANTOKHPURA, JALANDHAR CITY-144021",,1812292087,JALANDHAR,JALANDHAR
PSIB0000250,Punjab and Sind Bank,PSIB0000250,110023021,DEFENCE COLONY,"10A DDA SHOPING COMPLEX, DEFENCE CLY, NEWDELHI-24",,,DELHI,NEW DELHI
PSIB0000251,Punjab and Sind Bank,PSIB0000251,NON MICR,"CHAKKAR
","CHAKKAR,  DISTT. LUDHIANA, PUNJAB-142035",,01624-253130,CHAKKAR,LUDHIANA
PSIB0000252,Punjab and Sind Bank,PSIB0000252,400023019,KHOPOLI,DISTT.  RAIGAD-410203  (MH),02192-262223,KHOPOLI,RAIGAD,MAHARASHTRA
PSIB0000253,Punjab and Sind Bank,PSIB0000253,NON.MICR,"CIVIL LINE, BAREILLY","88-C, CIVIL LINE , BAREILLY",,2570921,BAREILLY,BAREILLY
PSIB0000254,Punjab and Sind Bank,PSIB0000254,NON-MICR,PILIBHIT,"STATION ROAD, GAS CHAURAHA, PILIBHIT",,255461,PILIBHIT,PILIBHIT
PSIB0000255,Punjab and Sind Bank,PSIB0000255,NON MICR,"BIJNORE, UTTAR PRADESH","CIVIL LINES, BIJNORE, UTTAR PRADESH-245701 ",,01342 262747,BIJNOR,BIJNOR
PSIB0000256,Punjab and Sind Bank,PSIB0000256,NON-MICR,MUZAFFARNAGAR,"ROORKEE ROAD, MUZAFFARNAGAR",,2432182,MUZAFFARNAGAR,MUZAFFARNAGAR
PSIB0000259,Punjab and Sind Bank,PSIB0000259,NON-MICR,KALAGHANPUR,"KALAGHANPUR, NEAR OCM, AMRITSAR-143104",,2258257,AMRITSAR,AMRITSAR
PSIB0000261,Punjab and Sind Bank,PSIB0000261,NON-MICR,BHAWANIGARH,"BHAWANIGARH, SANGRUR",,272046,BHAWANIGARH,SANGRUR
PSIB0000262,Punjab and Sind Bank,PSIB0000262,NON-MICR,NAWAN SHAHAR,"CHANDIGARH ROAD, NAWAN SHAHAR-144514",,01823-222211,JALANDHAR,JALANDHAR
PSIB0000263,Punjab and Sind Bank,PSIB0000263,474023002,FORT ROAD GWALIOR,FORT ROAD GWALIOR 474001,,0751 2365330,GWALIOR,GWALIOR
PSIB0000264,Punjab and Sind Bank,PSIB0000264,NON MICR,NANGAL,"ADDA MARKET,  NANAGAL TOWN SHIP,  DISTRICT RUPNAGAR, PUNJAB-143520",,01887 220289,NANGAL,RUPNAGAR
PSIB0000265,Punjab and Sind Bank,PSIB0000265,151023102,"TALWANDI SABO, BHATINDA, PUNJAB","TALWANDI SABO, DISTT. BHATINDA, PUNJAB-151302",,01655 220248,TALWANDI SABO,BATHINDA
PSIB0000266,Punjab and Sind Bank,PSIB0000266,NON MICR,AHMEDGARH MANDI," ANAJ MANDI, AHMEDGARH DISTRICT SANGRUR-148021",,01675 240166,AHMEDGARH,SANGRUR
PSIB0000267,Punjab and Sind Bank,PSIB0000267,147023202,"SAMRALA,  LUDHIANA, PUNJAB","SAMRALA, DISTT. LUDHIANA,PUNJAB-141114",,01628 262037,SAMRALA,LUDHIANA
PSIB0000268,Punjab and Sind Bank,PSIB0000268,NON MICR,MORINDA,"KAINA ROAD MORINDA, DISTT. ROPAR PUNJAB",,630401,MORINDA,ROPAR
PSIB0000269,Punjab and Sind Bank,PSIB0000269,NON MICR,"RAMAN MANDI, BHATINDA","RAMAN MANDI,  DISTT. BHATINDA, PUNJAB-151301",,01655 240162,RAMAN,BATHINDA
PSIB0000270,Punjab and Sind Bank,PSIB0000270,NON-MICR,BARNALA,"RAILWAY ROAD,BARNALA DISTT. SANGRUR-148101",,01679-230476,BARNALA,SANGRUR
PSIB0000271,Punjab and Sind Bank,PSIB0000271,NON MICR,"BHIND, MADHYA PRADESH","ITAWA ROAD, BHIND, MADHYA PRADESH-477001",,07534 245815,BHIND,BHIND
PSIB0000272,Punjab and Sind Bank,PSIB0000272,NON MICR,"DHURI, DISTT. SANGRUR, PUNJAB","DHURI, TEHSIL & DISTRICT SANGRUR, PUNJAB-148024",,01675 220005,DHURI,SANGRUR
PSIB0000273,Punjab and Sind Bank,PSIB0000273,NON.MICR,ABOHAR,"GANDHI CHOWK, ABOHAR, FIROZPUR",,220835,ABOHAR,FIROZPUR
PSIB0000274,Punjab and Sind Bank,PSIB0000274,NON-MICR,RAMPURA PHUL,"RAMPURA PHUL , BHATINDA",,220250,RAMPURA PHUL,BHATINDA
PSIB0000276,Punjab and Sind Bank,PSIB0000276,NON-MICR,GHARSHANKAR,"VILLAGE & POST OFFICE,GARHSHANKAR,DISTT-HOSHIARPUR-144884",,01884-282349,HOSHIARPUR,HOSIARPUR
PSIB0000277,Punjab and Sind Bank,PSIB0000277,NON MICR,"ZIRA, DISTT. FEROZEPUR","ZIRA, DISTT. FEROZEPUR-142047",,0168-2250987,ZIRA,FEROZPUR
PSIB0000278,Punjab and Sind Bank,PSIB0000278,NON MICR,"SAGAR, MADHYA PRADESH","STATION ROAD, SAGAR, MADHYA PRADESH-470001",,07582 222261,SAGAR,SAGAR
PSIB0000280,Punjab and Sind Bank,PSIB0000280,NON MICR,ROHTAK,BHIWANI STAND ROHTAK-124001,,01262 269294,ROHTAK,ROHTAK
PSIB0000281,Punjab and Sind Bank,PSIB0000281,NON MICR,"DHARIWAL, DISTT. GURDASPUR, PUNJAB","G.T. ROAD, DHARIWAL, DISTT. GURDASPUR, PUNJAB-143519",,01874 275175,DHARIWAL,GURDASPUR
PSIB0000282,Punjab and Sind Bank,PSIB0000282,160023032,MANI MAJRA,NEAR DHILLION THEATRE MANI MAJRA-160101,,0172-734143/730955,MANI MAJRA,CHANDIGARH
PSIB0000283,Punjab and Sind Bank,PSIB0000283,440023002,NAGPUR,16 CENTRAL AVENUE NAGPUR,,0712-5614719,NAGPUR,NAGPUR
PSIB0000284,Punjab and Sind Bank,PSIB0000284,NON MICR,MUSSOORIE,"THE MALL LIABRARY MUSSORIE, DEHRADUN, UTTARAKHAND-248179",,0135 2632032,MUSSOORIE,DEHRA DUN
PSIB0000285,Punjab and Sind Bank,PSIB0000285,431023003,"AURANGABAD, MAHARASHTRA","TILAK ROAD, AURANGABAD, MAHARASHTRA-431001",,0240 2334030,AURANGABAD,AURANGABAD
PSIB0000286,Punjab and Sind Bank,PSIB0000286,NON MICR,PATNA CITY,"HAZI GANJ, PATNA CITY, BIHAR-800008",,0612 2616059,PATNA,PATNA
PSIB0000287,Punjab and Sind Bank,PSIB0000287,NON MICR,"HISSAR, HARYANA","SIRSA ROAD, HISSAR, HARYANA-125001",,01662 237043,HISAR,HISAR
PSIB0000288,Punjab and Sind Bank,PSIB0000288,143023013,GURU NANAK DEV UNIV.,GURU NANAK DEV UNIVERSITY AMRITSAR-143001,,0183-2258827,AMRITSAR,AMRITSAR
PSIB0000291,Punjab and Sind Bank,PSIB0000291,110023022,ROSHANPURA,"RZ-1B NAJAFGARH, ROSHANPURA NEW DELHI-110043",,25016466,DELHI,DELHI
PSIB0000293,Punjab and Sind Bank,PSIB0000293,141023013,LUDHIANA MODEL TOWN,MODEL TOWN LUDHIANA,,0161-2410073/2412095,LUDHIANA,LUDHIANA
PSIB0000294,Punjab and Sind Bank,PSIB0000294,110023007,"CHAWRI BAZAR, DELHI","HAUZ QAZI, CHAWRI BAZAR, DELHI-110006",,011-23265743,DELHI,DELHI
PSIB0000295,Punjab and Sind Bank,PSIB0000295,110023014,DELHI GUJRANWALA TOWN,"B-9,GUJRAWALA TOWN,DELHI-110033",,011-27242716,DELHI,NEW DELHI
PSIB0000298,Punjab and Sind Bank,PSIB0000298,492023002,RAIPUR,"POST BOX 88,K.K ROAD, RAIPUR-492001",,077-2536393,RAIPUR,RAIPUR
PSIB0000299,Punjab and Sind Bank,PSIB0000299,NON.MICR,SIRSA,"HISSAR ROAD, SIRSA",,220261,SIRSA,SIRSA
PSIB0000300,Punjab and Sind Bank,PSIB0000300,400023005,MUMBAI KHAR,"315,LINKING ROAD , KHAR MUMBAI-400052",,022-26043930,MUMBAI,GREATER MUMBAI
PSIB0000301,Punjab and Sind Bank,PSIB0000301,110023006,DELHI ROSHANARA ROAD,ROSHANARA ROAD DELHI -110007,,011-23961135/23977336,DELHI,NEW DELHI
PSIB0000302,Punjab and Sind Bank,PSIB0000302,208023003,"GOVIND NAGAR, KANPUR","13/351, GOVIND NAGAR, KANPUR",,2655872,KANPUR,KANPUR
PSIB0000303,Punjab and Sind Bank,PSIB0000303,NON-MICR,PHAGWARA RAMGHARIA COLLEGE,"RAMGARHIA COLLEGE,PHAGWARA,KAPURTHALA",,01824-260563,KAPURTHALA,KAPURTHALA
PSIB0000304,Punjab and Sind Bank,PSIB0000304,781023002,FANCY BAZAR GUWAHATI,"FANCY BAZAR,LOHIA MARKET, GUWAHATI,ASSAM-781001",,0361 2544060,GUWAHATI,KAMRUP METROPOLITAN
PSIB0000305,Punjab and Sind Bank,PSIB0000305,395023002,SURAT,"LAL GATE,M.G.ROAD,SURAT-395001",,"0261-7438810,7422312",SURAT,SURAT
PSIB0000307,Punjab and Sind Bank,PSIB0000307,NON MICR,"MORENA, MADHYA PRADESH","LOHIYA BAZAR, MORENA, MADHYA PRADESH-476001",,07532 226353,MORENA,MORENA
PSIB0000308,Punjab and Sind Bank,PSIB0000308,NON-MICR,LAKHIMPUR KHERI,"SADAR CHAURAHA, LAKHIMPUR KHERI",,252911,LAKHIMPUR KHERI,LAKHIMPUR KHERI
PSIB0000309,Punjab and Sind Bank,PSIB0000309,NON-MICR,PATTI,"PATTI,AMRITSAR-143416",,01851-244612,AMRITSAR,AMRITSAR
PSIB0000310,Punjab and Sind Bank,PSIB0000310,NON MICR,SONIPAT HARYANA,"313/5 GITA BHAWAN ROAD, SONIPAT, HARYANA-131001",,01264 247029,SONIPAT,SONIPAT
PSIB0000312,Punjab and Sind Bank,PSIB0000312,NON MICR,"FATEHABAD, DISTT. FATEHABAD, HARYANA","ANAJMANDI FATEHABAD, DISTT. FATEHABAD, HARYANA-125050",,01667 22160,FATEHABAD,FATEHABAD
PSIB0000313,Punjab and Sind Bank,PSIB0000313,NON MICR,GODHEWALA,"GODHEWALA, G.T. ROAD MOGA-142001",,01636 224425,GODHEWALA,MOGA
PSIB0000314,Punjab and Sind Bank,PSIB0000314,473023002,"GUNA, MP","AGRA BOMBAY ROAD, GUNA,MADHYA PRADESH-473001",,07542 252224,GUNA,GUNA
PSIB0000315,Punjab and Sind Bank,PSIB0000315,462023003,"SHAHPURA, BHOPAL","E-5, ARERA COLONY, SHAHPURA, BHOPAL",,2466640,SHAHPURA,BHOPAL
PSIB0000316,Punjab and Sind Bank,PSIB0000316,NON MICR,"JAGADHRI, DISTT. YAMUNANAGR, HARYANA","NEW MARKET, JAGADHARI, DISTT. YAMUNANAGR, HARYANA",,01732 229792,JAGADHRI,YAMUNANAGAR
PSIB0000317,Punjab and Sind Bank,PSIB0000317,273023002,GORAKHPUR,GOLEGHAR GORAKHPUR - 273001,,0551-2336527,GORAKHPUR,GORAKHPUR
PSIB0000318,Punjab and Sind Bank,PSIB0000318,520023001,VIJAYAWADA,"PRAKASAN ROAD, GOVERNORPET, VIJAYAWADA",,2574193,VIJAYAWADA,VIJAYAWADA
PSIB0000319,Punjab and Sind Bank,PSIB0000319,500023003,SECUDERABAD,"1-7-323,1ST FLOOR NEAR CHENOY TRADE CENTRE PARK LANE, SECUNDERABAD-500003",,4027847479,SECUNDERABAD CANTONMENT,HYDERABAD URBAN
PSIB0000320,Punjab and Sind Bank,PSIB0000320,110023033,SADAR BAZAR,KUTAB ROAD SADAR BAZAR DELHI-110006,,23525262,DELHI,DELHI
PSIB0000321,Punjab and Sind Bank,PSIB0000321,221023002,VARANASI,"C-21/88 A, LAHURABIR , VARANASI-221001",,2358978,VARANASI,VARANASI
PSIB0000322,Punjab and Sind Bank,PSIB0000322,NON MICR,MUSTAFABAD,"MUSTAFABAD, DISTT. AMBALA, HARYANA-1313103",,01732-286249,MUSTAFABAD,YAMUNANAGAR
PSIB0000323,Punjab and Sind Bank,PSIB0000323,110023029,NEW DELHI JANGPURA EXTENSION,JANAGAPURA EXT. NEW DELHI-110058,,011-25592698/25512479,DELHI,NEW DELHI
PSIB0000324,Punjab and Sind Bank,PSIB0000324,411023002,PUNE,"229/230, M.G.ROAD, PUNE",,0212-6346612/6330612,PUNE,PUNE
PSIB0000325,Punjab and Sind Bank,PSIB0000325,NON.MICR,DHANBAD,"KATRAS ROAD, DHANBAD",,2302357,DHANBAD,DHANBAD
PSIB0000328,Punjab and Sind Bank,PSIB0000328,NON MICR,SILIGURI,"HILL CART ROAD, SILIGURI, DISTT. DARJEELING-734401",,0353 2432317,SILIGURI,DARJILING
PSIB0000329,Punjab and Sind Bank,PSIB0000329,423023004,KOLIWADA MUMBAI,"229, RAGHUNATH CHAMBERS SION, KOLIWADA MUMBAI-400006",,022 23693321,MUMBAI,GREATER MUMBAI
PSIB0000331,Punjab and Sind Bank,PSIB0000331,NON MICR,SATNA,PANNI LAL CHOWK SATNA -485001,,07672-235475,SATNA,SATNA
PSIB0000332,Punjab and Sind Bank,PSIB0000332,NON-MICR,REWA,"M.P. HOUSING BOARD BUILDING, JAI STAMBH CHOWK, REWA",,254867,REWA,REWA
PSIB0000333,Punjab and Sind Bank,PSIB0000333,160023004,CHANDIGARH SECTOR 11,"1101, SECTOR-11C, CHANDIGARH",,0172-746881/744862,CHANDIGARH,CHANDIGARH
PSIB0000335,Punjab and Sind Bank,PSIB0000335,NON MICR,MORADABAD UTTAR PRADESH,"STATION ROAD, MORADABAD, UTTAR PRADESH-244001",,0591 2311964,MORADABAD,MORADABAD
PSIB0000336,Punjab and Sind Bank,PSIB0000336,110023035,MADANPUR KHADAR,"MANDANPUR KHADAR,NEW DELHI-110044",,011-26942858,DELHI,NEW DELHI
PSIB0000337,Punjab and Sind Bank,PSIB0000337,NON MICR,"ITARASI, DISTT. HOSHANGABAD, MADHYA PRADESH","MAIN ROAD, ITARSI, DISTT. HOSHANGABAD, MADHYA PRADESH - 461111 ",,07572 236987,ITARSI,HOSHANGABAD
PSIB0000338,Punjab and Sind Bank,PSIB0000338,110023045,KRISHNA NGR,"D3/13,KRISHNA NAGAR,DELHI-110051",,011-22092230,DELHI,NEW DELHI
PSIB0000340,Punjab and Sind Bank,PSIB0000340,211023002,ALLAHABAD,"34, M.G. ROAD, CIVIL LINES, ALLAHABAD",,2624843,ALLAHABAD,ALLAHABAD
PSIB0000343,Punjab and Sind Bank,PSIB0000343,753023002,CUTTACK,POST BOX NO. 504 BAJRAKABATI ROAD CUTTAK-753002,,0671 2619893,CUTTACK,CUTTACK
PSIB0000344,Punjab and Sind Bank,PSIB0000344,110023017,N.FREINDS COLONY,"C-619,NEW FRIENDS COLONY,N.DELHI",,011-26917250,DELHI,NEW DELHI
PSIB0000345,Punjab and Sind Bank,PSIB0000345,NON MICR,SILCHAR ASSAM,"CENTRAL ROAD, SILCHAR, ASSAM-788001",,03842 246356,SILCHAR,CACHAR
PSIB0000346,Punjab and Sind Bank,PSIB0000346,NON MICR,IMPHAL,"92-A THANGAL BAZAR,  IMPHAL, MANIPUR-795001",,0385-2450581,IMPHAL,IMPHAL
PSIB0000347,Punjab and Sind Bank,PSIB0000347,834023002,"MAIN ROAD, RANCHI","MAIN ROAD, RANCHI",,2203593,RANCHI,RANCHI
PSIB0000348,Punjab and Sind Bank,PSIB0000348,NON-MICR,"CHICKPET, BANGALORE","678-679, S.B. MARKET, CHICKPET AREA, BANGALORE",,2267476,BANGALORE,BANGALORE URBAN
PSIB0000349,Punjab and Sind Bank,PSIB0000349,NON MICR,"DIMAPUR, NAGALAND","KALIBARI ROAD, NEAR GURDWARA, DIMAPUR, NAGALAND-797112",,0386-232867,DIMAPUR,DIMAPUR
PSIB0000350,Punjab and Sind Bank,PSIB0000350,NON MICR,DIBRUGARH,"KHEMKA MARKET,STATION ROAD, DIBRUGARH,ASSAM-786001",,0373 2326327,DIBRUGARH,DIBRUGARH
PSIB0000351,Punjab and Sind Bank,PSIB0000351,NON-MICR,THE MALL PATIALA,NEAR BUS STAND THE MALL PATIALA-147001,,0175-2202519,PATIALA,PATIALA
PSIB0000352,Punjab and Sind Bank,PSIB0000352,114023016,"MOTA SINGH NAGAR, JALANDHAR","MOTA SINGH NAGAR , NEAR BUS STAND JALANDHAR-144021",,2223157,JALANDHAR,JALANDHAR
PSIB0000353,Punjab and Sind Bank,PSIB0000353,110023063,"GURUDWARA ROAD, GURGAON","GURUDWARA ROAD, GURGAON",,6321313,GURGAON,GURGAON
PSIB0000354,Punjab and Sind Bank,PSIB0000354,NON MICR,UJJAIN,"157, DAULAT GANJ UJJAIN",,0734-2560450,UJJAIN,UJJAIN
PSIB0000355,Punjab and Sind Bank,PSIB0000355,NON-MICR,AGARTALA,"51, CENTRAL ROAD, AGARTALA",,2225665,AGARTALA,WEST TRIPURA
PSIB0000356,Punjab and Sind Bank,PSIB0000356,110023018,MALKA GANJ,"JAWAHAR NAGAR, MALKA GANJ DELHI - 110007",,23910328,DELHI,DELHI
PSIB0000357,Punjab and Sind Bank,PSIB0000357,NON MICR,BARODA,"INDIRA AVENUE ROAD, VISHWA MAITRI BRIDGE,VADODARA-390001",,0265 2427187,VADODARA,GANDHINAGAR
PSIB0000358,Punjab and Sind Bank,PSIB0000358,751023002,BHUBANANESHWAR,"150,ASHOK NAGAR,RAJMAHAL CHOWK BHUBENESHWAR",,0674-2533533,BHUBANESWAR,KHURDA
PSIB0000360,Punjab and Sind Bank,PSIB0000360,143023012,AMRITSAR GOLDEN TEMPLE,"GOLDEN TEMPLE, AMRITSAR-143001",,0183-2555573,AMRITSAR,AMRITSAR
PSIB0000361,Punjab and Sind Bank,PSIB0000361,700023003,N.S. ROAD KOLKATA,"83/85, NETAJI SUHASH ROAD  KOLKATA-700001",,033-22431416/22432584,KOLKATA,KOLKATA
PSIB0000362,Punjab and Sind Bank,PSIB0000362,144023014,"PSB COMPLEX, JALANDHAR","P S B COMPLEX, G. T. ROAD, JALANDHAR, PUNJAB-144001",,0181 5015632,JALANDHAR,JALANDHAR
PSIB0000363,Punjab and Sind Bank,PSIB0000363,NON MICR,COCHIN,"M.G. ROAD ERNAKULAM,COCHIN-682011",,2382496,COCHIN,COCHIN
PSIB0000364,Punjab and Sind Bank,PSIB0000364,110023062,SAHIBABAD,"A-1,SITE NO.4,INDUSTRIAL AREA,SAHIBABAD,GHAZIABAD-201010",,0120-2895278,SAHIBABAD,GHAZIABAD
PSIB0000365,Punjab and Sind Bank,PSIB0000365,NON MICR,RAJHARA DALLI,"NEW MARKET MAIN ROAD, RAJHARA DALLI, CHHATISGARH-491228",,07748 284139,RAJHARA,DURG
PSIB0000366,Punjab and Sind Bank,PSIB0000366,695023002,TRIVANDRUM,"M.G. RAOD, TRIVANDRUM",,2471920,TRIVANDRUM,TRIVANDRUM
PSIB0000368,Punjab and Sind Bank,PSIB0000368,NON.MICR,"CIVIL LINE , SAHARANPUR","CIVIL LINE , SAHARANPUR",,27270055,SAHARANPUR,SAHARANPUR
PSIB0000369,Punjab and Sind Bank,PSIB0000369,NON MICR,MACHAKI KALAN,"MACHAKI KALAN, DISTT. FARIDKOT,  PUNJAB-151212",,01639 240023,MACHAKI KALAN,FARIDKOT
PSIB0000370,Punjab and Sind Bank,PSIB0000370,NON MICR,KHURJA,"PADAM SINGH GATE, KHURJA, DISTT. BULAND SAHAR, UTTAR PRADESH",,05738 248284,KHURJA,BULANDSHAHR
PSIB0000371,Punjab and Sind Bank,PSIB0000371,141023022,JAMALPUR AWANA LUDHIANA,JAMALPUR AWANA LUDHIANA - 141001,,0161-2605475,LUDHIANA,LUDHIANA
PSIB0000372,Punjab and Sind Bank,PSIB0000372,160023004,CHANDIGARH SECTOR 26,"S.C.O.62 SECTOR-26,CHANDIGARH-160019",,0172-790896/791441,CHANDIGARH,CHANDIGARH
PSIB0000373,Punjab and Sind Bank,PSIB0000373,110023003,"UTTAM NAGAR, NEW DELHI",PLOT NO 6 NAJAFGARH ROAD UTTAM NAGAR NEAR METRO STATION PILLAR NO 682 UTTAM NAGAR DELHI,,011-25359132,DELHI,DELHI
PSIB0000374,Punjab and Sind Bank,PSIB0000374,248023008,DEHRADUN MADHUBAN HOTEL,"97 RAJPUR ROAD, HOTEL MADHUBAN,DEHRADUN, UTTARAKHAND-248009",,0135 2747962,DEHRADUN,DEHRA DUN
PSIB0000376,Punjab and Sind Bank,PSIB0000376,NON MICR,SHAHAGANJ (BANDEL)," SHAHAGANJ, DISTT. HOOGLY-712104",,033-26315455,BANDEL,HUGLI
PSIB0000377,Punjab and Sind Bank,PSIB0000377,700023005,BHAWANIPORE,"ASHUTOSH MUKHERJI ROAD, BHOWANIPORE, KOLKATA - 700087",,033 24750702,BHAWANIPUR,NORTH 24 PARGANAS
PSIB0000379,Punjab and Sind Bank,PSIB0000379,NON-MICR,ROORKEE,"22, CIVIL LINE, ROORKEE",,272570,ROORKEE,SAHARANPUR
PSIB0000381,Punjab and Sind Bank,PSIB0000381,NON MICR,BHINDAR KALAN,BHINDAR KALAN DISTT FIROZPUR,,01682-237433,FIROZPUR,FEROZPUR
PSIB0000382,Punjab and Sind Bank,PSIB0000382,NON MICR,"GUNIANA MANDI, BHATINDA","GUNIANA MANDI, DISTT. BHATINDA, PUNJAB",,0164 2262096,GONIANA,BATHINDA
PSIB0000383,Punjab and Sind Bank,PSIB0000383,248023005,DEHRADUN DALANWALA,"2 INDER ROAD, DALANWALA,DEHRADUN, UTTARAKHAND-248001",,0135 2657313,DEHRADUN,DEHRA DUN
PSIB0000384,Punjab and Sind Bank,PSIB0000384,NON MICR,AMBALA CANTT.,"BANK ROAD, NEAR ELECTRICITY BOARD, AMBALA CANTT.,HARYANA-133001",,0171 2640109,AMBALA CANTT.,AMBALA
PSIB0000385,Punjab and Sind Bank,PSIB0000385,400023009,MUMBAI,"J.K.SOMANI BUILDING,FORT,MUMBAI-400023/",,022-22651737/22651039,MUMBAI,GREATER MUMBAI
PSIB0000386,Punjab and Sind Bank,PSIB0000386,400023059,MUMBAI JUHU,"AMRAPALI BUILDING SHOPPING CENTRE, JUHU,MUMBAI-400049",,022-26149721/26126889,MUMBAI,GREATER MUMBAI
PSIB0000387,Punjab and Sind Bank,PSIB0000387,NON-MICR,MIRZAPUR,"KATRA BAZI RAO, MIRZAPUR-231001",,262919,MIRZAPUR,MIRZAPUR
PSIB0000388,Punjab and Sind Bank,PSIB0000388,110023008,NEHRU PLACE,"91 NEHRU PLACE, 109 BHANDARI HOUSE, N.DELHI-19",,,DELHI,NEW DELHI
PSIB0000390,Punjab and Sind Bank,PSIB0000390,NON MICR,NURMAHAL,VILLAGE & POST OFFICE NURMAHAL DISTT. JALANDHAR-144309,,01826 242077,NURMAHAL,JALANDHAR
PSIB0000391,Punjab and Sind Bank,PSIB0000391,282023003,NEW AGRA,"VRINDAVAN BAZAR, DAYAL BAGH ROAD NEW AGRA-282005",,2154724,AGRA,AGRA
PSIB0000392,Punjab and Sind Bank,PSIB0000392,144023013,NEW GRAIN MARKET JALANDHAR,"122 NEW GRAIN MARKET,  JALANDHAR, PUNJAB-144008",,0181-5021340,JALANDHAR,JALANDHAR
PSIB0000394,Punjab and Sind Bank,PSIB0000394,NON MICR,"PHILLAUR, JALANDHAR","NEAR COURT, PHILLAUR, DISTT. JALANDHAR,PUNJAB-144410",,01826-222129,PHILLAUR,JALANDHAR
PSIB0000395,Punjab and Sind Bank,PSIB0000395,NON-MICR,MUKERIAN,VILLAGE & POST OFFICE MEHTIANA DISTT. HOSHIARPUR,,01882-262239,MUKERIAN,HOSIARPUR
PSIB0000396,Punjab and Sind Bank,PSIB0000396,NON-MICR,PURANPUR,"STATION ROAD, PURANPUR, PILIBHIT",,262079,PURANPUR,PILIBHIT
PSIB0000397,Punjab and Sind Bank,PSIB0000397,NON MICR,ARHAT BAZAR,"ARHAT BAZAR, DEHRADUN, UTTARAKHAND-248001",,0135 2627340,DEHRADUN,DEHRA DUN
PSIB0000399,Punjab and Sind Bank,PSIB0000399,NON MICR,"KOTA, RAJASTHAN","MAIN JALAWAR ROAD,KOTA, RAJASTHAN-324007",,0744 2363620,KOTA,KOTA
PSIB0000400,Punjab and Sind Bank,PSIB0000400,143023018,RAILWAY ROAD,"RAILWAY ROAD, AMRITSAR-143001",,0183-2565179,AMRITSAR,AMRITSAR
PSIB0000401,Punjab and Sind Bank,PSIB0000401,NON MICR,NATHUWALA WEST,"NATHUWALA WEST, DISTT. FARIDKOT, PUNJAB-142038",,01636-275222,NATHUWALA JADID,MOGA
PSIB0000403,Punjab and Sind Bank,PSIB0000403,143023027,"CHEHRAHTA, AMRITSAR","CHHEHRATA, DISTT. AMRITSAR, PUNJAB-143105",,0183 2258364,AMRITSAR,AMRITSAR
PSIB0000404,Punjab and Sind Bank,PSIB0000404,313023002,UDAIPUR,"215, SHANTI NAGAR, NIRALA HOTEL ROAD, UDAIPUR-313001",,2421158,UDAIPUR,UDAIPUR
PSIB0000405,Punjab and Sind Bank,PSIB0000405,NON MICR,BHAVNAGAR,KHAR GATE LOKHAND BAZAR BHAVNAGAR-364001,,0278 2439666,BHAVNAGAR,BHAVNAGAR
PSIB0000407,Punjab and Sind Bank,PSIB0000407,NON MICR,"DORAHA, DISTT., LUDHIANA, PUNJAB","DORAHA, DISTT., LUDHIANA, PUNJAB-141421",,01628 257001,DORAHA,LUDHIANA
PSIB0000409,Punjab and Sind Bank,PSIB0000409,160023012,CHANDIGARH SECTOR-47,S.C.O. 64-65 SECTOR-47 CHANDIGARH-160047,,0172-630635,CHANDIGARH,CHANDIGARH
PSIB0000410,Punjab and Sind Bank,PSIB0000410,360023002,RAJKOT,"3, DHARMENDRA ROAD, RAJKOT-360001",,0281 224931,RAJKOT,RAJKOT
PSIB0000411,Punjab and Sind Bank,PSIB0000411,NON MICR,JAMNAGAR,"GOVIND ASHRAM RANJIT RD.,JAM NAGAR-361001,GUJRAT",,0288-2676708,JAMNAGAR,JAMNAGAR
PSIB0000412,Punjab and Sind Bank,PSIB0000412,226023003,ALAM BAGH  LUCKNOW,"ALAM BAGH , LUCKNOW-226005",,0522-2456688,LUCKNOW,LUCKNOW
PSIB0000413,Punjab and Sind Bank,PSIB0000413,110023085,PIRA GARHI,"7 PASCHIM ENCLAVE,PIRA GARHI",,011-25267252/25689504,DELHI,NEW DELHI
PSIB0000414,Punjab and Sind Bank,PSIB0000414,NON MICR,DINA NAGAR,"DINA NAGAR G.T. ROAD,  GURDASPUR,  PUNJAB - 143521",,01875 220163,DINANAGAR,GURDASPUR
PSIB0000415,Punjab and Sind Bank,PSIB0000415,160023007,CHANDIGARH SECTOR 22-B,SECTOR 22B CHANDIGARH,,0172-705359/714036,CHANDIGARH,CHANDIGARH
PSIB0000416,Punjab and Sind Bank,PSIB0000416,NON MICR,"GIDDERBAHA,  DISTT. FARIDKOT, PUNJAB","GIDDERBAHA, MUKTSAR, DISTT. FARIDKOT, PUNJAB-152102",,01637 230150,GIDDAR BAHA,MUKTSAR
PSIB0000417,Punjab and Sind Bank,PSIB0000417,160023008,CHANDIGARH SECTOR 24,"SECTOR 24,CHANDIGARH-160026",,0172 715889,CHANDIGARH,CHANDIGARH
PSIB0000418,Punjab and Sind Bank,PSIB0000418,NON MICR,ASANSOL,"198 G.T. ROAD, ASANSOL, WEST BENGAL-713301",,0341 2204540,ASANSOL,BARDDHAMAN
PSIB0000419,Punjab and Sind Bank,PSIB0000419,141023017,SALIM TABRI,SALIM TABRI LUDHIANA -141005,,0161-2745017,LUDHIANA,LUDHIANA
"PSIB0000420
",Punjab and Sind Bank,"PSIB0000420
",NON MICR,"BHAGALPUR
","86 M. P. DIWEDI ROAD, STATION CHOWK, BHAGALPUR, BIHAR - 812002",,0641-2421167,BHAGALPUR,BHAGALPUR
PSIB0000421,Punjab and Sind Bank,PSIB0000421,144023005,"ADDA HOSHIARPUR, JALANDHAR","ADDA HOSHIARPUR , JALANDHAR",,2459213,JALANDHAR,JALANDHAR
PSIB0000422,Punjab and Sind Bank,PSIB0000422,NON MICR,MUZAFFARPUR,MOTI JHEEL ROAD KALYANI  MUZAFFARPUR,,0621-2245140,MUZAFFARPUR,MUZAFFARPUR
PSIB0000423,Punjab and Sind Bank,PSIB0000423,NON MICR,JORHAT ASSAM,"A.T ROAD, JORHAT, ASSAM-785001",,0376 2320299,JORHAT,JORHAT
PSIB0000424,Punjab and Sind Bank,PSIB0000424,110023015,MAYA PURI,"D -1,PHASE-I,INDUSTRIAL AREA, MAYAPURI, NEW DELHI-110064",,"011-28114038,28113544",DELHI,NEW DELHI
PSIB0000425,Punjab and Sind Bank,PSIB0000425,208023006,KANPUR TRANSPORT NAGAR,"13/277, TRANSPORT NAGAR, KANPUR, UTTAR PRADESH-208001",,0512 2640821,KANPUR,KANPUR CITY
PSIB0000426,Punjab and Sind Bank,PSIB0000426,110023059,ATTA,"A-398, SECTOR-19,NOIDA G.B.NAGAR-201301",,0120-2523594,ATTA,GAUTAM BODDA NAGAR
"PSIB0000427
",Punjab and Sind Bank,"PSIB0000427
",700023008,"HOWRAH
","22 G,T. ROAD, HOWARAH, WEST BENGAL-711101",,033 26505598,HOWRAH,HAORA
PSIB0000428,Punjab and Sind Bank,PSIB0000428,400023011,MUMBAI MALABAR HILLS,"24, RIDGE ROAD MALABAR HILL MUMBAI",,022-23693321,MUMBAI,GREATER MUMBAI
PSIB0000429,Punjab and Sind Bank,PSIB0000429,600023004,"GORGE TOWN, CHENNAI","165,THAMBU CHETTY STREET,POST BOX NO.1955,GEORGE TOWN, CHENNAI",,044-25342562/25342016,CHENNAI,CHENNAI
PSIB0000431,Punjab and Sind Bank,PSIB0000431,400023003,MUMBAI KALBADEVI,"BHAGANWADI SHOPPING ARCADE, KALBADEVI ROAD MUMBAI-400002",,022-22054566/22038923,MUMBAI,GREATER MUMBAI
PSIB0000432,Punjab and Sind Bank,PSIB0000432,NON MICR,"FAZILKA, DISTRICT FEROZEPUR, PUNJAB","GAWSHALA ROAD,FAZILKA,DISTRICT FEROZEPUR, PUNJAB",,01639 250043,FAZILKA,FEROZPUR
PSIB0000433,Punjab and Sind Bank,PSIB0000433,NON MICR,HAZIRIBAGH,"51, WARD IX MAIN ROAD HAZARIBAGH-825301",,06546 222105,HAZARIBAGH,HAZARIBAGH
PSIB0000434,Punjab and Sind Bank,PSIB0000434,NON MICR,BHILAI,"5 NEW INDRA PLACE, BHILAI, DISTT. DURG., BHILAI, CHHATISGARH-490006",,0788 2356467,BHILAINAGAR,DURG
PSIB0000435,Punjab and Sind Bank,PSIB0000435,110023038,NEW DELHI ASAF ALI ROAD,"1/20 ASAF ALI ROAD, NEW DELHI -110002",,011-23237020,DELHI,NEW DELHI
PSIB0000436,Punjab and Sind Bank,PSIB0000436,NON MICR,"TRICHIRAPALLI, CHENNAI","37-A NANDI KOVIL STREET, TRICHIRAPALLI, TAMIL NADU-620002",,0431 2700306,TIRUCHIRAPPALLI,TIRUCHIRAPALLI
"PSIB0000439
",Punjab and Sind Bank,"PSIB0000439
",141023009,"JASPAL BANGAR
","V&PO JASPAL BANGER, DISTT. LUDHIANA, PUNJAB-141122",,"0161-2813015, 5093570",JASPAL BANGER,LUDHIANA
PSIB0000459,Punjab and Sind Bank,PSIB0000459,NON MICR,MUDHAL,"MUDHAL, DISTT. AMRITSAR,PUNJAB-143501",,"0183-5024989,990",MUDHAL,AMRITSAR
PSIB0000460,Punjab and Sind Bank,PSIB0000460,NON MICR,"MAJARI, NAWANSHAHR","MAJARI DISTT. NAWANSHAHR, PUNJAB -144527",,01885 238306,MAJARI,NAWANSHAHR
PSIB0000464,Punjab and Sind Bank,PSIB0000464,570023002,MYSORE,60/4 RADHA KRISHNA NILAYAM BANUMAHIA ROAD MYSORE-570001,,0821 2424593,MYSORE,MYSORE
PSIB0000466,Punjab and Sind Bank,PSIB0000466,143023005,CITY CENTRE AMRITSAR,CITY CENTRE AMRITSAR 143001,,0183 2547661,AMRITSAR,AMRITSAR
PSIB0000467,Punjab and Sind Bank,PSIB0000467,NON.MICR,VASHI,"PLOT-14, SECTOR-26A ,PALM BEACH ROAD, VASHI, NAVI MUMBAI",,24948154,MUMBAI,MUMBAI
PSIB0000468,Punjab and Sind Bank,PSIB0000468,143023002,AMRITSAR BATALA ROAD,"BATALA ROAD,  AMRITSAR,  PUNJAB - 143203",,0183-5015201-26,AMRITSAR,AMRITSAR
PSIB0000469,Punjab and Sind Bank,PSIB0000469,NON MICR,"JHEEL, PATIALA","JHILL INDUSTRIAL AREA,DISTT. PATIALA, PUNJAB-147001",,0175 2354679,PATIALA,PATIALA
PSIB0000470,Punjab and Sind Bank,PSIB0000470,NON-MICR,"MODEL TOWN, PATIALA","MODEL TOWN, PATIALA",,2200463,PATIALA,PATIALA
PSIB0000471,Punjab and Sind Bank,PSIB0000471,110023064,FARIDABAD NIT,"NEHRU GROUND, NIT FARIDABAD-121001",,0129-5415773,FARIDABAD,FARIDABAD
"PSIB0000472
",Punjab and Sind Bank,"PSIB0000472
",NON MICR,"GAYA
","K.P.ROAD, GAYA, BIHAR-823001",,0631 221461,GAYA,GAYA
PSIB0000474,Punjab and Sind Bank,PSIB0000474,400023007,MUMBBAI MASJID BUNDER,"137/139,KAZI SYEED STREET MUMBAI-400003",,022-23440060,MUMBAI,GREATER MUMBAI
PSIB0000475,Punjab and Sind Bank,PSIB0000475,144023002,JALANDHAR IBD,"OPPOSITE NEHRU GARDEN, G.T.ROAD, JALANDHAR",,0181-2224554/2226187,JALANDHAR,JALANDHAR
PSIB0000476,Punjab and Sind Bank,PSIB0000476,380023003,"REID ROAD, AHMEDABAD","P.B.NO 1091, RAILWAY PURA, REID ROAD AHMEDABAD,GUJARAT-380002",,079 2145878,AHMEDABAD,AHMEDABAD
PSIB0000477,Punjab and Sind Bank,PSIB0000477,530023001,VISAKHAPATNAM,"SURYA BAGH ,VISAKHAPATNAM",,0891-2560385,VISAKHAPATNAM,VISHAKAPATNAM
PSIB0000478,Punjab and Sind Bank,PSIB0000478,110023023,SAFDARJUNG ENCLAVE,"PLOT B COMM.COMNTY CENTRE, SAFDARJANG ENCLAVE, N.DELHI-29",,,DELHI,NEW DELHI
PSIB0000480,Punjab and Sind Bank,PSIB0000480,110023028,NEW DELHI M-14 CONNAUGHT CIRCUS,"M-14,CONNAUGHT CIRCUS, NEW DELHI-110001",,011-23414523/23416229,DELHI,NEW DELHI
PSIB0000481,Punjab and Sind Bank,PSIB0000481,575023002,MANGALORE,"185-A, PART-I, MARKET ROAD, HAMPANKATTA, MANGALORE",,2427566,MANGALORE,DAKSHIN KANNAD
PSIB0000482,Punjab and Sind Bank,PSIB0000482,110023025,FATEHPURI DELHI,"165, CORONATION HOTEL BUILDING, FATEHPURI, DELHI-110006",,011 23962721,DELHI,DELHI
"PSIB0000483
",Punjab and Sind Bank,"PSIB0000483
",208023005,"HAMIRPUR CROSSING, KANPUR
","84/105A HAMIRPUR CROSSING, P.ROAD, KANPUR-208001",,0512 2523860,KANPUR,KANPUR CITY
PSIB0000484,Punjab and Sind Bank,PSIB0000484,110023002,IBD NEW DELHI,"I. B. D.  6 SCINDIA HOUSE, CONNAUGHT CIRCUS, N. DELHI PINCODE-110001",,,DELHI,NEW DELHI
PSIB0000486,Punjab and Sind Bank,PSIB0000486,641023002,COIMBATORE,"435/434 OPPANKARA STR. COIMBATORE, TAMIL NADU,PINCODE-641001",,0422 2391628,COIMBATORE,COIMBATORE
PSIB0000487,Punjab and Sind Bank,PSIB0000487,110023056,NEW DELHI VASANT VIHAR,"D-6,SHOPPING CENTRE-II VASANT VIHAR DELHI-110029",,011-26141733/26141578,DELHI,NEW DELHI
PSIB0000489,Punjab and Sind Bank,PSIB0000489,143023004,CHOWK PARAG DASS,"CHOWK PRAGDASS,AMRITSAR-143001",,0183-2556706,AMRITSAR,AMRITSAR
PSIB0000490,Punjab and Sind Bank,PSIB0000490,NON MICR,SHAHGARH,"SHAHGARH TEH. BAHERI,  DISTT. BAREILLY, UTTAR PRADESH - 243201",,05822-222044,SHAHGARH,BAREILLY
PSIB0000491,Punjab and Sind Bank,PSIB0000491,NON-MICR,JHANSI,"JHOKAN BAGH, JHANSI",,2472063,JHANSI,JHANSI
PSIB0000492,Punjab and Sind Bank,PSIB0000492,NON MICR,"SHIVPURI, MADHYA PRADESH","MADHAV CHOWK AB ROAD, SHIVPURI, MADHYA PRADESH-473551",,07492 233369,SHIVPURI,SHIVPURI
PSIB0000494,Punjab and Sind Bank,PSIB0000494,NON MICR,DABORA SEWA,"DABORA SEWA P.O.BANDA, DISTT. SHAHJANPUR, UTTAR PRADESH-242402",,05844-293736,DABORA SEWA,SHAHJAHANPUR
PSIB0000498,Punjab and Sind Bank,PSIB0000498,400023016,THANE,"TULSI SHYAM BUILDING, TEEN HATH NAKA THANE(WEST)-400002",,,THANE,THANE
PSIB0000499,Punjab and Sind Bank,PSIB0000499,400023006,MUMBAI ANDHERI,"101,SHAHEED BHAGAT SINGH ROAD, KURLA ROAD ANDHERI(EAST) MUMBAI-400059",,022-28321437,MUMBAI,GREATER MUMBAI
PSIB0000501,Punjab and Sind Bank,PSIB0000501,700023004,"LINDSAY STREET, KOLKATA","12/1 LINDSAY STREET,KOLKATTA, WEST BENGAL-700087",,033 22520030,KOLKATA,KOLKATA
PSIB0000510,Punjab and Sind Bank,PSIB0000510,NON MICR,SARWAN,SARWAN DISTT FARIDKOT,,01635-264432,SARWAN,FARIDKOT
PSIB0000522,Punjab and Sind Bank,PSIB0000522,141023003,GURUDWARA KALGIDHAR,"GURUDWARA KALGIDHAR ROAD, LUDHIANA",,2722213,LUDHIANA,LUDHIANA
PSIB0000523,Punjab and Sind Bank,PSIB0000523,400023012,MUMBAI VIKHROLI,"FITWELL HOUSE,L.B.S. MARG VIKHROLI(WEST) MUMBAI-400083",,022-25781741,MUMBAI,GREATER MUMBAI
PSIB0000524,Punjab and Sind Bank,PSIB0000524,143023020,GURU RAM DAS SARAI,"GURU RAM DASS SARAI, AMRITSAR-143001",,0183-2557421,AMRITSAR,AMRITSAR
PSIB0000525,Punjab and Sind Bank,PSIB0000525,144023011,JALANDHAR M.G.N COLLEGE,"M.G.N COLL. OF EDUCATION,JALANDHAR",,0181-2254407,JALANDHAR,JALANDHAR
PSIB0000529,Punjab and Sind Bank,PSIB0000529,143023007,"COURT ROAD, AMRITSAR","COURT ROAD, AMRITSAR",,2565534,AMRITSAR,AMRITSAR
PSIB0000531,Punjab and Sind Bank,PSIB0000531,NON MICR,"N.K. ROAD, PATIALA, PUNJAB ","NAMDAR KHAN ROAD,PATIALA, PUNJAB-147001 ",,0175 2203503,PATIALA,PATIALA
PSIB0000532,Punjab and Sind Bank,PSIB0000532,144023009,JALANDHAR MODEL TOWN,MODEL TOWN JALANDHAR,,0181-2405363/2405583,JALANDHAR,JALANDHAR
PSIB0000534,Punjab and Sind Bank,PSIB0000534,110023043,SINGHOLA DELHI,"SINGHOLA, ALIPUR BOOCK, G.T. ROAD, DELHI-110040",,011 27781712,NEW DELHI,DELHI
PSIB0000536,Punjab and Sind Bank,PSIB0000536,110023044,BABARPUR,"BABARPUR,SHAHDARA, DELHI-110032",,011-22581997,DELHI,NEW DELHI
PSIB0000537,Punjab and Sind Bank,PSIB0000537,APPLIED,KALAKAR STREET,"3 A MADHO KESTO SETH LANE, KALAKAR STREET, WEST BANGAL",,033 22381748,KOLKATA,KOLKATA
PSIB0000538,Punjab and Sind Bank,PSIB0000538,110023066,NEW GHAZIABAD UP,"195-B, LOHIA NAGAR NEW GHAZIABAD-201009",,0120 2710610,GHAZIABAD,GHAZIABAD
PSIB0000539,Punjab and Sind Bank,PSIB0000539,141023021,LUDHIANA IBD,IBD LUDHIANA,,,LUDHIANA,LUDHIANA
PSIB0000540,Punjab and Sind Bank,PSIB0000540,110023039,OKHLA DELHI,"A-199, PHASE-I, OKHLA INDUSTRIAL AREA, DELHI-110020",,011 26810581,DELHI,DELHI
PSIB0000542,Punjab and Sind Bank,PSIB0000542,NON MICR,BVSB TARN TARAN,BHAI VIR SINGH BIRDHGHAR TARAN TARAN AMRITSAR-143401,,222889,TARN TARAN,AMRITSAR
PSIB0000543,Punjab and Sind Bank,PSIB0000543,NON MICR,BATALA GURDWARA SRI KAND SAHIB,"GURUDWARA SRI KANDH SAHIB, BATALA DISTT. GURDASPUR, PUNJAB-143505",,01871-241279,BATALA,GURDASPUR
"PSIB0000544
",Punjab and Sind Bank,"PSIB0000544
",NON MICR,"AMRITSAR FATEH GARH CHURIAN ROAD
","FATEHGARH CHURIAN ROAD,  OPP NIRANKARI COLONY, AMRITSAR, PUNJAB - 143001
",,0183-5057557-58,AMRITSAR,AMRITSAR
PSIB0000553,Punjab and Sind Bank,PSIB0000553,NON MICR,JAND SAHIB,"JAND SAHIB,DISTT, FARIDKOT, PUNJAB -152022",,01639-221039,FARIDKOT,FARIDKOT
PSIB0000561,Punjab and Sind Bank,PSIB0000561,NON MICR,BILASPUR,DAYALBAND GURDWARA SRI GURU SINGH SABHA BILASPUR-495001,,07752 228066,BILASPUR,BILASPUR
PSIB0000562,Punjab and Sind Bank,PSIB0000562,700023007,IBD KOLKATA,14/15 OLD COURT HOUSE ST. KOLKATA-700001,,22104357,KOLKATA,KOLKATA
PSIB0000564,Punjab and Sind Bank,PSIB0000564,244023102,"RAMPUR, UP","K.D. DALMIA EYE HOSPITAL, CIVIL LINES, RAMPUR, UTTAR PRADESH-244901",,0595 2351561,RAMPUR,RAMPUR
PSIB0000565,Punjab and Sind Bank,PSIB0000565,110023042,ANAND VIHAR,"C.S.C MARKET,A-BLOCK, ANAND VIHAR,  DELHI-92",,,DELHI,NEW DELHI
PSIB0000566,Punjab and Sind Bank,PSIB0000566,600023005,CHENNAI ADYAR,"36, FIRST CROSS, KASTURBA NAGAR, ADYAR, CHENNAI-600020",,044-24411508,CHENNAI,CHENNAI
PSIB0000569,Punjab and Sind Bank,PSIB0000569,400023013,"BHANDUP-WEST, MUMBAI","107 L.B.S MARG,BHANDUP,MUMBAI, MAHARASHTRA-400078",,022 25917883,MUMBAI,GREATER MUMBAI
PSIB0000572,Punjab and Sind Bank,PSIB0000572,NON MICR,KHARAGPUR,"HILDING NO.2275 A, KHARIDA MAIN ROAD, KHARAGPUR-721301",,03222-255759/2505982,KHARAGPUR,MEDINIPUR
PSIB0000573,Punjab and Sind Bank,PSIB0000573,NON MICR,SHAHJANPUR UP,"TOWN HALL ROAD,SHAHJANPUR-242001",,05842 223102,SHAHJAHANPUR,FATEHPUR
PSIB0000575,Punjab and Sind Bank,PSIB0000575,600023003,IBD CHENNAI,"SPENCER TOWER, ANNA SALAI CHENNAI -600002",,28523173,CHENNAI,CHENNAI
PSIB0000576,Punjab and Sind Bank,PSIB0000576,NON MICR,DAULATPUR NIWAN,"DAULATPUR NIWAN BLOCK MOGA, DISTT. FARIDKOT, PUNJAB-142048",,01636 277523,DAULATPUR NIWAN,MOGA
PSIB0000579,Punjab and Sind Bank,PSIB0000579,NON MICR,BHALOOR,"BHALOOR DISTT FARIDKOT, PUNJAB",,01636-247811,FARIDKOT,FARIDKOT
PSIB0000587,Punjab and Sind Bank,PSIB0000587,143023023,TUNDA TALAB AMRITSAR,"TUNDA TALAB, AMRITSAR",,0183-2554129,AMRITSAR,AMRITSAR
PSIB0000594,Punjab and Sind Bank,PSIB0000594,NON MICR,RATLAM,"9 STATION ROAD, RATLAM-457001",,230837,RATLAM,RATLAM
PSIB0000597,Punjab and Sind Bank,PSIB0000597,143023003,"AMRITSAR, BHAGTAN WALA GATE","BHAGTANWALA GATE, AMRITSAR",,0183-2521898,AMRITSAR,AMRITSAR
PSIB0000600,Punjab and Sind Bank,PSIB0000600,160023005,CHANDIGARH SECTOR 17-B,SECTOR 17-B CHANDIGARH,,0172-704082/707757,CHANDIGARH,CHANDIGARH
PSIB0000605,Punjab and Sind Bank,PSIB0000605,110023040,PASCHIM VIHAR,B-2/17 PASCHIM VIHAR,,011-25268976/25270138,DELHI,NEW DELHI
PSIB0000606,Punjab and Sind Bank,PSIB0000606,110023041,"RAJENDRA PLACE, NEW DELHI","21,BANK HOUSERAJENDRA PLACE,GROUND FLOOR NEW DELHI",,011-25711836/25822306,DELHI,NEW DELHI
PSIB0000607,Punjab and Sind Bank,PSIB0000607,302023003,JAIPUR L.B.S.COLLEGE,"L.B.S COLLEGE,JAIPUR, RAJASTHAN-302004",,0141 2624714,JAIPUR,JAIPUR
PSIB0000608,Punjab and Sind Bank,PSIB0000608,NON MICR,GURUDWARA ROAD SAHARANPUR,GURDWARA ROAD SAHARANPUR-247001,,0132 2648142,SAHARANPUR,SAHARANPUR
PSIB0000609,Punjab and Sind Bank,PSIB0000609,141023023,MTSM COLLEGE LUDHIANA,"MASTER TARA SINGH MEMORIAL COLLEGE, SUBZI MANDI, LUDHIANA-141008",,0161 2742049,LUDHIANA,LUDHIANA
PSIB0000612,Punjab and Sind Bank,PSIB0000612,110023047,SIDHARATHA ENCLAVE,"7 SIDHARATH ENCLAVE, NEW DELHI  110040",,,DELHI,NEW DELHI
PSIB0000613,Punjab and Sind Bank,PSIB0000613,144023016,JALANDHAR URBAN ESTATE,"PHASE-1 GARHA ROAD,URBAN ESTATE, JALANDHAR",,0181-2481946/2480564,JALANDHAR,JALANDHAR
PSIB0000615,Punjab and Sind Bank,PSIB0000615,NON MICR,"BATHINDA I T I , PUNJAB","BATHINDA, I T I, BHATINDA, PUNJAB PIN 151001",,0164 2212516,BATHINDA,BATHINDA
PSIB0000618,Punjab and Sind Bank,PSIB0000618,143023021,AMRITSAR SULTANWIND ROAD,"SULTANWIND ROAD, AMRITSAR",,0183-2583306,AMRITSAR,AMRITSAR
PSIB0000619,Punjab and Sind Bank,PSIB0000619,160023014,CHANDIGARH SECTOR 15-D,"SECTOR 15 D, CHANDIGARH-160015",,0172 772429,CHANDIGARH,CHANDIGARH
PSIB0000620,Punjab and Sind Bank,PSIB0000620,700023015,"SALT LAKE, KOLKATA","B J - 111, SECTOR - II, SALT LAKE AREA,KOLKATTA-7000069",,033 22485990,KOLKATA,KOLKATA
PSIB0000621,Punjab and Sind Bank,PSIB0000621,250023003,DELHI RD MEERUT,"144, DELHI ROAD,MEERUT, UTTAR PRADESH-250002",,0121-2529597,MEERUT,MEERUT
PSIB0000622,Punjab and Sind Bank,PSIB0000622,208023008,GADARIAPURWA KANPUR,"PRATAP GANJ, GADARIAN PURWA, KANPUR, UTTAR PRADESH-208001",,0512-2221517,KANPUR,KANPUR CITY
PSIB0000623,Punjab and Sind Bank,PSIB0000623,110023049,"KIRTI NAGAR, NEW DELHI","KIRTI NAGAR, NEW DELHI-110015",,011-25411436,DELHI,DELHI
PSIB0000624,Punjab and Sind Bank,PSIB0000624,208023007,"HARJINDER NAGAR, KANPUR","HARJINDER NAGAR, KANPUR, UTTAR PRADESH-208012",,0512 2401249,KANPUR,KANPUR CITY
PSIB0000625,Punjab and Sind Bank,PSIB0000625,700023010,CHOWRINGHEE  KOLKATA,"59 B CHOWARANGEE ROAD, KOLKATA - 700020",,22471946,KOLKATA,KOLKATA
PSIB0000626,Punjab and Sind Bank,PSIB0000626,110023048,"GEETA COLONY, DELHI",OLD GEETA COLONY DELHI,,011-22549145,DELHI,DELHI
PSIB0000627,Punjab and Sind Bank,PSIB0000627,NON MICR,BHIWANI,"HANSI ROAD, NEAR SHAKUNTLA PALACE, BHIWANI,HARYANA PIN-125021",,01664 242331,BHIWANI,BHIWANI
PSIB0000629,Punjab and Sind Bank,PSIB0000629,700023011,"TANGRA ROAD, KOLKATA","5/4 NEW TANGRA ROAD,KOLKATTA-7000046",,033 23293041,KOLKATA,KOLKATA
PSIB0000631,Punjab and Sind Bank,PSIB0000631,400023014,"IBD, MUMBAI","DILWARA SOCIETY,8-M.K.ROAD, NARIMAN POINT MUMBAI",,022-22043187/22046151,MUMBAI,GREATER MUMBAI
PSIB0000641,Punjab and Sind Bank,PSIB0000641,NON MICR,NAINITAL,"UNITAL NIKETAN MALL ROAD, NAINITAL",,05942-235190,NAINITAL,NAINITAL
PSIB0000642,Punjab and Sind Bank,PSIB0000642,NON MICR,"KORBA, DISTT. KORBA, CHHATISGARH","KORBA, DISTT. KORBA, CHHATISGARH",,07759 245022,KORBA,KORBA
PSIB0000643,Punjab and Sind Bank,PSIB0000643,NON MICR,"DABRA, DISTT GWALIOR","SUBHASH GANJ, DABRA , DISTT. GWALIOR, MADHYA PRADESH-475110",,07524 222603,DABRA,GWALIOR
PSIB0000645,Punjab and Sind Bank,PSIB0000645,NON MICR,HOSHIARPUR NEW GRAIN MARKET,"NEW GRAIN MARKET, HOSHIARPUR, PUNJAB-146001",,01882-500122,HOSHIARPUR,HOSHIARPUR
PSIB0000646,Punjab and Sind Bank,PSIB0000646,400023017,WORLI,"JAYANT PALEKAR ROAD, WORLI , MUMBAI",,24927489,MUMBAI,MUMBAI
PSIB0000647,Punjab and Sind Bank,PSIB0000647,400023018,MUMBAI BORIVILI,"MOHAR APARTMENT, BORIVILI ,MUMBAI",,022-28336095,MUMBAI,GREATER MUMBAI
PSIB0000653,Punjab and Sind Bank,PSIB0000653,NON MICR,RAJBAHA ROAD PATIALA,RAJBAHA ROAD PATIALA-147001,,0175-2200063,PATIALA,PATIALA
PSIB0000655,Punjab and Sind Bank,PSIB0000655,110023068,RANJIT NAGAR NEW DELHI,"A 7/8/9 SAMRAT BHAWAN, COMMERCIAL COMPLEX, BEHIND SATYAM CINEMA, NEW DELHI-110008",,011-25709448,DELHI,DELHI
PSIB0000659,Punjab and Sind Bank,PSIB0000659,NON MICR,"SHIVAJI NAGAR, SANGLI","SANGLI, MAHARASHTRA-416416",,0233 2376350,SANGLI-MIRAJ-KUPWAD,SANGLI
PSIB0000668,Punjab and Sind Bank,PSIB0000668,NON MICR,PANAJI GOA,"ACQUARIUS APARTMENT, SWAMI VIVEKANAND MARG, PANAJI, GOA-403001",,0832 2432201,PANAJI,NORTH GOA
PSIB0000669,Punjab and Sind Bank,PSIB0000669,700023012,"BANSDRONI, KOLKATA","235/3/1, NSC BOSE ROAD, BANSDRAUNI, KOLKATTA, WEST BENGAL - 700047",,033 24710725,KOLKATA,KOLKATA
PSIB0000675,Punjab and Sind Bank,PSIB0000675,NON MICR,"DEULAH LAND, MANIPUR","STADIUM ROAD, DEULAH LAND,IMPHAL,MANIPUR-795001",,0385-320205,IMPHAL,IMPHAL
PSIB0000679,Punjab and Sind Bank,PSIB0000679,141023007,HAIBOWAL KALAN LUDHIANA,HAIBOWAL KALAN DISTT. LUDHIANA,,0161-2470456,LUDHIANA,LUDHIANA
PSIB0000680,Punjab and Sind Bank,PSIB0000680,141023011,"KITCHLU NAGAR, LUDHIANA","KITCHLU NAGAR, LUDHIANA-141001",,0161 2667269,LUDHIANA,LUDHIANA
PSIB0000681,Punjab and Sind Bank,PSIB0000681,141023014,"LUDHIANA MOTI NAGAR
","MOTI NAGAR, LUDHAINA, PUNJAB-141009",,"0161-2227269, 5068031/32",LUDHIANA,LUDHIANA
PSIB0000682,Punjab and Sind Bank,PSIB0000682,141023015,LUDHIANA NEW JANTA NAGAR,"NEW JANTA NAGAR LUDHIANA, PUNJAB-141003",,0161 2490403,LUDHIANA,LUDHIANA
PSIB0000683,Punjab and Sind Bank,PSIB0000683,141023008,LUDHIANA IFB,"DHOLEWAL CHOWK , LUDHIANA",,0161-2530858,LUDHIANA,LUDHIANA
PSIB0000684,Punjab and Sind Bank,PSIB0000684,160023011,CHANDIGARH SECTOR 46,S.C.O. 76 SECTOR - 46 C CHANDIGARH-160047,,0172-609597,CHANDIGARH,CHANDIGARH
PSIB0000685,Punjab and Sind Bank,PSIB0000685,143023024,AMRITSAR INDUSTRIAL FINANCE BRANCH,"CHOWK PHAWARA, HALL BAZAR, AMRITSAR",,0183-2556673/2545706,AMRITSAR,AMRITSAR
PSIB0000688,Punjab and Sind Bank,PSIB0000688,NON MICR,"BIKANER, RAJASTHAN","NATHUSAR GATE, BIKANER, RAJASTHAN-334001",,0151-2523068,BIKANER,BIKANER
PSIB0000689,Punjab and Sind Bank,PSIB0000689,160023002,INDUSTRIAL FINANCE BRANCH,"BANK SQUARE,SECTOR-17B,CHANDIGARH-160017",,"0172-715092,700776",CHANDIGARH,CHANDIGARH
PSIB0000690,Punjab and Sind Bank,PSIB0000690,110023076,BIKRIKAR BHAWAN NEW DELHI,BIKRIKAR BHAWAN NEW DELHI,,011-23352007,DELHI,NEW DELHI
PSIB0000691,Punjab and Sind Bank,PSIB0000691,NON MICR,TIRUPUR I B D,"IBD, OLD NO 36/ NEW NO 118,KAMACHI AMMAN KOIL STREET,BEHIND OLD BUS STAND, TIRUPUR,TAMIL NADU-641604",,0421-2243409/2249221,TIRUPUR,COIMBATORE
PSIB0000692,Punjab and Sind Bank,PSIB0000692,141023010,KHALSA COLLEGE LUDHIANA,"KHALSA COLLEGE FOR WOMEN, CIVIL LINES, LUDHIANA-141001",,0161 2408523,LUDHIANA,LUDHIANA
PSIB0000693,Punjab and Sind Bank,PSIB0000693,143023022,S SUKHA SINGH SCHOOL AMRITSAR,"SANT SUKHA SINGH,SR. SEC. SCHOOL,THE MALL,AMRITSAR-143001",,0183-2223128,AMRITSAR,AMRITSAR
PSIB0000695,Punjab and Sind Bank,PSIB0000695,143023034,RANJIT AVENUE AMRITSAR,RANJIT AVENUE AMRITSAR,,1815012214,AMRITSAR,AMRITSAR
PSIB0000697,Punjab and Sind Bank,PSIB0000697,144023019,SSI JALANDHAR,"S-146, INDUSTRIAL AREA JALANDHAR-144004",,,JALANDHAR,JALANDHAR
"PSIB0000698
",Punjab and Sind Bank,"PSIB0000698
",NON MICR,SHAHKOT,"VILL & POST OFFICE SHAHKOT, PUNJAB
",,"1821-509675,260966",SHAHKOT,JALANDHAR
PSIB0000699,Punjab and Sind Bank,PSIB0000699,141023026,SSI LUDHIANA,"S.S.I BRANCH , IND. AREA, LUDHIANA, PUNJAB-141001",,"0161-2607628,2224989,5068064/65",LUDHIANA,LUDHIANA
PSIB0000701,Punjab and Sind Bank,PSIB0000701,110023079,CHIKAMBERPUR,"CHIKAMBERPUR, YUVRAJ COMPLEX, DELHI U.P. BORDER,CHIKAMBERPUR-201006",,0120-2622950,NOIDA,GAUTAM BUDDHA NAGAR
PSIB0000702,Punjab and Sind Bank,PSIB0000702,144023020,JALANDHAR NEW SABZI MANDI,NEW SABZI MANDI JALANDHAR,,0181-2256506,JALANDHAR,JALANDHAR
PSIB0000703,Punjab and Sind Bank,PSIB0000703,NON MICR,LALRU (SSI),"CHANDIGARH ROAD, LALRU, TEHSIL DERA BASSI, DISTRICT PATIALA, PUNJAB-140501",,0171 2779171,LALRU,PATIALA
PSIB0000704,Punjab and Sind Bank,PSIB0000704,110023084,"LONI BORDER, GHAZIABAD, UP","LAKSHMI GARDENS,LONI BORDER, DISTT.GHAZIABAD, UP",,0120 2602093,LONI,GHAZIABAD
PSIB0000708,Punjab and Sind Bank,PSIB0000708,282023005,IBD AGRA,SANJAY PALACE AGRA,,2121430,AGRA,AGRA
PSIB0000709,Punjab and Sind Bank,PSIB0000709,NON MICR,MANALI,"MANALI, MODEL TOWN, MANALI DISTRICT KULU, HIMACHAL PRADESH-175001",,01902-254111,MANALI,KULU
PSIB0000710,Punjab and Sind Bank,PSIB0000710,160023016,"SECTOR.9, CHANDIGARH","C.D.A. BUILDING, SECTOR-9, CHANDIGARH-160009",,0172 743504,CHANDIGARH,CHANDIGARH
PSIB0000711,Punjab and Sind Bank,PSIB0000711,160023017,CHANDIGARH SECTOR 36,"GURU NANAK PUBLIC SCHOOL SECTOR 36, CHANDIGARH-160036",,0172-600098/623481,CHANDIGARH,CHANDIGARH
PSIB0000712,Punjab and Sind Bank,PSIB0000712,141023018,LUDHIANA BABA ISHAR SINGH SCHOOL,"I.S.(NANAKSAR) P. SCHOOL,BHAI RANDHIR SINGH NAGAR,LUDHIANA, PUNJAB-141001",,0161 2450568,LUDHIANA,LUDHIANA
PSIB0000713,Punjab and Sind Bank,PSIB0000713,143023028,DURGIANA MANDIR,DURGIANNA MANDIR AMRITSAR,,0183-2554255,AMRITSAR,AMRITSAR
PSIB0000714,Punjab and Sind Bank,PSIB0000714,144023021,JALANDHAR DEFENCE COLONY (LAYALPUR KHALSA COLLEGE) PUNJAB,"109-110 DEFENCE COLONY, JALANDHAR, PUNJAB-144001",,0181-5021373,JALANDHAR,JALANDHAR
PSIB0000715,Punjab and Sind Bank,PSIB0000715,NON MICR,"MOGA KHALSA GIRLS HR.SEC.SCHOOL
","KHALSA GIRLS HR.SEC.SCHOOL, MOGA PUNJAB-142001",,01636 222421,MOGA,MOGA
PSIB0000716,Punjab and Sind Bank,PSIB0000716,110023110,NEW DELHI LOCKER BR. JANAKPURI,"B-22, JANAK PURI  NEW DELHI
",,011-25521270,DELHI,DELHI
PSIB0000717,Punjab and Sind Bank,PSIB0000717,110023080,IFB NEW DELHI,"B-45/47,CONNAUGHT PLACE NEW DELHI-110001",,011-23326140/23350978,DELHI,NEW DELHI
"PSIB0000720
",Punjab and Sind Bank,"PSIB0000720
",NON MICR,LUDHIANA AGRI. HI TECH BRANCH,"AGRI-HI-TECH BRANCH, OPP. MILK PLANT, FEROZEPUR ROAD, LUDHIANA, PUNJAB",,"0161-2454614,5068092",LUDHIANA,LUDHIANA
PSIB0000721,Punjab and Sind Bank,PSIB0000721,143023029,AMRITSAR GURU RAM DAS MED.CENTRE,"SRI GURU RAM DASS HOSPITAL, AMRITSAR",,0183-2555915,AMRITSAR,AMRITSAR
PSIB0000722,Punjab and Sind Bank,PSIB0000722,110023081,DWARKA,SECTOR 6 DWARKA NEW DELHI -110045,,25080738,DELHI,DELHI
PSIB0000726,Punjab and Sind Bank,PSIB0000726,243023003,BAREILLY MODEL TOWN,21 A MODEL TOWN BAREILLY-243122,,0581-2533688,BAREILLY,BAREILLY
PSIB0000727,Punjab and Sind Bank,PSIB0000727,NON MICR,KANPUR SUNDER NAGAR (GNGD COLLEGE),"GURU NANAK GIRLS DEGREE COLLEGE SUNDER NAGAR,KANPUR, UTTAR PRADESH-208012",,0512 2217953,KANPUR,KANPUR CITY
PSIB0000728,Punjab and Sind Bank,PSIB0000728,211023003,"G.T.B.K. COLLEGE,KHULDAPUR,ALLAHABAD","GURU TEGH BAHADUR KHALSA GIRLS INTER COLLEGE,ALLAHABAD, UTTAR PRADESH-211003",,0532-2656099,ALLAHABAD,ALLAHABAD
PSIB0000730,Punjab and Sind Bank,PSIB0000730,NON MICR,JAMMU DIGIANA,"SRI SANT MELA SINGH TECHNICAL ASHRAM, DIGIANA JAMMU, JAMMU & KASHMIR-180001",,0191 2451405,DIGIANA,JAMMU
PSIB0000731,Punjab and Sind Bank,PSIB0000731,180023004,"NANAK NAGAR, JAMMU","SEC-1, NEAR GURUDWARA BUILDING,NANAK NAGAR,JAMMU",,2450993,JAMMU,JAMMU
PSIB0000733,Punjab and Sind Bank,PSIB0000733,110023089,NOIDA (SECTOR - 24),"A-10/A F.D.D.I.COMPLEX,SECTOR-24, NOIDA GAUTAM BUDH NAGAR-201301",,0120-2411337,NOIDA,GAUTAM BUDDHA NAGAR
PSIB0000734,Punjab and Sind Bank,PSIB0000734,452023003,NAND NAGAR INDORE,"GURU TEG BAHADUR TRUST,NAND NAGAR, INDORE -452006",,0731-2557010,INDORE,INDORE
PSIB0000735,Punjab and Sind Bank,PSIB0000735,160023018,SECTOR 16 PANCHKULA,"S.C.O.-251 SECTOR-16, PANCHKULA",,0172 572586,PANCHKULA,PANCHKULA
PSIB0000739,Punjab and Sind Bank,PSIB0000739,160023019,SCO-35 SECTOR 41 D CHANDIGARH,"SCO-41, SECTOR 41 CHANDIGARH-160036",,0172-628459,CHANDIGARH,CHANDIGARH
PSIB0000741,Punjab and Sind Bank,PSIB0000741,141023027,LUDHIANA SPL PERSONAL BANKING BRANCH,"88, GREEN FIELG, PAKHOWAL ROAD, LUDHIANA,PUNJAB-141002",,0161 2412251,LUDHIANA,LUDHIANA
PSIB0000742,Punjab and Sind Bank,PSIB0000742,462023004,SPL. PERSONAL BANKING BR. BHOPAL,"90, ZONE II, M.P. NAGAR,BHOPAL",,,BHOPAL,BHOPAL
PSIB0000743,Punjab and Sind Bank,PSIB0000743,144023022,LAMBRA,"SHAHEED BABA KHUSHAL SINGH SR. SEC SCHOOL, LAMBRA, JALANDHAR, PUNJAB-144026",,0181-2791183,LAMBRA,JALANDHAR
PSIB0000745,Punjab and Sind Bank,PSIB0000745,NON MICR,"LAKHINDER, DISTT HOSHIARPUR, PUNJAB","G.G.KHALSA S.S.SCHOOL, LAKHINDER, DISTT HOSHIARPUR, PUNJAB",,01886 245176,HOSHIARPUR,HOSHIARPUR
PSIB0000746,Punjab and Sind Bank,PSIB0000746,160023028,MOHALI PHASE 10 CHANDIGARH,"PHASE-10, MOHALI 160017",,0172-214296,CHANDIGARH,CHANDIGARH
PSIB0000747,Punjab and Sind Bank,PSIB0000747,NON MICR,KARNAL GURU TEG BAHADUR PUBLIC SCHOOL,"G. T. B. PUBLIC SCHOOL,  MODEL TOWN, KARNAL, HARYANA- 132001",,0184 2266547,KARNAL,KARNAL
PSIB0000748,Punjab and Sind Bank,PSIB0000748,160023029,"CHANDIGARH, SECTOR 42","S.C.O. 43, SECTOR-42C, CHANDIGARH-160036",,0172 602890,CHANDIGARH,CHANDIGARH
PSIB0000749,Punjab and Sind Bank,PSIB0000749,110023086,GHAZIABAD S.D.COLLEGE,"S.D. COLLEGE, G.T. ROAD, GHAZIABAD-201009",,0120-2731350,GHAZIABAD,GHAZIABAD
PSIB0000751,Punjab and Sind Bank,PSIB0000751,NON MICR,AMBALA CITY PURANI ANAZ MANDI (GURD MANJI),"PURANI ANAZ MANDI, OPP: GURUDWARA SINGH SABHA, AMBALA CITY, HARYANA-133404",,0171 2442554,AMBALA,AMBALA
PSIB0000753,Punjab and Sind Bank,PSIB0000753,NON MICR,"LOHIA KHAS, JANTA MARKET","MANAGING COMMITTEE JANTA MARKET, LOHIAN KHAS, DIST. KAPURTHALA, PUNJAB-144629",,0182-1276241,LOHIAN KHAS,JALANDHAR
PSIB0000754,Punjab and Sind Bank,PSIB0000754,141023028,G.G.S.STUDY CIRCLE LUDHIANA,G.G.S.STUDY CIRCLE MODEL TOWN EXTN. LUDHIANA 14100,,0161-2455535,LUDHIANA,LUDHIANA
PSIB0000755,Punjab and Sind Bank,PSIB0000755,110023083,DELHI ADHARSHILA VIDYAPEETH PITAM,"ADHARSHILA VIDYA PEETH CD BLOCK,PITAMPURA,DELHI-110088",,011-27313366,DELHI,NEW DELHI
PSIB0000756,Punjab and Sind Bank,PSIB0000756,NON MICR,MUZAFFAR NAGAR (SANATAN DHARAM COLLEGE),"SANATAN DHARAM COLLEGE, MUZZAFFARNAGAR, UTTAR PRADESH - 251002",,0131 2609330,MUZAFFARNAGAR,MUZAFFARNAGAR
PSIB0000757,Punjab and Sind Bank,PSIB0000757,781023003,"RAJGARH ROAD, GUWAHATI","RAJGARH ROAD, OPP. MANIPUR BHAWAN GUWAHATI, ASSAM-781003",,0361 2523755,GUWAHATI,KAMRUP METROPOLITAN
PSIB0000758,Punjab and Sind Bank,PSIB0000758,160023030,"CHANDIGARH, SCO 272 SECTOR - 32","SCO 272 SECTOR - 32, CHANDIGARH-160030",,0172 601538,CHANDIGARH,CHANDIGARH
PSIB0000759,Punjab and Sind Bank,PSIB0000759,110023032,SHALIMAR BAGH,SPL. PERS. BANK. BR. SHALIMAR BAGH,,011-27472921,DELHI,NEW DELHI
PSIB0000761,Punjab and Sind Bank,PSIB0000761,NON MICR,DUNLOP BRIDGE KOLKATA,"KHALSA MODEL SENIOR SEC.SCHOOL, 135, G.T. ROAD DUNLOP BRIDGE KOLKATA-700108",,033 25571584,KOLKATA,KOLKATA
PSIB0000762,Punjab and Sind Bank,PSIB0000762,110023052,GOLE MARKET NEW DELHI,BHAI VEER SING SAHITYA SADAN GOLE MARKET DELHI,,011-23361814,DELHI,DELHI
PSIB0000763,Punjab and Sind Bank,PSIB0000763,NON MICR,"JAMSHADPUR KARIMIA TRUST, SAKCHI","KARIMIA TRUST, KARIMIA MENTION, SAKCHI JAMSHADPUR, JHARKHAND-831001",,0657-2434569,JAMSHEDPUR,PURBI SINGHBHUM
PSIB0000764,Punjab and Sind Bank,PSIB0000764,144023023,JALANDHAR GTBN,"GURU TEG BAHADUR NAGAR, JALANDHAR",,0181-,JALANDHAR,JALANDHAR
PSIB0000769,Punjab and Sind Bank,PSIB0000769,NON MICR,JODHPUR SOJATI GATE GURDWARA S.G.S.S.,"GURDWARA SRI GURU SINGH SABHA, SOJTI GATE, NEAR ANAND CINAMA, JODHPUR, RAJASTHAN- 342003",,0291 2638125,JODHPUR,JODHPUR
PSIB0000773,Punjab and Sind Bank,PSIB0000773,NON MICR,GURUDWARA SAHIB SANGAT,"GURUDWARA SAHIB SANGAT, CIVIL STATION, BATHINDA, PUNJAB-151001",,0120-2411337,BATHINDA,BATHINDA
PSIB0000774,Punjab and Sind Bank,PSIB0000774,110023094,"GURU SINGH SABHA,LAJPAT NAGAR, DELHI ","SRI GURU SINGH SABHA S.SCHOOL,LAJPAT NAGAR,NEW DELHI-110024",,011-29812117,DELHI,DELHI
PSIB0000775,Punjab and Sind Bank,PSIB0000775,110023103,SAHIBABAD KRISHI UPAJ MANDI SAMITI,"KRISHI UTPADAN MANDI, IND.AREA, SAHIBABAD,UTTAR PRADESH-201010",,0120 2772581,SAHIBABAD,GHAZIABAD
PSIB0000776,Punjab and Sind Bank,PSIB0000776,226023008,LDA COLONY LUCKNOW,"ST.ANN'S DAY SCHOOL SECTOR F L.D.A COLONY, KANPUR ROAD LUCKNOW",,0522-2431419,LUCKNOW,LUCKNOW
PSIB0000778,Punjab and Sind Bank,PSIB0000778,226023007,"PIONEER MONTESSORI SCHOOL,VIKAS NAGAR, LUCKNOW","PIONEER MONTESSORY SCHOOL, VIKAS NAGAR, LUCKNOW,UTTAR PRADESH-226004",,0522-2769105,LUCKNOW,LUCKNOW
PSIB0000779,Punjab and Sind Bank,PSIB0000779,226023006,"RAJA JI PURAM,LUCKNOW","SRI. DASHMESH GURU SINGH SABHA RAJAJI, PURAM, LUCKNOW,UTTAR PRADESH-226004",,0522-2411250,LUCKNOW,LUCKNOW
PSIB0000782,Punjab and Sind Bank,PSIB0000782,800023004,PATNA CENTRAL SCHOOL,"PATNA CENTRAL SCHOOL, SUDARSHAN VIHAR, JANGPURA, PATNA,BIHAR-800020",,0612-2380039,PATNA,PATNA
PSIB0000783,Punjab and Sind Bank,PSIB0000783,110023070,JYOTI COLONY SHAHDARA NEW DELHI,"GURUHARKRISHAN PUBLIC SCHOOL,LONI ROAD,SHAHDARA,DELHI-110032",,011-22596122,DELHI,DELHI
PSIB0000784,Punjab and Sind Bank,PSIB0000784,110023053,MATA SUNDRI COLLEGE FOR WOMEN NEW DELHI,"MATA SUNDRI COLLEGE FOR WOMEN, NEW DELHI-110001",,011 23236817,DELHI,DELHI
PSIB0000787,Punjab and Sind Bank,PSIB0000787,NON MICR,"PANIPAT, GURU NANAK PUBLIC SCHOOL","GURU NANAK PUBLIC SCHOOL, SANAULI ROAD, PANIPAT,HARYANA-132104",,01742 639263,PANIPAT,PANIPAT
PSIB0000788,Punjab and Sind Bank,PSIB0000788,753023003,DAV PUBLIC SCH CUTTACK,"CUTTACK DAV PUBLIC SCHOOL SECTOR 6, ORISSA-753014",,0671-2505779,CUTTACK,CUTTACK
PSIB0000789,Punjab and Sind Bank,PSIB0000789,751023002,"BIJU PATNAIK COLLEGE , BHUBNESHWAR","BIJU PATNAIK COLLEGE OF SCIENCE & EDUCATION, BHUBNESWAR, ORISSA-751015",,0674 2557979,BHUBANESWAR,KHURDA
PSIB0000790,Punjab and Sind Bank,PSIB0000790,226023007,"LUCKNOW PIONER M. I. COLLEGE, RAKABGANJ","PIONEER MONTESSORI SCHOOL, INDRANI NAGAR, KUNDRI RAKABGANJ, LUCKNOW, UTTAR PRADESH-226004",,0522-2240175,LUCKNOW,LUCKNOW
PSIB0000791,Punjab and Sind Bank,PSIB0000791,208023010,KANPUR SAROJNI NAGAR (KATARIA COMPLEX),"122 / 207 SAROJNI NAGAR, KABARI MARKET, KANPUR, UTTAR PRADESH - 208012",,0512-2231112,KANPUR,KANPUR CITY
PSIB0000794,Punjab and Sind Bank,PSIB0000794,NON MICR,"JAGADHARI, SARSWATI VIDYA MANDIR","JAGADHARI, SARSWATI VIDYA MANDIR, HARYANA-135003",,01732 246022,JAGADHRI,YAMUNANAGAR
PSIB0000795,Punjab and Sind Bank,PSIB0000795,NON MICR,"RANCHI, RATU ROAD","GURU NANAK BAL MANDIR, SRI KRISHNA COLONY, RATU ROAD, RANCHI, JHARKHAND-834005",,0651 2282373,RATU,RANCHI
PSIB0000796,Punjab and Sind Bank,PSIB0000796,NON MICR,NAVALUR,"NAVALUR,1/334, A.S.K. TOWER, RAJIV GANDHI SALAI (OMR),NAVALUR, TAMIL NADU-603103",,044-27475499,CHENNAI,CHENNAI
PSIB0000797,Punjab and Sind Bank,PSIB0000797,160023026,MOHALI PUNJAB SCHOOL EDU.BOARD PH,"PUNJAB SCHOOL EDUCATION BOARD PHASE-8, MOHALI - 160062",,"0172-214095,228667",CHANDIGARH,CHANDIGARH
PSIB0000799,Punjab and Sind Bank,PSIB0000799,160023025,PHASE II MOHALI,SCO 32 PHASE 2 MOHALI,,0172-698472,SAS NAGAR(MOHALI),RUPNAGAR
"PSIB0000800
",Punjab and Sind Bank,"PSIB0000800
",160023027,"SOHANA
","GURU HARIKISHAN EYE HOSPITAL, SOHANA, DISTRICT ROPAR, PUNJAB-140001",,0160-5001671,SOHANA,RUPNAGAR
PSIB0000801,Punjab and Sind Bank,PSIB0000801,160023021,"CHANDIGARH ST. NAMDEV PUB. SCHOOL, SEC 21","ST. NAMDEV PUB. SCHOOL, SEC 21, CHANDIGARH-160019",,0172 721107,CHANDIGARH,CHANDIGARH
PSIB0000802,Punjab and Sind Bank,PSIB0000802,226023005,INDIRA NAGAR,"14/1 SAGAR DEEP BUILDING, INDIRA NAGAR, LUCKNOW, UTTAR PRADESH - 226016",,0522-2711410,LUCKNOW,LUCKNOW
PSIB0000805,Punjab and Sind Bank,PSIB0000805,143023033,"AMRITSAR, BASANT AVENUE","GURU HARKRISHAN PUBLIC SCHOOL, BASANT AVENUE, AMRITSAR, PUNJAB-143001",,0183-5025506,AMRITSAR,AMRITSAR
PSIB0000806,Punjab and Sind Bank,PSIB0000806,110023093,"KHALSA SS SCHOOL, LAJPAT NAGAR,DELHI  ","KHALSA SR. SEC SCHOOL,AMAR COLONY, LAZPAT NAGAR,NEW DELHI-110024",,011-26218662,DELHI,DELHI
"PSIB0000807
",Punjab and Sind Bank,"PSIB0000807
",221023003,"VARANASI GURUDWARA GURU BAGH LUKSAR
","GURUDWARA GURU BAGH LUKSAR, VARANSI, UTTAR PRADESH-221001",,0542-2404851,VARANASI,VARANASI
PSIB0000808,Punjab and Sind Bank,PSIB0000808,211023251,ALLHABAD ARYA KANYA DEGREE COLLEGE,"ARYA KANYA DEGREE COLLEGE, ALLAHABAD, UTTAR PRADESH-211003",,0532-2414423,ALLAHABAD,ALLAHABAD
PSIB0000809,Punjab and Sind Bank,PSIB0000809,NON MICR,DASHMESH NAGAR(DAKOHA BABA BUDHA SAHIB),"OPP. J.D.PUBLIC SCHOOL DHILWAN ROAD, JALANDHAR, PUNJAB-144005",,0181-2261437,JALANDHAR,JALANDHAR
PSIB0000810,Punjab and Sind Bank,PSIB0000810,143023020,"AMRITSAR, SGRD DENTAL COLLEGE, MALL MANDI ROAD","BASANT AVENUE,AMRITSAR,PUNJAB",,0183-5025514,AMRITSAR,AMRITSAR
PSIB0000811,Punjab and Sind Bank,PSIB0000811,143023031,"AMRITSAR, HINDU SABHA HIGHER SECONDARY SCHOOL","HINDU SABHA SENIOR SECONDARY SCHOOL, DHAB KHATIKAN, AMRITSAR, PUNJAB - 143001",,0183-5057548,AMRITSAR,AMRITSAR
"PSIB0000812
",Punjab and Sind Bank,"PSIB0000812
",NON MICR,"JALANDHAR, DR. S.P.KHOSLA CHERITABLE HO","DR. S.P.KHOSLA CHERITABLE MEMORIAL TRUST/ HOSPITAL,  SHAHID UDHAM SINGH NAGAR, JALANDHAR, PUNJAB-144001",,0181-5021353,JALANDHAR,JALANDHAR
PSIB0000813,Punjab and Sind Bank,PSIB0000813,248023013,DEHRADUN RACE COURSE ROAD,"GURUDWARA SINGH SABHA, RACE COURSE,DEHRADUN, UTTARAKHAND-248001",,0135-2621694,DEHRADUN,DEHRA DUN
PSIB0000819,Punjab and Sind Bank,PSIB0000819,NON MICR,DOON PUBLIC SCHOOL  DHANBAD,DOON PUBLIC SCHOOL DHANBAD,0326-2230019,DHANBAD,DHANBAD,JHARKHAND
PSIB0000824,Punjab and Sind Bank,PSIB0000824,141023031,LUDHIANA GURU NANAK PUBLIC SCHOOL,"GURU NANAK PUBLIC SCHOOL, SARABHA NAGAR, LUDHIANA,PUNJAB - 141001",,"0161-2458992, 5007737",SARABHA,LUDHIANA
PSIB0000825,Punjab and Sind Bank,PSIB0000825,141023003,LUDHIANA GGN KHALASA COLLEGE,"GUJRANWALA GURU NANAK KHALSA COLLEGE, CIVIL LINE, LUDHIANA, PUNJAB - 141001",,"0161-2407594, 5068043/44",LUDHIANA,LUDHIANA
PSIB0000826,Punjab and Sind Bank,PSIB0000826,141023029,G.H.PUBLIC SCHOOL LUDHIANA,G.H.PUBLIC SCHOOL DUGRI ROAD LUDHIANA,,0161-2499088,LUDHIANA,LUDHIANA
PSIB0000832,Punjab and Sind Bank,PSIB0000832,NON-MICR,"MAMOON CANTT., PATHANKOT","MAMOON CANTT., PATHANKOT, GURDASPUR",,230135,PATHANKOT,GURDASPUR
PSIB0000834,Punjab and Sind Bank,PSIB0000834,NON MICR,GURU AMARDAS CHARITABLE HOSPITAL,"GURU AMARDAS CHARITABLE HOSPITAL , BAREILLY",,0581-2302622,BAREILLY,BAREILLY
PSIB0000839,Punjab and Sind Bank,PSIB0000839,NON MICR,MOGA GURU NANAK COLLEGE,"GURU NANAK COLLEGE,MOGA,PUNJAB-142001",,01636-225854,MOGA,MOGA
PSIB0000842,Punjab and Sind Bank,PSIB0000842,NON MICR,FIROZEPUR BHAGHI HOSPITAL,"DR.ANIL BAGH MEMORIAL HOSPITAL, FIROZEPUR,PUNJAB-152002",,01632 222945,FIROZPUR,FEROZPUR
PSIB0000844,Punjab and Sind Bank,PSIB0000844,110023050,DEV NAGAR DELHI,"SGTB KHALSA COLLEGE, DEV NAGAR, NEW DELHI-110005",,011 25726224,DELHI,DELHI
PSIB0000845,Punjab and Sind Bank,PSIB0000845,110023072,"GURU HARKISHAN NAGAR, DELHI","S.S.MOTA SINGH SCHOOL,GURU HARKISHAN NAGAR,NEW DELHI-110087",,011-25224437,DELHI,DELHI
PSIB0000846,Punjab and Sind Bank,PSIB0000846,700023018,"BIRATI MAHAJATI VIDYA MANDIR, KOLKATA","BIRATI MAHAJATI VIDYA MANDIR, KOLKATTA, WEST BENGAL-700051",,033 25126477,KOLKATA,KOLKATA
PSIB0000847,Punjab and Sind Bank,PSIB0000847,NON MICR,SHAHGANJ GURUDWARA PUNJABI SANGAT,"GURUDWARA PUNJABI SANGAT, SHAHGANJ, DISTT. HOOGLY, WEST BENGAL-712104",,033-26344951,SAHAGANJ,HUGLI
PSIB0000854,Punjab and Sind Bank,PSIB0000854,781023004,RAJDHANI COLLEGE GUWAHATI,RAJDHANI COLLEGE BELTOLA ROAD GUWAHATI-781028,,0361 2228156,GUWAHATI,KAMRUP
PSIB0000855,Punjab and Sind Bank,PSIB0000855,NON MICR,"SAINIK REST HOUSE , RUPNAGAR","SAINIK REST HOUSE , RUPNAGAR, PUNJAB-140001",,01881 223502,RUPNAGAR,RUPNAGAR
PSIB0000856,Punjab and Sind Bank,PSIB0000856,160023022,RSTC SEC-8 CHANDIGHAR,"KOTHI NO. 8, SECTOR - 8, CHANDIGARH-160009",,"0171-5070063, 2779808",CHANDIGARH,CHANDIGARH
PSIB0000860,Punjab and Sind Bank,PSIB0000860,110023062,SAHIBABAD PRATAP VIHAR,"SANTOSH MEDICAL COLLEGE,SAHIBABAD,GHAZIABAD,UTTAR PRADESH",,0120-2743975,SAHIBABAD,GHAZIABAD
PSIB0000861,Punjab and Sind Bank,PSIB0000861,110023095,SAKET DELHI,"GYAN BHARTI SCHOOL, SAKET, NEW DELHI-110017",,011 26560435,DELHI,DELHI
PSIB0000862,Punjab and Sind Bank,PSIB0000862,NON MICR,MURADNAGAR,"MURAD NAGAR I T S CENTER FOR DENTAL STUDIES, DELHI MEERUT ROAD,DISTT GHAZIABAD, UTTAR PRADESH-201206 ",,0120 2731237,MURADNAGAR,GHAZIABAD
PSIB0000863,Punjab and Sind Bank,PSIB0000863,NON MICR,"PUTLIGHAR, AMRITSAR, PUNJAB","CHIEF KHALSA ORPHANGE, PUTLIGHAR,AMRITSAR, PUNJAB-143001",,0183 5015202,AMRITSAR,AMRITSAR
PSIB0000864,Punjab and Sind Bank,PSIB0000864,NON MICR,KHADOOR SAHIB,"SRI GURU ANGAD DEV COLLEGE, KHADOOR SAHIB, DISTT TARN TARAN, PUNJAB-143117",,01859-210606,KHADAUR SAHIB,AMRITSAR
PSIB0000866,Punjab and Sind Bank,PSIB0000866,110023071,"PUNJABI BAGH (WEST), NEW DELHI","GURU NANAK PUBLIC SCHOOL,PUNJABI BAGH,NEW DELHI-110026",,011-25453621,DELHI,DELHI
PSIB0000867,Punjab and Sind Bank,PSIB0000867,110023051,DELHI CANTONEMENT,"SGN KHALSA GIRLS HR.SEC.SCHOOL,DELHI CANTT,NEW DELHI-110010",,011-25691062,DELHI,DELHI
PSIB0000870,Punjab and Sind Bank,PSIB0000870,302023004,RAYON INTERNATIONAL JAIPUR,"RAYON INTERNATIONAL SCHOOL, PADAMAWATI COLONEY - II, JAIPUR, RAJASTHAN-302019",,0141 5129320,JAIPUR,JAIPUR
PSIB0000871,Punjab and Sind Bank,PSIB0000871,NON MICR,"JAIPUR, VAISHALI NAGAR","B55 GAUTAM MARG, HANUMAN NAGAR VAISHALI NAGAR, JAIPUR - 302 021",,25860657,JAIPUR,JAIPUR
PSIB0000872,Punjab and Sind Bank,PSIB0000872,144023027,"JALANDHAR, REGIONAL CAMPUS GNDU, LADHEW","REGIONAL CAMPUS GURU NANAK DEV UNIVERSITY,  LADHEWALI,  JALANDHAR, PUNJAB - 144007",,"0181-2412294,5020073",JALANDHAR,JALANDHAR
PSIB0000875,Punjab and Sind Bank,PSIB0000875,700023015,LAKE TOWN KOLKATA,"B J - 111, SECTOR - II, SALT LAKE AREA, KOLKATA",,,KOLKATA,KOLKATA
PSIB0000876,Punjab and Sind Bank,PSIB0000876,700023020,KHIDERPORE,"15 - COAL DOCK ROAD, KHIDERPORE, KOLKATTA, WEST BENGAL - 700043",,033-24390202,KOLKATA,KOLKATA
PSIB0000877,Punjab and Sind Bank,PSIB0000877,110023112,MAYUR VIHAR DELHI,"D-31, ACHARYA NIKETAN, MAYUR VIHAR, PHASE-1,  DELHI",,011-22758763,DELHI,DELHI
PSIB0000878,Punjab and Sind Bank,PSIB0000878,110023111,PREET VIHAR DELHI,B 136 PREET VIHAR DELHI,,011-22520506,DELHI,DELHI
PSIB0000880,Punjab and Sind Bank,PSIB0000880,110023104,"S D PUBLIC SCHOOL MOTI NAGAR, DELHI","S D PUBLIC SCHOOL,MOTI NAGAR,NEW DELHI-110015",,011-25915411,DELHI,DELHI
PSIB0000882,Punjab and Sind Bank,PSIB0000882,110023114,RANI BAGH DELHI,"914, RAILWAY ROAD, RANI BAGH , DELHI-110034",,011 27034357,NEW DELHI,DELHI
PSIB0000883,Punjab and Sind Bank,PSIB0000883,NON-MICR,INDIRAPURAM,"INDIRAPURAM, GHAZIABAD",,2710610,GHAZIABAD,GHAZIABAD
PSIB0000884,Punjab and Sind Bank,PSIB0000884,160023037,"ZIRAKPUR, PATIALA","SCO 12-13, AKALI KAUR SINGH ROAD, ZIRAKPUR PATIALA HIGHWAY, ZIRAKPUR, PATIALA, PUNJAB",,011762 509956,ZIRAKPUR,PATIALA
PSIB0000888,Punjab and Sind Bank,PSIB0000888,NON MICR,AMBALA (DURGA NAGAR),"DURGA NAGAR, JALBERA ROAD, AMBALA CITY, HARYANA - 134003",,0171-2531009,JALBERA,AMBALA
PSIB0000890,Punjab and Sind Bank,PSIB0000890,110023115,SEC 10 GURGAON,"SCO - 98, SECTOR 10 - A, HUDDA MARKET, GURGAON-122001",,2321313,GURGAON,GURGAON
PSIB0000891,Punjab and Sind Bank,PSIB0000891,110023101,"HARI NAGAR, NEW DELHI","GURU HARKRISHAN PUBLIC SCHOOL,HARI NAGAR,NEW DELHI-110064",,011-25120514,DELHI,DELHI
PSIB0000892,Punjab and Sind Bank,PSIB0000892,110023091,"VISHNU GARDEN, NEW DELHI","VISHNU GARDEN, MAIN KHAYALA ROAD, NEW DELHI",,011-25460437,DELHI,DELHI
PSIB0000893,Punjab and Sind Bank,PSIB0000893,110023099,"SACHDEVA PUBLIC SCHOOL, ROHINI, DELHI","SECTOR-13,ROHINI,NEW DELHI-110085",,011-27867051,DELHI,DELHI
PSIB0000894,Punjab and Sind Bank,PSIB0000894,110023092,"SGGS COLLEGE OF COM, PITAMPURA, DELHI","SGGS COLLEGE OF COMMERCE,PITAMPURA,NEW DELHI-110088",,011-27434852,DELHI,DELHI
PSIB0000895,Punjab and Sind Bank,PSIB0000895,110023055,"SGTB KHALSA COLLEGE, DELHI UNIVERSITY","SGTB KHALSA COLLEGE, DELHI UNIVERSITY, NORTH CAMPUS,NEW DELHI - 110007",,011 27667763,DELHI,DELHI
PSIB0000897,Punjab and Sind Bank,PSIB0000897,110023057,"MATA JAI KAUR PUB SCHOOL, ASHOK VIHAR, DELHI","MATA JAI KAUR PUBLIC SCHOOL, ASHOK VIHAR, NEW DELHI-110052",,011 27111015,DELHI,DELHI
PSIB0000898,Punjab and Sind Bank,PSIB0000898,110023074,"DORI WALAN, KAROL BAGH, DELHI","GURU AMARDASS PUBLIC SCHOOL, DORIWALAN, KAROL BAGH, NEW DELHI-110005",,011 23677018,DELHI,DELHI
PSIB0000899,Punjab and Sind Bank,PSIB0000899,110023069,"JK PUB SCHOOL, SHALIMAR BAGH, DELHI","JASPAL KAUR PUBLIC SCHOOL, SHALIMAR BAGH, DELHI-110088",,011 27475623,DELHI,DELHI
PSIB0000903,Punjab and Sind Bank,PSIB0000903,110023098,"DESH BANDHU COLLEGE,KALKAJI, DELHI ","DESH BANDHU COLLEGE,KALKAJI,NEW DELHI-110019",,011-26444830,DELHI,DELHI
PSIB0000904,Punjab and Sind Bank,PSIB0000904,110023102,"MATA GUJRI SCHOOL, G K - I,NEW DELHI ","GURUDWARA SRI GURU SINGH SABHA,C-BLOCK GREATER KAILASH-I,NEW DELHI-110048",,011-29237047,DELHI,DELHI
PSIB0000905,Punjab and Sind Bank,PSIB0000905,110023024,"VASANT VIHAR, NEW DELHI","GURU HARKRISHAN PUBLIC SCHOOL,POORVI MARG,VASANT VIHAR,NEW DELHI-110057",,011-26144664,DELHI,DELHI
PSIB0000906,Punjab and Sind Bank,PSIB0000906,110023100,"CHANDER NAGAR, GHAZIABAD, UP","DAV CENT PUB. SCHOOL, CHANDER NAGAR, DIST. GHAZIABAD, UP",,0120 2614646,CHANDERNAGAR,GHAZIABAD
PSIB0000907,Punjab and Sind Bank,PSIB0000907,110023106,DPS NOIDA,"DELHI PUBLIC SCHOOL, SECTOR-30, NOIDA, DISTT. GAUTAM BUDH NAGAR",,0120 2456441,NOIDA,GAUTAM BUDDHA NAGAR
PSIB0000909,Punjab and Sind Bank,PSIB0000909,NON MICR,"MATUNGA  MUMBAI
","SRI GURU NANAK KHALSA COLLEGE, KING'S CIRCLE, MATUNGA, MUMBAI, MAHARASHTRA- 400019",,022-24095787,MUMBAI,GREATER BOMBAY
PSIB0000911,Punjab and Sind Bank,PSIB0000911,NON MICR,"KOLKATTA, NEW ALIPORE","26/07 SAHAPUR COLONY, DIAMOND HARBPUR ROAD,KOLKATA",033-24988026,KOLKATA,KOLKATA,WEST BENGAL
PSIB0000913,Punjab and Sind Bank,PSIB0000913,110023054,PURANA QUILA,"SRI GURU HARKRISHAN PUBLIC SCHOOL, 1- PURANA QUILA ROAD, NEW DELHI-110001",,011-23386811/26842599,DELHI,NEW DELHI
PSIB0000914,Punjab and Sind Bank,PSIB0000914,123023002,"REWARI, HARYANA","SCO-5 BRASS MARKET,REWARI,HARYANA-123401",,01274-224344,REWARI,REWARI
PSIB0000915,Punjab and Sind Bank,PSIB0000915,160023018,"PANCHKULA, SECTOR-5, HARYANA","SCO SITE NO 76, SECTOR-5,URBAN ESTATE, PANCKULA, HARYANA",,0172-5028354,PANCHKULA,PANCHKULA
PSIB0000916,Punjab and Sind Bank,PSIB0000916,NON-MICR,"CHAR BAGH, LUCKNOW","CHAR BAGH, LUCKNOW",,2228639,LUCKNOW,LUCKNOW
PSIB0000917,Punjab and Sind Bank,PSIB0000917,NON-MICR,"GOMATI NAGAR, LUCKNOW","GOMATI NAGAR, LUCKNOW",,2456688,LUCKNOW,LUCKNOW
PSIB0000918,Punjab and Sind Bank,PSIB0000918,110023097,"G H K M SCHOOL, TAGORE GARDEN, DELHI ","GURU HARKRISHAN PUBLIC SCHOOL,RAJOURI GARDEN,NEW DELHI-110027",,011-25154976,DELHI,DELHI
PSIB0000919,Punjab and Sind Bank,PSIB0000919,110023090,"MEERAN BAGH, PASCHIM VIHAR, DELHI","GURU SHARAN CONVENT SCHOOL, GH-9, NEAR TEL EXCHANGE, PASCHIM VIHAR, NEW DELHI-110087",,011 25271430,DELHI,DELHI
PSIB0000923,Punjab and Sind Bank,PSIB0000923,NON MICR,"BANNERGHATTA ROAD, BANGALORE","NO 49,8TH MAIN N.G.PALYA, BANGALORE, KARNATAKA-560 053",,080 2224827,BANGALORE,BANGALORE URBAN
PSIB0000924,Punjab and Sind Bank,PSIB0000924,,AMMERPET HYDERABAD,AMMERPET HYDERABAD,,,HYDERABAD,HYDERABAD
PSIB0000925,Punjab and Sind Bank,PSIB0000925,NON MICR,"AHMEDABAD, SATELLITE AREA","SHOP NO 10,11,12 PUSHPAM COMPLEX, OPP SEEMA HALL,100 FEET ROAD, ANAND NAGAR, AHMEDABAD, GUJRAT-380015",,079 27556985,AHMEDABAD,AHMADABAD
PSIB0000926,Punjab and Sind Bank,PSIB0000926,400023020,MALAD MUMBAI,"D.G. KHETAN INTL. SCHOOL BLDG,BEHIND SUNDER NAGAR,OFF. LINK ROAD MALAD(WEST),MUMBAI,MAHARASHTRA-400064",,022 28714715,MUMBAI,GREATER MUMBAI
PSIB0000927,Punjab and Sind Bank,PSIB0000927,NON MICR,VIKAS PURI DELHI,"C-26, VIKAS PURI, NEW DELHI-110018",,25573154,NEW DELHI,NEW DELHI
PSIB0000947,Punjab and Sind Bank,PSIB0000947,110023058,N.DELHI MANSORAVAR GARDEN,"GURU TEG BAHADUR,3RD CENTENARY,PUBLIC SCHOOL,MANSAROVAR GARDEN,NEW DELHI-110015",,011-25412675,DELHI,NEW DELHI
PSIB0000963,Punjab and Sind Bank,PSIB0000963,110023072,NEW DELHI EC JANKPURI,S.S. MOTA SINGH SENIOR SECONDARY SCHOOL BLOCK-1-4/C JANAKPURI NEW DELHI-110058,,011-25594522,DELHI,NEW DELHI
PSIB0001027,Punjab and Sind Bank,PSIB0001027,110023096,N.DELHI SANTPURA,"DERA SANT PURA,TILAK NAGAR.N.DELHI-110018",,011-25132992,DELHI,NEW DELHI
PSIB0001029,Punjab and Sind Bank,PSIB0001029,110023059,NTPC NOIDA,"NTPC SECTOR-24 NOIDA ,G.B.NAGAR-201301",,0120-2410301/2596044,NOIDA,GAUTAM BODDA NAGAR
PSIB0001030,Punjab and Sind Bank,PSIB0001030,110023092,PUSHPANJALI ENCLAVE PITAMPURA,"GURU NANAK PUBLIC SCHOOL PUSHPANJALI ENCLAVE PITAMPURA, DELHI",,011-27010079,DELHI,NEW DELHI
PSIB0001034,Punjab and Sind Bank,PSIB0001034,110023077,ANAND VIHAR,"VIVEKANAND SCHOOL,ANAND VIHAR,DELHI-110092",,011-22162033,DELHI,NEW DELHI
PSIB0001045,Punjab and Sind Bank,PSIB0001045,160023020,CHANDIGARH SECTOR 40-C,"GURU HARKISHAN PUBLIC SCHOOL, SECTOR-40 CHANDIGARH",,0172-698472,CHANDIGARH,CHANDIGARH
PSIB0001098,Punjab and Sind Bank,PSIB0001098,110023105,NEW DELHI GURU GOBIND SINGH INDRA,"GURU GOBIND SINGH INDERPRASTHA UNIVERSITY, KASHMERE GATE DELHI-110006",,011-23860754,DELHI,NEW DELHI
PSIB0001121,Punjab and Sind Bank,PSIB0001121,110023088,HEART & LUNG INST.,"PANCHKUIAN ROAD, NEW DELHI - ",,,DELHI,NEW DELHI
PSIB0009028,Punjab and Sind Bank,PSIB0009028,NON MICR,HO ATM CELL,"HO ATM CELL, PUNJAB AND SIND BANK, 4TH FLOOR, 21 RAJENDRA PLACE, DELHI-110008",,011-25737350,DELHI,DELHI
PSIB0009032,Punjab and Sind Bank,PSIB0009032,NON MICR,CENTRAL PROCESSING CENTRE BACK OFFICE,"CENTRAL PROCESSING CENTRE, 2ND FLOOR, PUNJAB & SIND BANK, HEAD OFFICE,  BANK HOUSE, 21, RAJENDRA PLACE, NEW DELHI - 110125",011 - 25860657,DELHI,DELHI,DELHI
PSIB000A001,Punjab and Sind Bank,PSIB000A001,143023025,HALL BAZAR,"CHOWK PHAWARA,HALL BAZAR,AMRITSAR-143001",,`,AMRITSAR,AMRITSAR
PSIB000A912,Punjab and Sind Bank,PSIB000A912,110023117,SECTOR 3 ROHINI DELHI,H32/6 SECTOR 3 ROHINI DELHI,,011-27517653,DELHI,DELHI
PSIB000A913,Punjab and Sind Bank,PSIB000A913,110023116,MUKHERJEE NAGAR DELHI,1423 DR.MUKHERJEE NAGAR DELHI,,011-276552105,DELHI,DELHI
PSIB0020928,Punjab and Sind Bank,PSIB0020928,NON MICR,"BEGOWAL, DISTT.KAPURTHALA","BEGOWAL, NEAR BUS STAND, BLOCK NADALA,TANDA ROAD,DISTT.KAPURTHALA, PUNJAB",,01822 271830,BEGOWAL,KAPURTHALA
PSIB0020929,Punjab and Sind Bank,PSIB0020929,110023119,JWALA HERI DELHI,JWALA HERI PASCHIM VIHAR DELHI-110063,,011-25283546,DELHI,DELHI
PSIB0020930,Punjab and Sind Bank,PSIB0020930,NON MICR,"DABURJI, AMRITSAR","74, BYE PASS DABURJI, GT ROAD, AMRITSAR, PUNJAB-143001",,0183 5020101,DABURJI,AMRITSAR
PSIB0020931,Punjab and Sind Bank,PSIB0020931,NON MICR,SRI KARANPUR DISTT SRI GANGA NAGAR,"PLOT NO 22,MAIN ROAD,NEAR BUS STAND, SRIGANGANAGAR,RAJASTHAN-335001",,0154 2420720,KARANPUR,GANGANAGAR
PSIB0020932,Punjab and Sind Bank,PSIB0020932,NON MICR,"SHAMLI  DISTT. MUZAFFAR NAGAR, UP","SHAMLI, DISTT. MUZAFFAR NAGAR, UTTAR PRADESH-251317",,0131 2432182,SHAMLI,MUZAFFARNAGAR
PSIB0020933,Punjab and Sind Bank,PSIB0020933,NON MICR,"GORAYA, DISTT. PHILLAUR","GORAYA, G.T.ROAD, TEHSIL. PHILLAUR, PUNJAB",,01826 222129,PHILLAUR,JALANDHAR
PSIB0020935,Punjab and Sind Bank,PSIB0020935,APPLIED,KARTARPUR DISTT JALANDHAR,"G.T.ROAD, KARTARPUR, DISTT. JALANDHAR, PUNJAB-144104",,0181-5015605,KARTARPUR,JALANDHAR
PSIB0020936,Punjab and Sind Bank,PSIB0020936,NON MICR,ADAMPUR DISTT JALANDHAR,"ADAMPUR DOABA DISTT JALANDHAR, PUNJAB-144515",,,ADAMPUR,JALANDHAR
PSIB0020938,Punjab and Sind Bank,PSIB0020938,NON MICR,"DEVIGARH, DISTT PATIALA, PUNJAB","NEAR GRAIN MARKET, PEHOWA ROAD, DEVIGARH,  DISTT PATIALA, PUNJAB  PIN-147111",,0175 2632938,DEVIGARH,PATIALA
PSIB0020939,Punjab and Sind Bank,PSIB0020939,NON MICR,GHAROUNDA DISTT KARNAL,"NEAR MUNICIPAL OFFICE, RAILWAY ROAD GHAROUNDA,KARNAL, HARYANA-132001",,0184 2272533,GHARAUNDA,KARNAL
PSIB0020940,Punjab and Sind Bank,PSIB0020940,NON MICR,"MALIGAON, GUWAHATI","A.T.ROAD, ADABARI, MALIGAON, GUWAHATI , ASSAM - 781014",,0361 2544060,GUWAHATI,KAMRUP METROPOLITAN
PSIB0020941,Punjab and Sind Bank,PSIB0020941,NON MICR,"R.K.AVENUE, PATNA, BIHAR","92-A, BLOCK-B, R.K. AVENUE,RAJENDRA NAGAR, PATNA,BIHAR PIN 800016",,0612 2674978,PATNA,PATNA
PSIB0020942,Punjab and Sind Bank,PSIB0020942,NON MICR,DURGAPUR,"UCB/018, DWAIBAYANS BUILDING, CITY CENTRE, DRUGAPUR ,DISTT BURDWAN  WEST BANGAL",,033 22103469,DURGAPUR,BARDDHAMAN
PSIB0020943,Punjab and Sind Bank,PSIB0020943,NON MICR,BALASORE,"BALASORE, DISTT. BALESHWAR, ORRISA",,0671 2619893,BALASORE,BALESHWAR
PSIB0020944,Punjab and Sind Bank,PSIB0020944,NON MICR,"HESAG, RANCHI","HESAG, NEAR SINGH MORE P.S. JAGANNATHPUR, HATIA, DISTT RANCHI, JHARKHAND-834003",,0651 2203593,HATIA,RANCHI
PSIB0020945,Punjab and Sind Bank,PSIB0020945,NON MICR,BELONGI DISTT S.A.S.NAGAR,"VILLAGE BELONGI, MOHALI BYE PASS, SCO 2, A.A.S.NAGAR,BELONGI DISTRICT MOHALI, PUNJAB",,0172 228904,SAS NAGAR(MOHALI),RUPNAGAR
PSIB0020947,Punjab and Sind Bank,PSIB0020947,NON MICR,"DASUYA, DISTT HOSHIARPUR, PUNJAB","DASUYA, G.T. ROAD, NEAR LIC BUILDING,  DASUYA,  DISTT HOSHIARPUR, PUNJAB-144205",,01883 260626,DASUYA,HOSHIARPUR
PSIB0020948,Punjab and Sind Bank,PSIB0020948,AWAITED,"KALKAJI, DELHI","M-18, KALKA JI, NEW DELHI-110019",,011 26444830,DELHI,DELHI
PSIB0020951,Punjab and Sind Bank,PSIB0020951,NON MICR,BAZPUR DISTT UDHAM SINGH NAGAR,"HALDWANI ROAD, NEAR CITY HOSPITAL, BAZPUR,DISTT. UDHAM SINGH NAGAR, UTTARAKHAND-263153",,05942 235190,BAZPUR,UDHAM SINGH NAGAR
PSIB0020953,Punjab and Sind Bank,PSIB0020953,AWAITED,"JAGATPURI, NEW MODERN SHAHDRA, DELHI","A-5 JAGAT PURI, NEAR NATHU COLONY CHOWK, NEW MODERM SHAHDRA,NEW DELHI - 110092",,011 22581997,DELHI,DELHI
PSIB0020955,Punjab and Sind Bank,PSIB0020955,NON MICR,NETWA,"SHUKLA NIWAS, OPP. CENTRAL BANK OF INDIA, NETWA (SHUKLA GANJ) DISTT UNNAO, UTTAR PRADESH-209506",,0515-2835251,NETUA,UNNAO
PSIB0020956,Punjab and Sind Bank,PSIB0020956,NON MICR,BINDKI,"505, LALAULI ROAD, BINDKI,  DISTT FATEHPUR, UTTAR PRADESH-212635",,MR.SHASHI -9451383204,BINDKI,FATEHPUR
PSIB0020957,Punjab and Sind Bank,PSIB0020957,NON MICR,BHARUA SUMERPUR,"566/173 RAM MANOHAR LOHIA NAGAR WARD NO 1, BHARUA SUMERPUR,HAMIRPUR, UTTAR PRADESH-210502",,05282-231013,BHARWA SUMERPUR,HAMIRPUR
PSIB0020959,Punjab and Sind Bank,PSIB0020959,NON MICR,JAGATPUR DISTT RAIBAREILLY,"ALLAHBAD ROAD JAGATPUR, RAI BAREILLY, UTTAR PRADESH-229402",,"SHASHI BHUSHAN:  0522-2614260, 9451383204",LUCKNOW,LUCKNOW
PSIB0020970,Punjab and Sind Bank,PSIB0020970,APPLIED,"GREATER NOIDA
","GREATER NOIDA, KAISON TOWER, IST FLOOR, ALPHA-I, DISTRICT GAUTAM BUDDHA NAGAR, UTTAR PRADESH",,0120 2523594,NOIDA,GAUTAM BUDDHA NAGAR
PSIB0020972,Punjab and Sind Bank,PSIB0020972,NON MICR,"PALLAVPURAM, MEERUT
","C-3/1, PALLAVPURAM, MEERUT, UTTAR PRADESH",,0121 2663163,MEERUT,MEERUT
PSIB0020973,Punjab and Sind Bank,PSIB0020973,APPLIED,"KOTLA MUBARAKPUR, DELHI","139-A, ARJUN NAGAR, KOTLA MUBARAKPUR NEW DELHI",,011 26218662,DELHI,DELHI
PSIB0020974,Punjab and Sind Bank,PSIB0020974,NON MICR,BHIWADI,"BHIWARI, C3A, RITCO CHOWK, HOTEL SWAGAT BHIWARI, DIST ALWAR ",,0145 2429262,BHIWADI,ALWAR
PSIB0020975,Punjab and Sind Bank,PSIB0020975,NON MICR,MANDAL  DISTT BHILWARA,"MANDAL, RISHABH FILLING STATION, MANDAL CHORAYA, MANDAL DISTT BHILWARA",,01486-266265,MANDAL,BHILWARA
PSIB0020976,Punjab and Sind Bank,PSIB0020976,NON MICR,PANAGRAH,"PANAGARH, VILL. PANAGARH, DURGAPUR BLOCK KANKSA, DISTT. BARDHMAN (WB)-713148 ",,033 22104357,PANAGARH,BARDDHAMAN
PSIB0020979,Punjab and Sind Bank,PSIB0020979,NON MICR,"DOIWALA, DEHRADUN","GURDWARA SHRI GURU SINGH SABHA, NEAR TOLL BRIDGE, DOIWALA, DEHRADUN-248140 ",,0135 2659232,DOIWALA,DEHRA DUN
PSIB0020980,Punjab and Sind Bank,PSIB0020980,APPLIED,MANESAR,"MANESAR, SHOP NO.4-5, ANNAT RAJ, TECHNICAL PARK,CP-1, SEC-8, IMT, MANESAR, DISTT.GURGAON, HARYANA",,0124 6321313,MANESAR,GURGAON
PSIB0020983,Punjab and Sind Bank,PSIB0020983,NON MICR,BADDI,"SAI ROAD, (NEAR BHARDWAJ HOSPITAL) BADDI, DISTT. SOLAN, H.P.",,01902 254111,BADDI,SOLAN
PSIB0020984,Punjab and Sind Bank,PSIB0020984,NON MICR,BIKHIWIND,"BHIKHIWIND, PATTI ROAD, TEHSIL- PATTI, DISTT.TARN TARAN:143303 ",,0183-5018823,TARN TARAN,AMRITSAR
PSIB0020985,Punjab and Sind Bank,PSIB0020985,NON MICR,SANETA,"LANDRAN BANUR ROAD, DISTT. MOHALI",,0172-2703770,SAS NAGAR(MOHALI),RUPNAGAR
PSIB0020986,Punjab and Sind Bank,PSIB0020986,NON MICR,BALBERA,"VPO – BALBERA, CHEEKA ROAD, BALBERA MANDI, TEHSIL & DISTT.PATIALA",,0175 2202519,BALBEHRA,PATIALA
PSIB0020987,Punjab and Sind Bank,PSIB0020987,NON MICR,"MACHHIWARA, PUNJAB","MACHHIWARA, SAMRALA ROAD, OPP.GRAIN MARKET, THE.MACHHIWARA, DISTT.LUDHIANA, PUNJAB",,0161 2410073,MACHHIWARA,LUDHIANA
PSIB0020988,Punjab and Sind Bank,PSIB0020988,NON MICR,"RAIKOT, PUNJAB","RAIKOT, NEAR TEHSIL, MAIN MARKET, RAIKOT, DISTT.LUDHIANA, PUNJAB",,0161 2538493,RAIKOT,LUDHIANA
PSIB0020989,Punjab and Sind Bank,PSIB0020989,NON MICR,NASRALI,"OPPOSITE YADGAR SAHID BABA HARI SINGH JI, VPO NASRALI KHANNA MALERKOTLA ROAD, TEHSIL KHANNA, LUDHIANA, PUNJAB-141414",,01628-275317,KHANNA,LUDHIANA
PSIB0020991,Punjab and Sind Bank,PSIB0020991,APPLIED,ULSOOR,"BANGLORE ULSOOR- NO 18, S.V ROAD, NEAR LIDO MALL087",,080 2267476,BANGALORE,BANGALORE URBAN
PSIB0020992,Punjab and Sind Bank,PSIB0020992,NON MICR,HOSHANGABAD  ROAD BHOPAL,"1, CHINARR INCUBE, BUSINESS CENTRE, HOSHANGABAD ROAD, BHOPAL, MADHYA PRADESH- 462021",,"0755-2559311, 2559468, 2557459, 2460501",BHOPAL,BHOPAL
PSIB0020993,Punjab and Sind Bank,PSIB0020993,APPLIED,BAWANA,"BAWANA, GROUND FLOOR NO.48 A, ADJACENT SBI, NARELA ROAD, MAIN CHOWK, BAWANA, DELHI – 110039",,,BAWANA,DELHI
PSIB0020994,Punjab and Sind Bank,PSIB0020994,APPLIED,MUNDKA,"GROUND FLOOR, K-2, RAJDHANI PARK, NEW ROHTAK ROAD, MUNDKA, NEW DELHI- 110041 (OPP. METRO PILLAR NO. 455)",,011 25180499,DELHI,DELHI
PSIB0020998,Punjab and Sind Bank,PSIB0020998,APPLIED,MANGOLPUR KHURD,"GROND FLOOR, RZ-149/2, MANGOLPUR KHURD, DELHI - 110083",,011 27910016,DELHI,DELHI
PSIB0020999,Punjab and Sind Bank,PSIB0020999,APPLIED,ASHOK NAGAR CHENNAI,"17/36, GF, 4TH AVENUE, ASHOK NAGAR, CHENNAI",,"SHRI N K SEKAR, SENIOR MANAGER  M-09444392997",CHENNAI,CHENNAI
PSIB0021001,Punjab and Sind Bank,PSIB0021001,NON MICR,JIND,"PWD B&R STORE, HUDA COMPLEX, IN FRONT OF DRDA, JIND, HARYANA",,"SHRI H.Y. BASKEY, BRANCH INCHARGE M-09830759862",JIND,JIND
PSIB0021003,Punjab and Sind Bank,PSIB0021003,NON MICR,"BLOCK-BUDGE-BUDGE, VILL. NISCHINTAPUR","BUDGE BUDGE INSTITUTE OF TECHNOLOGY, P.O.NISCHINTPUR, BLOCK BUDGE BUDGE – 1, SOUTH 24 PARGANAS, WEST BENGAL, PINCODE - 700137",,"SHRI JASBIR SINGH, MANAGER M-09671313219",NISCHINTAPUR,SOUTH 24 PARGANAS
"PSIB0021007
",Punjab and Sind Bank,"PSIB0021007
",NON MICR,"HARDOI
","ALLAHABAD BANK ROAD, RAILWAY GANJ , HARDOI, UTTAR PRADESH",,0522-2614260,HARDOI,HARDOI
"PSIB0021008
",Punjab and Sind Bank,"PSIB0021008
",APPLIED,"SEC-12, DWARKA, NEW DELHI
","PANKAJ PLAZA, PLOT NO.5, SECTOR 12,DWARKA, NEW DELHI -110075",,PARMINDAR SINGH SHAHANI 9868517040,DELHI,DELHI
PSIB0021010,Punjab and Sind Bank,PSIB0021010,NON MICR,"AJNALA ROAD,  AMRITSAR","GROVER TOWER, SEHABZADA JUJAR SINGH NAGAR, MAIN AJNALA ROAD,  AMRITSAR
",,,AJNALA,AMRITSAR
PSIB0021011,Punjab and Sind Bank,PSIB0021011,NON MICR,RAJAHMUNDRY,"DOOR NO 76-6-3, GR FLOOR, OPP RAJU NUERO HOSPITAL, GANDHIPURAM-2, DANAVAIPETA, RAJAHMUNDRY DISTT GODAWARI",,0738-2297961,RAJAHMUNDRY,EAST GODAVARI
PSIB0021012,Punjab and Sind Bank,PSIB0021012,NON MICR,KAKINADA,"DOOR NO. 13-1-61/64, KATYAYANI HI TECK COMPLEX, 1ST FLOOR,OPPOSITE APOLLO HOSPITAL, MAIN ROAD, KAKINADA",,,KAKINADA,EAST GODAVARI
PSIB0021013,Punjab and Sind Bank,PSIB0021013,NON MICR,GUNTUR,"GR FLOOR, DODDUPALLI COMPLEX, DOOR NO 5-37-103,4/15, BRODIPET GUNTUR-522002",,9441057937,GUNTUR,GUNTUR
PSIB0021015,Punjab and Sind Bank,PSIB0021015,NON MICR,SALEM,"GROUND FLOOR,MAHALAKSHMI NIVASAM NO.121, RAJAJI ROAD, SALEM - 636007",,9894703567,SALEM,SALEM
PSIB0021016,Punjab and Sind Bank,PSIB0021016,NON MICR,GAJRAULA,"STATION ROAD, OPPOSITE PWD, GAJRAULA , DISTT-J.P.NAGAR, UTTAR PRADESH-244235",,0581 - 2510212,GAJRAULA,JYOTIBA PHULE NAGAR
PSIB0021018,Punjab and Sind Bank,PSIB0021018,NON MICR,KAITHAL,"R.V. PLAZA, PEHOWA CHOWK  KAITHAL, HARYANA-136027",,MEGHRAJ SHARMA - MGR    9416563600,KAITHAL,KAITHAL
PSIB0021020,Punjab and Sind Bank,PSIB0021020,NON MICR,KICHHA,N.H.-74   NEAR MARWARI DHARAMSHALA RUDRAPUR ROAD KICHHA U.S. NAGAR UTTRAKHAND    PIN-263148,,05944-264999,KICHHA,UDHAM SINGH NAGAR
PSIB0021022,Punjab and Sind Bank,PSIB0021022,NON MICR,SITAPUR,"VOLGA BUILDING, EYE HOSPITAL ROAD, SITAPUR",,"9468374574, 8874200000",SITAPUR,SITAPUR
PSIB0021023,Punjab and Sind Bank,PSIB0021023,NON MICR,RAIBAREILLY,"HOTEL AMAR, KUTCHERY ROAD, RAI BAREILLY",8960893343,RAE BARELI,RAI BARELI,UTTAR PRADESH
PSIB0021025,Punjab and Sind Bank,PSIB0021025,NON MICR,CHHAJALWADI,TEHSIL BABA BAKALA DISTT AMRITSAR- 143149,,BABA BAKALA,AMRITSAR,PUNJAB
PSIB0021026,Punjab and Sind Bank,PSIB0021026,NON MICR,GOLA DISTT AMBALA,CAMP AT GOLA(DISTT AMBALA),,01731-275234,AMBALA,AMBALA
PSIB0021028,Punjab and Sind Bank,PSIB0021028,NON MICR,JALALPUR,"VPO JALALPUR, THE DASUYA DISTT HOSHIARPUR-144202 ",,,DASUYA,HOSHIARPUR
PSIB0021029,Punjab and Sind Bank,PSIB0021029,NON MICR,"PALWAL, HARYANA "," MANORMA COMPLEX, AGRA CHOWK, PALWAL, HARYANA-121102",,"01275-240085, 9671028590",PALWAL,FARIDABAD
PSIB0021031,Punjab and Sind Bank,PSIB0021031,NON MICR,CHINCHWAD PUNE,"GROUND FLOOR SHOP NO.5 & 6 CTB NO.4510/1, PUNE MUMBAI ROAD, CHINCHWAD, PUNE-19",,9970571456,PUNE,PUNE
PSIB0021032,Punjab and Sind Bank,PSIB0021032,NON MICR,IFB IN PUNE,"GROUND FLOOR OF RACHNA EPICENTRE SHOP NO. 2A64/C, PUNE-MUMBAI ROAD, SHIVAJI NAGAR, PUNE",,9970571456,PUNE,PUNE
PSIB0021033,Punjab and Sind Bank,PSIB0021033,NON MICR,NASIK,"HARDIK COMPLEX , SAMRAT GROUP BUILDING, OPP.AMBEDKAR NASIK-PUNE ROAD, NASIK",,9422204440,NASHIK,NASIK
PSIB0021035,Punjab and Sind Bank,PSIB0021035,NON MICR,KHERA,"VILLAGE KHERA, P.O. CHACHOKI  DISTT. KAPURTHALA, JALANDHAR-144 632",01824- 254543,KHERA DONA,KAPURTHALA,PUNJAB
PSIB0021038,Punjab and Sind Bank,PSIB0021038,NON MICR,"ALWAR, RAJASTHAN","HARSHIL TOWER, GROUND FLOOR, 29, NARU MARG, STATION ROAD, ALWAR, RAJASTHAN- 301001",,"0144-2701117, 9829261802",ALWAR,ALWAR
PSIB0021042,Punjab and Sind Bank,PSIB0021042,NON MICR,BHILWARA,"GROUND FLOOR, GAURAV TOWER, BSL ROAD, BHILWARA,  RAJASTHAN- 311001",,,BHILWARA,BHILWARA
PSIB0021043,Punjab and Sind Bank,PSIB0021043,NON MICR,BHALLABHGARH,"GR FLOOR, 9/DI 110, NEW MARKET MAIN BAZAR BALLABGARH",,9415340153,BALLABGARH,FARIDABAD
PSIB0SGB002,Punjab and Sind Bank,PSIB0SGB002,NON MICR,SATLUJ GRAMIN BANK BATHINDA,"A4 CIVIL LINES, BATHINDA, PUNJAB-151001",,0164 2214138,BATHINDA,BATHINDA
PSIB0000027,Punjab and Sind Bank,PSIB0000027,NON MICR,NIHAL SINGH WALA,"NIHAL SINGH WALA, TEH.MOGA 142055",01636-254128,NIHAL SINGH WALA,MOGA,PUNJAB
PSIB0000071,Punjab and Sind Bank,PSIB0000071,NON MICR,HERBERTPUR,"HERBERTPUR, WARD NO 6 VIVEK VIHAR (ETAN BAGH) DEHRADUN ROAD",01360-258131,HERBUTPUR,DEHRA DUN,UTTARANCHAL
PSIB0000233,Punjab and Sind Bank,PSIB0000233,NON MICR,PADAMPUR,"PADAMPUR, DISTT, SRIGANGANAGAR, RAJASTHAN - 335041",01505-222072,PADAMPUR,GANGANAGAR,RAJASTHAN
PSIB0000375,Punjab and Sind Bank,PSIB0000375,NON MICR,DALTONGANJ,"PB NO. 28 DALTONGANJ, DISTT. PALAMAU-822001",06562-222442,DALTONGANJ,PALAMAU,JHARKHAND
PSIB0000577,Punjab and Sind Bank,PSIB0000577,NON MICR,RAUNTA,"RAUNTA TEH, MOGA, DISTT. FARIDKOT PUNJAB-142045",01636-257260,RAUNTA,MOGA,PUNJAB
PSIB0020960,Punjab and Sind Bank,PSIB0020960,NON MICR,SIDHAULI,"GANDHI NAGAR, MISHIKH ROAD DISTT SITAPUR",9335108870,SIDHAULI,SITAPUR,UTTAR PRADESH
PSIB0021017,Punjab and Sind Bank,PSIB0021017,NON MICR,LAKHO KE BEHRAM,LAKHO KE BEHRAM DISTT FEROZPUR-152132,01632-260140,LAKHO KE BEHRAN,FEROZPUR,PUNJAB
PSIB0021027,Punjab and Sind Bank,PSIB0021027,NON MICR,RAHON,"NAWAN SHAHAR PHILLAUR ROAD, VPO RAHON",,RAHON,NAWANSHAHR,PUNJAB
PSIB0021030,Punjab and Sind Bank,PSIB0021030,NON MICR,GUMTI KALAN,"VPO GUMTI KALAN, THE-PHUL,   DISTT BHATINDA -151006",,BATHINDA,BATHINDA,PUNJAB
PSIB0021039,Punjab and Sind Bank,PSIB0021039,NON MICR,AHMEDNAGAR,"KRISHNA TARA APARTMENT GULMOHAR ROAD, PARIJAT CORNER SAVEDI, AHMADNAGAR",0241- 2429575,AHMADNAGAR,AHMADNAGAR,MAHARASHTRA
PSIB0021041,Punjab and Sind Bank,PSIB0021041,NON MICR,BURDWAN,"FIRST FLOOR, SHREE DURGA MARKET, POLICE LINE BAZAR, P.O. SRI PALLY, BURDWAN, WEST BENGAL - 713103",,BURWAN,MURSHIDABAD,WEST BENGAL
PSIB0000814,Punjab and Sind Bank,PSIB0000814,NON MICR,G R D DEHRADUN,"GURU RAMDASS ACADEMY, RAJPUR ROAD, DEHRADUN
",0135-2734061,DEHRADUN,DEHRA DUN,UTTARANCHAL
PSIB0021014,Punjab and Sind Bank,PSIB0021014,NON MICR,"KHIRON,  RAIBAREILLY","KHIRON, RAIBAREILLY ROAD, TEHSIL LAL GANJ  DISTT  RAIBAREILLY.   (UP)

",,KHIRON,RAI BARELI,UTTAR PRADESH
PSIB0021024,Punjab and Sind Bank,PSIB0021024,NON MICR,AMETHI,"AMBEDKAR TIRAHA, TEHSIL GANGA GANJ, AMETHI, SULTANPUR 227405


",,AMETHI,SULTANPUR,UTTAR PRADESH
PSIB0000215,Punjab and Sind Bank,PSIB0000215,NON MICR,BIDAR,"SAPNA CONTINENTAL COMPLEX, OPP: SAPNA INTERNATIONAL,  UDGIR ROAD, BIDAR, KARNATKA - 585401",,BIDAR,BIDAR,KARNATAKA
PSIB0000217,Punjab and Sind Bank,PSIB0000217,NON MICR,CHUNI KALAN,"DISTT. FATEHGARH SAHIB PUNJAB - 140307
",01763-248425,CHUNI KALAN,RUPNAGAR,PUNJAB
PSIB0000398,Punjab and Sind Bank,PSIB0000398,NON MICR,ALIGARH,"SUBHASH ROAD, APSARA COMPOUND, ALIGARH,  UTTAR PRADESH - 202001",0571-2421512,ALIGARH,ALIGARH,UTTAR PRADESH
PSIB0000402,Punjab and Sind Bank,PSIB0000402,NON MICR,BILASPUR,"BILASPUR TEH. MOGA,  DISTT. FARIDKOT, PUNJAB-142039",01636-258787,BILASPUR,MOGA,PUNJAB
PSIB0000527,Punjab and Sind Bank,PSIB0000527,NON MICR,AJMER,"STATION ROAD, AJMER, RAJASTHAN-345001",0145-2429262,AJMER,AJMER,RAJASTHAN
PSIB0000678,Punjab and Sind Bank,PSIB0000678,NON MICR,PATIALA GURU NANAK NAGAR,"GURU NANAK NAGAR, PATIALA, PUNJAB - 147001",0175-2353059,PATIALA,PATIALA,PUNJAB
PSIB0000736,Punjab and Sind Bank,PSIB0000736,NON MICR,PATIALA OFFICERS COLONEY,"KHERI GUJRAN ROAD, OFFICER'S COLONY, PATIALA, PUNJAB - 147001",0175-2209106,PATIALA,PATIALA,PUNJAB
PSIB0000766,Punjab and Sind Bank,PSIB0000766,NON MICR,ALIGARH GURU GOBIND SINGH JR. HIGH SCHOOL,"GURU GOBIND SINGH JR. HIGH SCHOOL,  BAIKUNTH NAGAR, ALIGARH, UTTAR PRADESH-202001",0571-2402589,ALIGARH,ALIGARH,UTTAR PRADESH
PSIB0000792,Punjab and Sind Bank,PSIB0000792,NON MICR,AGRA GHATIA AZAM KHAN AGRA MONT SCHOOL,"AGRA MONTESSARY PB SCHOOL, GHATIA AJAM KHAN, C S A MARG, AGRA, UTTAR PRADESH-282003",0562-2857570,AGRA,AGRA,UTTAR PRADESH
PSIB0000852,Punjab and Sind Bank,PSIB0000852,NON MICR,PATIALA SHIV ASHRAM,"SHIV ASHRAM TEJ BAGH COLONY, SANOUR ROAD, PATIALA, PUNJAB - 147001",0175-2309926,PATIALA,PATIALA,PUNJAB
PSIB0021019,Punjab and Sind Bank,PSIB0021019,NON MICR,KASHIPUR,"MAIN HIGHWAY, RAMNAGAR ROAD,  DISTT. UDHAM SINGH NAGAR, UTTARAKHAND- 244713",,KASHIPUR,UDHAM SINGH NAGAR,UTTARANCHAL
PSIB0021021,Punjab and Sind Bank,PSIB0021021,NON MICR,GADARPUR,"WARD NO. 4, MAIN ROAD, GADARPUR , DISTT. UDHAM SINGH NAGAR, UTTARAKHAND  PINCODE-263152",,GADARPUR,UDHAM SINGH NAGAR,UTTARANCHAL
PSIB0021034,Punjab and Sind Bank,PSIB0021034,NON MICR,GOHALWAR,"VILLAGE GOHALWAR. OPPOSITE GURUDWARA LALKAR SAHIB TEHSIL & DISTT TARN TARAN,PUNJAB - 143022",,TARN TARAN,AMRITSAR,PUNJAB
PSIB0021036,Punjab and Sind Bank,PSIB0021036,NON MICR,SITARGANJ,"SITARGANJ, RAMPURA KICHHA ROAD, TEHSIL SITARGANJ, DISTT. UDHAM SINGH NAGAR, UTTARAKHAND PIN CODE – 262405",,SITARGANJ,UDHAM SINGH NAGAR,UTTARANCHAL
PSIB0021037,Punjab and Sind Bank,PSIB0021037,NON MICR,"NEW DELHI , SUBHASH NAGAR","4/7, GF & FF, SUBHASH NAGAR, NEW DELHI-110027",,DELHI,DELHI,DELHI
PSIB0021050,Punjab and Sind Bank,PSIB0021050,NON MICR,"NEW DELHI, SADH NAGAR","F-44 &46, STREET NO. 16-C (60' FT. ROAD), SADH NAGAR, PALAM COLONY, NEW DELHI-110045",,DELHI,DELHI,DELHI
PSIB0021125,Punjab and Sind Bank,PSIB0021125,NON MICR,AIZAWL,"SIKULPUIKAWN, NEAR AIZAWL COLLEGE MISSION VENG AIZAWL, MIZORAM-796001",,AIZAWL,AIZAWL,MIZORAM
PSIB0000339,Punjab and Sind Bank,PSIB0000339,NON MICR,BHARATPUR,"STATION ROAD, BHARATPUR, RAJASTHAN-321001",05644-238667,BHARATPUR,BHARATPUR,RAJASTHAN
PSIB0000767,Punjab and Sind Bank,PSIB0000767,NON MICR,KANKAR KHERA MEERUT,"38-39, ADARSH NAGAR SARDHANA ROAD, KANKAR KHERA, MEERUT, UTTAR PRADESH- 250001",0121-2555035,MEERUT,MEERUT,UTTAR PRADESH
PSIB0000777,Punjab and Sind Bank,PSIB0000777,NON MICR,KURUKSHETRA,"KURUKSHETRA, MAHARANI LAXMI BAI SCHOOL, KURUKSHETRA, HARYANA-136118",01744-227065,KURUKSHETRA,KURUKSHETRA,HARYANA
PSIB0000818,Punjab and Sind Bank,PSIB0000818,NON MICR,HOTEL SAMRAT HEAVEN MEERUT,"HOTEL SAMRAT HEAVEN, GARH ROAD,  MEERUT, UTTAR PRADESH-250001",0121-2762836,MEERUT,MEERUT,UTTAR PRADESH
PSIB0000879,Punjab and Sind Bank,PSIB0000879,NON MICR,KALKA,"HOTEL KINGSLEY BUILDING, OPP. POST OFFICE, MAIN ROAD, KALKA, HARYANA - 133302","01733-223800, 221300",KALKA,PANCHKULA,HARYANA
PSIB0000886,Punjab and Sind Bank,PSIB0000886,NON MICR,NARWANA,"DSS 2 HUDA COMPLEX, RLY RD. NARWANA, HARYANA",01684-241600,NARWANA,JIND,HARYANA
PSIB0021058,Punjab and Sind Bank,PSIB0021058,NON MICR,"NEW DELHI , MALVIYA NAGAR","D-74, GF, MAIN ROAD, NEAR LAXMI NARAIN MANDIR, MALVIYA NAGAR, NEW DELHI- 110017",011-26685644,DELHI,DELHI,DELHI
PSIB0000178,Punjab and Sind Bank,PSIB0000178,NON MICR,SHOGI,"SHOGI, DISTT. SIMLA, HIMACHAL PRADESH-171219","0177-2860222, 9412843525",SHOGI,SIMLA,HIMACHAL PRADESH
PSIB0000582,Punjab and Sind Bank,PSIB0000582,184023001,KATHUA,"COLLEGE ROAD, KATHUA, JAMMU & KASHMIR -143514","01922232216,",KATHUA,KATHUA,JAMMU & KASHMIR
PSIB0000610,Punjab and Sind Bank,PSIB0000610,147023012,RASULPUR SAIDAN,"INDUSTRIAL AREA,  RASULPUR SAIDAN, PATIALA, PUNJAB - 147001",0175-2362652,RASULPUR SAIDAN,PATIALA,PUNJAB
PSIB0000676,Punjab and Sind Bank,PSIB0000676,NON MICR,BABRI JEEWANWAL (GURDAS NANGAL),"BABRI JEEAWANWAL, DISTT. GURDASPUR, PUNJAB-143521","01874240560,",GURDASPUR,GURDASPUR,PUNJAB
PSIB0000768,Punjab and Sind Bank,PSIB0000768,NON MICR,RAJPURA KHALSA SR. SEC. SCHOOL,"KHALSA SR. SEC. SCHOOL, RAJPURA TOWN, DISTT. PATIALA, PUNJAB - 140401",01762-223551,RAJPURA,PATIALA,PUNJAB
PSIB0000827,Punjab and Sind Bank,PSIB0000827,147023014,PHATAK NO 22 PATIALA,"GURUDWARA KHEL SAHIB, 22 NO. PHATAK, PATIALA, PUNJAB - 147001",0175-2200435,PATIALA,PATIALA,PUNJAB
PSIB0000837,Punjab and Sind Bank,PSIB0000837,NON MICR,FARIDKOT GOVT. BRIJENDRA COLLEGE,"GOVT. BIRIJERNDRA COLLEGE,  FARIDKOT, PUNJAB-151203",01639-504079 / 01639-250092,FARIDKOT,FARIDKOT,PUNJAB
PSIB0000838,Punjab and Sind Bank,PSIB0000838,NON MICR,FARIDKOT RED CROSS SADIQ CHOWK,"RED CROSS COMPLEX, SADIQ CHOWK, FARIDKOT, PUNJAB -151212",01639-502076 / 01639-252798,SADIQ,FARIDKOT,PUNJAB
PSIB0000840,Punjab and Sind Bank,PSIB0000840,142023006,MOGA DR. SHYAM LAL THAPAR SCHOOL," DR. SHYAM LAL THAPAR SCHOOL, MOGA, PUNJAB-142001",01636-502301 / 01636-236426,MOGA,MOGA,PUNJAB
PSIB0000843,Punjab and Sind Bank,PSIB0000843,NON MICR,MOHALI SECTOR 71 PARAGOAN PUBLIC SCHOOL,"PARAGON PUBLIC SCHOOL SECTOR - 71, S A S NAGAR, MOHALI, PUNJAB-160071",0172-5027507,SAS NAGAR(MOHALI),RUPNAGAR,PUNJAB
PSIB0000848,Punjab and Sind Bank,PSIB0000848,NON MICR,"KOLKATA PANCH SAYAR SIKSHA NIKATAN, GARIA","PANCHSYAR SIKSHA NIKETAN, V - BLOCK, PANCHSYAR, GARIA, KOLKATA,  DISTT SOUTH 24 PARGANAS, WEST BENGAL-700092",033-24324754,GARIA,SOUTH 24 PARGANAS,WEST BENGAL
PSIB0000873,Punjab and Sind Bank,PSIB0000873,NON MICR,HANUMAN GARH TOWN,"ASHOKA NIWAS, 17 ANAJ MANDI, STATION ROAD, HANUMAN GARH, RAJASTHAN-335515",01552-225333,HANUMANGARH,HANUMANGARH,RAJASTHAN
PSIB0020969,Punjab and Sind Bank,PSIB0020969,NON MICR,"NAVJEEWAN COMPLEX, JHILEY ROAD NEWAI DISTT TONK","NAVJEEWAN COMPLEX, JHILEY ROAD, NEWAI, DISTT TONK,RAJASTHAN-304021",01438-222036,NEWAI,TONK,RAJASTHAN
PSIB0021047,Punjab and Sind Bank,PSIB0021047,175023002,KULLU,"KULLU-MANALI ROAD, GANDHI NAGAR, OPP. MATANI EYE HOSPITAL, TEHSIL SADAR, DISTT. KULLU, HIMACHAL PRADESH- 175101",01902-224008,KULU,KULU,HIMACHAL PRADESH
PSIB0021072,Punjab and Sind Bank,PSIB0021072,NON MICR,"PHASE 3B, MOHALI","SCO 90, MOHALI, PUNJAB-160062",,SAS NAGAR(MOHALI),RUPNAGAR,PUNJAB
PSIB0021076,Punjab and Sind Bank,PSIB0021076,NON MICR,CHARAMPA BHADRAK,"CHARAMPA, BHADRAK, ODISHA   PIN CODE- 756100",,CHARAMPA,BHADRAK,ORISSA
PSIB0021090,Punjab and Sind Bank,PSIB0021090,NON MICR,CIRCULAR ROAD NABHA,"CIRCULAR ROAD, NABHA DISTT PATIALA, PUNJAB-147201",01765-223106,NABHA,PATIALA,PUNJAB
PSIB0021115,Punjab and Sind Bank,PSIB0021115,NON MICR,BARABANKI,"CIVIL LINES DEVA ROAD, BARABANKI UP 225001",,BARA BANKI,BARA BANKI,UTTAR PRADESH
PSIB0021116,Punjab and Sind Bank,PSIB0021116,NON MICR,PRATAPGARH,"7, BABAGANJ, PRATAPGARH  230001",,PRATAPGARH,PRATAPGARH,UTTAR PRADESH
PSIB0021144,Punjab and Sind Bank,PSIB0021144,NON MICR,GURGAON SEC-31,"DSS 102, SECTOR 31, GURGAON, HARYANA,  122001",,GURGAON,GURGAON,HARYANA
PSIB0021145,Punjab and Sind Bank,PSIB0021145,NON MICR,FARIDABAD SEC-5,"5 B/32, NIT, FARIDABAD, HARYANA,  121001",,FARIDABAD,FARIDABAD,HARYANA
PSIB0021148,Punjab and Sind Bank,PSIB0021148,NON MICR,GURGAON SEC-5,"DSS -50 SECTOR 5  HUDA MARKET, GURGAON, HARYANA,  122001",,GURGAON,GURGAON,HARYANA
PSIB0000026,Punjab and Sind Bank,PSIB0000026,NON MICR,AJITWAL,"AJITWAL, DISTT. MOGA , PUNJAB - 142053",01636-263028,AJITWAL,MOGA,PUNJAB
PSIB0000064,Punjab and Sind Bank,PSIB0000064,NON MICR,NAUSHERA MAJA SINGH,"NAUSHERA MAJA SINGH, DISTT. GURDASPUR , PUNJAB - 143518",1874266333,NAUSHERA MAJA SINGH,GURDASPUR,PUNJAB
PSIB0000068,Punjab and Sind Bank,PSIB0000068,NON MICR,KAHNUWAN,"KAHNUWAN, DISTT. GURDASPUR , PUNJAB - 143528",1872258227,KAHNUWAN,GURDASPUR,PUNJAB
PSIB0000081,Punjab and Sind Bank,PSIB0000081,NON MICR,SARHALI KALAN,"SARHALI KALAN, DISTT. TARN TARAN , PUNJAB - 143410",01852-501914,SARHALIKALAN,AMRITSAR,PUNJAB
PSIB0000086,Punjab and Sind Bank,PSIB0000086,NON MICR,KHALCHIAN,"KHALCHIAN, DISTT. AMRITSAR , PUNJAB - 143111",01853-501525,KHALCHIAN,AMRITSAR,PUNJAB
PSIB0000126,Punjab and Sind Bank,PSIB0000126,NON MICR,DAROLI BHAI,"DAROLI BHAI TEH.MOGA, DISTT. MOGA , PUNJAB - 142048",01636-260034,DAROLI BHAI,MOGA,PUNJAB
PSIB0000133,Punjab and Sind Bank,PSIB0000133,NON MICR,GHANAULI,"GHANAULI, DISTT. RUPNAGAR(RUPAR) , PUNJAB - 140113",01881-265226,GHANAULI,RUPNAGAR,PUNJAB
PSIB0000144,Punjab and Sind Bank,PSIB0000144,141023024,SHERPUR,"SHERPUR P.O. MOTI NAGAR, DISTT. LUDHIANA , PUNJAB - 141009","161-2670520,5002940/41",SHERPUR-BET,LUDHIANA,PUNJAB
PSIB0000185,Punjab and Sind Bank,PSIB0000185,NON MICR,SHAHBAZPUR,"SHAHBAJPUR, DISTT. TARN TARAN, PUNJAB - 143415",01852-264298,SHAHBAZPUR,AMRITSAR,PUNJAB
PSIB0000205,Punjab and Sind Bank,PSIB0000205,NON MICR,RANIPUR,"RANIPUR TEH. PHAGWARA, DISTT. KAPURTHALA, PUNJAB - 144403",1824-244028,RANIPUR,KAPURTHALA,PUNJAB
PSIB0000229,Punjab and Sind Bank,PSIB0000229,NON MICR,DAMLA,"DAMLA, DISTT. YAMUNANAGR, HARYANA - 135001",01732-282821,DAMLA,YAMUNANAGAR,HARYANA
PSIB0000247,Punjab and Sind Bank,PSIB0000247,NON MICR,MANOCHAL,"MANOCHAL, DISTT. TARN TARAN, PUNJAB - 143401",01852-243316,MANOCHAHAL,AMRITSAR,PUNJAB
PSIB0000327,Punjab and Sind Bank,PSIB0000327,NON MICR,GOKHUWAL,"GOKHUWAL P.O. BATALA, DISTT. GURDASPUR, PUNJAB - 143505",1871242233,GOKHUWAL,GURDASPUR,PUNJAB
PSIB0000342,Punjab and Sind Bank,PSIB0000342,NON MICR,SANDHWAN,"SANDHWAN, DISTT. FARIDKOT, PUNJAB - 151209",01635-220211,SANDHWAN,FARIDKOT,PUNJAB
PSIB0000359,Punjab and Sind Bank,PSIB0000359,NON MICR,KOKRI KALAN,"KOKRI KALAN TEH. MOGA, DISTT. MOGA, PUNJAB - 142054",01636-263013,KOKRI KALAN,MOGA,PUNJAB
PSIB0000367,Punjab and Sind Bank,PSIB0000367,NON MICR,CHAK SHERAWALA,"CHAK SHERAWALA, DISTT. MUKTSAR, PUNJAB - 152012",1633-251101,CHAK SHERAWALA,MUKTSAR,PUNJAB
PSIB0000393,Punjab and Sind Bank,PSIB0000393,NON MICR,MODI NAGAR,"87 UPPER BAZAR MODI NAGAR, DISTT. GHAZIABAD, UTTAR PRADESH - 201204",01232-243180,MODI NAGAR,GHAZIABAD,UTTAR PRADESH
PSIB0000457,Punjab and Sind Bank,PSIB0000457,NON MICR,SHERON,"VILLAGE SHERON, DISTT. TARN TARAN, PUNJAB - 143411",01852-503112,SHERON,TARN TARAN,PUNJAB
PSIB0000458,Punjab and Sind Bank,PSIB0000458,NON MICR,GANGWA,"GANGWA, DISTT. HISAR, HARYANA - 125001",01662-254379,GANGAWA,HISAR,HARYANA
PSIB0000507,Punjab and Sind Bank,PSIB0000507,NON MICR,KANSHI,"GANGUL ROAD  KANSHI P O PARTPUR INDUS AREA, DISTT. MEERUT, UTTAR PRADESH - 205001",95121-2440154,KANSHI,MEERUT,UTTAR PRADESH
PSIB0000511,Punjab and Sind Bank,PSIB0000511,NON MICR,SINGHA WALA,"SINGHA WALA MOGA II, DISTT. MOGA, PUNJAB - 142001",01636-272227,MOGA,MOGA,PUNJAB
PSIB0000515,Punjab and Sind Bank,PSIB0000515,NON MICR,CHABAL KALAN (SOHAL THATHI),"ADDA CHABAL BLOCK TARN TARAN, DISTT. TARN TARAN, PUNJAB - 143301",01852-277341,CHABHAL,AMRITSAR,PUNJAB
PSIB0000571,Punjab and Sind Bank,PSIB0000571,281023002,MATHURA,"191 BHAGWATI BHAWAN, DISTT. MATHURA, UTTAR PRADESH - 281001",0565-2406006,MATHURA,MATHURA,UTTAR PRADESH
PSIB0000585,Punjab and Sind Bank,PSIB0000585,NON MICR,SIDHWAN,"SIDHWAN    VIA TIBBER, DISTT. GURDASPUR, PUNJAB - 143524",1874253336,SIDHWAN,GURDASPUR,PUNJAB
PSIB0000592,Punjab and Sind Bank,PSIB0000592,NON MICR,TAKHANWADH KALAN,"TAKHANWADH KALAN, DISTT. MOGA, PUNJAB - 142053",01636-262403,TAKHANWAD,MOGA,PUNJAB
PSIB0000601,Punjab and Sind Bank,PSIB0000601,NON MICR,MANJURA,"MANJURA, DISTT. KARNAL, HARYANA - 132001",01745-265611,MANJURA,KARNAL,HARYANA
PSIB0000614,Punjab and Sind Bank,PSIB0000614,NON MICR,PATIALA GURBAX COLONY,"MAIN BAZAR, GURBAX COLONY, DISTT. PATIALA, PUNJAB - 147001",0175-2213239,PATIALA,PATIALA,PUNJAB
PSIB0000632,Punjab and Sind Bank,PSIB0000632,NON MICR,NATHUWALA JADID,"NATHUWALA JADID BLOCK MOGA, DISTT. MOGA, PUNJAB - 142053",01636-262030,NATHUWALA JADID,MOGA,PUNJAB
PSIB0000686,Punjab and Sind Bank,PSIB0000686,NON MICR,AMLOH,"AMLOH, OLD GRAIN MARKET, DISTT. FATEHGARH SAHIB, PUNJAB - 147203",01765-509793,AMLOH,FATEHGARH SAHIB,PUNJAB
PSIB0000732,Punjab and Sind Bank,PSIB0000732,NON MICR,TARN TARAN SRI DARBAR SAHIB,"SRI DARBAR SAHIB, DISTT. TARN TARAN, PUNJAB - 143401",01852-503835-36,TARN TARAN,AMRITSAR,PUNJAB
PSIB0000752,Punjab and Sind Bank,PSIB0000752,151023602,FARIDKOT DASHMESH PUBLIC SCHOOL,"TALWANDI ROAD FARIDKOT-151203, DISTT. FARIDKOT, PUNJAB - 151203",01639-504008 / 01639-250919,FARIDKOT,FARIDKOT,PUNJAB
PSIB0000760,Punjab and Sind Bank,PSIB0000760,NON MICR,GURDASPUR GOVERNMENT COLLEGE,"GOVERNMENT COLLEGE, DISTT. GURDASPUR, PUNJAB - 145321",1874241053,GURDASPUR,GURDASPUR,PUNJAB
PSIB0000780,Punjab and Sind Bank,PSIB0000780,135023003,"YAMUNA NAGAR, S.D.PUBLIC SCHOOL","YAMUNA NAGAR, S.D.PUBLIC SCHOOL, DISTT. YAMUNANAGR, HARYANA - ",01732-224700,YAMUNANAGAR,YAMUNANAGAR,HARYANA
PSIB0000781,Punjab and Sind Bank,PSIB0000781,135023004,YAMUNANAGAR SANT NISCHAL SINGH P .SCHOOL,"SANT NISCHAL SINGH PUBLIC SCHOOL, DISTT. YAMUNANAGR, HARYANA - 135001",01732-220221,YAMUNANAGAR,YAMUNANAGAR,HARYANA
PSIB0000786,Punjab and Sind Bank,PSIB0000786,132023103,"KARNAL, KHALSA MODERN SCHOOL,PREM NAGAR","KARNAL, KHALSA MODERN SCHOOL,PREM NAGAR, DISTT. KARNAL, HARYANA - 132001",0184-2290557,KARNAL,KARNAL,HARYANA
PSIB0000804,Punjab and Sind Bank,PSIB0000804,NON MICR,BALACHAUR B. K. M. COLLEGE,"BKM COLLEGE/MAHAVIDYALYA, DISTT. NAWANSHAHAR, PUNJAB - 144521",01885-500138,BALACHAUR,NAWANSHAHR,PUNJAB
PSIB0000820,Punjab and Sind Bank,PSIB0000820,NON MICR,MATHURA S D SABHA KRISHNA NAGAR,"SHRI SANATAN DHARAM SABHA, DISTT. MATHURA, UTTAR PRADESH - 208001",0565-2420085,MATHURA,MATHURA,UTTAR PRADESH
PSIB0000830,Punjab and Sind Bank,PSIB0000830,NON MICR,"SCO NO 59, WALIA ENCLAVE, OPPOSITE PUNJABI UNIVERSITY","SCO NO 59, WALIA ENCLAVE, OPPOSITE PUNJABI UNIVERSITY PA, DISTT. PATIALA, PUNJAB - 147002",0175-2283394,PATIALA,PATIALA,PUNJAB
PSIB0000841,Punjab and Sind Bank,PSIB0000841,152023053,ABOHAR NEW GRAIN MARKET,"NEW GRAIN MARKET, DISTT. FAZILKA, PUNJAB - 152116",01634-502259 / 01634-230559,ABOHAR,FEROZPUR,PUNJAB
PSIB0000850,Punjab and Sind Bank,PSIB0000850,NON MICR,NABHA NEW GRAIN MARKET,"NEW GRAIN MARKET, DISTT. PATIALA, PUNJAB - 147201",01765-222624,NABHA,PATIALA,PUNJAB
PSIB0000859,Punjab and Sind Bank,PSIB0000859,NON MICR,NAWAN SHAHAR KIRPAL SAGAR ACADEMY,"KIRPAL SAGAR ACADEMY, DARIAPUR, DISTT. NAWANSHAHAR, PUNJAB - 144514",01823-502013,NAWANSHAHAR,NAWANSHAHR,PUNJAB
PSIB0000896,Punjab and Sind Bank,PSIB0000896,456023003,"26- BAKHTWAR MARG, FREEGANJ, UJJAIN (M.P)","26- BAKHTWAR MARG, FREEGANJ, UJJAIN (M.P), DISTT. UJJAIN, MADHYA PRADESH - 456010",0734-2525574,UJJAIN,UJJAIN,MADHYA PRADESH
PSIB0000022,Punjab and Sind Bank,PSIB0000022,NON MICR,MAKHU,"MAKHU, DISTT. FEROZEPUR , PUNJAB - 142044",01682-270054,MAKHU,FEROZPUR,PUNJAB
PSIB0000049,Punjab and Sind Bank,PSIB0000049,NON MICR,RAMDAS,"RAMDAS, DISTT. AMRITSAR , PUNJAB - 143101",01858-232624,RAMDASS,AMRITSAR,PUNJAB
PSIB0000058,Punjab and Sind Bank,PSIB0000058,NON MICR,CHOGAWAN,"CHOWGAWAN VILLAGE, DISTT. AMRITSAR , PUNJAB - 143109",01858-244757,CHOGAWAN,AMRITSAR,PUNJAB
PSIB0000060,Punjab and Sind Bank,PSIB0000060,NON MICR,HARI KE PATTAN,"HARI KE PATAN, DISTT. TARN TARAN , PUNJAB - 143412",01851-238323/501191,HARI-KE-PATTAN,AMRITSAR,PUNJAB
PSIB0000122,Punjab and Sind Bank,PSIB0000122,NON MICR,MATTEWAL,"MATTEWAL, CHOWK MEHTA, DISTT. AMRITSAR , PUNJAB - 143019",01853-260136,MATEWAL,AMRITSAR,PUNJAB
PSIB0000128,Punjab and Sind Bank,PSIB0000128,NON MICR,KAIRON,"KAIRON, DISTT. TARN TARAN , PUNJAB - 143415",01851-226577,KAIRON,AMRITSAR,PUNJAB
PSIB0000143,Punjab and Sind Bank,PSIB0000143,NON MICR,BHAIRUPA,"BHAI RUPA, DISTT. BATHINDA , PUNJAB - 151106",01651-230039,BATHINDA,BATHINDA,PUNJAB
PSIB0000148,Punjab and Sind Bank,PSIB0000148,NON MICR,MUKLAWA,"MUKLAWA, DISTT. GANGANAGAR, RAJASTHAN - 335039",01507-247495,MUKLAWA,GANGANAGAR,RAJASTHAN
PSIB0000188,Punjab and Sind Bank,PSIB0000188,141023030,NANDPUR,"NANDPUR SAHENEWAL, DISTT. LUDHIANA, PUNJAB - 141120",161-2844112,NANDPUR,LUDHIANA,PUNJAB
PSIB0000246,Punjab and Sind Bank,PSIB0000246,NON MICR,VERPAL,"VERPAL, DISTT. AMRITSAR, PUNJAB - 143006",0183-5024991-93,VERPAL,AMRITSAR,PUNJAB
PSIB0000380,Punjab and Sind Bank,PSIB0000380,NON MICR,PANNIWALA FATTA,"PANNIWALA FATTA, DISTT. MUKTSAR, PUNJAB - 151210",01637-242565,PANNIWALA FATTA,MUKTSAR,PUNJAB
PSIB0000408,Punjab and Sind Bank,PSIB0000408,NON MICR,NAGOKE,"NAGOKE TEH. TARN TARAN, DISTT. TARN TARAN, PUNJAB - 143422",01859-210589,NAGOKE,TARN TARAN,PUNJAB
PSIB0000451,Punjab and Sind Bank,PSIB0000451,NON MICR,BHANGALI KALAN,"BHANGALI KALAN, DISTT. AMRITSAR, PUNJAB - 143601",0183-2791029,BHANGALI KALAN,AMRITSAR,PUNJAB
PSIB0000453,Punjab and Sind Bank,PSIB0000453,NON MICR,SHAM NAGAR DISTRICT AMRITSAR,"VPO SHAM NAGAR, BLOCK MAJITHA, DISTT. AMRITSAR, PUNJAB - 143601",0183-2746306,SHAMNAGAR,AMRITSAR,PUNJAB
PSIB0000455,Punjab and Sind Bank,PSIB0000455,NON MICR,BUTTER KALAN,"BUTTER KALAN, DISTT. AMRITSAR, PUNJAB - 143205",01853-257605,BUTTER KALAN,AMRITSAR,PUNJAB
PSIB0000500,Punjab and Sind Bank,PSIB0000500,NON MICR,GOINDWAL SAHIB,"GURDWARA GOINDWAL SAHIB, DISTT. TARN TARAN, PUNJAB - 143422",01859-222033,GOINDWAL,TARN TARAN,PUNJAB
PSIB0000512,Punjab and Sind Bank,PSIB0000512,NON MICR,IETGAWAN,"IETGAON, DISTT. PILIBHIT, UTTAR PRADESH - 266201",05881-225219,IETGAWAN,PILIBHIT,UTTAR PRADESH
PSIB0000513,Punjab and Sind Bank,PSIB0000513,NON MICR,MOHIDDINPUR,"MOHIDDINPUR, DISTT. SHAHJAHANPUR, UTTAR PRADESH - 242402",05844-290834,MOHIDDINPUR,SHAHJAHANPUR,UTTAR PRADESH
PSIB0000514,Punjab and Sind Bank,PSIB0000514,NON MICR,RAUTAPUR KALAN,"RAMPUR KALAN, DISTT. SHAHJAHANPUR, UTTAR PRADESH - 242101",05844-263839,RAGHUNATHPUR,SHAHJAHANPUR,UTTAR PRADESH
PSIB0000528,Punjab and Sind Bank,PSIB0000528,NON MICR,GANESHPUR,"GANESHPUR P.O.HASTINAPUR, DISTT. MEERUT, UTTAR PRADESH - 250404",01233-280216,GANESHPUR,MEERUT,UTTAR PRADESH
PSIB0000550,Punjab and Sind Bank,PSIB0000550,NON MICR,KOTLI ABU,"KOTLI ABU, DISTT. MUKTSAR, PUNJAB - 151202",01637-239255,KOTLI ABU,MUKTSAR,PUNJAB
PSIB0000554,Punjab and Sind Bank,PSIB0000554,NON MICR,CHAK KHERE WALA,"CHAK KHEREWALA, DISTT. FAZILKA, PUNJAB - 152033",01638-259619,FAZILKA,FEROZPUR,PUNJAB
PSIB0000557,Punjab and Sind Bank,PSIB0000557,NON MICR,BHAI KA KHERA,"BHAI KA KERA RASULPUR KERA, DISTT. MUKTSAR, PUNJAB - 152115",01637-246046,BHAI.KA KERA-RASULPUR,MUKTSAR,PUNJAB
PSIB0000574,Punjab and Sind Bank,PSIB0000574,NON MICR,CHARIK,"CHARIK TEH. MOGA, DISTT. MOGA, PUNJAB - 142001",01636-268510,CHIRAK,MOGA,PUNJAB
PSIB0000583,Punjab and Sind Bank,PSIB0000583,NON MICR,KHIALA KALAN,"KHIALA KALAN VILLAGE, DISTT. AMRITSAR, PUNJAB - 143109",01858-262030,KHIALA KALAN,AMRITSAR,PUNJAB
PSIB0000584,Punjab and Sind Bank,PSIB0000584,NON MICR,MALLIAN,"MALLIAN, DISTT. AMRITSAR, PUNJAB - 143115",0183-5071501,MALLIAN,AMRITSAR,PUNJAB
PSIB0000591,Punjab and Sind Bank,PSIB0000591,NON MICR,RAJOKE,"RAJOKE, DISTT. TARN TARAN, PUNJAB - 143418",01851-220116,RAJOKE,AMRITSAR,PUNJAB
PSIB0000595,Punjab and Sind Bank,PSIB0000595,NON MICR,BHINDI SAIDAN,"BHINDI SAIDAN, DISTT. AMRITSAR, PUNJAB - 143601",001858-252363,BHINDI SAYDAN,AMRITSAR,PUNJAB
PSIB0000598,Punjab and Sind Bank,PSIB0000598,NON MICR,MAUR,"MAUR,     VIA KOT KAPURA, DISTT. FARIDKOT, PUNJAB - 151204",01635-260426,MAUR,BATHINDA,PUNJAB
PSIB0000602,Punjab and Sind Bank,PSIB0000602,NON MICR,JHANDA KALAN,"JHANDA KALAN, DISTT. MANSA, PUNJAB - 151507",01659-257333,JHANDA KALAN,MANSA,PUNJAB
PSIB0000656,Punjab and Sind Bank,PSIB0000656,NON MICR,ILMIWALA,"ILMEWALA, P. O. SUDH SINGH WALA, DISTT. FEROZEPUR, PUNJAB - 152021",01682-275145,ILMEWALA,FEROZPUR,PUNJAB
PSIB0000657,Punjab and Sind Bank,PSIB0000657,NON MICR,GOLU KA MOR,"GOLU KA MORR, GURU HAR SAHAI, DISTT. FEROZEPUR, PUNJAB - 152021",01685-232167,GOLU KA MORR,FEROZPUR,PUNJAB
PSIB0000803,Punjab and Sind Bank,PSIB0000803,NON MICR,NAWAN SHAHAR MANDIR DEVI DYALA,"MANDER DEVI DAYALA, NAWAN SHAHR,JALANDHAR,  PUNJAB-144514 ",01823-503075,AMRITSAR,AMRITSAR,PUNJAB
PSIB0000821,Punjab and Sind Bank,PSIB0000821,110023051,MATHURA CANTONMENT,"MATHURA CANTONEMENT,, DISTT. MATHURA, UTTAR PRADESH - 208001",0565-2471382,MATHURA,MATHURA,UTTAR PRADESH
PSIB0000828,Punjab and Sind Bank,PSIB0000828,NON MICR,PATIALA PARTAP NAGAR,"DASHMESH PUBLIC SCHOOL, MODEL TOWN, DISTT. PATIALA, PUNJAB - 147001",0175-2200696,PATIALA,PATIALA,PUNJAB
PSIB0000829,Punjab and Sind Bank,PSIB0000829,NON MICR,PATIALA (SST NAGAR) GOVT.POLYTECNIC FOR WOMEN,"SEWA SINGH THIKRIWAL NAGAR, DISTT. PATIALA, PUNJAB - 147001",0175-2371988,PATIALA,PATIALA,PUNJAB
PSIB0000835,Punjab and Sind Bank,PSIB0000835,180023006,JAMMU M.C.K.HIGH SCHOOL,"M.C.KHALSA HIGH SCHOOL, SMADH MAHRANI CHAND KAUR, DISTT. JAMMU, JAMMU & KASHMIR - 180001",1912520486,JAMMU,JAMMU,JAMMU & KASHMIR
PSIB0000851,Punjab and Sind Bank,PSIB0000851,NON MICR,PASIANA GRAM PANCHAYAT,"GRAM PANCHYAT, PASSIAN, DISTT. PATIALA, PUNJAB - ",0175-2677011,PATIALA,PATIALA,PUNJAB
PSIB0000874,Punjab and Sind Bank,PSIB0000874,180023008,BABLIANA MAHANT BACHITAR SINGH COLL. ENG.,"BABLIANA (DIGIANA) JAMMU, DISTT. JAMMU, JAMMU & KASHMIR - 181101",1912108072,JAMMU,JAMMU,JAMMU & KASHMIR
PSIB0000921,Punjab and Sind Bank,PSIB0000921,NON MICR,"MUKTSAR, ADESH HOSPITAL","ADESH HOSPITAL & RESEARCH CENTER, KOTKAPURA ROAD, MUKTSAR, PUNJAB-152022",01633-268292,MUKTSAR,MUKTSAR,PUNJAB
PSIB0000922,Punjab and Sind Bank,PSIB0000922,NON MICR,CHAPPIANWALI (MALOUT),"GURU TEG BAHADUR INSTITUTE OF ENG. & TECH, CHHAPIANWALI, DISTT. MUKTSAR, PUNJAB - 152010",01637-262835,MALOUT,MUKTSAR,PUNJAB
PSIB0020937,Punjab and Sind Bank,PSIB0020937,NON MICR,BHOLATH,"NADALA ROAD, BHOLATH, DISTT. KAPURTHALA PUNJAB PIN 144622",01822-503368/69,BHOLATH,KAPURTHALA,PUNJAB
PSIB0020949,Punjab and Sind Bank,PSIB0020949,NON MICR,VILLAGE BATH TEHSIL & DISTRICT TARN TARAN,"VILLAGE BATH TEHSIL & DISTRICT TARN TARAN, PUNJAB-143406",01852-268069,TARN TARAN,AMRITSAR,PUNJAB
PSIB0020950,Punjab and Sind Bank,PSIB0020950,NON MICR,"VILLAGE  MANAWALA BLOCK CHOGAWAN, TEHSIL AJNALA","MANAWALA BLOCK CHOGAWAN TEHSIL AJNALA, DISTT. AMRITSAR, PUNJAB - 143109",01858-243050,AJNALA,AMRITSAR,PUNJAB
PSIB0020952,Punjab and Sind Bank,PSIB0020952,NON MICR,PITHO DISTT BATHINDA,"VILLAGE & P.O. PITHO, TEHSIL PHUL TOWN, DISTT. BATHINDA, PUNJAB - 151103",01651-227250,BATHINDA,BATHINDA,PUNJAB
PSIB0020954,Punjab and Sind Bank,PSIB0020954,NON MICR,"RAMAN, VILLAGE & PO RAMAN TEHSIL NIHAL SINGH WALA","RAMAN, VILLAGE & PO RAMAN TEHSIL NIHAL SINGH WALA DISTT MOGA, PUNJAB-142001",01636-287453,MOGA,MOGA,PUNJAB
PSIB0020968,Punjab and Sind Bank,PSIB0020968,NON MICR,MUDKI DISTT FEROZPUR,"MUDKI, VILLAGE & POST OFFICE MUDKI DISTT FEROZPUR,PUNJAB -142060",01632-501135,MUDKI,FEROZPUR,PUNJAB
PSIB0020977,Punjab and Sind Bank,PSIB0020977,NON MICR,"VILLAGE AJNALA, DISTT AMRITSAR","VILLAGE AJNALA, TEHSIL AJNALA, DISTT AMRITSAR, PUNJAB -143102",01858-500256,AJNALA,AMRITSAR,PUNJAB
PSIB0020978,Punjab and Sind Bank,PSIB0020978,NON MICR,VILLAGE MEHTA CHOWK,"VILLAGE MEHTA CHOWKTEHSIL BABA BAKALA, DISTT. AMRITSAR, PUNJAB - 143114",01853- 256060,BABA BAKALA,AMRITSAR,PUNJAB
PSIB0020981,Punjab and Sind Bank,PSIB0020981,NON MICR,GIANA DISTT BATHINDA,"VILLAGE & P.O. GIANA TEHSIL TALWNDI SABO, DISTT. BATHINDA, PUNJAB - 151001",01655-249251,GONIANA,BATHINDA,PUNJAB
PSIB0021056,Punjab and Sind Bank,PSIB0021056,NON MICR,SOLAN,"PLATINUM -2, OPPOSITE DISTRICT COURT, NEAR SANJIVANI HOSPITAL, THE MALL SOLAN, HIMACHAL PRADESH 173212",,SOLAN,SOLAN,HIMACHAL PRADESH
PSIB0021057,Punjab and Sind Bank,PSIB0021057,NON MICR,NATHANA,"BHAGTA ROAD, VPO NATHANA, DISTT BHATINDA, DISTT. NATHANA, PUNJAB - 151001",NIL,NATHANA,BATHINDA,PUNJAB
PSIB0021066,Punjab and Sind Bank,PSIB0021066,NON MICR,DHARAMKOT,"MAIN BAZAR, DHARAMKOT, DISTT.  MOGA, PUNJAB PIN CODE - 142042",,DHARMKOT,MOGA,PUNJAB
PSIB0021067,Punjab and Sind Bank,PSIB0021067,NON MICR,BROOKEFIELD BANGALORE,"NO. 113/1 B, GROUND FLOOR, ITPL, MAIN ROAD, BROOK FIELDS, BANGALORE, KARNATAKA -560037",080- 28543707,BANGALORE,BANGALORE URBAN,KARNATAKA
PSIB0021080,Punjab and Sind Bank,PSIB0021080,NON MICR,SULAR,"VILLAGE SULAR, TEHSIL & DISTT PATIALA, PUNJAB - 147001",,SULARGHRAT,SANGRUR,PUNJAB
PSIB0021084,Punjab and Sind Bank,PSIB0021084,NON MICR,"ASHOK NAGAR, M.P.","SUBHASH GANJ, NEAR KIRTI STAMBH, ASHOK NAGAR, MADHYA PRADESH - 473331",076543-223377,ASHOKNAGAR,ASHOK NAGAR,MADHYA PRADESH
PSIB0021095,Punjab and Sind Bank,PSIB0021095,NON MICR,BUNDI,"BHANDARI COMPLEX, BYE PASS ROAD, BUNDI, RAJASTHAN",7472442911,BUNDI,BUNDI,RAJASTHAN
PSIB0021102,Punjab and Sind Bank,PSIB0021102,NON MICR,"RUDRAPUR, KASHIPUR ROAD","SHRI DHARAMKANTA KASHIPUR ROAD, RUDRAPPUR, DISTT UDHAM SINGH NAGAR, UTTRAKHAND- 263153",,RUDRAPUR,UDHAM SINGH NAGAR,UTTARANCHAL
PSIB0021105,Punjab and Sind Bank,PSIB0021105,NON MICR,SELAQUI,"JAI DURGA COMMERCIAL PLAZA, MAIN BAZAR, SELAQUI DISTT. DEHRADUN, UTTARAKHAND - 248001",,SELAKUI,DEHRA DUN,UTTARANCHAL
PSIB0021120,Punjab and Sind Bank,PSIB0021120,NON MICR,PHAGUWALA,"VPO PHGUWALA, TEHSIL BHAWANIGARH, DISTT. SANGRUR, PUNJAB- 148026",,SANGRUR,SANGRUR,PUNJAB
PSIB0021121,Punjab and Sind Bank,PSIB0021121,NON MICR,GHEEDAH,"VILL GHEEDAH, MOUZA TITAGARH,  NORTH 24 PARGANAS 700121",,GURDAHA,NORTH 24 PARGANAS,WEST BENGAL
PSIB0021132,Punjab and Sind Bank,PSIB0021132,NON MICR,KALWANU,"VPO KALWANOO, PATRAN PATIALA  PB  147102",,PATRAN,PATIALA,PUNJAB
PSIB0021136,Punjab and Sind Bank,PSIB0021136,NON MICR,VAPI,"SHOP NO 13/14, TIRUPATI PLAZA, VAPI DAMAN RD VAPI DISTT VALSAD  GUJRAT-396195", 0260-2460064,VAPI,VALSAD,GUJARAT
PSIB0021146,Punjab and Sind Bank,PSIB0021146,NON MICR,PINANGWAN,"VPO PINANGWAN,  DISTT MEWAT, HARYANA  122508",,PINANGWAN,GURGAON,HARYANA
PSIB0000015,Punjab and Sind Bank,PSIB0000015,NON MICR,MULLANA,"MULLANA, DISTT. AMBALA , HARYANA - 133203",01731-275234,MULLANA,AMBALA,HARYANA
PSIB0000034,Punjab and Sind Bank,PSIB0000034,NON MICR,BARIWALA,"BARIWALA, DISTT. MUKTSAR , PUNJAB - 152025",01633-275227,BARIWALA,MUKTSAR,PUNJAB
PSIB0000035,Punjab and Sind Bank,PSIB0000035,NON MICR,SMALSAR,"SMALSAR, DISTT. MOGA , PUNJAB - 142049",,SAMALSAR,MOGA,PUNJAB
PSIB0000045,Punjab and Sind Bank,PSIB0000045,NON MICR,RAIPUR RANI,"RAIPUR RANI, DISTT. PANCHKULA , HARYANA - 134204",01734-256629,RAIPUR RANI,PANCHKULA,HARYANA
PSIB0000050,Punjab and Sind Bank,PSIB0000050,NON MICR,CHOLA SAHIB,"CHOLA SAHIB, DISTT. TARN TARAN , PUNJAB - 143408",01859-248123,CHOLA SAHIB,AMRITSAR,PUNJAB
PSIB0000059,Punjab and Sind Bank,PSIB0000059,NON MICR,KHANAURI MANDI,"KHANAURI MANDI TEHSIL MOONAK, DISTT. SANGRUR , PUNJAB - 148027",01676-250123,KHANAURI(MANDI),SANGRUR,PUNJAB
PSIB0000062,Punjab and Sind Bank,PSIB0000062,NON MICR,HARCHOWAL,"HARCHOWAL TEH.BATALA, DISTT. GURDASPUR , PUNJAB - 143527",1872252436,HARCHOWAL,GURDASPUR,PUNJAB
PSIB0000070,Punjab and Sind Bank,PSIB0000070,NON MICR,GHAGGA,"GHAGGA, DISTT. PATIALA , PUNJAB - 147102",01764-252263,GHAGGA,PATIALA,PUNJAB
PSIB0000072,Punjab and Sind Bank,PSIB0000072,NON MICR,DIRBA,"MAIN BAZAR, DIRBA, DISTT. SANGRUR , PUNJAB - 148035",01676-242321,DIRBA,SANGRUR,PUNJAB
PSIB0000077,Punjab and Sind Bank,PSIB0000077,NON MICR,DAYALPUR,"DAYALPUR, DISTT. JALANDHAR , PUNJAB - 144803",181-2736513,DAYALPUR,NAWANSHAHR,PUNJAB
PSIB0000080,Punjab and Sind Bank,PSIB0000080,NON MICR,KHERA DONA,"KHERA DONA, DISTT. KAPURTHALA , PUNJAB - 144620",1822-253223,KHERA DONA,KAPURTHALA,PUNJAB
PSIB0000096,Punjab and Sind Bank,PSIB0000096,NON MICR,KOTLI SURAT MALHI,"KOTLI SURAT MALHI, DISTT. GURDASPUR , PUNJAB - 143605",1871262325,KOTLI SURAT MALHI,GURDASPUR,PUNJAB
PSIB0000109,Punjab and Sind Bank,PSIB0000109,NON MICR,BHAGOWAL,"BHAGOWAL, DISTT. GURDASPUR , PUNJAB - 143511",1871258207,BHAGOWAL,GURDASPUR,PUNJAB
PSIB0000125,Punjab and Sind Bank,PSIB0000125,NON MICR,PATRAN,"PATRAN, DISTT. PATIALA , PUNJAB - 147105",01764-242024,PATRAN,PATIALA,PUNJAB
PSIB0000130,Punjab and Sind Bank,PSIB0000130,NON MICR,KHARWAN,"KHARWAN, DISTT. AMBALA , HARYANA - 135105",01735-240831,KHARWAN,AMBALA,HARYANA
PSIB0000132,Punjab and Sind Bank,PSIB0000132,NON MICR,MAJHOLA,"MAJHOLA, DISTT. PILIBHIT , UTTAR PRADESH - 266302",05882-272254,MAJHOLA,PILIBHIT,UTTAR PRADESH
PSIB0000136,Punjab and Sind Bank,PSIB0000136,NON MICR,NOGAWAN,"NOGAWAN TEH, SIRHIND, DISTT. FATEHGARH SAHIB , PUNJAB - 140412",01763-235001,NOGAWAN,FATEHGARH SAHIB,PUNJAB
PSIB0000146,Punjab and Sind Bank,PSIB0000146,NON MICR,PATLA,"PATLA, DISTT. GHAZIABAD, UTTAR PRADESH - 281401",01232-259025,PATLA,GHAZIABAD,UTTAR PRADESH
PSIB0000150,Punjab and Sind Bank,PSIB0000150,NON MICR,BEENJ BAYALE,"BEENJ BAYALA TEH. PADAMPUR, DISTT. GANGANAGAR, RAJASTHAN - 335061",01505-271699,BEENJ BAYALE,GANGANAGAR,RAJASTHAN
PSIB0000151,Punjab and Sind Bank,PSIB0000151,NON MICR,CHUNAWADH,"CHUNAWADH, DISTT. GANGANAGAR, RAJASTHAN - 335022",0154-2763033,CHUNAWADH,GANGANAGAR,RAJASTHAN
PSIB0000153,Punjab and Sind Bank,PSIB0000153,NON MICR,SRI BIJAY NAGAR,"SRI BIJAY NAGAR, DISTT. GANGANAGAR, RAJASTHAN - 335704",01498-230080,GANGANAGAR,GANGANAGAR,RAJASTHAN
PSIB0000180,Punjab and Sind Bank,PSIB0000180,NON MICR,MALANWALA KHAS,"MALANWALA KHAS, DISTT. FEROZEPUR, PUNJAB - 152021",01682-275130,MALLAWANA KHAS,FEROZPUR,PUNJAB
PSIB0000184,Punjab and Sind Bank,PSIB0000184,NON MICR,SATNAUR,"SATNAUR TEH. GARHSHANKAR, DISTT. HOSHIARPUR, PUNJAB - 144528",01884-510010,SATNOUR,HOSHIARPUR,PUNJAB
PSIB0000227,Punjab and Sind Bank,PSIB0000227,NON MICR,GUNACHAUR,"GUNA CHAUR, DISTT. NAWANSHAHAR, PUNJAB - 144511",01823-501038,GUNACHAUR,NAWANSHAHR,PUNJAB
PSIB0000232,Punjab and Sind Bank,PSIB0000232,NON MICR,LUTHERI,"LUTHERI, Morinda C.S. Road, DISTT. RUPNAGAR(RUPAR), PUNJAB - 140102",0160-2639437,LUTHERI,RUPNAGAR,PUNJAB
PSIB0000243,Punjab and Sind Bank,PSIB0000243,NON MICR,VALTOHA,"ADDA MARKET, VALTOHA, DISTT. TARN TARAN, PUNJAB - 143418",01851-233637,VALTOHA,AMRITSAR,PUNJAB
PSIB0000258,Punjab and Sind Bank,PSIB0000258,NON MICR,JAGDEV KALAN,"JAGDEV KALAN, DISTT. AMRITSAR, PUNJAB - 143101",01858-5027864,JAGDEVKALAN,AMRITSAR,PUNJAB
PSIB0000260,Punjab and Sind Bank,PSIB0000260,NON MICR,WADALA KALAN,"WADALA KALAN, DISTT. AMRITSAR, PUNJAB - 143202",01853-222043,WADALA KALAN,AMRITSAR,PUNJAB
PSIB0000296,Punjab and Sind Bank,PSIB0000296,NON MICR,PURAIN,"PURAIN VIA MULLANPUR, DISTT. LUDHIANA, PUNJAB - 141102",1624-237111,PURAIN,LUDHIANA,PUNJAB
PSIB0000311,Punjab and Sind Bank,PSIB0000311,NON MICR,MANDI DABWALI,"DABWALI MANDI, DISTT. SIRSA, HARYANA - 125055",01668-222706,MANDI DABWALI,SIRSA,HARYANA
PSIB0000330,Punjab and Sind Bank,PSIB0000330,NON MICR,BADBAR,"BADBAR, BLOCK TAPA, DISTT. BARNALA, PUNJAB - 148101",01679-268202,BADBAR,BARNALA,PUNJAB
PSIB0000378,Punjab and Sind Bank,PSIB0000378,NON MICR,RAKHRA,"RAKHRA, NABHA ROAD, DISTT. PATIALA, PUNJAB - 147201",0175-2620250,RAKHRA,PATIALA,PUNJAB
PSIB0000438,Punjab and Sind Bank,PSIB0000438,NON MICR,BARUNDI,"BARUNDI, DISTT. LUDHIANA, PUNJAB - 141201",161-2868203,BARUNDI,LUDHIANA,PUNJAB
PSIB0000442,Punjab and Sind Bank,PSIB0000442,NON MICR,CHAKDANA,"CHAK DANA, DISTT. NAWANSHAHAR, PUNJAB - 144005",01823-248028,CHAK DANA,NAWANSHAHAR,PUNJAB
PSIB0000443,Punjab and Sind Bank,PSIB0000443,NON MICR,ATTOWAL,"ATTOWAL, DISTT. HOSHIARPUR, PUNJAB - 346111",01882-279388,ATTOWAL,HOSHIARPUR,PUNJAB
PSIB0000444,Punjab and Sind Bank,PSIB0000444,NON MICR,KATHGARH,"KATHGARH TEH. BALACHAUR, DISTT. NAWANSHAHAR, PUNJAB - 144522",01885-504122,KATHGARH,NAWANSHAHAR,PUNJAB
PSIB0000446,Punjab and Sind Bank,PSIB0000446,NON MICR,MUKANDPUR,"MUKANDPUR, DISTT. NAWANSHAHAR, PUNJAB - ",01823-276061,SARHAL QAZIAN,NAWANSHAHAR,PUNJAB
PSIB0000449,Punjab and Sind Bank,PSIB0000449,NON MICR,HEDDON,"HEDDON TEH. SAMRALA, DISTT. LUDHIANA, PUNJAB - 141114",1628-272584,HEDDON,LUDHIANA,PUNJAB
PSIB0000461,Punjab and Sind Bank,PSIB0000461,NON MICR,WADALA BANGER,"WADALA BANGER, DISTT. GURDASPUR, PUNJAB - 143505",1871280434,WADALA BANGER,GURDASPUR,PUNJAB
PSIB0000465,Punjab and Sind Bank,PSIB0000465,NON MICR,ZAHURA,"ZAHURA TEH. DASUYA, DISTT. HOSHIARPUR, PUNJAB - 144204",01886-274126,ZAHURA,HOSHIARPUR,PUNJAB
PSIB0000493,Punjab and Sind Bank,PSIB0000493,NON MICR,BARAGUDA,"BARAGUDA, DISTT. SIRSA, HARYANA - 125078",01696-245233,BARAGUDA,SIRSA,HARYANA
PSIB0000497,Punjab and Sind Bank,PSIB0000497,NON MICR,BADRU KHAN,"BADRU KHAN, DISTT. SANGRUR, PUNJAB - 148001",01672-289247,BADRU KHAN,SANGRUR,PUNJAB
PSIB0000509,Punjab and Sind Bank,PSIB0000509,NON MICR,GUNGCHAI,"GUNGCHAI TEH PURANPUR, DISTT. PILIBHIT, UTTAR PRADESH - 262122",05880-268339,GUNGCHAIC,PILIBHIT,UTTAR PRADESH
PSIB0000516,Punjab and Sind Bank,PSIB0000516,NON MICR,MIDDA,"MIDDA, DISTT. MUKTSAR, PUNJAB - 151210",01637-242104,MIDDA,MUKTSAR,PUNJAB
PSIB0000517,Punjab and Sind Bank,PSIB0000517,NON MICR,THANDEWALA,"THANDEWALA, DISTT. MUKTSAR, PUNJAB - 152026",01633-259220,THANDEWALA,MUKTSAR,PUNJAB
PSIB0000520,Punjab and Sind Bank,PSIB0000520,NON MICR,KALANAUR (RUDIANA),"V.P.O RUDIANA, DISTT. GURDASPUR, PUNJAB - 143505",1874280222,KALANAUR,GURDASPUR,PUNJAB
PSIB0000533,Punjab and Sind Bank,PSIB0000533,NON MICR,GAIPURA,"GAIPURA, DISTT. MIRZAPUR, UTTAR PRADESH - 231303",05442-281229,GAIPURA,MIRZAPUR,UTTAR PRADESH
PSIB0000541,Punjab and Sind Bank,PSIB0000541,NON MICR,MAHUA GUNDEY,"POST OFFICE KAJRI NIRANJANPUR TEH: PURANPUR, DISTT. SHAHJAHANPUR, UTTAR PRADESH - 242402",05844-276250,MAHUA GUNDEY,SHAHJAHANPUR,UTTAR PRADESH
PSIB0000556,Punjab and Sind Bank,PSIB0000556,NON MICR,RAI KE KALAN,"RAI KE KALAN, DISTT. BATHINDA, PUNJAB - 151401",01637-238230,RAIKA KALAN,BATHINDA,PUNJAB
PSIB0000559,Punjab and Sind Bank,PSIB0000559,NON MICR,GURSANDI,"GURSANDI, DISTT. MIRZAPUR, UTTAR PRADESH - 231001",05442-255125,GURSANDI,MIRZAPUR,UTTAR PRADESH
PSIB0000560,Punjab and Sind Bank,PSIB0000560,NON MICR,ALIWAL (NASARKE SARCHUR),"ALIWAL TEHSIL BATALA, DISTT. GURDASPUR, PUNJAB - 143505",1871248899,ALIWAL,GURDASPUR,PUNJAB
PSIB0000580,Punjab and Sind Bank,PSIB0000580,NON MICR,UDAIKARANPUR,"UDAI KARANPUR, DISTT. PILIBHIT, UTTAR PRADESH - 262001",05880-267236,UDAIKARANPUR,PILIBHIT,UTTAR PRADESH
PSIB0000586,Punjab and Sind Bank,PSIB0000586,NON MICR,HIMMATPURA,"HIMMATPURA, DISTT. MOGA, PUNJAB - 142032",01636-289541,HIMMATPUR,MOGA,PUNJAB
PSIB0000589,Punjab and Sind Bank,PSIB0000589,NON MICR,JOHLAN,"JOHLAN BLOCK MAHAL KALAN-, DISTT. SANGRUR, PUNJAB - 148104",1679-226050,JOHLAN,SANGRUR,PUNJAB
PSIB0000593,Punjab and Sind Bank,PSIB0000593,NON MICR,GHOGRA,"GHOGRA, DISTT. HOSHIARPUR, PUNJAB - 144205",01883-506075,GHOGRA,HOSHIARPUR,PUNJAB
PSIB0000604,Punjab and Sind Bank,PSIB0000604,NON MICR,THANDI,"11 T. K. THANDI, TEHSIL RAI SINGH NAGAR, DISTT. GANGANAGAR, RAJASTHAN - 335706",01507-222808,THANDI,GANGANAGAR,RAJASTHAN
PSIB0000633,Punjab and Sind Bank,PSIB0000633,NON MICR,DHANETHA,"DHANETHA BLOCK SAMANA, DISTT. PATIALA, PUNJAB - 147101",01764-266655,DHANETHA,PATIALA,PUNJAB
PSIB0000634,Punjab and Sind Bank,PSIB0000634,NON MICR,ROSHANPUR,"ROSHANPURA VIA DEVIGARH, DISTT. PATIALA, PUNJAB - 132129",0175-2635338,ROSHANPUR,PATIALA,PUNJAB
PSIB0000637,Punjab and Sind Bank,PSIB0000637,141023035,JANDIALI,"JANDIALI-141001, DISTT. LUDHIANA, PUNJAB - 141401","161-2843141,5008765",JANDIALI,LUDHIANA,PUNJAB
PSIB0000650,Punjab and Sind Bank,PSIB0000650,NON MICR,BANWALI,"BANWALI, DISTT. GANGANAGAR, RAJASTHAN - 341550",01503-267046,BANWALA,GANGANAGAR,RAJASTHAN
PSIB0000662,Punjab and Sind Bank,PSIB0000662,NON MICR,BAL KALAN,"BAL KALAN, DISTT. AMRITSAR, PUNJAB - 143008",0183-2570188,BAL KALAN,AMRITSAR,PUNJAB
PSIB0000664,Punjab and Sind Bank,PSIB0000664,NON MICR,GANGUWAL,"GANGUWAL, TEHSIL ANANDPUR SAHIB, DISTT. RUPNAGAR(RUPAR), PUNJAB - 140123",01887-236623,GANGUWAL,RUPNAGAR,PUNJAB
PSIB0000665,Punjab and Sind Bank,PSIB0000665,NON MICR,GAUNSGARH,"GAUNSGARH  P.O. JODHWAL, VIA MACHHIWARA, DISTT. LUDHIANA, PUNJAB - 142029",1628-247780,GAUNSGARH,LUDHIANA,PUNJAB
PSIB0000670,Punjab and Sind Bank,PSIB0000670,NON MICR,ZARRA,"ZARRA, DISTT. PILIBHIT, UTTAR PRADESH - 261122",05880-266217,ZARRA,PILIBHIT,UTTAR PRADESH
PSIB0000674,Punjab and Sind Bank,PSIB0000674,NON MICR,KAREILI,"KARELI TEHSIL PURANPUR, DISTT. PILIBHIT, UTTAR PRADESH - 262202",9368571080,KARELI,PILIBHIT,UTTAR PRADESH
PSIB0000677,Punjab and Sind Bank,PSIB0000677,NON MICR,RAM NAGRA,"V.P.O RAM NAGAR, TEH: PURANPUR, DISTT. PILIBHIT, UTTAR PRADESH - 262124",05880-292280,RAMNAGAR,PILIBHIT,UTTAR PRADESH
PSIB0000696,Punjab and Sind Bank,PSIB0000696,NON MICR,"SRI HARGOBINDPUR ,","AMRITSAR ROAD, NEAR BUS STAND, DISTT. GURDASPUR, PUNJAB - 143515",1872257101,SRIHAR GOBINDPUR,GURDASPUR,PUNJAB
PSIB0000750,Punjab and Sind Bank,PSIB0000750,132023104,"KARNAL, S.S.S. SR. SEC. SCHOOL","S.S.S. SENIOR SECONDARY SCHOOL, DISTT. KARNAL, HARYANA - 132001",0184-2241292,KARNAL,KARNAL,HARYANA
PSIB0000771,Punjab and Sind Bank,PSIB0000771,335023003,SRI GANGA NAGAR (S G N KHALSA COLLEGE),"GURU NANAK KHALSA COLLEGE, DISTT. GANGANAGAR, RAJASTHAN - 335001",0154-2440952,GANGANAGAR,GANGANAGAR,RAJASTHAN
PSIB0000785,Punjab and Sind Bank,PSIB0000785,132023105,KARNAL D.A.V.COLLEGE,"D.A.V. COLLEGE(WOMEN), DISTT. KARNAL, HARYANA - 132001",0184-2273136,KARNAL,KARNAL,HARYANA
PSIB0000833,Punjab and Sind Bank,PSIB0000833,NON MICR,FATEHGARH CHURIAN (GURU NANAK HIGH.SCHO,"GURU NANAK HIGH SCHOOL, DISTT. GURDASPUR, PUNJAB - ",1871255022,FATEHGARH SAHIB,FATEHGARH SAHIB,PUNJAB
PSIB0000836,Punjab and Sind Bank,PSIB0000836,NON MICR,"BILASPUR, GURU SINGH SABHA","SHRI GURU SINGH SABHA, BILASPUR, DISTT. RAMPUR, UTTAR PRADESH - 244921",0595-2412384,RAMPUR,RAMPUR,UTTAR PRADESH
PSIB0000887,Punjab and Sind Bank,PSIB0000887,110023887,LADWA,"LADWA, DISTT. KURUKSHETRA, HARYANA - 136132",01744-261542,LADWA,KURUKSHETRA,HARYANA
PSIB0020946,Punjab and Sind Bank,PSIB0020946,NON MICR,GHUMAN KHURD DISTT GURDASPUR,"GOVERNMENT COLLEGE, DISTT. GURDASPUR, PUNJAB - 145321",01874-260487,GURDASPUR,GURDASPUR,PUNJAB
PSIB0020962,Punjab and Sind Bank,PSIB0020962,NON MICR,KALERKALAN DISTT GURDASPUR,"VILLAGE KALERKALAN DISTT GURDASPUR, DISTT. GURDASPUR, PUNJAB - 143521",01874-269033,GURDASPUR,GURDASPUR,PUNJAB
PSIB0020963,Punjab and Sind Bank,PSIB0020963,NON MICR,KHAIRA KHURD DISTT MANSA,"KHAIRA KHURD THE. SARDULGARH DISTT MANSA, DISTT. MANSA, PUNJAB - 151502",8968077633,MANSA,MANSA,PUNJAB
PSIB0020964,Punjab and Sind Bank,PSIB0020964,132023602,TARAORI DISTT KARNAL,"MAIN BAZAR, NEAR CHATTRI WALA KUAN, TARAORI DISTT KARNAL, DISTT. KARNAL, HARYANA - 132116",01745-243455,KARNAL,KARNAL,HARYANA
PSIB0020996,Punjab and Sind Bank,PSIB0020996,NON MICR,PUNJ GRAIN,"VPO PUNJ GRAIN KALAN KOTKAPURA, MOGA ROAD DISTT FARIDKOT, DISTT. FARIDKOT, PUNJAB -",01635-262533,KOT KAPURA,FARIDKOT,PUNJAB
PSIB0020997,Punjab and Sind Bank,PSIB0020997,NON MICR,PEHOWA DISTT KURUKSHETRA,"SCF 44, SUOR MARKET HUDA, PEHOWA DISTT KURUKSHETRA, DISTT. KURUKSHETRA, HARYANA - 136128",01741-221787,KURUKSHETRA,KURUKSHETRA,HARYANA
PSIB0021000,Punjab and Sind Bank,PSIB0021000,NON MICR,DHILWAN DISTT KAPURTHALA,"MAIN DHILWAN ROAD, DHILWAN DISTT KAPURTHALA, DISTT. KAPURTHALA, PUNJAB - 144620",01822-273199/273299,KURUKSHETRA,KURUKSHETRA,HARYANA
PSIB0021002,Punjab and Sind Bank,PSIB0021002,NON MICR,LOHARKA KALAN,"VILLAGE LOHARKA KALAN TEHSIL , DISTT. AMRITSAR, PUNJAB - 143601",0183-2756070,LOHKA,AMRITSAR,PUNJAB
PSIB0021004,Punjab and Sind Bank,PSIB0021004,NON MICR,DEEP SINGH WALA DISTT FARIDKOT,"VPO DEEP SINGH WALA DISTT FARIDKOT, DISTT. FARIDKOT, PUNJAB - ",01639-227310,FARIDKOT,FARIDKOT,PUNJAB
PSIB0021006,Punjab and Sind Bank,PSIB0021006,NON MICR,MEHRAJ,"VPO MEHRAJ TEHSIL PHUL, DISTT. BATHINDA, PUNJAB - ",01651-262060,PHUL,BATHINDA,PUNJAB
PSIB0021045,Punjab and Sind Bank,PSIB0021045,NON MICR,VILLAGE MANUPUR,"VILLAGE MANUPUR TEHSIL SAMRALA, DISTT. LUDHIANA, PUNJAB - 141401",,SAMRALA,LUDHIANA,PUNJAB
PSIB0021074,Punjab and Sind Bank,PSIB0021074,NON MICR,MAJITHA,"VILLAGE MAJITHA, KATHUNANGAL ROAD, TEHSIL & DISTT. AMRITSAR, PUNJAB - 143601",,MAJITHA,AMRITSAR,PUNJAB
PSIB0021077,Punjab and Sind Bank,PSIB0021077,NON MICR,ATTARI,"MAIN BAZAR,, NEAR BUS STAND, DISTT. AMRITSAR, PUNJAB - 143108",,ATTARI,AMRITSAR,PUNJAB
PSIB0021096,Punjab and Sind Bank,PSIB0021096,NON MICR,SAWAI MADHOPUR,"PLOT NO. 8, INDIRA COLONY, MAIN CIVIL LINES ROAD, SAWAI, RAJASTHAN - 322001",,SAWAI MADHOPUR,SAWAI MADHOPUR,RAJASTHAN
PSIB0021124,Punjab and Sind Bank,PSIB0021124,793023002,SHILLONG,"MONT FORT HOME, DHANKHETI MALKI,SHILLONG , MEGHALAYA, PIN-793001",,SHILLONG,EAST KHASI HILLS,MEGHALAYA
PSIB0000053,Punjab and Sind Bank,PSIB0000053,NON MICR,MAHAL KALAN,"MAHAL KALAN, DISTT. BARNALA , PUNJAB - 148101",01679-255129,MAHAL KALAN,SANGRUR,PUNJAB
PSIB0000097,Punjab and Sind Bank,PSIB0000097,NON MICR,SULARGHARAT,"SULAR GHRAT, DISTT. SANGRUR , PUNJAB - 148035",01676.-238121,SULARGHRAT,SANGRUR,PUNJAB
PSIB0000172,Punjab and Sind Bank,PSIB0000172,NON MICR,SUREWALA,"SEREWALA, DISTT. HANUMANGARH, RAJASTHAN - 335515",01539-288676,SUREWALA,HANUMANGARH,RAJASTHAN
PSIB0000275,Punjab and Sind Bank,PSIB0000275,NON MICR,GHARACHON,"GHARACHAON, DISTT. SANGRUR, PUNJAB - 148026",01672-248628,GHARACHON,SANGRUR,PUNJAB
PSIB0000279,Punjab and Sind Bank,PSIB0000279,482023002,MAHARAJPUR,"MAHARAJPUR, DISTT. JABALPUR, MADHYA PRADESH - 482004",0761-2354229,JABALPUR,JABALPUR,MADHYA PRADESH
PSIB0000463,Punjab and Sind Bank,PSIB0000463,NON MICR,SANGHA,"SANGHA, DISTT. MANSA, PUNJAB - 151507",01659-256462,SANGHA,MANSA,PUNJAB
PSIB0000488,Punjab and Sind Bank,PSIB0000488,NON MICR,SHERPUR KHADAR,"SHERPUR KHADAR TEH,PURKAZI, DISTT. MUZAFFARNAGAR, UTTAR PRADESH - 251317",0131-2490200,SHERPUR,MUZAFFARNAGAR,UTTAR PRADESH
PSIB0000495,Punjab and Sind Bank,PSIB0000495,NON MICR,SHAHGARH (PILIBHIT),"SHAHGARH TEH. PURANPUR, DISTT. PILIBHIT, UTTAR PRADESH - 262122",05880-265287,SHAHGARH,PILIBHIT,UTTAR PRADESH
PSIB0000503,Punjab and Sind Bank,PSIB0000503,NON MICR,THORA,"THURA, DISTT. GAUTAM BUDDHA NAGAR, UTTAR PRADESH - ",955738-270395,THURA,GAUTAM BUDDHA NAGAR,UTTAR PRADESH
PSIB0000519,Punjab and Sind Bank,PSIB0000519,NON MICR,RORANWALI,"RORANWALI, DISTT. MUKTSAR, PUNJAB - 152113",01637-285082,RORANWALI,MUKTSAR,PUNJAB
PSIB0000526,Punjab and Sind Bank,PSIB0000526,NON MICR,KADRI GANJ,"KADRI GANJ P,O.RATTANPUR, DISTT. RAMPUR, UTTAR PRADESH - 221706",0595-2926006,KADRI GANJ,RAMPUR,UTTAR PRADESH
PSIB0000546,Punjab and Sind Bank,PSIB0000546,NON MICR,NAWABGANJ,"NAWAB GANJ TEH. BILASPUR, DISTT. RAMPUR, UTTAR PRADESH - 244921",0595-2465079,NAWAB GANJ,RAMPUR,UTTAR PRADESH
PSIB0000547,Punjab and Sind Bank,PSIB0000547,NON MICR,AHARO,"AHARO P.O. SHISH GARH, DISTT. RAMPUR, UTTAR PRADESH - 244901",0595-2926008,AHARO(I.G.C),RAMPUR,UTTAR PRADESH
PSIB0000549,Punjab and Sind Bank,PSIB0000549,NON MICR,BAMHANPUR,"BAMHANPUR TEH, NIGHASAN, DISTT. KHERI, UTTAR PRADESH - 248001",05873-265296,BABHANPUR,LAKHIMPUR KHERI,UTTAR PRADESH
PSIB0000551,Punjab and Sind Bank,PSIB0000551,NON MICR,JHANDI KHERI,"V.P.O JHANDI, DISTT. KHERI, UTTAR PRADESH - 248001",05873-275225,JHANDI,LAKHIMPUR KHERI,UTTAR PRADESH
PSIB0000567,Punjab and Sind Bank,PSIB0000567,NON MICR,AIMI,"AMI, DISTT. PILIBHIT, UTTAR PRADESH - 262001",05882-236262,AMI,PILIBHIT,UTTAR PRADESH
PSIB0000578,Punjab and Sind Bank,PSIB0000578,NON MICR,KALLAR KHERA,"KALAR KHERA, DISTT. FAZILKA, PUNJAB - 152132",01634-262740,KALLER KHERA,FEROZPUR,PUNJAB
PSIB0000581,Punjab and Sind Bank,PSIB0000581,NON MICR,BAMRAULI,"BAMRAULI, DISTT. PILIBHIT, UTTAR PRADESH - 250602",05881-294112,BAMRAULI,PILIBHIT,UTTAR PRADESH
PSIB0000671,Punjab and Sind Bank,PSIB0000671,NON MICR,MAZGAVAN,"MAZGAVAN TEH. MOHAMADI, DISTT. KHERI, UTTAR PRADESH - 262804",05876-241400,MAZGAVAN,LAKHIMPUR KHERI,UTTAR PRADESH
PSIB0000706,Punjab and Sind Bank,PSIB0000706,282023004,AGRA RAJPUR CHUNGI,"18/184,NEAR PURANI MANDI, DISTT. AGRA, UTTAR PRADESH - 282003",0562-2330638,AGRA,AGRA,UTTAR PRADESH
PSIB0000816,Punjab and Sind Bank,PSIB0000816,NON MICR,MEERUT G P S,"GODWIN PUBLIC SCHOOL, DISTT. MEERUT, UTTAR PRADESH - 250001",0121-2682553,MEERUT,MEERUT,UTTAR PRADESH
PSIB0000849,Punjab and Sind Bank,PSIB0000849,NON MICR,BARNALA GRAIN MARKET,"GRAIN MARKET, BARNALA, DISTT. BARNALA, PUNJAB - 148101",01679-233173,BARNALA,SANGRUR,PUNJAB
PSIB0000858,Punjab and Sind Bank,PSIB0000858,NON MICR,BARNALA BABA GANDA SINGH SCHOOL,"BABA GANDA SINGH PUBLIC SCHOOL, DISTT. BARNALA, PUNJAB - 148101",01679-242175,BARNALA,SANGRUR,PUNJAB
PSIB0020982,Punjab and Sind Bank,PSIB0020982,NON MICR,DHULKOT,"VILLAGE DHULKOT, P.O. MALLAN, TEHSIL GIDDERBAHA, DISTT. MUKTSAR, PUNJAB - 152031",01633-250035,GIDDAR BAHA,MUKTSAR,PUNJAB
PSIB0020995,Punjab and Sind Bank,PSIB0020995,NON MICR,VPO TALWANDI BHAGERIAN P.O.DOSANJH,"VPO TALWANDI BHABERIAN NEAR VETENARY HOSPITAL P.O. DOSAN, DISTT. MOGA, PUNJAB -",01636-278009,MOGA,MOGA,PUNJAB
PSIB0021082,Punjab and Sind Bank,PSIB0021082,NON MICR,SHARFUDDINPUR JAWLI,"VPO SHAFRUDINPUR JAWLI, TEHSIL & DISTT. GHAZIABAD, UTTAR PRADESH - 201102",,GHAZIABAD,GHAZIABAD,UTTAR PRADESH
PSIB0000920,Punjab and Sind Bank,PSIB0000920,152023402,"MUKTSAR, DASHMESH KHALSA COLLEGE","DASHMESH KHALSA COLLEGE, CHAK BIR SARKAR ROAD, MUKTSAR, PUNJAB - 152026",01633-269292,MUKTSAR,MUKTSAR,PUNJAB
PSIB0000014,Punjab and Sind Bank,PSIB0000014,NON MICR,SHAZADAPUR MAJRA,"SHAHJADPUR MAJRA, DISTT. PANCHKULA , HARYANA - 134202",01734-277231,SHAHZADPUR MAJRA,PANCHKULA,HARYANA
PSIB0000023,Punjab and Sind Bank,PSIB0000023,248023010,PREM NAGAR,"PREM NAGAR, DISTT. DEHRA DUN , UTTARAKHAND - 248007",0135-2773449,DEHRADUN,DEHRA DUN,UTTARANCHAL
PSIB0000028,Punjab and Sind Bank,PSIB0000028,NON MICR,BUNDALA,"BUNDALA, DISTT. JALANDHAR , PUNJAB - 141304",1826-270037,BUNDALA,JALANDHAR,PUNJAB
PSIB0000030,Punjab and Sind Bank,PSIB0000030,NON MICR,BABA BAKALA,"BABA BAKALA, DISTT. AMRITSAR , PUNJAB - 143202",01853-245521,BABA BAKALA,AMRITSAR,PUNJAB
PSIB0000046,Punjab and Sind Bank,PSIB0000046,125023502,RATTIA,"RATTIA, DISTT. FATEHABAD , HARYANA - 125051",01697-250025,RATTIA,FATEHABAD,HARYANA
PSIB0000063,Punjab and Sind Bank,PSIB0000063,NON MICR,BHUNERHERI,"BHUNERHERI, DISTT. PATIALA , PUNJAB - 147003",0175-2633233,BHUNERHERI,PATIALA,PUNJAB
PSIB0000079,Punjab and Sind Bank,PSIB0000079,NON MICR,KATHAR,"KATHAR, DISTT. JALANDHAR , PUNJAB - 144102",181-2719217,KATHAR,JALANDHAR,PUNJAB
PSIB0000082,Punjab and Sind Bank,PSIB0000082,NON MICR,BEHRAM,"BEHRAM, DISTT. NAWANSHAHAR , PUNJAB - 144504",01823-501040,BEHRAM,NAWANSHAHR,PUNJAB
PSIB0000095,Punjab and Sind Bank,PSIB0000095,NON MICR,KALA AFGHANA,"KALA AFGHANA, DISTT. GURDASPUR , PUNJAB - 143513",1871266739,KALA AFGHANA,GURDASPUR,PUNJAB
PSIB0000099,Punjab and Sind Bank,PSIB0000099,NON MICR,MORNA,"MORNA, DISTT. MUZAFFARNAGAR , UTTAR PRADESH - 251316",01396-222272,MORNA,MUZAFFARNAGAR,UTTAR PRADESH
PSIB0000124,Punjab and Sind Bank,PSIB0000124,NON MICR,UDHANWAL,"UDHANWAL TEH. BATALA-143505, DISTT. GURDASPUR , PUNJAB - 143505",1872256209,UDHANWAL,GURDASPUR,PUNJAB
PSIB0000127,Punjab and Sind Bank,PSIB0000127,NON MICR,GAGA LEHRI,"GAGA LEHRI, DISTT. SAHARANPUR , UTTAR PRADESH - 249401",0132-2785033,GAGA LEHRI,SAHARANPUR,UTTAR PRADESH
PSIB0000131,Punjab and Sind Bank,PSIB0000131,NON MICR,KESRI,"KESRI, DISTT. AMBALA , HARYANA - 133102",0171-2830245,KESRI,AMBALA,HARYANA
PSIB0000138,Punjab and Sind Bank,PSIB0000138,NON MICR,NURPUR KALAN,"NURPUR KALAN, DISTT. RUPNAGAR(RUPAR) , PUNJAB - 140117",01887-240426,NURPUR KALAN,RUPNAGAR,PUNJAB
PSIB0000140,Punjab and Sind Bank,PSIB0000140,NON MICR,JALMANA,"JALMANA, DISTT. PANIPAT , HARYANA - 132036",01749-284622,JALMANA,PANIPAT,HARYANA
PSIB0000141,Punjab and Sind Bank,PSIB0000141,NON MICR,LAKHAN MAJRA,"LAKHAN MAJRA, DISTT. ROHTAK , HARYANA - 124514",01257-265519,LAKHAN MANJRA,ROHTAK,HARYANA
PSIB0000149,Punjab and Sind Bank,PSIB0000149,NON MICR,RATTEWALA,"RATTEWALA, DISTT. GANGANAGAR, RAJASTHAN - 335018",01505-281130,RATTEWALA,GANGANAGAR,RAJASTHAN
PSIB0000156,Punjab and Sind Bank,PSIB0000156,NON MICR,GHULAL,"GHULAL, DISTT. LUDHIANA, PUNJAB - 141124",1628-266159,GHULAL,LUDHIANA,PUNJAB
PSIB0000158,Punjab and Sind Bank,PSIB0000158,NON MICR,ISRU,"ISRU, DISTT. LUDHIANA, PUNJAB - 141414",1628-275027,ISRU,LUDHIANA,PUNJAB
PSIB0000176,Punjab and Sind Bank,PSIB0000176,NON MICR,JOSHIMATH,"UPPER BAZAR JOSHIMATH, DISTT. CHAMOLI, UTTARAKHAND - 246443",01389-222115,JOSHIMATH,CHAMOLI,UTTARANCHAL
PSIB0000177,Punjab and Sind Bank,PSIB0000177,NON MICR,SRINAGAR,"SRI NAGAR, DISTT. GARHWAL, UTTARAKHAND - 246174",01346-252162,SRINAGAR,GARHWAL,UTTARANCHAL
PSIB0000183,Punjab and Sind Bank,PSIB0000183,NON MICR,MEHTIANA,"MEHTIANA, DISTT. HOSHIARPUR, PUNJAB - 146001",01882-262239,MEHTIANA,HOSHIARPUR,PUNJAB
PSIB0000190,Punjab and Sind Bank,PSIB0000190,NON MICR,BHARI,"BHARI, DISTT. FATEHGARH SAHIB, PUNJAB - ",01628-283128,BHARI,FATEHGARH SAHIB,PUNJAB
PSIB0000193,Punjab and Sind Bank,PSIB0000193,NON MICR,HALWARA,"HALWARA, DISTT. LUDHIANA, PUNJAB - 141107",1624-269716,HALWARA,LUDHIANA,PUNJAB
PSIB0000196,Punjab and Sind Bank,PSIB0000196,NON MICR,BHANUPALI,"BHANUPALI, DISTT. RUPNAGAR(RUPAR), PUNJAB - 140133",01887-263628,BHANUPALI,RUPNAGAR,PUNJAB
PSIB0000199,Punjab and Sind Bank,PSIB0000199,NON MICR,TAKHATGARH,"TAKHATGARH, DISTT. RUPNAGAR(RUPAR), PUNJAB - 140117",01887-245224,TAKHAT GARH,RUPNAGAR,PUNJAB
PSIB0000203,Punjab and Sind Bank,PSIB0000203,132023001,ASSANDH,"ASSANDH, JAGAT SINGH MARKET, DISTT. PANIPAT, HARYANA - 132039",01749-278256,ASSANDH,PANIPAT,HARYANA
PSIB0000210,Punjab and Sind Bank,PSIB0000210,NON MICR,KHERI NODH SINGH,"KHERI NODH SINGH, THE KHAMANON MANDI, DISTT. FATEHGARH SAHIB, PUNJAB - 141411",01628-243139,KHERI NODH SINGH,FATEHGARH SAHIB,PUNJAB
PSIB0000214,Punjab and Sind Bank,PSIB0000214,NON MICR,JATHLANA,"GUMATHLA ROAD, JATHLANA, DISTT. YAMUNANAGR, HARYANA - ",01732-273624,JATHLANA,YAMUNANAGAR,HARYANA
PSIB0000216,Punjab and Sind Bank,PSIB0000216,NON MICR,DAROLI KALAN,"DAROLI KALAN, DISTT. JALANDHAR, PUNJAB - 144104",181-2718810,DAROLI KALAN,JALANDHAR,PUNJAB
PSIB0000218,Punjab and Sind Bank,PSIB0000218,NON MICR,BOOR MAJRA,"BOOR MAJRA, DISTT. RUPNAGAR(RUPAR), PUNJAB - 141103",0160-2623352,BOOR MAJRA,RUPNAGAR,PUNJAB
PSIB0000228,Punjab and Sind Bank,PSIB0000228,NON MICR,GARKHAL,"GARHKHAL, DISTT. SOLAN, HIMACHAL PRADESH - 173201",01792-272030,GARHKHAL,SOLAN,HIMACHAL PRADESH
PSIB0000230,Punjab and Sind Bank,PSIB0000230,160023040,MANAULI,"MANAULI, DISTT. S A S NAGAR (MOHALI, PUNJAB - 140306",0160-2251606,MANAULI,RUPNAGAR,PUNJAB
PSIB0000231,Punjab and Sind Bank,PSIB0000231,NON MICR,BATOTE,"BATOTE, DISTT. DODA, JAMMU & KASHMIR - ",1998244247,BATOTE,DODA,JAMMU & KASHMIR
PSIB0000236,Punjab and Sind Bank,PSIB0000236,474023003,BANMORE,"AGRA BOMBAY ROAD, DISTT. MORENA, MADHYA PRADESH - 476444",07532-255511,BANMORE,MORENA,MADHYA PRADESH
PSIB0000244,Punjab and Sind Bank,PSIB0000244,NON MICR,KALA BAKRA,"KALA BAKRA, DISTT. JALANDHAR, PUNJAB - 144303",1822-228452,KALA BAKRA,JALANDHAR,PUNJAB
PSIB0000257,Punjab and Sind Bank,PSIB0000257,NON MICR,SEKHA,"SEKHA TEH. BARNALA, DISTT. SANGRUR, PUNJAB - 148101",01679-286169,SEKHA,SANGRUR,PUNJAB
PSIB0000289,Punjab and Sind Bank,PSIB0000289,NON MICR,SEHORA,"SEHORA, DISTT. SAGAR, MADHYA PRADESH - 466001",07584-245335,SEHORA,SAGAR,MADHYA PRADESH
PSIB0000290,Punjab and Sind Bank,PSIB0000290,NON MICR,BEHRAMPUR BET,"BEHRAMPUR BET, DISTT. RUPNAGAR(RUPAR), PUNJAB - 140111",01881-268621,BEHRAMPUR BET,RUPNAGAR,PUNJAB
PSIB0000292,Punjab and Sind Bank,PSIB0000292,NON MICR,NATHOWAL,"NATHOWAL, DISTT. LUDHIANA, PUNJAB - ",1624-261869,NATHOWAL,LUDHIANA,PUNJAB
PSIB0000297,Punjab and Sind Bank,PSIB0000297,NON MICR,LEELON,"LEELAN VIA SIDHWAN, DISTT. LUDHIANA, PUNJAB - 142033",1624-241335,LEELON,LUDHIANA,PUNJAB
PSIB0000306,Punjab and Sind Bank,PSIB0000306,NON MICR,DOUBLE CHOWKI,"DOUBLE CHOWKI, DISTT. DEWAS, MADHYA PRADESH - 251302",0731-2866334,DOBLE CHOWNKEY,DEWAS,MADHYA PRADESH
PSIB0000326,Punjab and Sind Bank,PSIB0000326,NON MICR,VILLA BAJU,"VILLA BAJU TEH. BATALA, DISTT. GURDASPUR, PUNJAB - 143514",1872265863,VILLA BIJU,GURDASPUR,PUNJAB
PSIB0000334,Punjab and Sind Bank,PSIB0000334,NON MICR,MEEMSA,"MEEMSA VIA NABHA TEHSIL DHURI, DISTT. SANGRUR, PUNJAB - 147205",01675-215502,MEEMSA,SANGRUR,PUNJAB
PSIB0000389,Punjab and Sind Bank,PSIB0000389,471023002,CHHATARPUR,"CHOWK BAZAR, DISTT. CHHATARPUR, MADHYA PRADESH - 473001",07682-248391,CHHATARPUR,CHHATARPUR,MADHYA PRADESH
PSIB0000406,Punjab and Sind Bank,PSIB0000406,NON MICR,SURAKHPUR,"SURAKH PUR, DISTT. KAPURTHALA, PUNJAB - 144804",1822-252041,SURAKHPUR,KAPURTHALA,PUNJAB
PSIB0000437,Punjab and Sind Bank,PSIB0000437,NON MICR,MANUKE,"MANUKE TEH. JAGARAON, DISTT. LUDHIANA, PUNJAB - 142034",1624-250459,MANUKE,LUDHIANA,PUNJAB
PSIB0000440,Punjab and Sind Bank,PSIB0000440,NON MICR,SANGH DHESIAN,"SANG DHESIAN, DISTT. JALANDHAR, PUNJAB - 144409",1826-268342,SANG DHESIAN,JALANDHAR,PUNJAB
PSIB0000441,Punjab and Sind Bank,PSIB0000441,NON MICR,CHAK KALAN,"CHAK KALAN, DISTT. JALANDHAR, PUNJAB - 144001",1821-245335,CHAK KALAN,JALANDHAR,PUNJAB
PSIB0000445,Punjab and Sind Bank,PSIB0000445,NON MICR,GARCHA,"GARCHA, DISTT. NAWANSHAHAR, PUNJAB - 144518",01823-234105,GARCHA,NAWANSHAHAR,PUNJAB
PSIB0000447,Punjab and Sind Bank,PSIB0000447,144023024,JAMSHER KHERA,"JAMSHER KHERA, DISTT. JALANDHAR, PUNJAB - 144020","181-2775847,5027870",JAMSHER KHERA,JALANDHAR,PUNJAB
PSIB0000448,Punjab and Sind Bank,PSIB0000448,NON MICR,KHARAR ACCHARWAL,"KHARAR ACHARWAL, DISTT. HOSHIARPUR, PUNJAB - 146108",01884-242289,KHARAR ACHARWAL,HOSHIARPUR,PUNJAB
PSIB0000450,Punjab and Sind Bank,PSIB0000450,NON MICR,BAGLI KALAN,"BAGLI KALAN, DISTT. LUDHIANA, PUNJAB - 141412",1628-280133,BAGLI KALAN,LUDHIANA,PUNJAB
PSIB0000452,Punjab and Sind Bank,PSIB0000452,NON MICR,CHAUNDA,"CHAUNDA, DISTT. SANGRUR, PUNJAB - 148022",01675-276224,CHAUNDA,SANGRUR,PUNJAB
PSIB0000454,Punjab and Sind Bank,PSIB0000454,NON MICR,KHARORA,"KHAROURA, PATIALA ROAD TEH. SIRHIND, DISTT. FATEHGARH SAHIB, PUNJAB - 147104",01763-265250,KHARORA,FATEHGARH SAHIB,PUNJAB
PSIB0000456,Punjab and Sind Bank,PSIB0000456,NON MICR,TOHRA,"TOURA, DISTT. PATIALA, PUNJAB - 147104",01765-271147,TOURA,PATIALA,PUNJAB
PSIB0000462,Punjab and Sind Bank,PSIB0000462,NON MICR,PUNJ GRAIN,"PUNJ GRAIN, DISTT. GURDASPUR, PUNJAB - 143505",1871259259,PUNJ GRAIN,GURDASPUR,PUNJAB
PSIB0000473,Punjab and Sind Bank,PSIB0000473,NON MICR,PANIALI QASIMPUR,"PANIALI QASIMPUR, DISTT. SAHARANPUR, UTTAR PRADESH - 247551",01336-248718,PANIALI QASIMPU,SAHARANPUR,UTTAR PRADESH
PSIB0000479,Punjab and Sind Bank,PSIB0000479,NON MICR,CHAURA PITTA,"CHAURA PITTA, DISTT. CHAMPAWAT, UTTARAKHAND - 263128",05965-227637,CHAURA PITTA,CHAMPAWAT,UTTARAKHAND
PSIB0000485,Punjab and Sind Bank,PSIB0000485,193023001,BARAMULLA,"MAIN MARKET, DISTT. BARAMULLA, JAMMU & KASHMIR - 193101",1952234319,BARAMULLA,BARAMULLA,JAMMU & KASHMIR
PSIB0000496,Punjab and Sind Bank,PSIB0000496,NON MICR,BARIAR,"BARIAR, DISTT. GURDASPUR, PUNJAB - 143505",1874221881,BARIAR,GURDASPUR,PUNJAB
PSIB0000502,Punjab and Sind Bank,PSIB0000502,NON MICR,BALENI,"BALENI P.O.BAGHPAT ROAD, DISTT. BAGPAT, UTTAR PRADESH - 250626",0121-2238649,BALENI,BAGPAT,UTTAR PRADESH
PSIB0000504,Punjab and Sind Bank,PSIB0000504,NON MICR,DADHIYAL ATMALI,"DADHIYAL ATMALI, DISTT. RAMPUR, UTTAR PRADESH - 244925",0595-2564423,DADHIYAL ATMALI,RAMPUR,UTTAR PRADESH
PSIB0000505,Punjab and Sind Bank,PSIB0000505,NON MICR,BHOT,"NAINITAL ROAD  BHOT, DISTT. RAMPUR, UTTAR PRADESH - 263001",0595-2440013,BHOT,RAMPUR,UTTAR PRADESH
PSIB0000506,Punjab and Sind Bank,PSIB0000506,NON MICR,PAIPURA,"PAIPURA P.O. GODHI TEH BILASPUR, DISTT. RAMPUR, UTTAR PRADESH - 244923",0595-2430076,PEIPURA,RAMPUR,UTTAR PRADESH
PSIB0000508,Punjab and Sind Bank,PSIB0000508,NON MICR,KALI NAGAR,"KALI NAGAR, DISTT. PILIBHIT, UTTAR PRADESH - 262124",05880-264260,KALINAGAR,PILIBHIT,UTTAR PRADESH
PSIB0000518,Punjab and Sind Bank,PSIB0000518,NON MICR,BACHHUANA,"BACHHAUNA TEH. MANSA, DISTT. MANSA, PUNJAB - 151502",01652-253003,BACHHANNA,MANSA,PUNJAB
PSIB0000521,Punjab and Sind Bank,PSIB0000521,NON MICR,JOGITHER,"JOGITHER, DISTT. PILIBHIT, UTTAR PRADESH - 266203",05881-228211,JOGITHER,PILIBHIT,UTTAR PRADESH
PSIB0000530,Punjab and Sind Bank,PSIB0000530,NON MICR,PAIGAON,"PAI GAON, DISTT. MATHURA, UTTAR PRADESH - 208001",05662-247223,PAYGAON,MATHURA,UTTAR PRADESH
PSIB0000535,Punjab and Sind Bank,PSIB0000535,NON MICR,JINDAUR,"KUNWAR ASIF ALI SANJU MIAN DEGREE COLLEGE, JINDAUR, P.O., DISTT. LUCKNOW, UTTAR PRADESH - 227116",05212-214228,JINDAUR,LUCKNOW,UTTAR PRADESH
PSIB0000545,Punjab and Sind Bank,PSIB0000545,NON MICR,DHOTA (CHAK KERA KARE KHAN),"DHOTA DIST TARN TARAN, DISTT. TARN TARAN, PUNJAB - 143112",01859-233240,DHOTA,AMRITSAR,PUNJAB
PSIB0000548,Punjab and Sind Bank,PSIB0000548,NON MICR,LAHANGPUR,"LAHANGPUR, DISTT. MIRZAPUR, UTTAR PRADESH - 231211",05442-231510,LAHANGPUR,MIRZAPUR,UTTAR PRADESH
PSIB0000552,Punjab and Sind Bank,PSIB0000552,NON MICR,MUDIA PAMARE,"MUDIA PAMARE, DISTT. SHAHJAHANPUR, UTTAR PRADESH - 242001",9335085764,MUDIA PAMARA,SHAHJAHANPUR,UTTAR PRADESH
PSIB0000555,Punjab and Sind Bank,PSIB0000555,NON MICR,PIPARIA DHANI,"PIPARIA DHANI, DISTT. KHERI, UTTAR PRADESH - 62 804",05876-247728,PIPARIADHANI,LAKHIMPUR KHERI,UTTAR PRADESH
PSIB0000558,Punjab and Sind Bank,PSIB0000558,NON MICR,BHUMTI,"BHOOMTI Tehsil Arki, DISTT. SOLAN, HIMACHAL PRADESH - 173221",01796-238433,BHOOMTI,SOLAN,HIMACHAL PRADESH
PSIB0000563,Punjab and Sind Bank,PSIB0000563,NON MICR,KUBRI PATHERA,"KUBRI PATEHARA, DISTT. MIRZAPUR, UTTAR PRADESH - 231309",05442-237669,KUBARI PATEHRA,MIRZAPUR,UTTAR PRADESH
PSIB0000568,Punjab and Sind Bank,PSIB0000568,NON MICR,IMLIA CHATTI,"LMALIA CHATTI, PO CHUNAR, DISTT. MIRZAPUR, UTTAR PRADESH - 231001",05443-227025,IMALIACHATTI,MIRZAPUR,UTTAR PRADESH
PSIB0000570,Punjab and Sind Bank,PSIB0000570,NON MICR,SAHORA KALAN,"SEHORA KALAN, DISTT. GURDASPUR, PUNJAB - 143534",1862262436,SAHORAKALAN,GURDASPUR,PUNJAB
PSIB0000588,Punjab and Sind Bank,PSIB0000588,NON MICR,BHOOTNA,"BHOOTNA BLOCK BARNALA, DISTT. BARNALA, PUNJAB - 148101",01679-227997,BHUTANA,SANGRUR,PUNJAB
PSIB0000590,Punjab and Sind Bank,PSIB0000590,NON MICR,KAUHRIAN,"KAURIAN BLOCK & TEHSIL SUNAM, DISTT. SANGRUR, PUNJAB - 148030",01676-247377,KAUHRIAN,SANGRUR,PUNJAB
PSIB0000596,Punjab and Sind Bank,PSIB0000596,NON MICR,TARAGARH,"VILLAGE TARAGARH BLOCK DINA NAGAR PIN - 143 534, DISTT. PATHANKOT, PUNJAB - 143534",1875256088,PATHANKOT,GURDASPUR,PUNJAB
PSIB0000599,Punjab and Sind Bank,PSIB0000599,NON MICR,KOT BASAWA SINGH,"KOT BASAWA SINGH, DISTT. YAMUNANAGR, HARYANA - 135103",01735-288250,KOT BASWA SINGH,YAMUNANAGAR,HARYANA
PSIB0000603,Punjab and Sind Bank,PSIB0000603,NON MICR,BITAWIDA,"BITA WADA, DISTT. MUZAFFARNAGAR, UTTAR PRADESH - 251302",01392-295105,BITAWIDA,MUZAFFARNAGAR,UTTAR PRADESH
PSIB0000616,Punjab and Sind Bank,PSIB0000616,NON MICR,CHHAJARSI,"CHHAJARSI, P.O. GAILAND,, DISTT. GHAZIABAD, UTTAR PRADESH - 245304",0122-2322033,CHHAJARSI,MUZAFFARNAGAR,UTTAR PRADESH
PSIB0000617,Punjab and Sind Bank,PSIB0000617,NON MICR,JOLLY,"JOLLY, DISTT. MUZAFFARNAGAR, UTTAR PRADESH - 251308",01396-264192,JOLY,MUZAFFARNAGAR,UTTAR PRADESH
PSIB0000628,Punjab and Sind Bank,PSIB0000628,NON MICR,GADARHERI,"GADAR HEDI, DISTT. SAHARANPUR, UTTAR PRADESH - 247001",01331-246484,GODARHERI,SAHARANPUR,UTTAR PRADESH
PSIB0000630,Punjab and Sind Bank,PSIB0000630,NON MICR,WADHA KAYASTH,"WADHA KAYAST, DISTT. SAHARANPUR, UTTAR PRADESH - 249401",0132-2797423,WADHAKAYASAT,SAHARANPUR,UTTAR PRADESH
PSIB0000635,Punjab and Sind Bank,PSIB0000635,NON MICR,MAINE (SULAR),"MAINE, POST OFFICE SULAR, DAKALA ROAD, DISTT. PATIALA, PUNJAB - 147001",0175-2202233,MAYNA(MAINA),PATIALA,PUNJAB
PSIB0000636,Punjab and Sind Bank,PSIB0000636,248023011,UDDIWALA,"UDDIWALA KAUL GARH, DISTT. DEHRA DUN, UTTARAKHAND - 248006",0135-2757173,UDDIWALA KAULAGARH,DEHRA DUN,UTTARANCHAL
PSIB0000638,Punjab and Sind Bank,PSIB0000638,NON MICR,KAMAM,"KAMAM, DISTT. NAWANSHAHAR, PUNJAB - 144513",01823-255018,KAMAM,NAWANSHAHR,PUNJAB
PSIB0000639,Punjab and Sind Bank,PSIB0000639,NON MICR,DHAH,"DHAH, DISTT. NAWANSHAHAR, PUNJAB - 144201",01823-501002,DHAH,NAWANSHAHR,PUNJAB
PSIB0000640,Punjab and Sind Bank,PSIB0000640,NON MICR,SHYAMPUR,"UNITAL NIKETAN MALL ROAD, DISTT. NAINITAL, UTTARAKHAND - 263001",05942-235190,NAINITAL,NAINITAL,UTTARANCHAL
PSIB0000644,Punjab and Sind Bank,PSIB0000644,NON MICR,CHANDERI,"GHAT ROAD, CIVIL LINES, DISTT. GUNA, MADHYA PRADESH - 474001",07547-243246,CHANDERI,ASHOK NAGAR,MADHYA PRADESH
PSIB0000648,Punjab and Sind Bank,PSIB0000648,NON MICR,Sherpur Bet,"vpo Sherpur Bet Tehsil Machhiwara, DISTT. LUDHIANA, PUNJAB - 141009",1628-249109,SHERPUR-BET,LUDHIANA,PUNJAB
PSIB0000649,Punjab and Sind Bank,PSIB0000649,NON MICR,MUNDI,"MUNDI, DISTT. REWARI, HARYANA - 123411",01281-241107,MUNDI,REWARI,HARYANA
PSIB0000651,Punjab and Sind Bank,PSIB0000651,NON MICR,DABLA,"DABLA, DISTT. GANGANAGAR, RAJASTHAN - 335042",01507-244104,DABLA,GANGANAGAR,RAJASTHAN
PSIB0000652,Punjab and Sind Bank,PSIB0000652,NON MICR,CHOLI SHAHABUDDINPUR,"CHOULI SHABBUDDIN PUR P O KHUBBAN PUR, DISTT. HARIDWAR, UTTARAKHAND - 247661",0132-2781021,CHURIYALA,HARIDWAR,UTTARANCHAL
PSIB0000654,Punjab and Sind Bank,PSIB0000654,NON MICR,QUILON (KOLAM),"PARRY & CO. JUNCTION, DISTT. KOLLAM, KERALA - 691001",0474-2746316,KOLLAM,KOLLAM,KERALA
PSIB0000660,Punjab and Sind Bank,PSIB0000660,180023003,JAMMU EXCHANGE ROAD,"EXCHANGE ROAD, DISTT. JAMMU, JAMMU & KASHMIR - 181101",1912579283,JAMMU,JAMMU,JAMMU & KASHMIR
PSIB0000661,Punjab and Sind Bank,PSIB0000661,180023007,BARI BRAHMANA (NOWHATTA),"BARI BRAHMANA, DISTT. JAMMU, JAMMU & KASHMIR - 193101",1923220071,BARI BRAHAMANA,JAMMU,JAMMU & KASHMIR
PSIB0000663,Punjab and Sind Bank,PSIB0000663,NON MICR,MOHAMUDPUR SOTTAR,"MOHAMMADPUR SOTTAR, DISTT. FATEHABAD, HARYANA - ",01697-263010,MOHAMMADPUR SOTAR,FATEHABAD,HARYANA
PSIB0000667,Punjab and Sind Bank,PSIB0000667,NON MICR,TAMKOT (50 RB),"VILLAGE TAMKOT, TEHSIL PADAMPUR, DISTT. GANGANAGAR, RAJASTHAN - ",01505-282595,TAMKOT,GANGANAGAR,RAJASTHAN
PSIB0000672,Punjab and Sind Bank,PSIB0000672,NON MICR,BOPA RAI,"GURDW. GURU KE BER, TARSIKA BLOCK, MEHTA RAOAD, BOPARAI, DISTT. AMRITSAR, PUNJAB - 143116",01853-260303,BOPARAI,AMRITSAR,PUNJAB
PSIB0000673,Punjab and Sind Bank,PSIB0000673,182023003,MAITRA,"MAITRA,, DISTT. DODA, JAMMU & KASHMIR - ",1998266642,DODA,DODA,JAMMU & KASHMIR
PSIB0000700,Punjab and Sind Bank,PSIB0000700,NON MICR,PADHIANA,"PADHIANA DISTT JALANDHAR, DISTT. JALANDHAR, PUNJAB - ",181-2718602,PADHIANA,JALANDHAR,PUNJAB
PSIB0000724,Punjab and Sind Bank,PSIB0000724,NON MICR,JAMALPUR CHOWK,"JAMALPUR CHOWK, PATAUDI ROAD, DISTT. GURGAON, HARYANA - 122001",0124-2280326,JAMALPUR,GURGAON,HARYANA
PSIB0000725,Punjab and Sind Bank,PSIB0000725,136023102,SHAHBAD MARKANDA,"SHAHBAD MARKANDA, DISTT. KURUKSHETRA, HARYANA - 136135",01744-243201,SHAHBAD,KURUKSHETRA,HARYANA
PSIB0000729,Punjab and Sind Bank,PSIB0000729,NON MICR,BADAL,", DISTT. MUKTSAR, PUNJAB - 151215",01637-244472,BADAL,MUKTSAR,PUNJAB
PSIB0000738,Punjab and Sind Bank,PSIB0000738,180023005,"R.S. PURA, DISTT JAMMU","R.S. PURA, DISTT JAMMU, DISTT. JAMMU, JAMMU & KASHMIR - 181102",1923250978,JAMMU,JAMMU,JAMMU & KASHMIR
PSIB0000770,Punjab and Sind Bank,PSIB0000770,NON MICR,DERA BABA NANAK DISTRICT GURDASPUR,"G.M.PUBLIC SCH.,GUR.DERA SAHIB, DISTT. GURDASPUR, PUNJAB - 143604",1871247983,GURDASPUR,GURDASPUR,PUNJAB
PSIB0000772,Punjab and Sind Bank,PSIB0000772,335023004,SRI GANGA NAGAR (SGN GIRLS SR. SEC. SCHOOL),"SRI GURUNANAK GIRLS SENIOR SEC SCHOOL, DISTT. GANGANAGAR, RAJASTHAN - 335001",0154-2474224,GANGANAGAR,GANGANAGAR,RAJASTHAN
PSIB0000793,Punjab and Sind Bank,PSIB0000793,282023006,AGRA GURUDWARA GURU KA TAL,"GURUDWARA GURU KA TAL, DISTT. AGRA, UTTAR PRADESH - 282005",0562-2600511,AGRA,AGRA,UTTAR PRADESH
PSIB0000798,Punjab and Sind Bank,PSIB0000798,160023023,CHANDIGARH PRESS CLUB SECTOR 27,"PRESS CLUB, DISTT. CHANDIGARH, CHANDIGARH - 160027",0172-5081551/2556325,CHANDIGARH,CHANDIGARH,CHANDIGARH
PSIB0000815,Punjab and Sind Bank,PSIB0000815,NON MICR,SAHARANPUR (PATEL NAGAR),"GURU TEG BAHADUR SCHOOL,, DISTT. SAHARANPUR, UTTAR PRADESH - 247001",0132-2646917,SAHARANPUR,SAHARANPUR,UTTAR PRADESH
PSIB0000817,Punjab and Sind Bank,PSIB0000817,NON MICR,MEERUT DEWAN PUBLIC SCHOLL MEERUT CANTT,"DEWAN PUBLIC SCHOOL, DISTT. MEERUT, UTTAR PRADESH - 250001",0121-2650402,MEERUT,MEERUT,UTTAR PRADESH
PSIB0000822,Punjab and Sind Bank,PSIB0000822,NON MICR,KAPURTHALA RAILWAY COACH FACTOR,"RAIL COACH FACTORY, DISTT. KAPURTHALA, PUNJAB - 144602",181-2727021,KAPURTHALA,KAPURTHALA,PUNJAB
PSIB0000823,Punjab and Sind Bank,PSIB0000823,NON MICR,MOTHANWALA,"MOTHANWALA, DISTT. KAPURTHALA, PUNJAB - ",1828-253074,MOTHANWALA,KAPURTHALA,PUNJAB
PSIB0000831,Punjab and Sind Bank,PSIB0000831,160023034,DERA BASSI S S JAIN SABHA,"S S JAIN SABHA, DISTT. S A S NAGAR (MOHALI, PUNJAB - 140412",01762-282383/522316,DERA BASSI,PATIALA,PUNJAB
PSIB0000853,Punjab and Sind Bank,PSIB0000853,700023016,"KOLKATTA BEHALA, SHAKUNTLA PARK","606 HO CHI MINH SARANI, SHAKUNTLA PARK, DISTT. SOUTH 24 PARGANA, WEST BENGAL - 700061",033-24528860,KOLKATA,KOLKATA,WEST BENGAL
PSIB0000885,Punjab and Sind Bank,PSIB0000885,NON MICR,ELLANABAD,"OPP. MARKET COMMITTEE OFFICE, DISTT. SIRSA, HARYANA - 125102",01698-221352,ELLANABAD,SIRSA,HARYANA
PSIB0000910,Punjab and Sind Bank,PSIB0000910,440023003,"NAGPUR, BEZON BAGH","SRI GURU HARKISHAN PUBLIC SCHOOL, BEZON BAGH, DISTT. NAGPUR, MAHARASHTRA - 440018",0712-2535038,NAGPUR,NAGPUR,MAHARASHTRA
PSIB0020934,Punjab and Sind Bank,PSIB0020934,NON MICR,JADIALA MANJIKI DISTT. JALANDHAR,"JADIALA MANJIKI DISTT. JALANDHAR, DISTT. JALANDHAR, PUNJAB - 144515",01826-503017,JUNDIALA,JALANDHAR,PUNJAB
PSIB0020958,Punjab and Sind Bank,PSIB0020958,NON MICR,"JAIS: KAIS BUILDING, NEAR BUS STAND, JAIS DIST","KAIS BUILDING, NEAR BUS STAND JAIS DISTT RAIBAREILLY, DISTT. RAIBAREILLY, UTTAR PRADESH - ",05313-25055,JAIS,RAI BARELI,UTTAR PRADESH
PSIB0020961,Punjab and Sind Bank,PSIB0020961,NON MICR,MILAK: GURDWARA DERA BABA NAGINA SINGH SABHA DH,"MILAK DISTT RAMPUR, DISTT. RAMPUR, UTTAR PRADESH - 244921",05960-224110,RAMPUR,RAMPUR,UTTAR PRADESH
PSIB0020965,Punjab and Sind Bank,PSIB0020965,301023201,NARAINPUR :NEAR BUS STAND NEAR GOVT. SR. SEC. S,"NEAR BUS STAND NEAR GOVT.SR. SEC. SCHOOL, NARAINPUR DIST, DISTT. ALWAR, RAJASTHAN - 301024",01465-253795,ALWAR,ALWAR,RAJASTHAN
PSIB0020966,Punjab and Sind Bank,PSIB0020966,110023124,TIKAWALI DISTT FARIDABAD,"TIKAWALI DISTT FARIDABAD (HR), DISTT. FARIDABAD, HARYANA -",0129-2201079,FARIDABAD,FARIDABAD,HARYANA
PSIB0020967,Punjab and Sind Bank,PSIB0020967,NON MICR,POWAYAN KHATOOR ROAD DISTT SHAHJAHANPUR,"POWAYAN DISTT SHAHJAHANPUR, DISTT. SHAHJAHANPUR, UTTAR PRADESH - 242402",05844-230023,SHAHJAHANPUR,SAHARANPUR,UTTAR PRADESH
PSIB0020971,Punjab and Sind Bank,PSIB0020971,NON MICR,BAGHPAT,"MEEUT ROAD OPPOSITE BANK OF BARODA, BAGHPAT, DISTT. BAGHPAT, UTTAR PRADESH - 250609",0121-2220090/80,BAGHPAT,BAGHPAT,UTTAR PRADESH
PSIB0020990,Punjab and Sind Bank,PSIB0020990,NON MICR,BHAINI MEHRAJ: RURAL DISPENSARY BUILDING,"RURAL DISPENSARY BUILDING, VPO BHAINI MEHRAJ TEHSIL & DI, DISTT. BARNALA, PUNJAB - 148101",1679-268502,BARNALA,SANGRUR,PUNJAB
PSIB0021005,Punjab and Sind Bank,PSIB0021005,NON MICR,LAD BANJARA DISTT SANGRUR,"LAD BANJARA TEHSIL & SUNAM DISTT SANGRUR, DISTT. SANGRUR, PUNJAB - 148030",01676-240100,SUNAM,SANGRUR,PUNJAB
PSIB0021009,Punjab and Sind Bank,PSIB0021009,NON MICR,VILLAGE KAL BANJARA,"VPO KAL BANJARA TEHSIL LEHRA GAGA, DISTT. SANGRUR, PUNJAB - ",01676-256111,LEHRAGAGA,SANGRUR,PUNJAB
PSIB0021040,Punjab and Sind Bank,PSIB0021040,NON MICR,RAMNAGAR,"KOSI ROAD, RAMNAGAR DISTT NAINITAL (UTTRAKHAND), DISTT. NAINITAL, UTTARAKHAND - 244715",05947- 251224,RAMNAGAR,NAINITAL,UTTARANCHAL
PSIB0021044,Punjab and Sind Bank,PSIB0021044,NON MICR,DIDAREWALA,"P.O. DIDAREWALA TEHSIL NIHAL SINGH WALA, DISTT. MOGA, PUNJAB - 142046",,NIHAL SINGH WALA,MOGA,PUNJAB
PSIB0021046,Punjab and Sind Bank,PSIB0021046,NON MICR,VILLAGE MANDIANI,"VILLAGE MANDIANI  TEHSIL MULLANPUR, DISTT. LUDHIANA, PUNJAB - 141101",,MALLAH,LUDHIANA,PUNJAB
PSIB0021048,Punjab and Sind Bank,PSIB0021048,NON MICR,KAPURE,"KAPURE, BLOCK MOGA-I ,, DISTT. FARIDKOT, PUNJAB - 142001",,FARIDKOT,FARIDKOT,PUNJAB
PSIB0021049,Punjab and Sind Bank,PSIB0021049,NON MICR,JASPALON,"VPO JASPALON, TEHSIL KHANNA DISTT LUDHIANA, DISTT. LUDHIANA, PUNJAB - 141421",,LUDHIANA,LUDHIANA,PUNJAB
PSIB0021051,Punjab and Sind Bank,PSIB0021051,NON MICR,BANITABLA,"C.I.T & C.I.P.CAMPUS,PO BANITABLA,PS ULUBERIA, DISTT. BANITABLA, WEST BENGAL - 711316",,BANITABALA,HAORA,WEST BENGAL
PSIB0021052,Punjab and Sind Bank,PSIB0021052,NON MICR,VILLAGE QILA LAL SINGH,"VILLAGE QILA LAL SINGH TEHSIL BATALA, DISTT. GURDASPUR, PUNJAB - 143505",,BATALA,GURDASPUR,PUNJAB
PSIB0021053,Punjab and Sind Bank,PSIB0021053,NON MICR,GABORDI,"AGARTALA- JAMPUIJALA ROADP.O. GABORDI  DISTT JAMPUIJALA,  TRIPURA - 799004",,JAMPUIJALA,WEST TRIPURA,TRIPURA
PSIB0021054,Punjab and Sind Bank,PSIB0021054,151023052,MANSA,"MANSA, JAWAHAR KE ROAD, MAIN BAZAR, MANSA, DISTT. MANSA, PUNJAB - 151505",,MANSA,MANSA,PUNJAB
PSIB0021055,Punjab and Sind Bank,PSIB0021055,NON MICR,NANAKMATA,"HIGHWAY SITARGANJ ROAD, NANAKMATTA, DISTT. UDHAM SINGH NAGAR, UTTARAKHAND - 262311",,NANAK MATA SAHEB,UDHAM SINGH NAGAR,UTTARANCHAL
PSIB0021059,Punjab and Sind Bank,PSIB0021059,176023102,PALAMPUR,"SUDESH NILAY, WARD NO. 2,BAIJ NATH ROAD, PALAMPUR, DISTT. KANGRA, HIMACHAL PRADESH - 176061",,PALAMPUR,KANGRA,HIMACHAL PRADESH
PSIB0021060,Punjab and Sind Bank,PSIB0021060,NON MICR,CHABEWAL,"VPO CHABEWAL, DISTT. HOSHIARPUR, PUNJAB - 146102",,CHHABEWAL,HOSHIARPUR,PUNJAB
PSIB0021061,Punjab and Sind Bank,PSIB0021061,NON MICR,KAMAHI DEVI (BEH NANGAL),"MAIN BAZAR, VPO KAMAHI DEVI, DISTT. HOSHIARPUR, DISTT. HOSHIARPUR, PUNJAB - 144223",,KUMAHI DEVI,HOSHIARPUR,PUNJAB
PSIB0021062,Punjab and Sind Bank,PSIB0021062,NON MICR,UNA,"DHARAMSHALA ROAD,UNA, DISTT. UNA, HIMACHAL PRADESH - 174303",,UNA,UNA,HIMACHAL PRADESH
PSIB0021063,Punjab and Sind Bank,PSIB0021063,NON MICR,KOT FATUHI,"VPO KOT FATUHI, TEHSIL GARH SHAKAR DISTT HOSHIARPUR, DISTT. HOSHIARPUR, PUNJAB - 144519",,KOTFATUHI,HOSHIARPUR,PUNJAB
PSIB0021064,Punjab and Sind Bank,PSIB0021064,NON MICR,TALWARA,"MAIN BAZAR,TALWARA TOWNSHIP, DISTT. HOSHIARPUR, PUNJAB - 144216",,TALWARA,HOSHIARPUR,PUNJAB
PSIB0021065,Punjab and Sind Bank,PSIB0021065,NON MICR,NER CHOWK MANDI,"NH-21, SUNDER NAGAR-MANDI ROAD, NEAR MEDICAL COLLEGE, TE, DISTT. MANDI, HIMACHAL PRADESH - 175008",,MANDI,MANDI,HIMACHAL PRADESH
PSIB0021068,Punjab and Sind Bank,PSIB0021068,NON MICR,ROMANA AJIT SINGH,"VPO ROMANA AJIT SINGH , TEHSIL KOTKAPURA, DISTT. FAIDKOT, PUNJAB - 151205",,KOT KAPURA,FARIDKOT,PUNJAB
PSIB0021069,Punjab and Sind Bank,PSIB0021069,NON MICR,RAULI,"VPO RAULI, DISTT MOGA, DISTT. MOGA, PUNJAB - 142001",,MOGA,MOGA,PUNJAB
PSIB0021070,Punjab and Sind Bank,PSIB0021070,NON MICR,MALKE,"VILLAGE MALKE, TEHSIL& DISTT MOGA, DISTT. MOGA, PUNJAB - 151207",,MOGA,MOGA,PUNJAB
PSIB0021071,Punjab and Sind Bank,PSIB0021071,NON MICR,DOAD,"VILLAGE DOAD TEHSIL KOTKAPURA DISTT FARIDKOT, DISTT. FARIDKOT, PUNJAB - 151205",,KOT KAPURA,FARIDKOT,PUNJAB
PSIB0021073,Punjab and Sind Bank,PSIB0021073,160023046,MAULI JAGRAN,"MAIN ROAD,MAULI JAGRAN, CHANDIGARH, DISTT. CHANDIGARH, CHANDIGARH - 160101",,CHANDIGARH,CHANDIGARH,CHANDIGARH
PSIB0021075,Punjab and Sind Bank,PSIB0021075,NON MICR,LACHHIMPUR,"SRIGURU TEGH BAHADUR ATIHASIK GURUDWARA, VIA p.o. GURU B, DISTT. KATIHAR, BIHAR - ",,KATIHAR,KATIHAR,BIHAR
PSIB0021078,Punjab and Sind Bank,PSIB0021078,NON MICR,RAJASANSI,"VILLAGE RAJASANSI, TEHSIL AJNALA, DISTT. AMRITSAR, PUNJAB - 143101",,RAJA SANSI,AMRITSAR,PUNJAB
PSIB0021079,Punjab and Sind Bank,PSIB0021079,NON MICR,TAPA MANDI,"TAPA MANDI, DHILWAN ROAD,DISTT BARNALA, DISTT. BARNALA, PUNJAB - 148101",,BARNALA,SANGRUR,PUNJAB
PSIB0021081,Punjab and Sind Bank,PSIB0021081,NON MICR,IBRAHIMPUR,"329, JEWAR ROAD,IBRAHIMPUR,JUNAIDPUR, KHURJA JUNCTION, DISTT. BULANDSHAHAR, UTTAR PRADESH - ",,KHURJA JUNCTION,BULANDSHAHR,UTTAR PRADESH
PSIB0021083,Punjab and Sind Bank,PSIB0021083,NON MICR,PHARWAHI,"VILLAGE PHARWAHI, TEHSIL & DISTT BARNALA, PUNJAB -148101",,BARNALA,SANGRUR,PUNJAB
PSIB0021085,Punjab and Sind Bank,PSIB0021085,466023051,SEHORE,"PARVATI NIWAS, BHOPAL NAKA, DISTT. SEHORE, MADHYA PRADESH - 466001",,SEHORE,SEHORE,MADHYA PRADESH
PSIB0021086,Punjab and Sind Bank,PSIB0021086,NON MICR,DHAMTARI,"DHAMTARI, RAIPUR ROAD, DISTT. DHAMTARI, CHHATISGARH - 493773",,DHAMTARI,DHAMTARI,CHHATTISGARH
PSIB0021087,Punjab and Sind Bank,PSIB0021087,NON MICR,NAROT MEHRA,"VPO NAROT MEHRA, MAIN BUS STAND TEHSIL & DISTRICT PATHAN, DISTT. PATHANKOT, PUNJAB - 145001",,PATHANKOT,GURDASPUR,PUNJAB
PSIB0021088,Punjab and Sind Bank,PSIB0021088,NON MICR,KOTDWAR,"BADRINATH ROAD, NEAR KALESHWAR PRESS, KOTDWAR, DISTT. PAURI GARHWAL, UTTARAKHAND -",,KOTDWARA,GARHWAL,UTTARANCHAL
PSIB0021089,Punjab and Sind Bank,PSIB0021089,NON MICR,SARON,"VPO SARON TEHSIL & DISTT SANGRUR, DISTT. SANGRUR, PUNJAB - 148001",,SANGRUR,SANGRUR,PUNJAB
PSIB0021091,Punjab and Sind Bank,PSIB0021091,NON MICR,LAIPHAM SIPHAI,"P.O. LAMLONG, P.S. POROMPAT, BLOCK SAWOMBUNG, DISTT. IMPHAL EAST, MANIPUR -",,IMPHAL EAST II,IMPHAL EAST,MANIPUR
PSIB0021092,Punjab and Sind Bank,PSIB0021092,NON MICR,KHURAI SAJOR,"KHURAI SAJOR LEIKEI, P.O. LAMLONG, P.S. POROMPAT, BLOCK, DISTT. IMPHAL EAST, MANIPUR -",,IMPHAL EAST II,IMPHAL EAST,MANIPUR
PSIB0021093,Punjab and Sind Bank,PSIB0021093,NON MICR,KAZIWALA,"SHRI GHASEETA BUILDING , VILLAGE KAZIWALA, DISTT. BIJNOR, DISTT. BIJNORE, UTTAR PRADESH - 246701",,BIJNOR,BIJNOR,UTTAR PRADESH
PSIB0021094,Punjab and Sind Bank,PSIB0021094,141023020,BAHADUR KE,"VILLAGE BAHADUR KE, P.O. BHATTIAN BET, DISTT. LUDHIANA, PUNJAB - 141008",,LUDHIANA,LUDHIANA,PUNJAB
PSIB0021097,Punjab and Sind Bank,PSIB0021097,NON MICR,BEHROR,"SHOP NO. S-19, 20,21, NEAR J.J. PALACE, NH-8, BEHROR, DISTT. ALWAR, RAJASTHAN - 301701",,ALWAR,ALWAR,RAJASTHAN
PSIB0021098,Punjab and Sind Bank,PSIB0021098,NON MICR,NEEMRANA,"S-31, RIICO COMPLEX, NEAR NH-8, NEEMRANA, DISTT. ALWAR, RAJASTHAN -",,ALWAR,ALWAR,RAJASTHAN
PSIB0021099,Punjab and Sind Bank,PSIB0021099,NON MICR,RAEE,"VILLAGE RAEE, DISTT. MUZAFFAR NAGAR, UTTAR PRADESH -",,MUZAFFARNAGAR,MUZAFFARNAGAR,UTTAR PRADESH
PSIB0021100,Punjab and Sind Bank,PSIB0021100,NON MICR,HAMJHERI,"VPO HAMJHERI, TEHSIL PATRAN, DISTT. PATIALA, DISTT. PATIALA, PUNJAB - 147105",,PATIALA,PATIALA,PUNJAB
PSIB0021101,Punjab and Sind Bank,PSIB0021101,NON MICR,HAYAT NAGAR,"VPO HAYAT NAGAR, CAMPUS OF SUKHJINDRA GROUP OF COLLEGES,, DISTT. HOSHIARPUR, PUNJAB -",,HOSHIARPUR,HOSHIARPUR,PUNJAB
PSIB0021103,Punjab and Sind Bank,PSIB0021103,NON MICR,KHATIMA,"OPP BLOCK OFFICE SITARGANJ ROAD KHATIMA, DISTT. UDHAM SINGH NAGAR, UTTARANCHAL",,KHATIMA,UDHAM SINGH NAGAR,UTTARANCHAL
PSIB0021104,Punjab and Sind Bank,PSIB0021104,NON MICR,BHAGWANPUR,"65- RAIPUR, NEAR KIM HEALTH CARE, BHAGWANPUR, DISTT. HARIDWAR, UTTARAKHAND -",,HARDWAR,HARIDWAR,UTTARANCHAL
PSIB0021106,Punjab and Sind Bank,PSIB0021106,NON MICR,NAWADIH,"HIRAK ROAD, OPPOSITE ASRAFI HOSPITAL, POST - 'B' POLYTEC, DISTT. DHANBAD, JHARKHAND -",,DHANBAD,DHANBAD,JHARKHAND
PSIB0021107,Punjab and Sind Bank,PSIB0021107,NON MICR,INDALPUR,"INDALPUR, P.O. MOHIDDINPUR, TEHSIL POWAYAN, DISTT. SHAHJAHANPUR, UTTAR PRADESH - 242402",,SHAHJAHANPUR,SHAHJAHANPUR,UTTAR PRADESH
PSIB0021108,Punjab and Sind Bank,PSIB0021108,NON MICR,KABIRPUR KASGANJA,"P.O. KABIRPUR KASGANJA, TEHSIL PURANPUR, DISTT. PILIBHIT, UTTAR PRADESH - 262122",,PILIBHIT,PILIBHIT,UTTAR PRADESH
PSIB0021109,Punjab and Sind Bank,PSIB0021109,NON MICR,RISAMA,"RISAMA, TEHSIL GUNDERDEHI, NEAR RAILWAY STATION, DISTT. DURG, CHHATISGARH - 491221",,RISAMA,DURG,CHHATTISGARH
PSIB0021110,Punjab and Sind Bank,PSIB0021110,NON MICR,DARRABHATHA,"DARRABHATHA, P.O. MUDPARK, TEHSIL MASTURI, DISTT. BILASP, DISTT. BILASPUR, CHHATISGARH - 495550",,BILASPUR,BILASPUR,CHHATTISGARH
PSIB0021111,Punjab and Sind Bank,PSIB0021111,NON MICR,JANJI,"VILLAGE JANJI, TEHSIL MASTURI, DISTT. BILASPUR, DISTT. BILASPUR, CHHATISGARH - 495550",,BILASPUR,BILASPUR,CHHATTISGARH
PSIB0021112,Punjab and Sind Bank,PSIB0021112,NON MICR,GUMANIWALA,"CHINI GODOWN ROAD, TEHSIL RISHIKESH, DISTT. DEHRADUN, UTTARAKHAND -",,DEHRADUN,DEHRA DUN,UTTARANCHAL
PSIB0021113,Punjab and Sind Bank,PSIB0021113,NON MICR,BIGBARA,"P.O. BIGBARA, TEHSIL KICHHA, DISTT. UDHAM SINGH NAGAR, DISTT. UDHAM SINGH NAGAR, UTTARAKHAND -",,KICHHA,UDHAM SINGH NAGAR,UTTARANCHAL
PSIB0021114,Punjab and Sind Bank,PSIB0021114,NON MICR,BARARA,"BARARA,RAILWAY ROAD, DISTT. AMBALA, HARYANA - 133201",,AMBALA,AMBALA,HARYANA
PSIB0021117,Punjab and Sind Bank,PSIB0021117,NON MICR,AZAMGARH,"PLOT NO 843, AIWAL ROAD AZAMGARH, UTTAR PRADESH   276001",,AZAMGARH,AZAMGARH,UTTAR PRADESH
PSIB0021118,Punjab and Sind Bank,PSIB0021118,NON MICR,MEHATPUR,"MAIN BAZAR , MEHATPUR, TEHSIL NAKODAR, DISTT. JALANDHAR, PUNJAB - 144041",,NAKODAR,JALANDHAR,PUNJAB
PSIB0021119,Punjab and Sind Bank,PSIB0021119,NON MICR,MADHOPUR,"VILL MADHOPUR, PHAGWARA, DISTT.  KAPURTHALA, PUNJAB  - 144411",,PHAGWARA,KAPURTHALA,PUNJAB
PSIB0021122,Punjab and Sind Bank,PSIB0021122,NON MICR,GHOT,"S.K.TRADER PURCHASE CENTRE, PANDORI ROAD, VPO GHOT, TEHSIL & DISTT GURDASPUR, GURDASPUR PUNJAB - 143521",,GURDASPUR,GURDASPUR,PUNJAB
PSIB0021126,Punjab and Sind Bank,PSIB0021126,NON MICR,SAMALKHA,"BENIWAL COMPLEX, G T ROAD,  SAMALKHA, PANIPAT, HARYANA",,SAMALKHA,PANIPAT,HARYANA
PSIB0021127,Punjab and Sind Bank,PSIB0021127,NON MICR,RAMBA,"MANNAT PALACE, INDRI ROAD RAMBA,  KARNAL, HARYANA",,KARNAL,KARNAL,HARYANA
PSIB0021128,Punjab and Sind Bank,PSIB0021128,NON MICR,GANDHIAN,"VILL GANDHIAN, PO PANIAR GURDASPUR  PUNJAB",,GURDASPUR,GURDASPUR,PUNJAB
PSIB0021129,Punjab and Sind Bank,PSIB0021129,NON MICR,PURANA SHALLA,"VPO PURANA SHALLA, TOWARDS CHAK SHARIF ROAD GURDASPUR  PUNJAB",,PURANA SHALLEY,GURDASPUR,PUNJAB
PSIB0021130,Punjab and Sind Bank,PSIB0021130,NON MICR,MIRTHAL,VPO MIRTHAL PATHANKOT  PUNJAB,,PATHANKOT,GURDASPUR,PUNJAB
PSIB0021134,Punjab and Sind Bank,PSIB0021134,NON MICR,GOLA,"LAKHIMPUR ROAD, NEAR HANUMAN TEMPLE GOLA (KHERI)  UTTAR PRADESH- 262802",,GOLA GOKARAN NATH,LAKHIMPUR KHERI,UTTAR PRADESH
PSIB0021135,Punjab and Sind Bank,PSIB0021135,NON MICR,BHINDER,"VILL BHINDER, BABA BAKALA DISTT AMRITSAR  PB  143112",,BABA BAKALA,AMRITSAR,PUNJAB
PSIB0021141,Punjab and Sind Bank,PSIB0021141,NON MICR,MULLANPUR,"VPO MULLANPUR, NEAR BUS STAND, SISWAN KURALI ROAD KHARAR,  DISTT   MOHALI  140901",,SAS NAGAR(MOHALI),RUPNAGAR,PUNJAB
PSIB0021149,Punjab and Sind Bank,PSIB0021149,NON MICR,NOOR PUR,"GUPTA BROS, CHANDPUR ROAD NOOR PUR, BIJNORE,  UTTAR PRADESH",,NOORPUR,BIJNOR,UTTAR PRADESH
PSIB0021150,Punjab and Sind Bank,PSIB0021150,NON MICR,DAURALA,"SHOP NO 2/12/13/14, LUXMI PLAZA, NH-58 DAURALA, MEERUT   UP",,DAURALA,MEERUT,UTTAR PRADESH
PSIB0021152,Punjab and Sind Bank,PSIB0021152,NON MICR,SOHRAMAU,"VPO SOHRAMAU, LUCKNOW KANPUR HIGHWAY DISTT UNNAO",,SOHRAMAU,UNNAO,UTTAR PRADESH