ID,BANK,IFSC_CODE,MICR_CODE,BRANCH_NAME,ADDRESS,CONTACT,CITY,DISTRICT,STATE
STBP0000001,State Bank of Patiala,STBP0000001,,GHAZIABAD,10 NAVYUG MARKET UP-245101,,GHAZIABAD,GHAZIABAD,UTTAR PRADESH
STBP0000002,State Bank of Patiala,STBP0000002,,NEW DELHI DARYA GANJ,"DARYAGANJ, NEW DELHI",011-23278115,DELHI,NEW DELHI,DELHI
STBP0000003,State Bank of Patiala,STBP0000003,,NEW DELHI BALI NAGAR,"BALI NAGAR, NEW DELHI-110015",011-5433589,DELHI,NEW DELHI,DELHI
STBP0000004,State Bank of Patiala,STBP0000004,,NEW DELHI MODEL BASTI,"8357-1/3 NEW COLONY MARG, NEW DELHI -110005",011-7771626/7770504/R-5402851,DELHI,NEW DELHI,DELHI
STBP0000005,State Bank of Patiala,STBP0000005,,PATIALA ARYA SAMAJ,"PRESS ROAD,PATIALA",0175-2309857,PATIALA,PATIALA,PUNJAB
STBP0000006,State Bank of Patiala,STBP0000006,,"BHUPINDER NAGAR, PATIALA","BHUPINDER NAGAR, PATIALA(PUNJAB)-147001","0175-2207015,0175-2226326",PATIALA,PATIALA,PUNJAB
STBP0000007,State Bank of Patiala,STBP0000007,,PATIALA CHOWK FORT,"CHOWK FORT,PATIALA(PUNJAB)",0175-220111,PATIALA,PATIALA,PUNJAB
STBP0000008,State Bank of Patiala,STBP0000008,,PATIALA INDUSTRIAL ESTATE,"NEW GRAIN MARKET, PATIALA",0175-2360896/2314611,PATIALA,PATIALA,PUNJAB
STBP0000009,State Bank of Patiala,STBP0000009,,PATIALA PBI UNIVERSITY,"PUNJABI UNIVERSITY, PATIALA(PUNJAB)",0175-2282658,PATIALA,PATIALA,PUNJAB
STBP0000011,State Bank of Patiala,STBP0000011,,PATIALA DHARAMPURA BAZAR,"DHARAMPURA BAZAR, PATIALA(PUNJAB)",0175-2202375,PATIALA,PATIALA,PUNJAB
STBP0000012,State Bank of Patiala,STBP0000012,,"MALL ROAD, PATIALA","THE MALL, PATIALA(PUNJAB)-147001",0175-2227792,PATIALA,PATIALA,PUNJAB
STBP0000013,State Bank of Patiala,STBP0000013,,NABHA,TEH NABHA,01765-220105/221215,NABHA,PATIALA,PUNJAB
STBP0000014,State Bank of Patiala,STBP0000014,,BASSI PATHANA,BLOCK BASSI PATHANA,01763-250052,BASSI PATHANA,FATEHGARH SAHEB,PUNJAB
STBP0000015,State Bank of Patiala,STBP0000015,,RAJPURA TOWNSHIP,RAJPURA TOWNSHIP(PUNJAB),01762-222559/224115,RAJPURA,PATIALA,PUNJAB
STBP0000016,State Bank of Patiala,STBP0000016,,RAJPURA MAIN BRANCH,"MAIN BRANCH, RAJPURA(PUNJAB)",01762-224060,RAJPURA,PATIALA,PUNJAB
STBP0000017,State Bank of Patiala,STBP0000017,,SAMANA,TEH. SAMANA(PUNJAB),01764-220024,SAMANA,PATIALA,PUNJAB
STBP0000018,State Bank of Patiala,STBP0000018,,AMLOH,TEH. NABHA(PUNJAB),01765-230027,AMLOH,FATEHGARH SAHEB,PUNJAB
STBP0000019,State Bank of Patiala,STBP0000019,,BALBEHRA,V & PO BALBEHRA,01765-2640228,BALBEHRA,PATIALA,PUNJAB
STBP0000020,State Bank of Patiala,STBP0000020,,BHADSON,TEH PATIALA,01765-260161,BHADSON,PATIALA,PUNJAB
STBP0000021,State Bank of Patiala,STBP0000021,,DEVIGARH,DEVIGARH(PUNJAB),0175-2631078,DEVIGARH,PATIALA,PUNJAB
STBP0000022,State Bank of Patiala,STBP0000022,,DERABASSI,TEH. RAJPURA,01762-231024,DERA BASSI,PATIALA,PUNJAB
STBP0000023,State Bank of Patiala,STBP0000023,,GOBINDGARH,G T ROAD TEH AMOLH(PUNJAB),01765-257538/251744,GOBIND GARH,FATEHGARH SAHEB,PUNJAB
STBP0000024,State Bank of Patiala,STBP0000024,,PATRAN,PATRAN(PUNJAB),01764-242022,PATRAN,PATIALA,PUNJAB
STBP0000025,State Bank of Patiala,STBP0000025,,MALERKOTLA,TEH MALERKOTLA,01675-253881,MALERKOTLA,SANGRUR,PUNJAB
STBP0000026,State Bank of Patiala,STBP0000026,,SANGRUR,"BARA CHOWK, SANGRUR(PUNJAB)",01672-234313,SANGRUR,SANGRUR,PUNJAB
STBP0000027,State Bank of Patiala,STBP0000027,,BARNALA,"HADIYAYA BAZAR ,BARNALA(PUNJAB)",01679-30026,BARNALA,SANGRUR,PUNJAB
STBP0000028,State Bank of Patiala,STBP0000028,,DHURI,TEH MALERKOTLA,01675-220034,DHURI,SANGRUR,PUNJAB
STBP0000029,State Bank of Patiala,STBP0000029,,MOONAK,TEH SUNAM,01676-76339,MOONAK,SANGRUR,PUNJAB
STBP0000030,State Bank of Patiala,STBP0000030,,SUNAM,"MAIN BRANCH, SUNAM(PUNJAB)",01676-20031,SUNAM,SANGRUR,PUNJAB
STBP0000031,State Bank of Patiala,STBP0000031,,AHMEDGARH,TEH MALERKOTLA,01675-640031,AHMEDGARH,SANGRUR,PUNJAB
STBP0000032,State Bank of Patiala,STBP0000032,,BHADAUR,TEH BARNALA,01679-274760,BHADAUR,SANGRUR,PUNJAB
STBP0000033,State Bank of Patiala,STBP0000033,,BHAWANIGARH,TEH & DIST SANGRUR,01672-272026,BHAWANIGARH,SANGRUR,PUNJAB
STBP0000034,State Bank of Patiala,STBP0000034,,CHEEMA,BUS STAND CHEEMA,01679-84224,CHEEMA,SANGRUR,PUNJAB
STBP0000035,State Bank of Patiala,STBP0000035,,LEHRA GAGA,NEAR RAILWAY STATION,01676-272042,LEHRAGAGA,SANGRUR,PUNJAB
STBP0000036,State Bank of Patiala,STBP0000036,,TAPA,"NEAR RAILWAY STATION, TEH. BARNALA(PUNJAB)",01679-272038,TAPA,SANGRUR,PUNJAB
STBP0000037,State Bank of Patiala,STBP0000037,,SEHNA,TEH BARNALA,01679-270435,SEHNA,SANGRUR,PUNJAB
STBP0000038,State Bank of Patiala,STBP0000038,,BATHINDA CIVIL LINES,CIVIL LINES BATHINDA,0164-2211537,BATHINDA,BHATINDA,PUNJAB
STBP0000039,State Bank of Patiala,STBP0000039,,BHATINDA CITY,"BHATINDA CITY. PO KIKKAR BAZAR, BHATINDA(PUNJAB)-151005",0164-253092,BATHINDA,BHATINDA,PUNJAB
STBP0000040,State Bank of Patiala,STBP0000040,,KOTKAPURA,"RAILWAY ROAD,KOTKAPURA",01635-223828/220020,KOT KAPURA,FARIDKOT,PUNJAB
STBP0000041,State Bank of Patiala,STBP0000041,,MANSA,WATER WORKS ROAD MANSA,01652-51220007,MANSA,MANSA,PUNJAB
STBP0000042,State Bank of Patiala,STBP0000042,,MANSA INDL. AREA,INDUSTRIAL AREA DIST-MANSA151505,01652-226012,MANSA,MANSA,PUNJAB
STBP0000043,State Bank of Patiala,STBP0000043,,BOHA,VPO BOHA DIST MANSA-151503,01652-257233,BOHA,MANSA,PUNJAB
STBP0000044,State Bank of Patiala,STBP0000044,,JAITU,JAITU,01637-37126,JAITU,FARIDKOT,PUNJAB
STBP0000045,State Bank of Patiala,STBP0000045,,MAUR,TEH TALWANDI SABA DIST BATHINDA-151509,01655232463/230021,MAUR,BHATINDA,PUNJAB
STBP0000046,State Bank of Patiala,STBP0000046,,MEHMA SARJA,VPO MEHMA SARJA TEH BATHINDA -151107,0164-2768220,BATHINDA,BHATINDA,PUNJAB
STBP0000047,State Bank of Patiala,STBP0000047,,MEHRAJ,TEH RAMPURA PHUL BATHIDA-151107,01651-262248,BATHINDA,BHATINDA,PUNJAB
STBP0000048,State Bank of Patiala,STBP0000048,,BALANWALI,TEH RAMPURA PHUL BATHINDA-151107,016512-247466,BALIANWALI,BHATINDA,PUNJAB
STBP0000049,State Bank of Patiala,STBP0000049,,BARETTA,GRAIN MARKET BARETTA,01652-242002,BARETTA,MANSA,PUNJAB
STBP0000050,State Bank of Patiala,STBP0000050,,BUDHLADA,GRAIN MARKET DIST MANSA-151502,01652-253026/254402,BUDHLADA,MANSA,PUNJAB
STBP0000051,State Bank of Patiala,STBP0000051,,FARIDKOT,THE MALL,01639-51548,FARIDKOT,FARIDKOT,PUNJAB
STBP0000052,State Bank of Patiala,STBP0000052,,GONIANA,TEH BATHINDA-151201,0164-2262024/2262212,GONIANA,BHATINDA,PUNJAB
STBP0000054,State Bank of Patiala,STBP0000054,,KOT FATTA,VPO KOT FATTA TEH BATHINDA-151001,0164-3437221,KOTFATTA,BHATINDA,PUNJAB
STBP0000055,State Bank of Patiala,STBP0000055,,PHUL TOWN,TEH RAMPURA PHUL DIST BATHINDA-151104,01651-248224,PHUL,BHATINDA,PUNJAB
STBP0000056,State Bank of Patiala,STBP0000056,,RAMAN MANDI,"GAUSHALA ROAD ,RAMA MANDI",01655-220231,RAMAN,BHATINDA,PUNJAB
STBP0000057,State Bank of Patiala,STBP0000057,,SADIQ,SADIQ,01639-220030,SADIQ,FARIDKOT,PUNJAB
STBP0000058,State Bank of Patiala,STBP0000058,,TALWANDI SABO,TEH TALWANDI SABO BATHINDA-151302,0164-220231,TALWANDI SABO,BHATINDA,PUNJAB
STBP0000059,State Bank of Patiala,STBP0000059,,RAMPURA PHUL,RAILWAY ROAD RAMPHURA PHUL-151105,01651-220030/223130,RAMPURA PHUL,BHATINDA,PUNJAB
STBP0000060,State Bank of Patiala,STBP0000060,,KOT BHAI,VPO KOT BHAI TEH MUKATSAR,01637-262076/263076,KOT BHAI,MUKTSAR,PUNJAB
STBP0000061,State Bank of Patiala,STBP0000061,,ZIRA,NEAR COURTS  ZIRA,01682-250604/250994,ZIRA,FEROZEPUR,PUNJAB
STBP0000062,State Bank of Patiala,STBP0000062,,AMRITSAR MAIN MUKERJI MARG,MUKHARJEE MARG AMRITSAR,"0183-2556576, 5404001",AMRITSAR,AMRITSAR,PUNJAB
STBP0000063,State Bank of Patiala,STBP0000063,,GURDASPUR,GURDASPUR,"01874-246533, 5401116",GURDASPUR,GURDASPUR,PUNJAB
STBP0000064,State Bank of Patiala,STBP0000064,,PHAGWARA MAIN,G.T. ROAD PHAGWARA DISTT.KAPURTHALA,"O1824-261437, 261521",PHAGWARA,KAPURTHALA,PUNJAB
STBP0000065,State Bank of Patiala,STBP0000065,,KAPURTHALA- MAIN,"MALL ROAD, KAPURTHALA","01822-232210, 232412, 239166",KAPURTHALA,KAPURTHALA,PUNJAB
STBP0000066,State Bank of Patiala,STBP0000066,,SULTANPUR LODHI,"SULTANPUR LODHI,DISTT. KAPURTHALA","O1828-223624, 222030 (FAX)",SULTANPUR LODHI,KAPURTHALA,PUNJAB
STBP0000067,State Bank of Patiala,STBP0000067,,"SHASTRI MARKET,JALANDHAR","SHASTRI MARKET, JALANDHAR(PUNJAB)-144001","0181-2234095,0181-2456320",JALANDHAR,JALANDHAR,PUNJAB
STBP0000068,State Bank of Patiala,STBP0000068,,NAKODAR,"THE. NAKODAR,DISTT.JALANDHAR","O1821-220016, 220163",NAKODAR,JALANDHAR,PUNJAB
STBP0000069,State Bank of Patiala,STBP0000069,,KARTARPUR,"G.T.ROAD,KARTARPUR,DISTT JALANDHAR","O181-2782946, 2782039 (FAX)",KARTARPUR,JALANDHAR,PUNJAB
STBP0000070,State Bank of Patiala,STBP0000070,,BARAPIND,VPO. BARAPIND THE PHILLAUR DISTT. JALANDHAR,O1826-266319,BARAPIND,JALANDHAR,PUNJAB
STBP0000071,State Bank of Patiala,STBP0000071,,GORAYA,"G.T.ROAD,GORAYA THE. PHILLAUR DISTT JALANDHAR","O1826-263403, 263404,",GORAYA,JALANDHAR,PUNJAB
STBP0000072,State Bank of Patiala,STBP0000072,,LUDHIANA (MILLER GANJ),MILLER GANJ LUDHIANA,O161-2544504 -2530489,LUDHIANA,LUDHIANA,PUNJAB
STBP0000073,State Bank of Patiala,STBP0000073,,LUDHIANA SABAN  BAZAR,SABAN BAZAR LUDHIANA,O161-2728745 -2728254,LUDHIANA,LUDHIANA,PUNJAB
STBP0000074,State Bank of Patiala,STBP0000074,,KHANNA GTR,G T ROAD KHANNA,O1628-237944 -237222,KHANNA,LUDHIANA,PUNJAB
STBP0000075,State Bank of Patiala,STBP0000075,,RAEKOT,LUDHIANA ROAD NEAR OLD BUS STAND RAEKOT,O1624-264020 -264331,RAIKOT,LUDHIANA,PUNJAB
STBP0000076,State Bank of Patiala,STBP0000076,,DORAHA,RAILWAY ROAD DORAHA,O1628-257561 -,DORAHA,LUDHIANA,PUNJAB
STBP0000077,State Bank of Patiala,STBP0000077,,SAHNEWAL,G T ROAD SAHNEWAL,"O161-2844141,",SAHNEWAL,LUDHIANA,PUNJAB
STBP0000078,State Bank of Patiala,STBP0000078,,SAMRALA,CHANDIGARH ROAD SAMRALA,O1628-262874 -262016,SAMRALA,LUDHIANA,PUNJAB
STBP0000079,State Bank of Patiala,STBP0000079,,SIDHWAN BET,VILLAGE & POST OFFICE SIDHWAN BET,O1624-240228,SIDHWAN BET,LUDHIANA,PUNJAB
STBP0000080,State Bank of Patiala,STBP0000080,,ANANDPUR SAHIB,MAIN BAZAR ANANDPUR SAHIB,01887-232033/232466,ANANDPUR SAHIB,RUPNAGAR,PUNJAB
STBP0000081,State Bank of Patiala,STBP0000081,,GARHSHANKAR,"NEAR CIVIL COURT, GARHSHANKAR","01884-282038, 5401103-04",GARHSHANKAR,HOSIARPUR,PUNJAB
STBP0000082,State Bank of Patiala,STBP0000082,,ROPAR(MAIN BRANCH),NEAR HOSPITAL ROPAR TEH ROPAR-140001,01881-220452/220302,RUPNAGAR,RUPNAGAR,PUNJAB
STBP0000083,State Bank of Patiala,STBP0000083,,CHAMKAUR SAHIB,V P O CHAMKAUR SAHIB,01881-260036/262436,CHAMKAUR SAHIB,RUPNAGAR,PUNJAB
STBP0000084,State Bank of Patiala,STBP0000084,,KHARAR,BUS STAND  KHARAR PUNJAB-140301,01888-247135/245234,KHARAR,RUPNAGAR,PUNJAB
STBP0000085,State Bank of Patiala,STBP0000085,,KURALI,KRSHANA MANDI  KURALI -140103,01888-640056,KURALI,RUPNAGAR,PUNJAB
STBP0000086,State Bank of Patiala,STBP0000086,,MORINDA,VPO MORINDATEH ROPAR-140101,01888-630040/630233,MORINDA,RUPNAGAR,PUNJAB
STBP0000087,State Bank of Patiala,STBP0000087,,SIRHIND MANDI,"ANAJ MANDI,SIRHIND MANDI(PUNJAB)",01763-224710/222017,SIRHIND,FATEHGARH SAHEB,PUNJAB
STBP0000088,State Bank of Patiala,STBP0000088,,YAMUNANAGAR S.M.AREA,SUGAR MILL AREA POST BOX.NO40 HARYANA,01264-247096,YAMUNANAGAR,YAMUNANAGAR,HARYANA
STBP0000089,State Bank of Patiala,STBP0000089,,"YAMUNANAGAR,MAIN BAZAR",HARYANA-135001,01732-2297757,YAMUNANAGAR,YAMUNANAGAR,HARYANA
STBP0000090,State Bank of Patiala,STBP0000090,,YAMUNANAGAR INDL.AREA,INDUSTRIAL AREA HARYANA,01732-252957/250583,YAMUNANAGAR,YAMUNANAGAR,HARYANA
STBP0000091,State Bank of Patiala,STBP0000091,,KALKA,HARYANA-13302,01733-272109,KALKA,PANCHKULA,HARYANA
STBP0000092,State Bank of Patiala,STBP0000092,,MUSTAFABAD,VPO MUSTAFABAD HARYANA,01732-229657/229757,MUSTAFABAD,YAMUNANAGAR,HARYANA
STBP0000093,State Bank of Patiala,STBP0000093,,SAHA,TEH AMBALA,0171-2822234,SAHA,AMBALA,HARYANA
STBP0000094,State Bank of Patiala,STBP0000094,,"KARNAL,MAIN BRANCH",RAILWAY ROAD HARYANA-132001,0184-2252820,KARNAL,KARNAL,HARYANA
STBP0000095,State Bank of Patiala,STBP0000095,,PANIPAT G.T.ROAD,G T ROAD HARYANA-132103,,PANIPAT,PANIPAT,HARYANA
STBP0000096,State Bank of Patiala,STBP0000096,,GUHLA CHEEKA,PO CHEEKAK HARYANA-132034,01743-221480,GUHLACHIKA MANDI,KAITHAL,HARYANA
STBP0000097,State Bank of Patiala,STBP0000097,,GHARAUNDA,G T ROAD TEH KARNAL HARYANA-132114,01748-252035,GHARAUNDA,KARNAL,HARYANA
STBP0000098,State Bank of Patiala,STBP0000098,,PEHOWA,TEH PEHOWA HARYANA-132128,01741-220464/220081,PEHOWA,KURUKSHETRA,HARYANA
STBP0000099,State Bank of Patiala,STBP0000099,,SAMALKHA,SAMALKHA,0180-2572136,SAMALKHA,PANIPAT,HARYANA
STBP0000100,State Bank of Patiala,STBP0000100,,GOHANA,BARODA ROAD HARYANA-124301,01666-256134,GOHANA,SONIPAT,HARYANA
STBP0000101,State Bank of Patiala,STBP0000101,,JHAJJAR,VPO JHAJJAR TEH. DISTT. JHAJJAR,01251-252011,JHAJJAR,JHANJHAR,HARYANA
STBP0000102,State Bank of Patiala,STBP0000102,,KHERI SAMPLA,NEAR RAILWAY STATION,01742-279017,SAMPLA,ROHTAK,HARYANA
STBP0000103,State Bank of Patiala,STBP0000103,,CHARKHI DADRI,HARYANA-123306,01250-220051/220651,CHARKHI DADRI,BHIWANI,HARYANA
STBP0000104,State Bank of Patiala,STBP0000104,,NARNAUL,NEW ANAJ MANDI THE NARNAUL DIST MOHINDERGARH HARYANA-123001,01282-251394,NARNAUL,MAHENDRAGARH,HARYANA
STBP0000105,State Bank of Patiala,STBP0000105,,MOHINDERGARH,OPP POLICE STATION TEH MOHINDERGARH HARYANA,01285-220239,MAHENDRAGARH,MAHENDRAGARH,HARYANA
STBP0000106,State Bank of Patiala,STBP0000106,,"FARIDABAD,MATHURA ROAD",MATHURA ROAD FARIDABAD,0129-2283505,FARIDABAD,FARIDABAD,HARYANA
STBP0000107,State Bank of Patiala,STBP0000107,,HODAL,"G T ROAD , HODAL, HARYANA",01276-235536,HODAL,FARIDABAD,HARYANA
STBP0000108,State Bank of Patiala,STBP0000108,,BHIWANI,RAILWAY RAOD TEH BHIWANI HARYANA-125021,01664-242204/243504,BHIWANI,BHIWANI,HARYANA
STBP0000109,State Bank of Patiala,STBP0000109,,NARNAUND,VPO NARNAUND THE HANSI HARYANA-125039,01663-233225,NARNAUND,HISSAR,HARYANA
STBP0000110,State Bank of Patiala,STBP0000110,,JIND,TEH JIND HARYANA -126102,01681-257080/252723,JIND,JIND,HARYANA
STBP0000111,State Bank of Patiala,STBP0000111,,KALAYAT,GRAIN MARKET HARYANA,01754-260036/260083,KALAYAT,KAITHAL,HARYANA
STBP0000112,State Bank of Patiala,STBP0000112,,NARWANA,HAYRANA-126116,01684-244261,NARWANA,JIND,HARYANA
STBP0000113,State Bank of Patiala,STBP0000113,,SAFIDON,PO  TEH SOFIDON  HARYANA-126110,01686-262005,SAFIDON,JIND,HARYANA
STBP0000114,State Bank of Patiala,STBP0000114,,JULANA,HARYANA,01683-274023,JULANA,JIND,HARYANA
STBP0000115,State Bank of Patiala,STBP0000115,,UCHANA,HARYANA-126115,01684-230228,UCHANA,JIND,HARYANA
STBP0000116,State Bank of Patiala,STBP0000116,,CHANDIGARH GRAIN MARKET-26,SECTOR-26 GRAIN MARKET,0172-2791997,CHANDIGARH,CHANDIGARH,CHANDIGARH
STBP0000117,State Bank of Patiala,STBP0000117,,CHANDIGARH 22-D,SECTOR-22D SCO NO-7,0172-2709499/2700285/2705953/FAX-910172-2701623,CHANDIGARH,CHANDIGARH,CHANDIGARH
STBP0000118,State Bank of Patiala,STBP0000118,,"SHIMLA,MALL ROAD","THE MALL, SHIMLA(HIMACHAL PRADESH_-710002","0177-2801799,0177-2651557",SIMLA,SHIMLA,HIMACHAL PRADESH
STBP0000119,State Bank of Patiala,STBP0000119,,NALAGARH,MAIN BRANCH NALAGARH HP-174101,01795-223038,NALAGARH,SOLAN,HIMACHAL PRADESH
STBP0000120,State Bank of Patiala,STBP0000120,,CHAIL,VPO CHAIL,01792-248347,CHAIL,SOLAN,HIMACHAL PRADESH
STBP0000121,State Bank of Patiala,STBP0000121,,DHARAMPUR,GT ROAD DHARAMPUR THE KASAULI,01792-264023/264101,DHARAMPUR,SOLAN,HIMACHAL PRADESH
STBP0000122,State Bank of Patiala,STBP0000122,,KASAULI,MAIN BAZAR KASAULI H P 173209,01792-272038,KASAULI,SOLAN,HIMACHAL PRADESH
STBP0000123,State Bank of Patiala,STBP0000123,,HAMIRPUR,TEH HAMIRPUR HP-177001,01972-222511/223593,HAMIRPUR,HAMIRPUR,HIMACHAL PRADESH
STBP0000124,State Bank of Patiala,STBP0000124,,KANGRA,TEH KANGRA HP-176001,01892-265030,KANGRA,KANGRA,HIMACHAL PRADESH
STBP0000125,State Bank of Patiala,STBP0000125,,NURPUR,V P ONURPUR,01893-220022,NURPUR,KANGRA,HIMACHAL PRADESH
STBP0000126,State Bank of Patiala,STBP0000126,,PALAMPUR,MAIN BAZAR  PALAMPUR HP-176061,01894-230861,PALAMPUR,KANGRA,HIMACHAL PRADESH
STBP0000127,State Bank of Patiala,STBP0000127,,SOLAN,MAIN ROAD SOLANHP-173212,01792-223241/222103/223784,SOLAN,SOLAN,HIMACHAL PRADESH
STBP0000128,State Bank of Patiala,STBP0000128,,KUNIHAR,TEH ARKI HP 173207,01792-262248,ARKI,SOLAN,HIMACHAL PRADESH
STBP0000129,State Bank of Patiala,STBP0000129,,SIRHIND CITY,SRHIND CITY(PUNJAB),01763-232851,SIRHIND,FATEHGARH SAHEB,PUNJAB
STBP0000130,State Bank of Patiala,STBP0000130,,CHHAJLI,VPO CHHAJILLKI TEH SUNAM,01676-80023,CHAJLI,SANGRUR,PUNJAB
STBP0000131,State Bank of Patiala,STBP0000131,,CHUNI KALAN,V & PO CHUNI KALAN TEH & BLOCK KHARAR,01763-248431,CHUNI KALAN,RUPNAGAR,PUNJAB
STBP0000132,State Bank of Patiala,STBP0000132,,DHAMOT,VILLAGE & POST OFFICE DHAMOT,O1628-278249,DHAMOT,LUDHIANA,PUNJAB
STBP0000133,State Bank of Patiala,STBP0000133,,KONKE KALAN,VILLAGE & POST OFFICE KONKE KALAN,O1624-231241,KONKE,LUDHIANA,PUNJAB
STBP0000134,State Bank of Patiala,STBP0000134,,NARANGWAL,VILLAGE & POST OFFICE NARAGWAL,O161-2864210,NARANGWAL,LUDHIANA,PUNJAB
STBP0000135,State Bank of Patiala,STBP0000135,,JUI,TEH BHIWANI HARYANA-125030,01664-287530,JUI,BHIWANI,HARYANA
STBP0000136,State Bank of Patiala,STBP0000136,,MEHAM,THAND ROAD TEH MEHAM HARYANA-124112,01257-233046,MEHAM,ROHTAK,HARYANA
STBP0000137,State Bank of Patiala,STBP0000137,,CHANARTHAL KALAN,V & PO CHANARTHAL KALAN BLOCK SIRHIND,01763-269235,CHANARTHAL KALAN,FATEHGARH SAHEB,PUNJAB
STBP0000138,State Bank of Patiala,STBP0000138,,PATIALA TRIPURI SAIDAN,PATIALA -147001,0175-2351303,PATIALA,PATIALA,PUNJAB
STBP0000139,State Bank of Patiala,STBP0000139,,"S N MARG, NEW DELHI","SHRADHA NAND MARG, 79, SHANTI SADAN,1ST FLOOR, G B ROAD, NEW DELHI-100006","011-23994066,011-23994023",DELHI,NEW DELHI,DELHI
STBP0000140,State Bank of Patiala,STBP0000140,,KALYAN,TEH PATIALA,0175-2215032,KALYAN,PATIALA,PUNJAB
STBP0000141,State Bank of Patiala,STBP0000141,,KHERA GAJJU,P O MURAKPURA TEH. RAJPURA(PUNJAB),01762-254275,KHERA GAJJU,PATIALA,PUNJAB
STBP0000142,State Bank of Patiala,STBP0000142,,SHAMBHU KALAN,TEH RAJPURA,01762-265223,SHAMBHU KALAN,PATIALA,PUNJAB
STBP0000143,State Bank of Patiala,STBP0000143,,BAUND,TEH DADRI HARYANA-125025,01250-242528,BAUND KALAN,BHIWANI,HARYANA
STBP0000144,State Bank of Patiala,STBP0000144,,BATHINDA SSI,"SSI, INDUSTRILA AREA BATHINDA",0164-211188,BATHINDA,BHATINDA,PUNJAB
STBP0000145,State Bank of Patiala,STBP0000145,,CHANDIGARH SECTOR 10-D,SECTOR-10 SCO NO-21,0172-2743215/2742849/2374662,CHANDIGARH,CHANDIGARH,CHANDIGARH
STBP0000146,State Bank of Patiala,STBP0000146,,DON KALAN,TEH PATIALA,0175-2660337,DON KALAN,PATIALA,PUNJAB
STBP0000147,State Bank of Patiala,STBP0000147,,KAKRALA,TEH. NABHA(PATIALA),01765-275001,KAKRALA,PATIALA,PUNJAB
STBP0000148,State Bank of Patiala,STBP0000148,,BHASAUR,"VIA DHURI, TEH. MALERKOTLA(PUNJAB)",01675-275448,BHASAUR,SANGRUR,PUNJAB
STBP0000149,State Bank of Patiala,STBP0000149,,DHAULA,TEH BARNALA,01679-277632,DHAULA,SANGRUR,PUNJAB
STBP0000150,State Bank of Patiala,STBP0000150,,HANDIYAYA,TEH BARNALA,01679-284227,HANDIAYAYA,SANGRUR,PUNJAB
STBP0000151,State Bank of Patiala,STBP0000151,,KUP KALAN,TEH MALERKOTLA,01675-283230,KUP KALAN,SANGRUR,PUNJAB
STBP0000152,State Bank of Patiala,STBP0000152,,JHUNIR,DIST-MANSA-151506,01659-260321,JHUNIR,MANSA,PUNJAB
STBP0000153,State Bank of Patiala,STBP0000153,,SATNALI,DIST MOHUINDERGARH HARYANA-12304,01282-231431,SATNALI,MAHENDRAGARH,HARYANA
STBP0000154,State Bank of Patiala,STBP0000154,,HASSANGARH,TEH ROHTAK HARYANA,01262-263230/264539,HASSANGARH,ROHTAK,HARYANA
STBP0000155,State Bank of Patiala,STBP0000155,,AMBALA CITY C.M,TEH AMBALA HARYANA-134002,0171-2511804/2511204,AMBALA,AMBALA,HARYANA
STBP0000156,State Bank of Patiala,STBP0000156,,MATHURA,"1935/ DAMPIER NAGAR, MATHURA",0565-2406408,MATHURA,MATHURA,UTTAR PRADESH
STBP0000157,State Bank of Patiala,STBP0000157,,MEERUT CITY,"RAILWAY RAOD, MEERUT CITY,  UP-250001",0121-2511374/2512336,MEERUT,MEERUT,UTTAR PRADESH
STBP0000158,State Bank of Patiala,STBP0000158,,PATTI,"RAILWAY ROAD, TEH. AMRITSAR","01851-244610, 5404040",PATTI,AMRITSAR,PUNJAB
STBP0000159,State Bank of Patiala,STBP0000159,,SADHAR,RAEKOT ROAD SADHAR,O161-275241,SADHAR,LUDHIANA,PUNJAB
STBP0000160,State Bank of Patiala,STBP0000160,,SAHIBA,"VPO. SAHIBA,THE. BALACHAUR,DISTT. NAWASHAHR",O1885-232225,SAHIBA,NAVANSAHAR,PUNJAB
STBP0000161,State Bank of Patiala,STBP0000161,,SWADDI,VILLAGE & POST OFFICE SWADDI,O161-245238,SAWADDI KHAS,LUDHIANA,PUNJAB
STBP0000162,State Bank of Patiala,STBP0000162,,BAROTI(PARWANOO),PARWANOO TEH KASAULI,01792-234692/232080/FAX-232015,PARWANOO,SOLAN,HIMACHAL PRADESH
STBP0000163,State Bank of Patiala,STBP0000163,,DAULATPUR CHOWK,VPO DAULATPUR CHOWAK TEH AMB HP-177204,01976-265033,DAULATPUR,UNA,HIMACHAL PRADESH
STBP0000164,State Bank of Patiala,STBP0000164,,OLINDA COLONY,BHAKRA DAM TEH BILASPUR HP-174201,01887-223428,OLINDA(BHAKRA DAM),BILASPUR,HIMACHAL PRADESH
STBP0000165,State Bank of Patiala,STBP0000165,,BHARARI,PO LEHRI SARAI HP-174027,01978-273023,BHARARI,BILASPUR,HIMACHAL PRADESH
STBP0000166,State Bank of Patiala,STBP0000166,,NURPUR BEDI A.D.B.,VPO NURPUR BEDI TEH ANANDPUR SAHIB-140117,01887-240237/240421,NURPUR KALAN,RUPNAGAR,PUNJAB
STBP0000167,State Bank of Patiala,STBP0000167,,CHANDIGARH 17-C,SECTOR-17-C S C O NO 125-126,0172-2702226/2709417/2703135/FAX-0172-2544391,CHANDIGARH,CHANDIGARH,CHANDIGARH
STBP0000169,State Bank of Patiala,STBP0000169,,BATHINDA G.N.D.T.P.,GURU NANAK THERMAL PLANT BATHINDA-151001,01642-2271711,BATHINDA,BHATINDA,PUNJAB
STBP0000170,State Bank of Patiala,STBP0000170,,LUDHIANA GHUMAR MANDI,GHUMAR MANDI LUDHIANA,O161-2426566 -2400980,LUDHIANA,LUDHIANA,PUNJAB
STBP0000171,State Bank of Patiala,STBP0000171,,KHANNA NGM,NEW GRAIN MARKET KHANNA,O1628-235168,KHANNA,LUDHIANA,PUNJAB
STBP0000172,State Bank of Patiala,STBP0000172,,JAGADHRI A.D.B.,HARYANA,01732-250230,JAGADHRI,YAMUNANAGAR,HARYANA
STBP0000173,State Bank of Patiala,STBP0000173,,PANJ GRAIN KALAN,PANJ     GRAIN   KALAN,01635-262633,PANJGRAIN KALAN,FARIDKOT,PUNJAB
STBP0000174,State Bank of Patiala,STBP0000174,,BARGARI,BARGARI,01635-244040,BARGARI,FARIDKOT,PUNJAB
STBP0000175,State Bank of Patiala,STBP0000175,,NEW DELHI PUSA ROAD,"8 RAJENDRA PLACE, PUSA ROAD,NEW DELHI -110008",011-5711482/5740256/R-5588496,DELHI,NEW DELHI,DELHI
STBP0000176,State Bank of Patiala,STBP0000176,,"CHENNAI,WHITES ROAD","WHITES ROAD,CHENNAI(TAMILNADU)","044-28553296,044-28521805",CHENNAI,CHENNAI,TAMIL NADU
STBP0000177,State Bank of Patiala,STBP0000177,,SAMANA A.D.B.,TEH. SAMANA(PUNJAB),01764-220163,SAMANA,PATIALA,PUNJAB
STBP0000178,State Bank of Patiala,STBP0000178,,CHAMBA GHAT,VPO CHAMBA GHAT,01792-230587,CHAMBAGHAT,SOLAN,HIMACHAL PRADESH
STBP0000179,State Bank of Patiala,STBP0000179,,"BANGLORE, NR SQUARE","BADAMI HOUSE, NR SQUARE, BANGLORE","080-26583923,080-26490326",BANGALORE,BANGALORE URBAN,KARNATAKA
STBP0000180,State Bank of Patiala,STBP0000180,,HISSAR,RAILWAY ROAD TEH HISSAR HARYANA-125001,01662-228342/FAX230542,HISAR,HISSAR,HARYANA
STBP0000181,State Bank of Patiala,STBP0000181,,AGRA NEHRU NAGAR,NEHRA NAGAR AGRA UP-282002,0562-2150351/2522591,AGRA,AGRA,UTTAR PRADESH
STBP0000182,State Bank of Patiala,STBP0000182,,LUDHIANA-BHARAT NAGAR CHOWK,"BHARAT NAGAR CHOWK, LUDHIANA",O161-2244894,LUDHIANA,LUDHIANA,PUNJAB
STBP0000183,State Bank of Patiala,STBP0000183,,NEW DELHI SAFDARJUNG ENCLAVE,"KAMAL THEATRE BUILDING, SAFDARJUNG ENCLAVE,  NEW DELHI-110029",011-606235/6169116/R-5588941,DELHI,NEW DELHI,DELHI
STBP0000184,State Bank of Patiala,STBP0000184,,GAGRET,VPO GAGRET THE UNA,01976-241338,GAGRET,UNA,HIMACHAL PRADESH
STBP0000185,State Bank of Patiala,STBP0000185,,ROHTAK,MODEL TOWN HARYANA-124001,01257-233811,ROHTAK,ROHTAK,HARYANA
STBP0000186,State Bank of Patiala,STBP0000186,,BAREILLY,SHYAM GANJ BAREILLY UP-243001,0581-2570964/2474701/R-2470674,BAREILLY,BAREILLY,UTTAR PRADESH
STBP0000187,State Bank of Patiala,STBP0000187,,JAGRAON,TEHSIL ROAD JAGRAON,O1627-222368,JAGRAON,LUDHIANA,PUNJAB
STBP0000188,State Bank of Patiala,STBP0000188,,KHANAURI,TEH SUNAM,01766-250155,KHANAURI(MANDI),SANGRUR,PUNJAB
STBP0000189,State Bank of Patiala,STBP0000189,,KURUKSHETRA,KURUKSHETRA,01744-220467,KURUKSHETRA,KURUKSHETRA,HARYANA
STBP0000190,State Bank of Patiala,STBP0000190,,KHIZRABAD,KHIZRABAD EAST HARYANA,01732-286230,KHIZRABAD,YAMUNANAGAR,HARYANA
STBP0000191,State Bank of Patiala,STBP0000191,,"KGM,NEW DELHI","28, KASTUBA GANDHI MARG, NEW DELHI-110001",011-23310808,DELHI,NEW DELHI,DELHI
STBP0000192,State Bank of Patiala,STBP0000192,,DUGGAN,VPO DUGGAN,01672-87240,DUGGAN,SANGRUR,PUNJAB
STBP0000193,State Bank of Patiala,STBP0000193,,PALWAL,TEH FARIDABAD HARYANA,01275-252142,PALWAL,FARIDABAD,HARYANA
STBP0000194,State Bank of Patiala,STBP0000194,,MOGA,CIVIL LINES G T ROAD TEH FARIDKOT-142001,01636-221314/225472,MOGA,MOGA,PUNJAB
STBP0000195,State Bank of Patiala,STBP0000195,,CHANDIMANDIR,TEH KALKA HARYANA-134109,0172-2589492,KALKA,PANCHKULA,HARYANA
STBP0000196,State Bank of Patiala,STBP0000196,,BANGA MAIN,"MAIN ROAD,BANGA,DISTT. NAWASHAHR","O1823-260126, 261118 (FAX)",BANGA,NAVANSAHAR,PUNJAB
STBP0000197,State Bank of Patiala,STBP0000197,,MALERKOTLA A.D.B.,"MOTI BAZAR , MALERKOTLA(PUNJAB)",01675-253869,MALERKOTLA,SANGRUR,PUNJAB
STBP0000198,State Bank of Patiala,STBP0000198,,PATIALA N.I.S.,"OLD MOTIBAGH, PATIALA(PUNJAB)",0175-224552,PATIALA,PATIALA,PUNJAB
STBP0000199,State Bank of Patiala,STBP0000199,,SANAWAR,LAWRENCE SHCOOL- SANAWAR THE KASAULI 173202,01792-261219,SANAWAR,SOLAN,HIMACHAL PRADESH
STBP0000200,State Bank of Patiala,STBP0000200,,MORADABAD,"GANDHI ROAD, MORADABAD ,UP",0591-493867,MORADABAD,MORADABAD,UTTAR PRADESH
STBP0000201,State Bank of Patiala,STBP0000201,,KANPUR GUMTI NO.5,"GUMTI NO 5, KANPUR UP",0512-2219096/226342,KANPUR,KANPUR NAGAR,UTTAR PRADESH
STBP0000202,State Bank of Patiala,STBP0000202,,CHANDIGARH 7-C,SECTOR -7 -C-160019,0172-2795906/2795929/2795803/FAX-0172-2548929,CHANDIGARH,CHANDIGARH,CHANDIGARH
STBP0000203,State Bank of Patiala,STBP0000203,,"SHASTRI BHAVAN,NEW DELHI","SHASTRI BHAVAN,RAJENDRA PRASAD ROAD,NEW DELHI-110001","011-23073724,011-23073726",DELHI,NEW DELHI,DELHI
STBP0000204,State Bank of Patiala,STBP0000204,,SHIMLA EAST,SHIMLA EAST(HIMACHAL PRADESH)-710002,"0177-2621879,0177-2624066",SIMLA,SHIMLA,HIMACHAL PRADESH
STBP0000205,State Bank of Patiala,STBP0000205,,FARIDABAD SECTOR 15,1047 SECTOR-15 FARIDABAD-121007,0139-2282431,FARIDABAD,FARIDABAD,HARYANA
STBP0000206,State Bank of Patiala,STBP0000206,,NALAGARH A.D.B.,ADB NALAGARH,01795-223042,NALAGARH,SOLAN,HIMACHAL PRADESH
STBP0000207,State Bank of Patiala,STBP0000207,,HOSHIARPUR,HOSHIARPUR,"01882-222688, 5401041",HOSHIARPUR,HOSIARPUR,PUNJAB
STBP0000208,State Bank of Patiala,STBP0000208,,JALANDHAR PATEL CHOWK,"PATEL CHOWK,JALANDHAR","O181-2280769, 2400909",JALANDHAR,JALANDHAR,PUNJAB
STBP0000209,State Bank of Patiala,STBP0000209,,PATIALA SIRHINDI BAZAR,PATIALA-147001,0175-2220871,PATIALA,PATIALA,PUNJAB
STBP0000210,State Bank of Patiala,STBP0000210,,FEROZEPUR CITY,THE MALL FEROAEPUR,01632-242712,FIROZPUR,FEROZEPUR,PUNJAB
STBP0000211,State Bank of Patiala,STBP0000211,,FARIDABAD ESCORTS,"ESCORTS , FARIDABAD, HARYANA-121001",0129-2283865/2295316,FARIDABAD,FARIDABAD,HARYANA
STBP0000212,State Bank of Patiala,STBP0000212,,PATIALA A.D.B.,"THE MALL, PATIALA(PUNJAB)",0175-2200730,PATIALA,PATIALA,PUNJAB
STBP0000213,State Bank of Patiala,STBP0000213,,HALWARA (AFS),"VILLAGE &POST OFFICE, HALWARA",O1624-277263,HALWARA,LUDHIANA,PUNJAB
STBP0000214,State Bank of Patiala,STBP0000214,,GIDDERBAHA,TEH GIDDERBAHA DIST FARIDKOT-152001,01637-30673,FARIDKOT,FARIDKOT,PUNJAB
STBP0000215,State Bank of Patiala,STBP0000215,,CHANDIGARH 35-D,SECTOR 35-D SCO NO-280,0172-26603270/2660156/22667340,CHANDIGARH,CHANDIGARH,CHANDIGARH
STBP0000216,State Bank of Patiala,STBP0000216,,TOHANA,19 NEW ANAJ MANDI TEH HISAR HARYANA-126120,01692-231356/230153,TOHANA,FATEHABAD,HARYANA
STBP0000217,State Bank of Patiala,STBP0000217,,SAHARANPUR,"CHAKRATA ROAD,SAHARANPUR,  UP-247001",01322-643500/2612212/R-2724468,SAHARANPUR,SAHARANPUR,UTTAR PRADESH
STBP0000218,State Bank of Patiala,STBP0000218,,AMRITSAR EMN,"EAST MOHAN NAGAR,AMRITSAR","0183-2702461, 5404007",AMRITSAR,AMRITSAR,PUNJAB
STBP0000219,State Bank of Patiala,STBP0000219,,BARARA,TEH AMBALA-133201,01731-283058/28276,BARARA,AMBALA,HARYANA
STBP0000220,State Bank of Patiala,STBP0000220,,VERKA,TEH. AMRITSAR,0183-2263071 5404034,VERKA,AMRITSAR,PUNJAB
STBP0000221,State Bank of Patiala,STBP0000221,,BHUCHO KALAN,VIA BHUCHO KALANTEH BATHINDA-151101,0164-2741086,BHUCHO KALAN,BHATINDA,PUNJAB
STBP0000222,State Bank of Patiala,STBP0000222,,LUDHIANA  GILL ROAD,GILL ROAD LUDHIANA,O161-2490117 -5036117,LUDHIANA,LUDHIANA,PUNJAB
STBP0000223,State Bank of Patiala,STBP0000223,,PATIALA CANTT,"CONTONENTAL AREA, PATIALA(PUNJAB)",0175-2396256,PATIALA,PATIALA,PUNJAB
STBP0000224,State Bank of Patiala,STBP0000224,,"MSC,BHATINDA","MUNICIPAL SHOPPING COMPLEX,BHATINDA(PUNJAB)-151002",0164-215178,BATHINDA,BHATINDA,PUNJAB
STBP0000225,State Bank of Patiala,STBP0000225,,BATALA,"HANSI BRIDGE,","01871-244227, 5404016",BATALA,GURDASPUR,PUNJAB
STBP0000226,State Bank of Patiala,STBP0000226,,NEW DELHI HAUZ KHAS,HAUZ KHAS NEW DELHI-110016,011-6857827/6600242/R-5582609,DELHI,NEW DELHI,DELHI
STBP0000227,State Bank of Patiala,STBP0000227,,DHARAMSHALA,LOWER DHARMASHALA TEH KANGRA HP-176215,01892-223172,DHARAMSALA,KANGRA,HIMACHAL PRADESH
STBP0000228,State Bank of Patiala,STBP0000228,,MURTHAL,G T ROAD HARYANA-131027,01698-250240/250073,MURTHAL,SONIPAT,HARYANA
STBP0000229,State Bank of Patiala,STBP0000229,,VIRK KALAN,PO GONIANA BATHINDA-151201,16652447600,VIRK KALAN,BHATINDA,PUNJAB
STBP0000230,State Bank of Patiala,STBP0000230,,MANSA A.D.B.,DIST-MANSA-151505,01652-222259,MANSA,MANSA,PUNJAB
STBP0000231,State Bank of Patiala,STBP0000231,,KULLU,AKHARA BAZAR HP-175101,01902-222457,KULU,KULLU,HIMACHAL PRADESH
STBP0000232,State Bank of Patiala,STBP0000232,,GURGAON,"MUNICIPAL TOWER, RAILWAY ROAD, DHOBIGHAT, GURGAON(HARYANA)","0124-2320227,0124-2321843",GURGAON,GURGAON,HARYANA
STBP0000233,State Bank of Patiala,STBP0000233,,SHAHBAD MARKANDA,HARYANA-132135,01744-240177/240387,SHAHBAD,KURUKSHETRA,HARYANA
STBP0000234,State Bank of Patiala,STBP0000234,,UNA,NANGAL ROAD UNA-174303,01975-220107,UNA,UNA,HIMACHAL PRADESH
STBP0000235,State Bank of Patiala,STBP0000235,,CHHACHHRAULI,DIST YAMUNA NAGAR HARYANA,01732-245015,CHHACHHRAULI,YAMUNANAGAR,HARYANA
STBP0000236,State Bank of Patiala,STBP0000236,,KAITHAL A.D.B.,HARYANA-132027,01746-222827,KAITHAL,KAITHAL,HARYANA
STBP0000237,State Bank of Patiala,STBP0000237,,GOBINDGARH GURU KI NAGARI,MANDI -GOBINDGARH,01765-259753/242552,GOBIND GARH,FATEHGARH SAHEB,PUNJAB
STBP0000238,State Bank of Patiala,STBP0000238,,PATIALA MODEL TOWN,"MODEL TOWN, PATIALA(PUNJAB)",0175-200749,PATIALA,PATIALA,PUNJAB
STBP0000239,State Bank of Patiala,STBP0000239,,NABHA H.M.M.,TEH. NABHA(PUNJAB),01765-220115,NABHA,PATIALA,PUNJAB
STBP0000240,State Bank of Patiala,STBP0000240,,CHANDIGARH 22-B,SECTOR-22 B SC O NO-1106-1107,0172-2706051/2773423/2709445/FAX-2706051,CHANDIGARH,CHANDIGARH,CHANDIGARH
STBP0000241,State Bank of Patiala,STBP0000241,,"JINDAL NAGAR, GHAZIABAD","JINDAL NAGAR, GHAZIBAD, UP",091-2677619,GHAZIABAD,GHAZIABAD,UTTAR PRADESH
STBP0000242,State Bank of Patiala,STBP0000242,,MALOUT,GURDWARA ROAD TEH MUKTSAR DT.,01637-262076,MALOUT,MUKTSAR,PUNJAB
STBP0000243,State Bank of Patiala,STBP0000243,,MEHATPUR,VPO MEHATPUR THE UNA HP-174315,01975-252033,MEHATPUR,UNA,HIMACHAL PRADESH
STBP0000244,State Bank of Patiala,STBP0000244,,PATIALA THAPAR INSTITUTE,THAPER INSTITUE OF TECHNOLOGY PATIALA-147001,0175-2361746,PATIALA,PATIALA,PUNJAB
STBP0000245,State Bank of Patiala,STBP0000245,,AMRITSAR CWG,"CHATI WIND GATE, AMRITSAR","0183-2555576, 5404004",AMRITSAR,AMRITSAR,PUNJAB
STBP0000246,State Bank of Patiala,STBP0000246,,ABOHAR,TEH FEROZEPUR-152116,01636-228203,ABOHAR,FEROZEPUR,PUNJAB
STBP0000247,State Bank of Patiala,STBP0000247,,BIBIWALA,VPO BIBIWALA -151102,0164-271707,BIBIWALA,BHATINDA,PUNJAB
STBP0000248,State Bank of Patiala,STBP0000248,,FAZILKA,GAUSHALA ROAD -152123,01638-260452,FAZILKA,FEROZEPUR,PUNJAB
STBP0000249,State Bank of Patiala,STBP0000249,,SRIGANGANAGAR,DAYA NANDMARG RAJASTHAN-335001,0154-2461037/2437061,GANGANAGAR,GANGANAGAR,RAJASTHAN
STBP0000250,State Bank of Patiala,STBP0000250,,PANIPAT THERMAL PLANT,THERMAL PLANT HARYANA-132105,01742-633366,PANIPAT,PANIPAT,HARYANA
STBP0000251,State Bank of Patiala,STBP0000251,,SONEPAT,NEAR OLD COURTS ROHTAK ROAD SONEPAT,01263-252001,SONIPAT,SONIPAT,HARYANA
STBP0000252,State Bank of Patiala,STBP0000252,,BAHADURGARH,BAHADURGARH(PUNJAB),0175-2282459,PATIALA,PATIALA,PUNJAB
STBP0000253,State Bank of Patiala,STBP0000253,,SAINIK SCHOOL KAPURTHALA,"SAINIK SCHOOL KAPURTHALA,DISTT. KAPURTHALA",O1822-233006,KAPURTHALA,KAPURTHALA,PUNJAB
STBP0000254,State Bank of Patiala,STBP0000254,,PATIALA I.O.COMPLEX,I O C PATIALA(PUNJAB),0175-229583,PATIALA,PATIALA,PUNJAB
STBP0000255,State Bank of Patiala,STBP0000255,,AHMEDGARH OLD MANDI,OLD ANJI MANDI TEH MALERKOTLA,01675-240222,AHMEDGARH,SANGRUR,PUNJAB
STBP0000256,State Bank of Patiala,STBP0000256,,JALANDHAR TANDA ROAD,"TANDA ROAD,JALANDHAR","O181-2224980, 2458511",JALANDHAR,JALANDHAR,PUNJAB
STBP0000257,State Bank of Patiala,STBP0000257,,JIND PATIALA CHOWK,PATIALA CHOWK HARYANA-126102,01681-225743/225622,JIND,JIND,HARYANA
STBP0000258,State Bank of Patiala,STBP0000258,,NEW DELHI JANAK PURI,"C-29 JANAKPURI, NEW DELHI-110058",011-5551263/R-5582208,DELHI,NEW DELHI,DELHI
STBP0000259,State Bank of Patiala,STBP0000259,,MUZAFFARNAGAR,"COURT ROAD MUZAFFARNAGAR, UP-251001",0131-2407979/2404048/R-2660035,MUZAFFARNAGAR,MUZAFFAR NAGAR,UTTAR PRADESH
STBP0000260,State Bank of Patiala,STBP0000260,,AMRITSAR KJS,"KATRA JAIMAL SINGH, AMRITSAR","0183-2557861, 5404010",AMRITSAR,AMRITSAR,PUNJAB
STBP0000261,State Bank of Patiala,STBP0000261,,PIPLANWALA,"VPO PIPLANWALA, HOSHIARPUR","01882-256668, 5401162",PIPLANWALA,HOSIARPUR,PUNJAB
STBP0000262,State Bank of Patiala,STBP0000262,,DASUYA (ADB),"G.T. ROAD, DASUYA","01883-285055, 5401097",DASUYA,HOSIARPUR,PUNJAB
STBP0000263,State Bank of Patiala,STBP0000263,,PATIALA RAJINDRA HOSPITAL,"RAJENDRA HOSPITAL, PATIALA(PUNJAB)",0175-200750,PATIALA,PATIALA,PUNJAB
STBP0000264,State Bank of Patiala,STBP0000264,,PATIALA Y.P.S.,"Y P S, PATIALA(PUNJAB)",0175-202598,PATIALA,PATIALA,PUNJAB
STBP0000265,State Bank of Patiala,STBP0000265,,DUDHAN SAIDAN,VPO DUDHAN SADHAN,0175-2631035,DUDHAN SADHAN,PATIALA,PUNJAB
STBP0000266,State Bank of Patiala,STBP0000266,,DEHRADUN M.G.MARG,"58  MAHATMA GANDHI ROAD, DEHRADUN UP-248001",0135-2653048,DEHRADUN,DEHRADUN,UTTARAKHAND
STBP0000267,State Bank of Patiala,STBP0000267,,KANDROORI,VPO KANDROORI  TEH-NURPUR HP-176402,01893-244403,KANDROORI,KANGRA,HIMACHAL PRADESH
STBP0000268,State Bank of Patiala,STBP0000268,,SANKHOL,"TEH BAHADURGARH DIST ROHTAK, HARYANA",01276-21052/210035,SANKHOL,JHANJHAR,HARYANA
STBP0000269,State Bank of Patiala,STBP0000269,,QILA ZAFFARGARH,JIND ROHTAK ROAD HARYANA-126011,01683-269155,QILA ZAFFARGARH,JIND,HARYANA
STBP0000270,State Bank of Patiala,STBP0000270,,KUNDLI,TEH SONEPAT HARYANA-131028,01264-282199,KUNDLI,SONIPAT,HARYANA
STBP0000271,State Bank of Patiala,STBP0000271,,KOLKATA- CAMAC STREET,"CAMAC STREET, SHANTI NIKETAN, KOLKATA- 700017","03-22825281,03-22824431",KOLKATA,KOLKATA,WEST BENGAL
STBP0000272,State Bank of Patiala,STBP0000272,,NAWASHAHR MAIN,"OLD COURT ROAD,NAWASHAHR","O1823-227565, 222935",NAWANSHAHAR,NAVANSAHAR,PUNJAB
STBP0000273,State Bank of Patiala,STBP0000273,,HYDERABAD,"PULLA REDDY BUILDING, ABID CIRCLE, PB NO.229 HYDERABAD","040-23201125,040-23200399",HYDERABAD,HYDERABAD URBAN,ANDHRA PRADESH
STBP0000274,State Bank of Patiala,STBP0000274,,ALLAHABAD CHOWK AREA,"CHOWK AREA , ALLAHABAD,(UP)",0532-2450856/R-2651138/FAX-2450855,ALLAHABAD,ALLAHABAD,UTTAR PRADESH
STBP0000275,State Bank of Patiala,STBP0000275,,HANSI,NEW GRAIN MARKET HARYANA-125034,01663-252212,HANSI,HISSAR,HARYANA
STBP0000276,State Bank of Patiala,STBP0000276,,NEW DELHI KAROL BAGH,BRITE HOUSE D B GUPTA ROAD NEW DELHI-110005,011-5726806/5472480/R-5584669,DELHI,NEW DELHI,DELHI
STBP0000277,State Bank of Patiala,STBP0000277,,NABHA GRAIN MARKET,"GRAIN MARKET, NABHA(PUNJAB)",01765-220405,NABHA,PATIALA,PUNJAB
STBP0000278,State Bank of Patiala,STBP0000278,,LUCKNOW V.S.M.,21 VIDHAN SABHA MARG POST BOX NO 14 UP-226001,0522-2216048/2248561/R-2308568/FAX-2283963/0535-2336,LUCKNOW,LUCKNOW,UTTAR PRADESH
STBP0000279,State Bank of Patiala,STBP0000279,,KHALTOO - NAUNI,PO NAUNI -173230,01792-252321,NAUNI,SOLAN,HIMACHAL PRADESH
STBP0000280,State Bank of Patiala,STBP0000280,,SANGHOA,TEH KARNAL HARYANA-132002,0184-2389064,SANGHOA,KARNAL,HARYANA
STBP0000281,State Bank of Patiala,STBP0000281,,BULANDSHAHR,"CIVIL LINES, BULANDSHAHAR UP-703001",05732-250165/254213,BULANDSHAHR,BULANDSHEHAR,UTTAR PRADESH
STBP0000282,State Bank of Patiala,STBP0000282,,JAMMU,"GANDHI  NAGAR, JAMMU","0191-2433201, 5405001",JAMMU,JAMMU,JAMMU & KASHMIR
STBP0000283,State Bank of Patiala,STBP0000283,,BHIWANI GRAIN MKT.,NEW GRAIN MARKET HARYANA-125021,01664-242079,BHIWANI,BHIWANI,HARYANA
STBP0000284,State Bank of Patiala,STBP0000284,,NEW DELHI WAZIRPUR INDL.ESTATE,WAZIRPUR INDUSTRIAL AREA NEW DELHI-110052,011-7249055/7231214/TFAX-79067,DELHI,NEW DELHI,DELHI
STBP0000285,State Bank of Patiala,STBP0000285,,NEW DELHI NEHRU PLACE,32-33 NEHRU PLACE NEW DELHI-110019,031-65244/FAX-011-6438322,DELHI,NEW DELHI,DELHI
STBP0000286,State Bank of Patiala,STBP0000286,,PANIPAT FERTILIZER COMPLEX,PO KHADI ASHRAM G T ROAD HARYANA-132104,01747-573686,PANIPAT,PANIPAT,HARYANA
STBP0000287,State Bank of Patiala,STBP0000287,,BENRA,VPO BENRA VIA DHURI TEH MALERKOTLA,01675-220548,BENRA,SANGRUR,PUNJAB
STBP0000288,State Bank of Patiala,STBP0000288,,MEERUT CANTT,BOMBAY BAZAR MEERUT CANTT UP-250001,0121-2660899/2668462,MEERUT,MEERUT,UTTAR PRADESH
STBP0000289,State Bank of Patiala,STBP0000289,,KANPUR BIRHANA ROAD,"BIRHANA ROAD, KANPUR,  UP-208001",0512-2310821,KANPUR,KANPUR NAGAR,UTTAR PRADESH
STBP0000290,State Bank of Patiala,STBP0000290,,KANPUR NAVIN MARKET,"NAVIN MARKET, KANPUR",0512-2303098/FAX-2303090/R-2541584,KANPUR,KANPUR NAGAR,UTTAR PRADESH
STBP0000291,State Bank of Patiala,STBP0000291,,SRI NAGAR,CAMP AT JAMMU BRANCH,0191-2433201,JAMMU,JAMMU,JAMMU & KASHMIR
STBP0000292,State Bank of Patiala,STBP0000292,,ALLAHABAD CIVIL LINES,17/33 MAHATMA GANDHI MARG CIVIL LINES ALLAHABAD UP-211001,0532-2623065/2505355,ALLAHABAD,ALLAHABAD,UTTAR PRADESH
STBP0000293,State Bank of Patiala,STBP0000293,,CHAUKE,VILLAGE CHAUKE PO JOGA  TEH RAMPURA PHUL,01651-249658,CHAUKE,BHATINDA,PUNJAB
STBP0000294,State Bank of Patiala,STBP0000294,,PATHANKOT CB,"CHAKKI BANK, PATHANKOT","0186-2224965, 5404019",PATHANKOT,GURDASPUR,PUNJAB
STBP0000295,State Bank of Patiala,STBP0000295,,HATHWALA,TEH PANIPAT HARYANA-132115,01742-586604,HATHWALA,PANIPAT,HARYANA
STBP0000296,State Bank of Patiala,STBP0000296,,BARSAR,TEH BARSAR HP-174305,01972-288024,BARSAR,HAMIRPUR,HIMACHAL PRADESH
STBP0000297,State Bank of Patiala,STBP0000297,,MYSER KHANA,MYSER KHANA TEH.TALWANDI SABO,01655-237121,MYSERKHANA,BHATINDA,PUNJAB
STBP0000298,State Bank of Patiala,STBP0000298,,SUNDER NAGAR,BHOJPUR BAZAR HP-175002,01907-262479,SUNDAR NAGAR,MANDI,HIMACHAL PRADESH
STBP0000299,State Bank of Patiala,STBP0000299,,HIMMATGARH,HIMMATGARH(PUNJAB),,HIMMATGARH,FATEHGARH SAHEB,PUNJAB
STBP0000300,State Bank of Patiala,STBP0000300,,FATEHABAD,35 ANAJ MANDI TEH FATEHABAD HARYANA-125050,01667-220225/226455,FATEHABAD,FATEHABAD,HARYANA
STBP0000301,State Bank of Patiala,STBP0000301,,FATTA MALUKA,DIST MANSA-151505,01652-259161,FATTA MALUKA,MANSA,PUNJAB
STBP0000302,State Bank of Patiala,STBP0000302,,THALI,V THALI PO GHANAULI TEH ROPAR-140113,01881-265249,THALI,RUPNAGAR,PUNJAB
STBP0000303,State Bank of Patiala,STBP0000303,,NEW DELHI PARLIAMENT STREET,"30 REGAL BLDG, PARLIAMENT STREET,  NEW DELHI",011-3364561/3360885/3344829/FAX-0113345134/9291,DELHI,NEW DELHI,DELHI
STBP0000304,State Bank of Patiala,STBP0000304,,FARIDABAD SECTOR 24,"PLOT NO.367, SECTOR-24, FARIDABAD- 121005",0129-5238890,FARIDABAD,FARIDABAD,HARYANA
STBP0000305,State Bank of Patiala,STBP0000305,,PATLI KUHI,PO KATRAIN HP-175129,01902-240157,PATLI KUHL,KULLU,HIMACHAL PRADESH
STBP0000306,State Bank of Patiala,STBP0000306,,CHANDIGARH PB & HARYANA HIGHCT,CHANDIGARH PB & HARYANA HIGHCT,0172-2740745,CHANDIGARH,CHANDIGARH,CHANDIGARH
STBP0000307,State Bank of Patiala,STBP0000307,,PATNA,"BERI ROAD, PATNA",0612-2674865/2670833,PATNA,PATNA,BIHAR
STBP0000308,State Bank of Patiala,STBP0000308,,BEHNIWAL,VPO BEHNIWAL,01659-267057,BEHNIWAL,MANSA,PUNJAB
STBP0000309,State Bank of Patiala,STBP0000309,,MANAWALA ADB,"VPO MANAWALA, TEH. AMRITSAR",0183-24401715404055,MANANWALA,AMRITSAR,PUNJAB
STBP0000310,State Bank of Patiala,STBP0000310,,BABA BAKALA,VPO BABA BAKALA,"01853-245234, 5404037",BABA BAKALA,AMRITSAR,PUNJAB
STBP0000311,State Bank of Patiala,STBP0000311,,PATIALA DUKHNIWARAN SAHIB,"DUKHNIVARAN SAHIB, PATIALA(PUNJAB)",0175-2362793,PATIALA,PATIALA,PUNJAB
STBP0000312,State Bank of Patiala,STBP0000312,,PATIALA MODI COLLEGE,"MULTANIMALL MODI COLLEGE, PATIALA(PUNJAB)",0175-203524,PATIALA,PATIALA,PUNJAB
STBP0000313,State Bank of Patiala,STBP0000313,,"COMMERCIAL BRANCH,NARIMAN POINT, MUMABI",MUMBAI,"COMMERCIAL BRANCH, ATLANTA, 1ST FLOOR, NARIMAN POINT,MUMBAI(MAHARASHTRA)-400021",MUMBAI,GREATER BOMBAY,MAHARASHTRA
STBP0000314,State Bank of Patiala,STBP0000314,,THARA UPRALA,"PO DHAR KALAN, TEH. PATHANKOT","01870-251348, 5404064",THARA UPRALA,GURDASPUR,PUNJAB
STBP0000315,State Bank of Patiala,STBP0000315,,SHAHKOT,"JAWAHAR MARKET,SHAHKOT,DISTT JALANDHAR","O1821-260138, 261111 (FAX)",SHAHKOT,JALANDHAR,PUNJAB
STBP0000316,State Bank of Patiala,STBP0000316,,AMBALA CITY G.T.ROAD,HARYANA-134002,0171-244343/2442490,AMBALA,AMBALA,HARYANA
STBP0000317,State Bank of Patiala,STBP0000317,,RANWAR,HARYANA-132001,0184-2387547,RANWAR,KARNAL,HARYANA
STBP0000318,State Bank of Patiala,STBP0000318,,FEROZABAD,"RANI WALA MARKET , DISTT. AGRA",0561-2242244,FIROZABAD,FIROZABAD,UTTAR PRADESH
STBP0000319,State Bank of Patiala,STBP0000319,,SARDULGARH,TEH MANSA-151057,01659-250062,SARDULGARH,MANSA,PUNJAB
STBP0000320,State Bank of Patiala,STBP0000320,,"CHENNAI, BROADWAY","98, BROADWAY GEORGE TOWN, CHENNAI(TAMILNADU)-600108","044-25225658,044-25229538",CHENNAI,CHENNAI,TAMIL NADU
STBP0000321,State Bank of Patiala,STBP0000321,,PAONTA SAHIB,TEH POANTA SAHIB HP-173025,01704-222319/225271,PAONTA SAHIB,SIRMOUR,HIMACHAL PRADESH
STBP0000322,State Bank of Patiala,STBP0000322,,TUNGWALI,TEH BATHINDA-151101,0164-2758109,TUNGWALI,BHATINDA,PUNJAB
STBP0000323,State Bank of Patiala,STBP0000323,,PATIALA P.S.E.B.,"P.S.E.B., PATIALA",0175-217605,PATIALA,PATIALA,PUNJAB
STBP0000324,State Bank of Patiala,STBP0000324,,NOIDA,"B-130 SECTOR-6, NOIDA , GHAZIABAD, UP",0120-2422350,NOIDA,GAUTAM BODDA NAGAR,UTTAR PRADESH
STBP0000325,State Bank of Patiala,STBP0000325,,DEHRADUN HARDWAR ROAD,"57/2J HARDWAR ROAD, DEHRADUN, UP-248001",0135-2629089,DEHRADUN,DEHRADUN,UTTARAKHAND
STBP0000326,State Bank of Patiala,STBP0000326,,KARNAL N.D.R.I.,HARYANA-132001,0184-2252461,KARNAL,KARNAL,HARYANA
STBP0000327,State Bank of Patiala,STBP0000327,,MORADABAD HINDU COLLEGE,"HINDU COLLEGE, MORADABAD, UP-244001",0591-2310446,MORADABAD,MORADABAD,UTTAR PRADESH
STBP0000328,State Bank of Patiala,STBP0000328,,GAJEWAS,TEH SAMANA,01764-261048,GAJEWAS,PATIALA,PUNJAB
STBP0000329,State Bank of Patiala,STBP0000329,,NEW DELHI DEFENCE COLONY,23 DEFENCE COLONY MARKET NEW DELHI -110024,011-462308/615830/R-229540,DELHI,NEW DELHI,DELHI
STBP0000330,State Bank of Patiala,STBP0000330,,KALA JHAR,VPO KALAJHAR,01672-274558,KALJHAR,SANGRUR,PUNJAB
STBP0000331,State Bank of Patiala,STBP0000331,,KAMALPUR,(VIA BILUPUR),0175-246452,KAMALPUR,PATIALA,PUNJAB
STBP0000332,State Bank of Patiala,STBP0000332,,KHIALA KALAN,VPO KHIALA KALAN,01652-267010,KHYALA KALAN,MANSA,PUNJAB
STBP0000333,State Bank of Patiala,STBP0000333,,KATRON,VPO KATRON TEH MALERKOTLA,01675-233371,KATRON,SANGRUR,PUNJAB
STBP0000334,State Bank of Patiala,STBP0000334,,NAGPUR,2 CENTRAL AVENUE NAGPUR-440018,0172-725166/FAX-725166,NAGPUR,NAGPUR,MAHARASHTRA
STBP0000335,State Bank of Patiala,STBP0000335,,JAKHEPAL,TEH SUNAM,01676-288021,JAKHEPAL,SANGRUR,PUNJAB
STBP0000336,State Bank of Patiala,STBP0000336,,HATHAN,VPO HATHAN TEH MALERKOTLA,01675-279006,HATHAN,SANGRUR,PUNJAB
STBP0000337,State Bank of Patiala,STBP0000337,,KHANPUR,VPO KHANPUR TEH MALERKOTLA,01675-288215,KHANPUR,SANGRUR,PUNJAB
STBP0000338,State Bank of Patiala,STBP0000338,,BALLUANA,VPO BULLUANA BATHINDA-151001,64-2447579,BALLUANA,BHATINDA,PUNJAB
STBP0000339,State Bank of Patiala,STBP0000339,,JAIPUR,MAYA MISSION M I ROAD JAIPUR-302001,0141-2377650/R-2363299,JAIPUR,JAIPUR,RAJASTHAN
STBP0000340,State Bank of Patiala,STBP0000340,,SIKANDRABAD,"RAILWAY ROAD, SIKANDRABAD UP-203205",05735-269665/269672,SIKANDRABAD,BULANDSHEHAR,UTTAR PRADESH
STBP0000341,State Bank of Patiala,STBP0000341,,MORADABAD BARTAN BAZAR,"BARTAN BAZAR MORADABAD, UP-244001",0591-2315079/R-2427982/FAX-327982,MORADABAD,MORADABAD,UTTAR PRADESH
STBP0000342,State Bank of Patiala,STBP0000342,,KHATAULI,"RAILWAY ROAD TEH JANSATH, DIST. MUZAFFARNAGAR",01316-272162/R-272156,KHATAULI,MUZAFFAR NAGAR,UTTAR PRADESH
STBP0000343,State Bank of Patiala,STBP0000343,,NEW DELHI OKHALA INDL. AREA,"OKHLA INDUSTRIAL AREA PHASE-I, NEW DELHI",011-6819462/68127525,DELHI,NEW DELHI,DELHI
STBP0000344,State Bank of Patiala,STBP0000344,,LUCKNOW GANESH GANJ,"ARYA SAMAJ MANDIR, GANESH GANJ, LUCKNOW,  UP-226018",0522-2681376/R-2419317,LUCKNOW,LUCKNOW,UTTAR PRADESH
STBP0000345,State Bank of Patiala,STBP0000345,,AHMEDABAD,"VASU PUJYA CHAMBERS, ASHRAM ROAD, AHMEDABAD",079-27542432,AHMEDABAD,AHMEDABAD,GUJARAT
STBP0000346,State Bank of Patiala,STBP0000346,,RAMPUR,MUNCIPAL BOARD PERMISES SHAHABAD ROAD RAMPUR UP-247901,0595-2354216,RAMPUR,RAMPUR,UTTAR PRADESH
STBP0000347,State Bank of Patiala,STBP0000347,,LUDHIANA  IND. AREA,IND. AREA A LUDHIANA,O161-2222091,LUDHIANA,LUDHIANA,PUNJAB
STBP0000348,State Bank of Patiala,STBP0000348,,CHABHAL,"VPO CHABHAL,TEH. TARN TARAN","01852-277293,",CHABHAL,AMRITSAR,PUNJAB
STBP0000349,State Bank of Patiala,STBP0000349,,BARNALA A.D.B.,A.D.B. BARNALA(PUNJAB),011-679-230227,BARNALA,SANGRUR,PUNJAB
STBP0000350,State Bank of Patiala,STBP0000350,,MEHAL KALAN A.D.B.,TEH BARNALA,01679-55145,MAHAL KALAN,SANGRUR,PUNJAB
STBP0000351,State Bank of Patiala,STBP0000351,,LEHAL KALAN,(VIA MOONAK) TEH. SUNAM(PUNJAB),01676-277553,LEHAL KALAN,SANGRUR,PUNJAB
STBP0000352,State Bank of Patiala,STBP0000352,,NIHALSINGHWALA,TEH MOGA FARIDKOT-142055,01636-254157,NIHAL SINGH WALA,MOGA,PUNJAB
STBP0000353,State Bank of Patiala,STBP0000353,,SINGHO,VPO SINGHO TEH TALWANDI SABO BATHINDA,01665-228124,SINGHO,BHATINDA,PUNJAB
STBP0000354,State Bank of Patiala,STBP0000354,,JALAL,TEH PHUL -151108,01651-235141,JALAL,BHATINDA,PUNJAB
STBP0000355,State Bank of Patiala,STBP0000355,,DEHAR,"NEAR LALRUMANDI,TEH. RAJPURA(PUNJAB)",0171-279384,RAJPURA,PATIALA,PUNJAB
STBP0000356,State Bank of Patiala,STBP0000356,,ADAMPUR MANDI,HARYANA-125052,01669-242106/244231,MANDI ADAMPUR,HISSAR,HARYANA
STBP0000357,State Bank of Patiala,STBP0000357,,SIRSA,2 & 3 NEW ADDITIONAL MANDI TEH SIRSA HARYANA-125055,01262-255406,SIRSA,SIRSA,HARYANA
STBP0000358,State Bank of Patiala,STBP0000358,,ASSANDH,HARYANA-132009,01749-278295,ASSANDH,PANIPAT,HARYANA
STBP0000359,State Bank of Patiala,STBP0000359,,RAIPUR RANI,TEH NARAINGARH DIST PANCHKULA HARYANA-134204,01734-256642,RAIPUR RANI,PANCHKULA,HARYANA
STBP0000360,State Bank of Patiala,STBP0000360,,PATIALA AURBINDO BHAWAN,"ROSE GARDEN, PATIALA(PUNJAB)",0175-2301452,PATIALA,PATIALA,PUNJAB
STBP0000361,State Bank of Patiala,STBP0000361,,UPPLI,VILLAGE UPPLI,01672-234372,UPPLI,SANGRUR,PUNJAB
STBP0000362,State Bank of Patiala,STBP0000362,,JALALPUR,"VIL. BANUR, TEH. RAJPURA(PUNJAB)",017632-251538,JALALPUR,PATIALA,PUNJAB
STBP0000363,State Bank of Patiala,STBP0000363,,ATTA,TEH PANIPAT  HARYANA-,01742-661542,ATTA,PANIPAT,HARYANA
STBP0000364,State Bank of Patiala,STBP0000364,,BARMANA,TEH SADAR HP-174013,01978-244491,BARMANA,BILASPUR,HIMACHAL PRADESH
STBP0000365,State Bank of Patiala,STBP0000365,,NABHA N.G.M.,N.G.M. NABHA(PUNJAB),01765-220191,NABHA,PATIALA,PUNJAB
STBP0000366,State Bank of Patiala,STBP0000366,,AMBALA CANTT.(SADAR BAZAR),SADAR BAZAR (HARYANA),0171-2644523/2643510,AMBALA CANTT.,AMBALA,HARYANA
STBP0000367,State Bank of Patiala,STBP0000367,,MEHLAN,MEHLAN CHOWK TEH SUNAM,01676-287511,MEHLAN,SANGRUR,PUNJAB
STBP0000368,State Bank of Patiala,STBP0000368,,BHUCHO MANDI,BHUCHO MANDI TEH BATHINDA-151101,1642741009,BHUCHO MANDI,BHATINDA,PUNJAB
STBP0000369,State Bank of Patiala,STBP0000369,,PHAGWARA RLY. ROAD,"RAILWAY ROAD,PHAGWARA,DISTT. KAPURTHALA","O1824-260303, 262246",PHAGWARA,KAPURTHALA,PUNJAB
STBP0000370,State Bank of Patiala,STBP0000370,,KAULI,TEH PATIALA,0175-2663534,KAULI,PATIALA,PUNJAB
STBP0000371,State Bank of Patiala,STBP0000371,,KAITHAL N.G.M.,NEW GRAIN MARKET HARYANA-132027,01746-222938,KAITHAL,KAITHAL,HARYANA
STBP0000372,State Bank of Patiala,STBP0000372,,DHAND MANDI,TEH PUNDRI DIST KAITHAL HARYANA-132020,01746-250266,PUNDRI,KAITHAL,HARYANA
STBP0000373,State Bank of Patiala,STBP0000373,,NEW DELHI AZADPUR,SABZI MANDI 27 TRANSPORT CENTRE PIN-110033,011-7117692/R-5552475,DELHI,NEW DELHI,DELHI
STBP0000374,State Bank of Patiala,STBP0000374,,BADSHAHPUR,"ANAZ MANDI, BADSHAHPUR, TEH. SAMANA(PUNJAB)",01764-266327,BADSHAHPUR,PATIALA,PUNJAB
STBP0000375,State Bank of Patiala,STBP0000375,,NEW DELHI POOTH KALAN,"BLOCK KANJHAWALA ROAD, NEW DELHI",011-5474050/R-5586003,DELHI,NEW DELHI,DELHI
STBP0000376,State Bank of Patiala,STBP0000376,,NEW DELHI KONDLI,"SHADARA BLOCK,MAYUR VIHAR, PHASE -III , NEW DELHI",011-2252461/R-229540,DELHI,NEW DELHI,DELHI
STBP0000377,State Bank of Patiala,STBP0000377,,JAND MANGOLI,"VPO JAND MANGOLI, OPP PANCHAYAT GHAR, TEH. RAJPURA(PUNJAB)",01762-262236,JAND MANGAULI,PATIALA,PUNJAB
STBP0000378,State Bank of Patiala,STBP0000378,,AWAHA DEVI,AWAHA DEVI HP,01972-275022,AWAHA DEVI,HAMIRPUR,HIMACHAL PRADESH
STBP0000379,State Bank of Patiala,STBP0000379,,BHIKHI,DIST MANSA-151504,01652-275542,BHIKHI,MANSA,PUNJAB
STBP0000380,State Bank of Patiala,STBP0000380,,NEW DELHI BAMNOLI,"NAJAFGARH ROAD , BAMNOLI, NEW DELHI",011-5566623/5592696,DELHI,NEW DELHI,DELHI
STBP0000381,State Bank of Patiala,STBP0000381,,NEW DELHI KARALA,"KANJHANWALA BLOCK , KARALA, NEW DELHI",011-5472480/R-5596449,DELHI,NEW DELHI,DELHI
STBP0000382,State Bank of Patiala,STBP0000382,,NANGAL,ADDA MARKET NANGAL TOWNSHIP-140124,01887-224090/224190,NANGAL,RUPNAGAR,PUNJAB
STBP0000383,State Bank of Patiala,STBP0000383,,BANUR,V & PO BANUR TEH RAJPURA,01762-451477,BANUR,PATIALA,PUNJAB
STBP0000384,State Bank of Patiala,STBP0000384,,MUKATSAR,DIST-FARIDKOT-156026,01633-260148/267332,MUKTSAR,MUKTSAR,PUNJAB
STBP0000385,State Bank of Patiala,STBP0000385,,BATHINDA GRAIN MARKET,GRAIN MARKET BATHINDA-151001,01642-2240277,BATHINDA,BHATINDA,PUNJAB
STBP0000386,State Bank of Patiala,STBP0000386,,CHALAILA,VPO CHALAILA,01763-261332,FATEHGARH SAHIB,FATEHGARH SAHEB,PUNJAB
STBP0000387,State Bank of Patiala,STBP0000387,,"SECTOR 7,PANCHKULA","SECTOR 7,PANCHKULA(HARYANA)","0172-2599244,0172-2596225",PANCHKULA,PANCHKULA,HARYANA
STBP0000388,State Bank of Patiala,STBP0000388,,PANIAR,"VPO PANIAR, THE. GURDASPUR","01875-309293, 5401245",PANIAR,GURDASPUR,PUNJAB
STBP0000389,State Bank of Patiala,STBP0000389,,BHOGIWAL,TEH MALERKOTLA,1675-283303,BHOGIWAL,SANGRUR,PUNJAB
STBP0000390,State Bank of Patiala,STBP0000390,,BAKSHIWALA,THE.PATIALA(PUNJAB),1752622439,BAKSHIWALA,PATIALA,PUNJAB
STBP0000391,State Bank of Patiala,STBP0000391,,ANWAL,VPO ANWAL TEH ROHTAK HARYANA-124411,01262-262339,ANWAL,ROHTAK,HARYANA
STBP0000392,State Bank of Patiala,STBP0000392,,KILLIANWALI,PO MANDI DABAWALI TEH MUKATSAR-152104,01668-222968,KILLIANWALI,MUKTSAR,PUNJAB
STBP0000393,State Bank of Patiala,STBP0000393,,ASRON,P.O.ASRON THE. BALACHAUR DISTT. NAWASHAHR,O1881-270257,ASRON,NAVANSAHAR,PUNJAB
STBP0000394,State Bank of Patiala,STBP0000394,,NAROT JAI. SINGH,NAROT JAIMAL SINGH,"0186-2269231, 5404058",NAROT JAIMAL SINGH,GURDASPUR,PUNJAB
STBP0000395,State Bank of Patiala,STBP0000395,,BAREH,VPO BAREH,01652-251667,BAREH,MANSA,PUNJAB
STBP0000396,State Bank of Patiala,STBP0000396,,JAI DEVI,TEH SUNDER NAGAR,01907-274008,JAI DEVI,MANDI,HIMACHAL PRADESH
STBP0000397,State Bank of Patiala,STBP0000397,,BILASPUR,225-226 B MAIN MARKET HP-174001,01978-222516,BILASPUR,BILASPUR,HIMACHAL PRADESH
STBP0000398,State Bank of Patiala,STBP0000398,,MULLOWAL,VPO MULLOWAL TEH MALEKOTLA,01675-273202,MULLOWAL,SANGRUR,PUNJAB
STBP0000399,State Bank of Patiala,STBP0000399,,TUTO MAZARA,"VPO TUTO MAZARA, GARHSHANKAR","01884-248092, 5401269",GARHSHANKAR,HOSIARPUR,PUNJAB
STBP0000400,State Bank of Patiala,STBP0000400,,HATHIN,"GEN LAB ROAD, HATHIN, HARYANA-121103",01275-261238,HATHIN,FARIDABAD,HARYANA
STBP0000401,State Bank of Patiala,STBP0000401,,NASRALA,"VPO NASRALA, HOSHIARPUR","01882-260248, 5401237",NASRALA,HOSIARPUR,PUNJAB
STBP0000402,State Bank of Patiala,STBP0000402,,JAKHWALI,JAKHWALI(PUNJAB),0163-207425,JAKHWALI,FATEHGARH SAHEB,PUNJAB
STBP0000403,State Bank of Patiala,STBP0000403,,NEW DELHI PITAMPURA,PITAMPURA NEW DELHI -110034,011-7272906,DELHI,NEW DELHI,DELHI
STBP0000404,State Bank of Patiala,STBP0000404,,SHEIKHPURA,VPO SHEIKPURA TEH TALWANDI SABO BATHINDA,01655-238421,SHEIKHPURA,BHATINDA,PUNJAB
STBP0000405,State Bank of Patiala,STBP0000405,,CHANANWAL,TEH BARNALA,01675-282327,CHANANWAL,SANGRUR,PUNJAB
STBP0000406,State Bank of Patiala,STBP0000406,,NADAMPUR,TEH MALERKOTLA,01762-275407,NADAMPUR,SANGRUR,PUNJAB
STBP0000407,State Bank of Patiala,STBP0000407,,SANAUR,TEH PATIALA,0175-2650243/2651428,SANAUR,PATIALA,PUNJAB
STBP0000408,State Bank of Patiala,STBP0000408,,MAYAR,VPO MAYAR TEH HISAR HARYANA-,01663-261436,MAYAR,HISSAR,HARYANA
STBP0000409,State Bank of Patiala,STBP0000409,,JIND MINI SECTT.AREA,MINI SECREATARIAT AREA 10 HOUSING BOARD COLONG HARYANA-126102,01681-255405,JIND,JIND,HARYANA
STBP0000410,State Bank of Patiala,STBP0000410,,BANGOWANI KUNJAR,VPO BANGOWANI KUNAR,"01874-266348, 5401197",GURDASPUR,GURDASPUR,PUNJAB
STBP0000411,State Bank of Patiala,STBP0000411,,BHISIANA AIRFORCE STATION,AFS BHASIANA TEH BATHINDA-151201,0164-2449100,BHISIANA,BHATINDA,PUNJAB
STBP0000412,State Bank of Patiala,STBP0000412,,AMLALA,(VIA RAJPURA) TEH RAJPURA(PUNJAB),01762-281490,AMLALA,PATIALA,PUNJAB
STBP0000413,State Bank of Patiala,STBP0000413,,BURASS,V & PO BURASS (VIA MANAKPUR) BLOCK BASSI PATHANA,1763-256220,BURASS,FATEHGARH SAHEB,PUNJAB
STBP0000414,State Bank of Patiala,STBP0000414,,TEJLI,VILLAGE TEJLI PO JAGADHARI,01735-288064,TEJLI,YAMUNANAGAR,HARYANA
STBP0000415,State Bank of Patiala,STBP0000415,,HARNOL,VILL HARNOL TEH JAGADHARI,01735-277224/277115,HARNOL,YAMUNANAGAR,HARYANA
STBP0000416,State Bank of Patiala,STBP0000416,,SANYANA,VIA UKLANA TEH TOHANA DIST FATEHABAD HARYANA-126009,01693-232404,SANYANA,FATEHABAD,HARYANA
STBP0000417,State Bank of Patiala,STBP0000417,,GULZARPUR,"VPO GULZARPUR, TEH. SAMANA(PUNJAB)",01764-285157,GULZARPUR,PATIALA,PUNJAB
STBP0000418,State Bank of Patiala,STBP0000418,,BASSI PATHANA A.D.B.,BLOCK BASSI PATHANA,01763-250021,BASSI PATHANA,FATEHGARH SAHEB,PUNJAB
STBP0000419,State Bank of Patiala,STBP0000419,,ROPAR RED CROSS BHAWAN,ROOP NAGAR RED CROSS BHAWAN-140001,01881-220302/FAX-220452,RUPNAGAR,RUPNAGAR,PUNJAB
STBP0000420,State Bank of Patiala,STBP0000420,,KALYAN SUKHA,VPO KALYAQNSUKHA TEH NATHANA BATHINDA-,0164-2755168/2223877,KALYAN SUKHA,BHATINDA,PUNJAB
STBP0000421,State Bank of Patiala,STBP0000421,,"NEW DELHI DDA FLATS,KALKAJI","DDA FLATS, KALKAJI, NEW DELHI",011-26479913,DELHI,NEW DELHI,DELHI
STBP0000422,State Bank of Patiala,STBP0000422,,LOHAT BADDI,VILLAGE & POST  OFFICE LOHAT BADDI,01675-290087,LOHAT BADDI,SANGRUR,PUNJAB
STBP0000423,State Bank of Patiala,STBP0000423,,JALALDIWAL,VILLAGE & POST OFFICE JALALDEWAL,01679-258415,JALALDIWAL,SANGRUR,PUNJAB
STBP0000424,State Bank of Patiala,STBP0000424,,BADMALIK,P O P S RAI HARYANA-,01264-244907,BADMALIK,SONIPAT,HARYANA
STBP0000425,State Bank of Patiala,STBP0000425,,BANBOHRA,VPO BANBORA TEH MALERKOTLA,01675-285226,BAN BORA,SANGRUR,PUNJAB
STBP0000426,State Bank of Patiala,STBP0000426,,BEESLA,VPO. BEESLA DISTT. NAWASHAHR,O1823-252575,BEESLA,NAVANSAHAR,PUNJAB
STBP0000427,State Bank of Patiala,STBP0000427,,CHANDIGARH SECTOR 38-C,SECTOR-38 C CHANDIGARH-160036,0172-2690421/2692820,CHANDIGARH,CHANDIGARH,CHANDIGARH
STBP0000428,State Bank of Patiala,STBP0000428,,DARIA,VIA MAIN MAJRA-160101,0172-2654784,CHANDIGARH,CHANDIGARH,CHANDIGARH
STBP0000429,State Bank of Patiala,STBP0000429,,DADUMAJRA,VILLAGE DADUMAJRA PO MALOYA CHANDIGARH,0172-2643319,CHANDIGARH,CHANDIGARH,CHANDIGARH
STBP0000430,State Bank of Patiala,STBP0000430,,"AMBEDKAR CHOWK,JALANDHAR","AMBEDKAR CHOWK, JALANDHAR(PUNJAB)-144031","0181-224965,0181-235409",JALANDHAR,JALANDHAR,PUNJAB
STBP0000431,State Bank of Patiala,STBP0000431,,DOMEHAR,VPO DOMEHAR TEH ARKI-173221,01796-230453,DOMEHER,SOLAN,HIMACHAL PRADESH
STBP0000432,State Bank of Patiala,STBP0000432,,DRAWL,P O KARYALI VIA BASANTPUR-171108(HP),0177-2764418/2767050,DRAWL,SHIMLA,HIMACHAL PRADESH
STBP0000433,State Bank of Patiala,STBP0000433,,NATHANA,TEH BATHINDA-,0164-2750321,NATHANA,BHATINDA,PUNJAB
STBP0000434,State Bank of Patiala,STBP0000434,,GURDITPURA,"VIA BAGRIAN, TEH.NABHA(PUNJAB)",01765-276004,GURDITPURA,PATIALA,PUNJAB
STBP0000435,State Bank of Patiala,STBP0000435,,KAZHERI,VILLAGE KEHERI PO BADHORI UT CHANDIGARH,0172-2604342,CHANDIGARH,CHANDIGARH,CHANDIGARH
STBP0000436,State Bank of Patiala,STBP0000436,,NARNAUL DISTT.COURTS,DISTRICT COURTS DIST-MOHINDERGARH HARYANA-123001,01282-251951,NARNAUL,MAHENDRAGARH,HARYANA
STBP0000437,State Bank of Patiala,STBP0000437,,KANJLA,VPO KANJLA,01675-278102,KANJLA,SANGRUR,PUNJAB
STBP0000438,State Bank of Patiala,STBP0000438,,RONHAT,PO RONHAT TEH SHILLAI HP-173027,01704-276422,SHILLAI,SIRMOUR,HIMACHAL PRADESH
STBP0000439,State Bank of Patiala,STBP0000439,,NATHU SRI CHOPTA,TEH SIRSA HARYANA-125055,01262-248808,SIRSA,SIRSA,HARYANA
STBP0000440,State Bank of Patiala,STBP0000440,,ROPAR THERMAL PLANT (S.COMPLEX,SHOPPING COMPLEX T P AREA ROPAR-140001,01881-222125,RUPNAGAR,RUPNAGAR,PUNJAB
STBP0000441,State Bank of Patiala,STBP0000441,,SIDHBARI,PO SADHBARI TEH KANGRA HP-176057,01892-236040,SIDHBARI,KANGRA,HIMACHAL PRADESH
STBP0000442,State Bank of Patiala,STBP0000442,,SHUTRANA,TEH SAMANA,01764-282001,SHUTRANA,PATIALA,PUNJAB
STBP0000443,State Bank of Patiala,STBP0000443,,SUNAM H.S.HIGH SC.,"(HINDU SABHA HIGH SCHOOL, SUNAM(PUNJAB)",01676-220138,SUNAM,SANGRUR,PUNJAB
STBP0000444,State Bank of Patiala,STBP0000444,,AMARGARH,"VPO AMARGARH, TEH. MALERKOTLA(PUNJAB)",01675-284260,AMARGARH,SANGRUR,PUNJAB
STBP0000445,State Bank of Patiala,STBP0000445,,"BANGLORE, INDIRA NAGAR","BR COMPLEX, 237-240, II STAGE, INDIARA NAGAR, BANGLORE-560038",080-6583923,BANGALORE,BANGALORE URBAN,KARNATAKA
STBP0000446,State Bank of Patiala,STBP0000446,,RAJPURA GRAIN-MARKET,"GRAIN MARKET, RAJPURA(PUNJAB)",01762-223591/222243,RAJPURA,PATIALA,PUNJAB
STBP0000447,State Bank of Patiala,STBP0000447,,LOHKA,"VPO LOHKA, TEH. PATTI","01851-226596, 5404052",LOHKA,AMRITSAR,PUNJAB
STBP0000448,State Bank of Patiala,STBP0000448,,BADDI,BADDI TEH NALAGARH,01795-24564,BADDI,SOLAN,HIMACHAL PRADESH
STBP0000449,State Bank of Patiala,STBP0000449,,LUCKNOW MEMORA AFS,AIR FORCE STATION PO BANTHARA UP-227101,0522-2864111/2351748 (PP),LUCKNOW,LUCKNOW,UTTAR PRADESH
STBP0000450,State Bank of Patiala,STBP0000450,,LAKHAN KE PADDE,"VPO LAKHAN KE PADDE,DISTT.KAPURTHALA",O1822-262887,KAPURTHALA,KAPURTHALA,PUNJAB
STBP0000451,State Bank of Patiala,STBP0000451,,RAMGARH,TEH KALKA HARYANA,0172-2297681,RAMGARH,PANCHKULA,HARYANA
STBP0000452,State Bank of Patiala,STBP0000452,,DHILWAN KALAN,VPO DHILWAN KALAN TEH FARIDKOT-151204,01635-20897,DHILWAN KALAN,FARIDKOT,PUNJAB
STBP0000453,State Bank of Patiala,STBP0000453,,PATIALA SAI MARKET,LOWER MALL PATILAL-147001,0175-2203787,PATIALA,PATIALA,PUNJAB
STBP0000454,State Bank of Patiala,STBP0000454,,DHILWAN,VPO. DHILWAN DISTT. KAPURTHALA,O1822-273573,DHILWAN,KAPURTHALA,PUNJAB
STBP0000455,State Bank of Patiala,STBP0000455,,SARANGPUR,VILL SARANGPUR PO MULLANJPUR UT CHANDGARH,0172-2789342/2370283,CHANDIGARH,CHANDIGARH,CHANDIGARH
STBP0000456,State Bank of Patiala,STBP0000456,,SANGRUR N.G.M.,NEW GRAIN MARKET,01672-34113,SANGRUR,SANGRUR,PUNJAB
STBP0000457,State Bank of Patiala,STBP0000457,,RALLA,DIST MANSA-151057,01659-250062,RALLA,BHATINDA,PUNJAB
STBP0000458,State Bank of Patiala,STBP0000458,,MUMBAI (BANDRA),82 HILL ROAD OSCAR APARTMENTS BANDRA BOMBAY-50,022-6443440/6429804/R-8995124/FAX-6443440,MUMBAI,GREATER BOMBAY,MAHARASHTRA
STBP0000459,State Bank of Patiala,STBP0000459,,JAGADHRI N.R.W.,NORTHERN RAILWAY WORKSHOP HARYANA,01732-230165,JAGADHRI,YAMUNANAGAR,HARYANA
STBP0000460,State Bank of Patiala,STBP0000460,,JOHAL,"VPO JOHAL, VIA KHUDA","01886-255348, 5401217",JOHAL,HOSIARPUR,PUNJAB
STBP0000461,State Bank of Patiala,STBP0000461,,HARSHA CHHINA,"VPO HARSHA CHHINA,TEH.AJNALA","01852-264141, 5404046",HARSHACHHINA,AMRITSAR,PUNJAB
STBP0000462,State Bank of Patiala,STBP0000462,,WANDER JATANA,WANDER JATANA,01635-239455,WANDER JALANA,FARIDKOT,PUNJAB
STBP0000463,State Bank of Patiala,STBP0000463,,LUDHIANA-COMMERCIAL BRANCH,"COMMERCIAL BRANCH, LUDHIANA","O161-2547855, 2450150",LUDHIANA,LUDHIANA,PUNJAB
STBP0000464,State Bank of Patiala,STBP0000464,,DHARAMKOT,DHARAMKOT TEHCIL MOGA,01682-220090,DHARMKOT,MOGA,PUNJAB
STBP0000465,State Bank of Patiala,STBP0000465,,CHAMBA,JULKHARI PO HARDASPURA HP-171318,01892-222276,CHAMBA,CHAMBA,HIMACHAL PRADESH
STBP0000466,State Bank of Patiala,STBP0000466,,DHARAMGARH,VPO DHARAMGARH TEH SUNAM,01676-81105,DHARAMGARH,SANGRUR,PUNJAB
STBP0000468,State Bank of Patiala,STBP0000468,,KARYAL,KARYAL,01682-240401,KARYAL,MOGA,PUNJAB
STBP0000469,State Bank of Patiala,STBP0000469,,NEW DELHI PALAM EXTENSION,WZ-172 PALAM EXTENSION NEW DELHI -110045,011-5580526/R-7263053,DELHI,NEW DELHI,DELHI
STBP0000470,State Bank of Patiala,STBP0000470,,NEW DELHI MAHIPAL PUR,"MAHIPLUR, NEW DELHI",011-6896939,DELHI,NEW DELHI,DELHI
STBP0000471,State Bank of Patiala,STBP0000471,,JHAN JHOTI,"VPO JHAN JHOTI, TEH. AJNALA","01858-233363, 5404049",JHANJHOTI,AMRITSAR,PUNJAB
STBP0000472,State Bank of Patiala,STBP0000472,,JALALABAD EAST,JALABAD EAST,01682-220180,JALALABAD,MOGA,PUNJAB
STBP0000473,State Bank of Patiala,STBP0000473,,DOOMERKHA KALAN,TEH NARWANA HARYANA-126116,01684-244312,DOOMERKHA KALAN,JIND,HARYANA
STBP0000474,State Bank of Patiala,STBP0000474,,KOLKATA-BURRA BAZAR,"276, RAVINDRA SARNI,NEAR GANESH TALKIES, BURRA BAZAR, KOLKATA-700007",033-22697742,KOLKATA,KOLKATA,WEST BENGAL
STBP0000475,State Bank of Patiala,STBP0000475,,NEW DELHI PASCHIM PURI,"JAWALA HERI MARKET PASCHIM PURI, NEW DELHI  -110063",011-5580526,DELHI,NEW DELHI,DELHI
STBP0000476,State Bank of Patiala,STBP0000476,,BHATIWAL KALAN,TEH & DIST SANGRUR,01672-72204,BHATIWAL KALAN,SANGRUR,PUNJAB
STBP0000477,State Bank of Patiala,STBP0000477,,MUNDI CHHURI MARAN,AT MAKHU TEH ZIRA,01682-270370,MUNDI CHHURI MALAN,FEROZEPUR,PUNJAB
STBP0000478,State Bank of Patiala,STBP0000478,,UBHAWAL,V P O UBHAWAL,01672-284248,UBHAWAL,SANGRUR,PUNJAB
STBP0000479,State Bank of Patiala,STBP0000479,,BANGI RULDU,TEH TALWANDI SABO BATHINDA-151302,01655-244814,BANGI RULDU,BHATINDA,PUNJAB
STBP0000480,State Bank of Patiala,STBP0000480,,BHALAIANA,VPO BHALAIANA,01633-234629,BHALAIANA,MUKTSAR,PUNJAB
STBP0000481,State Bank of Patiala,STBP0000481,,JAGSI,TEH GOHANA HARYANA-124319,01264-270538,JAGSI,SONIPAT,HARYANA
STBP0000482,State Bank of Patiala,STBP0000482,,MANDVI,TEH SUNAM,01676-275088,MANDVI,SANGRUR,PUNJAB
STBP0000483,State Bank of Patiala,STBP0000483,,GHANAURI KALAN,VPO GHANAURIKALAN TEH MALERKOTLA,01675-231034,GHANAURI KALAN,SANGRUR,PUNJAB
STBP0000484,State Bank of Patiala,STBP0000484,,ALAMPUR,"VPO ALAMPUR, VIA DASUYA","01883-255684, 5401173",ALAMPUR,HOSIARPUR,PUNJAB
STBP0000485,State Bank of Patiala,STBP0000485,,JALANDHAR GURU TEG BAHADUR NAGAR,"GURU TEG BAHADUR NAGAR,JALANDHAR","O181-2276292,2440010(FAX)",JALANDHAR,JALANDHAR,PUNJAB
STBP0000486,State Bank of Patiala,STBP0000486,,NEW DELHI LAXMI NAGAR,MAIN BAZAR F-114C KAILASH BUILDING NEW DELHI -110092,011-2204603/R-2247380,DELHI,NEW DELHI,DELHI
STBP0000487,State Bank of Patiala,STBP0000487,,NEW DELHI JOUNTI BLOCK,"JOINTI BLOCK, NEW DELHI",011-5952915,DELHI,NEW DELHI,DELHI
STBP0000488,State Bank of Patiala,STBP0000488,,"AGRA,SANJAY PALACE",33/2 SONJAY PALACE S G ROAD AGRA UP-282002,0562-2527411/2521535,AGRA,AGRA,UTTAR PRADESH
STBP0000489,State Bank of Patiala,STBP0000489,,NEW DELHI NEW FRIENDS COLONY,42 COMMUNITY CENTR NEW DELHI-110065,011-6824819,DELHI,NEW DELHI,DELHI
STBP0000490,State Bank of Patiala,STBP0000490,,RAMTHALI,PO KAARKA TEH KURUKSHETRA HARYANA,01743-270406,RAM THALI,KAITHAL,HARYANA
STBP0000491,State Bank of Patiala,STBP0000491,,BAWANA LAKHU,VPO HARYANA-132141,01742-288213,BAWANA LAKHU,PANIPAT,HARYANA
STBP0000492,State Bank of Patiala,STBP0000492,,KURAR,TEH KAITHAL HARYANA,01746-285824,KURAR,KAITHAL,HARYANA
STBP0000493,State Bank of Patiala,STBP0000493,,KHARAK PUNIA,TEH HANSI HARYANA-1260011,01693-246220,KHARAK PUNIA,HISSAR,HARYANA
STBP0000495,State Bank of Patiala,STBP0000495,,ALAMWALA,FAZILKA ROAD ALAMWALA,01637-254603,ALAMWALA,MUKTSAR,PUNJAB
STBP0000496,State Bank of Patiala,STBP0000496,,GURUSAR MANDHIR,GIDDERBAHA VPO GURUSAR MANDIR TEH MUKTSAR DT.,01637-237126,GURUSAR,MUKTSAR,PUNJAB
STBP0000497,State Bank of Patiala,STBP0000497,,BATHINDA PARAS RAM NAGAR,PARAS RAM NAGAR BATHINDA-151001,0164-22280527,BATHINDA,BHATINDA,PUNJAB
STBP0000499,State Bank of Patiala,STBP0000499,,LUDHIANA DARESI ROAD,DARESI ROAD LUDHIANA,O161-2709689 -2706047,LUDHIANA,LUDHIANA,PUNJAB
STBP0000500,State Bank of Patiala,STBP0000500,,DURGA NAGLA (MODIPUR),THE DISTT. RAMPUR,0595-2225408,DURGUNAGLA,RAMPUR,UTTAR PRADESH
STBP0000502,State Bank of Patiala,STBP0000502,,MOHALI S.A.S.NAGAR,PHASE-VII S.A.S. NAGAR MOHALI,0172-230558/670850,SAS NAGAR(MOHALI),RUPNAGAR,PUNJAB
STBP0000503,State Bank of Patiala,STBP0000503,,BERI,DIST ROHTAK HARYANA-,01251-20244,BERI,JHANJHAR,HARYANA
STBP0000504,State Bank of Patiala,STBP0000504,,CHANDIANI KHURD,"VPO. CHANDIANI KHURD,THE. BALACHAUR,DISTT. NAWASHAHR",O1885-288386,CHANDIANI KHURD,NAVANSAHAR,PUNJAB
STBP0000505,State Bank of Patiala,STBP0000505,,JALANDHAR RAINAK BAZAR,"RAINAK BAZAR,JALANDHAR","O181-2282287, 2402583(FAX)",JALANDHAR,JALANDHAR,PUNJAB
STBP0000506,State Bank of Patiala,STBP0000506,,SARABHA,VILLAGE & POST OFFICE SARABHA,O161-2864860,SARABHA,LUDHIANA,PUNJAB
STBP0000507,State Bank of Patiala,STBP0000507,,PATHANKOT-GANDHI NAGAR,GANDHI CHOWK -145001,0186-2224297,PATHANKOT,GURDASPUR,PUNJAB
STBP0000508,State Bank of Patiala,STBP0000508,,CHANDIGARH INDUSTRIAL AREA,117- INDUSTRIAL AREA PHASE-11 CHANDIGARH,0172-2652210/2641903/FAX-2638134,CHANDIGARH,CHANDIGARH,CHANDIGARH
STBP0000509,State Bank of Patiala,STBP0000509,,CHHAUSHA(WAKNAGHAT),VPO WAKNA GHAT TEHCIL SOLAN,01792-247762,CHHAUSHA,SOLAN,HIMACHAL PRADESH
STBP0000510,State Bank of Patiala,STBP0000510,,KARNAL URBAN ESTATE SEC-13,URBAN ESTATE SECTOR-13 HARYANA-132001,0184-2270756,KARNAL,KARNAL,HARYANA
STBP0000511,State Bank of Patiala,STBP0000511,,HANDESRA,TEH RAJPURA,0171-78128,HANDESRA,PATIALA,PUNJAB
STBP0000512,State Bank of Patiala,STBP0000512,,NEW DELHI SHIV NAGAR,"WS—III SHIV NAGAR, NEW DELHI  -110058",011-5597781,DELHI,NEW DELHI,DELHI
STBP0000514,State Bank of Patiala,STBP0000514,,HARDWAR STATION ROAD,"STATION ROAD, HARIDWAR,  UP",01334-227074/R-220877,HARDWAR,HARIDWAR,UTTARAKHAND
STBP0000515,State Bank of Patiala,STBP0000515,,GHAZIABAD (SURYA NAGAR),SURYA NAGAR C-92 GHAZIABAD UP,0124-2622291/2621483,GHAZIABAD,GHAZIABAD,UTTAR PRADESH
STBP0000516,State Bank of Patiala,STBP0000516,,AHMEDABAD SHAH ALAM ROZA,"36, BHAWANA SOCIETY, PLOT NO 3 , GITA  MANDI ROAD , AHMEDABAD",079-2535545,AHMEDABAD,AHMEDABAD,GUJARAT
STBP0000517,State Bank of Patiala,STBP0000517,,KANPUR SHARDA NAGAR,"SHARDA NAGAR, KANPUR",0512-25811701/R-2631652,KANPUR,KANPUR NAGAR,UTTAR PRADESH
STBP0000518,State Bank of Patiala,STBP0000518,,NEW DELHI NARAINA INDL.AREA,B-69/11 NARAINA INDUSTRIAL AREA PHASE II NEW DELHI -110028,011-5706085/570278,DELHI,NEW DELHI,DELHI
STBP0000520,State Bank of Patiala,STBP0000520,,HISSAR AUTOMOBILE MKT.,206-207 AUTO MARKET BARNAFA ROAD HARYANA,01662-277949/277540,HISAR,HISSAR,HARYANA
STBP0000521,State Bank of Patiala,STBP0000521,,PATIALA DIESEL CAMP WORKS,"D C W , PATIALA(PUNJAB)",0175-220185,PATIALA,PATIALA,PUNJAB
STBP0000522,State Bank of Patiala,STBP0000522,,KHUDA ALI SHER,KHUDA ALI SHER CHANDIGARH,0172-2785525,CHANDIGARH,CHANDIGARH,CHANDIGARH
STBP0000523,State Bank of Patiala,STBP0000523,,KAIMBWALA,UT CHANDIGARGH,0172-2741536,CHANDIGARH,CHANDIGARH,CHANDIGARH
STBP0000524,State Bank of Patiala,STBP0000524,,THERI,VILLAGE THERI P O PUNJABI UNIVERSITY,0175-282449,THERI,PATIALA,PUNJAB
STBP0000527,State Bank of Patiala,STBP0000527,,KIRATPUR SAHIB,KIRATPUR SAHIB TEH ANANDPUR SAHIB-140301,01888-238270,KIRATPUR SAHIB,RUPNAGAR,PUNJAB
STBP0000528,State Bank of Patiala,STBP0000528,,HARIYANA,"VPO HARIYANA TEH BILLARI DISTT. MORADABAD, UP-202413",05921-222733,BILARI,MORADABAD,UTTAR PRADESH
STBP0000529,State Bank of Patiala,STBP0000529,,"GOKHLE ROAD, DADAR","GOKHLE ROAD, DADAR(W), MUMBAI","022-24371302,022-24316849",MUMBAI,GREATER BOMBAY,MAHARASHTRA
STBP0000531,State Bank of Patiala,STBP0000531,,KUNGAR,TEH BHIWANI HARYANA,01252-236234,KUNGAR,BHIWANI,HARYANA
STBP0000532,State Bank of Patiala,STBP0000532,,MATAUR,TEH KAITHAL HARYANA,01746-285824,MATAUR,KAITHAL,HARYANA
STBP0000533,State Bank of Patiala,STBP0000533,,KARSINDHU,VPO KARSINDHU TEH JIND HARYANA,01684-285917,KARSINDHU,JIND,HARYANA
STBP0000534,State Bank of Patiala,STBP0000534,,GANGOLI,VPO GANGOLI TEH JIND (HARYANA),01686-288114,GANGOLI,JIND,HARYANA
STBP0000535,State Bank of Patiala,STBP0000535,,MOHAUDDINPUR,TEH KARNAL HARYANA,0184-2381003,MOHAUDDINPUR,KARNAL,HARYANA
STBP0000536,State Bank of Patiala,STBP0000536,,BHAGANI,TEH PANOTA SAHIB HP-,01704-249721,BHAGANI,SIRMOUR,HIMACHAL PRADESH
STBP0000537,State Bank of Patiala,STBP0000537,,DAGRAHN,JAKAT PO JAKAT KHANA TEH SADAR HP,01978-218023,DAGRAHAN,BILASPUR,HIMACHAL PRADESH
STBP0000538,State Bank of Patiala,STBP0000538,,"PATHANKOT, SPC","SHAH PUR CHOWK, PATHANKOT","0186-2221783, 5404025",PATHANKOT,GURDASPUR,PUNJAB
STBP0000539,State Bank of Patiala,STBP0000539,,PUJARLI-4,VPO PUJARLI,01781-242435,PUJARLI-4,SHIMLA,HIMACHAL PRADESH
STBP0000540,State Bank of Patiala,STBP0000540,,RAIL COACH FACTORY HUSSAINPUR,"RAILWAY COACH FACTORY,HUSSAINPUR,DISTT. KAPURTHALA",O1822-229478,KAPURTHALA,KAPURTHALA,PUNJAB
STBP0000541,State Bank of Patiala,STBP0000541,,JABLI,BLOCK DHARAMPUR TEH KASAULI -172209,01792-277238,JABLI,SOLAN,HIMACHAL PRADESH
STBP0000543,State Bank of Patiala,STBP0000543,,BEHAL,VPO BEHAL HP-174015,01978-230033,BILASPUR,BILASPUR,HIMACHAL PRADESH
STBP0000544,State Bank of Patiala,STBP0000544,,GHARWAL,VPO GHARWAL HARYANA-131029,01264-266276,GHARWAL,SONIPAT,HARYANA
STBP0000545,State Bank of Patiala,STBP0000545,,GHANDIR,GHANDHIR THE GHUMARVIAN,01978-269021,GHANDHIR,BILASPUR,HIMACHAL PRADESH
STBP0000546,State Bank of Patiala,STBP0000546,,MANPURA,VPO MANPURABLOCK NALAGARH HP-174101,01795-2361128,MANPURA,SOLAN,HIMACHAL PRADESH
STBP0000547,State Bank of Patiala,STBP0000547,,BHIWANI(VIKAS NAGAR),VIKAS NAGAR HARYANA-125021,01664-242779,BHIWANI,BHIWANI,HARYANA
STBP0000548,State Bank of Patiala,STBP0000548,,BHOPAL,TATYA TOPE NAGAR BHADBHADA RAOD BHOPAL-462003,0755-2774242/R-561416,BHOPAL,BHOPAL,MADHYA PRADESH
STBP0000549,State Bank of Patiala,STBP0000549,,DAYORI,KHANETI  TEH KOT BHAI-171202 (HP),01783-246310,DAYORI(KHANETI),SHIMLA,HIMACHAL PRADESH
STBP0000550,State Bank of Patiala,STBP0000550,,MORSINGHI,VPO MORSINGHI TEH GHUMARWIN HP-174026,01978-275018,MORSINGI,BILASPUR,HIMACHAL PRADESH
STBP0000551,State Bank of Patiala,STBP0000551,,NAVGAON,TEH ARKI BLOCK KUNIHAR HP-171102,01796-245060,NAVGAON,SOLAN,HIMACHAL PRADESH
STBP0000552,State Bank of Patiala,STBP0000552,,KARLOTI,PO KARLOTI TEH GHUMARWIN HP-,01978-274027,KARLOTI,BILASPUR,HIMACHAL PRADESH
STBP0000553,State Bank of Patiala,STBP0000553,,GUSHANI,VPO GUSHAINI HP-175123,01903-225013,GUSHAINI,KULLU,HIMACHAL PRADESH
STBP0000554,State Bank of Patiala,STBP0000554,,GAUDA,VPO GAURA TEH KANDAGHAT-173221,01792-251377,GAUDA,SOLAN,HIMACHAL PRADESH
STBP0000555,State Bank of Patiala,STBP0000555,,DHER,VPO DHER TEH ANANDPUR SAHIB,01887-260652,DHER,RUPNAGAR,PUNJAB
STBP0000556,State Bank of Patiala,STBP0000556,,TATAPANI,DIST MANDI HP-,01907-230902,TATAPANI,MANDI,HIMACHAL PRADESH
STBP0000557,State Bank of Patiala,STBP0000557,,SAI,SAITEH NALAGARH HP-173205,01795-268818,SAI,SOLAN,HIMACHAL PRADESH
STBP0000558,State Bank of Patiala,STBP0000558,,LADORI,VPO LADORI TEH KANGRA  HP-176203,01893-234123,LADORI,KANGRA,HIMACHAL PRADESH
STBP0000559,State Bank of Patiala,STBP0000559,,WASANI,VPO WASNI BLOCK PACHHAD HP-173024,01792-258859,WASNI,SIRMOUR,HIMACHAL PRADESH
STBP0000560,State Bank of Patiala,STBP0000560,,BADHLAG,VPO BADHLAGH TEH KASSAULI,01792-278706,KASAULI,SOLAN,HIMACHAL PRADESH
STBP0000561,State Bank of Patiala,STBP0000561,,JIBHI,VPO JIBHI TEH BANJAR HP-,01903-275703,JIBHI,KULLU,HIMACHAL PRADESH
STBP0000562,State Bank of Patiala,STBP0000562,,BOGHDHAR,VPO BOGHDHAR,,BOGHDHAR,SIRMOUR,HIMACHAL PRADESH
STBP0000563,State Bank of Patiala,STBP0000563,,LOHARGHAT,VPO LOHARGHAT BLOCK NALAGARH HP-174101,01978-232132,LOHARGHAT,SOLAN,HIMACHAL PRADESH
STBP0000564,State Bank of Patiala,STBP0000564,,VADODARA,"SANJAYGANDHI STADIUM ROAD, NEAR SI DEPO, VADHODARA",0265-2785482,VADODARA,VADODARA,GUJARAT
STBP0000566,State Bank of Patiala,STBP0000566,,ALSINDI,VPO ALSINDI,019047-224217,ALSINDHI,MANDI,HIMACHAL PRADESH
STBP0000567,State Bank of Patiala,STBP0000567,,SECUNDERABAD,"S-20134, 1ST FLOOR, RASHTRAPATI ROAD,SECUNDERABAD","05732-269665,05732-262266",SECUNDERABAD CANTONMENT,HYDERABAD URBAN,ANDHRA PRADESH
STBP0000568,State Bank of Patiala,STBP0000568,,DELGI,VPO DELGI VIA SUBATU,01792-245508,DELGI,SOLAN,HIMACHAL PRADESH
STBP0000569,State Bank of Patiala,STBP0000569,,TIMBI,TIMBI TEH SHILLAI HP-173029,01704-270023,TIMBI,SIRMOUR,HIMACHAL PRADESH
STBP0000570,State Bank of Patiala,STBP0000570,,PANOG,VPO PANOG TEH SHILLAI HP-,,PANOG,SIRMOUR,HIMACHAL PRADESH
STBP0000571,State Bank of Patiala,STBP0000571,,PUNE (AUNDH),KRISHANEE PLOT NO-17 SANGHVI NAGAR PUNE,0212-5887251/5890443/FAX-5888925,PUNE,PUNE,MAHARASHTRA
STBP0000573,State Bank of Patiala,STBP0000573,,BANGALORE (J.P.NAGAR),1347 1 ST FLOOR SOUTHEND ROAD 3 RD PHASE J P NAGAR 9TH BLOCK,080-6490326/R-6635855/FAX-6583923,BANGALORE,BANGALORE URBAN,KARNATAKA
STBP0000574,State Bank of Patiala,STBP0000574,,AHMEDABAD (KALUPUR AREA),1761-GAUTAM CHAMBERS GANDHI ROAD KALAPUR AREA AHMEDABAD,079-2123705,AHMEDABAD,AHMEDABAD,GUJARAT
STBP0000575,State Bank of Patiala,STBP0000575,,SAWAHAN,VPO SWAHAN HP,01995-288637,SWAHAN,BILASPUR,HIMACHAL PRADESH
STBP0000576,State Bank of Patiala,STBP0000576,,NEKIPUR DHIGWA,TEH LOHARU HARYANA,01252-257758,DHIGAWA,BHIWANI,HARYANA
STBP0000577,State Bank of Patiala,STBP0000577,,VIJAYAWADA,24-1-66A SAMBHAMURTHY ROAD DURGAPURAM VIJAY WADA,0866-430901/R-476793,VIJAYAWADA,KRISHNA,ANDHRA PRADESH
STBP0000578,State Bank of Patiala,STBP0000578,,AMBALA CANTT HOUSING BOARD COL,HOUSING BOARD COLONY 238 RAM BAGH ROAD HARYANA-133001,0171-2652089/2653257,AMBALA CANTT.,AMBALA,HARYANA
STBP0000579,State Bank of Patiala,STBP0000579,,VISAKHAPATNAM,"58-13,165, NAD KOTHA RD. JUNCTION, VISHAKAPATNAM",0891-2558983,VISAKHAPATNAM,VISHAKAPATNAM,ANDHRA PRADESH
STBP0000580,State Bank of Patiala,STBP0000580,,PATIALA SANAURI ADDA,"SANAURI ADDA,PATIALA-147001",0175-2201328,PATIALA,PATIALA,PUNJAB
STBP0000581,State Bank of Patiala,STBP0000581,,HAPUR,29-31. MEERUT ROAD SADAR INDUSTRIES HAPUR UP-245101,0122-2304250,HAPUR,GHAZIABAD,UTTAR PRADESH
STBP0000582,State Bank of Patiala,STBP0000582,,FARIDABAD SECTOR-9,"133 SECTOR-9 , FARIDABAD, HARYANA",0129-2291058/2291285,FARIDABAD,FARIDABAD,HARYANA
STBP0000583,State Bank of Patiala,STBP0000583,,SILLIHARI,PO KANDAGHAT HP-173209,01792-256234,KANDAGHAT,SOLAN,HIMACHAL PRADESH
STBP0000584,State Bank of Patiala,STBP0000584,,SHAHJEHANPUR,"BAHADURGANJ,MACHINERY MARKET , SHAHJEHANPUR UP-242001",0584-2222770/R-224268,SHAHJAHANPUR,SAHARANPUR,UTTAR PRADESH
STBP0000585,State Bank of Patiala,STBP0000585,,GWALIOR,K -34 GANDHI NAGAR GWALIOR-2,0751-425519/R-423407,GWALIOR,GWALIOR,MADHYA PRADESH
STBP0000586,State Bank of Patiala,STBP0000586,,KOTA,290 PARTAP NAGAR RAWAT BHATA ROAD KOTA -324009,0744-2500224/R-2438524,KOTA,KOTA,RAJASTHAN
STBP0000587,State Bank of Patiala,STBP0000587,,"COMMERCIAL BRANCH,CHANDIGARH","SECTOR 8-C, CHANDIGARH-163001","0172-773285,0172-778403",CHANDIGARH,CHANDIGARH,CHANDIGARH
STBP0000588,State Bank of Patiala,STBP0000588,,BHIWANI MINI SECTT.,MINI SECREATARIAT HARYANA-125021,01664-242904,BHIWANI,BHIWANI,HARYANA
STBP0000589,State Bank of Patiala,STBP0000589,,JALANDHAR N.R.I.,"SYAL HOUSE,LAJPAT NAGAR MARKET JALANDHAR","O181-2227662, 2453081",JALANDHAR,JALANDHAR,PUNJAB
STBP0000590,State Bank of Patiala,STBP0000590,,INDORE,USHA NAGAR INDORE,0731-788442/R-797381/FAX-481080,INDORE,INDORE,MADHYA PRADESH
STBP0000591,State Bank of Patiala,STBP0000591,,FATEHGARH SAHIB,D C OFFICE COMPLEX,01763-230218,FATEHGARH SAHIB,FATEHGARH SAHEB,PUNJAB
STBP0000592,State Bank of Patiala,STBP0000592,,VARANASI,H-1 BLOCK B BRIJ ENCLAVE PO SUNDERPUR VARANASI-221005,0542-2316100/R-2316095,VARANASI,VARANASI,UTTAR PRADESH
STBP0000593,State Bank of Patiala,STBP0000593,,MOPUSA (GOA),"DIL KUSH NEAR MUNCIPAL GARDERN, MOPUCA,  GOA",0832-262430/FAX-250004,MAPUSA,NORTH GOA,GOA
STBP0000594,State Bank of Patiala,STBP0000594,,PHILLAUR,"NAWASHAHR ROAD,NEAR COURTS,DISTT JALANDHAR","O1826-222989, 222787 (FAX)",PHILLAUR,JALANDHAR,PUNJAB
STBP0000595,State Bank of Patiala,STBP0000595,,ALIGARH,H-287 A ALIGARH KOLA NAGAR ALIGARH UP-2020023,0571-2400418,ALIGARH,ALIGARH,UTTAR PRADESH
STBP0000596,State Bank of Patiala,STBP0000596,,KANKANADI (MANGALORE),"NRI SPECIALISED BRANCH STAR OF BOMBAY COMPLEX PO BOX NO-562, KANKANADI, MANGALORE",0824-438464/R-434255/FAX-438455,MANGALORE,DAKSHINA KANNADA,KARNATAKA
STBP0000597,State Bank of Patiala,STBP0000597,,"PERSONAL BANKING BRANCH,CHANDIGARH","SECTOR 8-C, SCO 99-102,MADHYA MARG, CHANDIGARH-163001","0172-546124,0172-544892",CHANDIGARH,CHANDIGARH,CHANDIGARH
STBP0000598,State Bank of Patiala,STBP0000598,,KHUMANO,BLOCK & TEH KHUMANO (MANDI),01628-268342,KHAMANON,FATEHGARH SAHEB,PUNJAB
STBP0000599,State Bank of Patiala,STBP0000599,,JALANDHAR AMAN NAGAR,"AMAN NAGAR, NEAR BYE PASS,JALANDHAR",O181-2291248,JALANDHAR,JALANDHAR,PUNJAB
STBP0000600,State Bank of Patiala,STBP0000600,,LUDHIANA  SUNDER NAGAR,SUNDER NAGAR LUDHIANA,O161-2667386 -2661232,LUDHIANA,LUDHIANA,PUNJAB
STBP0000601,State Bank of Patiala,STBP0000601,,BATAL,VPO BATAL THE ARKI-173208,HP-01796-220734,ARKI,SOLAN,HIMACHAL PRADESH
STBP0000602,State Bank of Patiala,STBP0000602,,RANIA,NEAR BUS STAND DIST SIRSA HARYANA-125076,01666-242441,RANIA,SIRSA,HARYANA
STBP0000603,State Bank of Patiala,STBP0000603,,BARWALA,DAULATPUR CHOWK WARD NO-3 BHARWALA-126010,01693-242373,BARWALA,PANCHKULA,HARYANA
STBP0000604,State Bank of Patiala,STBP0000604,,MANDI,NEAR BEAS BRIDGE JAWHAR NAGAR HP,01907-226107,MANDI,MANDI,HIMACHAL PRADESH
STBP0000605,State Bank of Patiala,STBP0000605,,DHANAULA,VILL & DISTT SANGRUR,01679-263515,DHANAULA,SANGRUR,PUNJAB
STBP0000606,State Bank of Patiala,STBP0000606,,DIRBA,VILLAGE DIRBA,01672-242308,DIRBA,SANGRUR,PUNJAB
STBP0000607,State Bank of Patiala,STBP0000607,,BAGHAPURANA,NIHAL SINGH WALA ROAD,01636-240387,BAGHA PURANA,MOGA,PUNJAB
STBP0000608,State Bank of Patiala,STBP0000608,,LUDHIANA SSI,PARTAP CHOWK LUDHIANA,O161-2530918,LUDHIANA,LUDHIANA,PUNJAB
STBP0000609,State Bank of Patiala,STBP0000609,,REWARI,"209 GRAIN MARKET, REWARI, HARYANA-123401",01274-23042,REWARI,REWARI,HARYANA
STBP0000610,State Bank of Patiala,STBP0000610,,ALWAR,49 ALKAUR ALWAR-301001,0144-2333106/R-33113/2703351,ALWAR,ALWAR,RAJASTHAN
STBP0000611,State Bank of Patiala,STBP0000611,,SHIMLA(SANJAULI),HOTEL BROAD VIEWS SANJAULI SHIMLA,0177-2842005,SIMLA,SHIMLA,HIMACHAL PRADESH
STBP0000612,State Bank of Patiala,STBP0000612,,PATIALA TREASURY BRANCH,"SCF 129 ,CHHOTI, BIRADARI,PATIALA 147001",01758-2201324,PATIALA,PATIALA,PUNJAB
STBP0000613,State Bank of Patiala,STBP0000613,,NAHAN,KACHA TANK OPPOSITE CENTRAL SCHOOL HP-176027,01702-222859,NAHAN,SIRMOUR,HIMACHAL PRADESH
STBP0000614,State Bank of Patiala,STBP0000614,,HANUMANGARH TOWN,NEW DHAN MANDI RAJASTHAN,01552-223013,HANUMANGARH,HANUMANGARH,RAJASTHAN
STBP0000615,State Bank of Patiala,STBP0000615,,ROORKEE,SHIV COMPLEX OPPOSITE KOTWALI CIVIL LINES ROORKEE UP,01332-274215/R-274216,ROORKEE,HARIDWAR,UTTARAKHAND
STBP0000616,State Bank of Patiala,STBP0000616,,UDHAMPUR,"MAIN BAZAR, UDHAMPUR","01992-270550, 5405004",UDHAMPUR,UDHAMPUR,JAMMU & KASHMIR
STBP0000617,State Bank of Patiala,STBP0000617,,BALACHAUR,"NEAR BUS STAND,BALACHAUR,DISTT NAWASHAHR",O1885-220317,BALACHAUR,NAVANSAHAR,PUNJAB
STBP0000618,State Bank of Patiala,STBP0000618,,KOTPUTLI,NATIONAL HIGH WAY NO-8 KOTPUTLI -303108,01421-222280,KOTPUTLI,JAIPUR,RAJASTHAN
STBP0000619,State Bank of Patiala,STBP0000619,,KASHIPUR,"MAIN CHORAHA, NAINITAL, KASHIPUR, UP-244713",05947-2755012/R-275503,KASHIPUR,UDHAMSINGH NAGAR,UTTARAKHAND
STBP0000620,State Bank of Patiala,STBP0000620,,HALDWANI,OPPOSITTE PWD RESI HOUSE HALDWANI UP,05946-223772/R-222199,HALDWANI,NAINITAL,UTTARAKHAND
STBP0000621,State Bank of Patiala,STBP0000621,,TANDA,VPO TANDA,"01886-222630, 5401265",URMAR TANDA,HOSIARPUR,PUNJAB
STBP0000622,State Bank of Patiala,STBP0000622,,BAWANA,VPO BAWANA HARYANA-,,BAWANA,MAHENDRAGARH,HARYANA
STBP0000623,State Bank of Patiala,STBP0000623,,PATIALA OLD POLICE LINES,"OLD POLICE LINE GEETA BHAVAN,PATIALA -147001 (PB)",0175-201167,PATIALA,PATIALA,PUNJAB
STBP0000624,State Bank of Patiala,STBP0000624,,UNNAO,BABU GANJ UP-242001,0515-2820836,UNNAO,UNNAV,UTTAR PRADESH
STBP0000625,State Bank of Patiala,STBP0000625,,NANDED,SHOP NO-6-4-156 SAROFA OPPOSITE DHOT NIWAS NANDED,02462-33860,NANDED,NANDED,MAHARASHTRA
STBP0000626,State Bank of Patiala,STBP0000626,,NASHIK,38/2-B PLOT NO-1 TRIMUTI CHOWK CIDCO KAMALWADE NASIK,0253-392771,NASHIK,NASHIK,MAHARASHTRA
STBP0000627,State Bank of Patiala,STBP0000627,,FEROZEPUR CANTT,BAZAR NO-2 FEROZEPUR CANTT,01632-246338,FIROZPUR,FEROZEPUR,PUNJAB
STBP0000628,State Bank of Patiala,STBP0000628,,TARN TARAN,TEH. TARAN TARAN,"01852-228519, 5404061",TARN TARAN,AMRITSAR,PUNJAB
STBP0000629,State Bank of Patiala,STBP0000629,,JALALABAD WEST,BIMAL PLACE NEAR OLD BUS STAND FEROZEPPUR-FAZILIKA ROAD JALABAD(WEST),01638-250455,JALALABAD,FEROZEPUR,PUNJAB
STBP0000630,State Bank of Patiala,STBP0000630,,MUKERIAN,VPO MUKERIAN,"01883-244324, 5401233",MUKERIAN,HOSIARPUR,PUNJAB
STBP0000631,State Bank of Patiala,STBP0000631,,HATHRAS,KAMAL COMPLEX BAGLA MARG HATHRAS UP,05722-233655/R-233645,HATHRAS,HARDOI,UTTAR PRADESH
STBP0000632,State Bank of Patiala,STBP0000632,,KHURZA,"NEW SHIVPURI, JUNCTION ROAD, KHURZA DISTT. BULANDSHAHAR",05738-248053/247582,KHURJA,BULANDSHEHAR,UTTAR PRADESH
STBP0000633,State Bank of Patiala,STBP0000633,,SRI KARANPUR,B BLOCK WARD NO-6 SRI KARANPUR,01501-220460,KARANPUR,GANGANAGAR,RAJASTHAN
STBP0000634,State Bank of Patiala,STBP0000634,,NEW DELHI PERSONAL BANKING,SPECIALISED BANCHE E-4 DEFENCE COLONY RING ROAD NEW DELHI-110024,031-4602024/4602025/FAX-4602026,DELHI,NEW DELHI,DELHI
STBP0000635,State Bank of Patiala,STBP0000635,,MANI MAJRA(CHANDIGARH),S C O NO-838 CHD KALKA SHIMLA ROAD MANI MAJRA-160101,0172-2733863/2735066,CHANDIGARH,CHANDIGARH,CHANDIGARH
STBP0000636,State Bank of Patiala,STBP0000636,,QADIAN,"HAR CHOWK, COLLEGE RD, QADIAN","01872-220244, 5401249",QADIAN,GURDASPUR,PUNJAB
STBP0000637,State Bank of Patiala,STBP0000637,,KARNAL(DSC),DAYAL SINGH COLLEGE HARYANA,0184-2271227,KARNAL,KARNAL,HARYANA
STBP0000638,State Bank of Patiala,STBP0000638,,LUDHIANA SALEM TABRI,SALEM TABRI JALANDHAR BY PASS LUDHIANA,O161-2781495,LUDHIANA,LUDHIANA,PUNJAB
STBP0000639,State Bank of Patiala,STBP0000639,,SURATGARH,TEH SURATGARH NEAR BUS STAND,01509-221032,SURATGARH,GANGANAGAR,RAJASTHAN
STBP0000640,State Bank of Patiala,STBP0000640,,GURGAON(MINI SECTT.),ADMN & JUDICIAL COMPLEX (MINI SECTT) GURGAON,0124-2320678/2303084,GURGAON,GURGAON,HARYANA
STBP0000641,State Bank of Patiala,STBP0000641,,MALERKOTLA(SSI),"SSI SPECIALISED BR INDUSTRIAL ESTATE RAILWAY STATION ROAD,MALERKOTLA(PUNJAB)",01675-255306,MALERKOTLA,SANGRUR,PUNJAB
STBP0000642,State Bank of Patiala,STBP0000642,,WTC BRANCH,"13, ARCADE, WORLD TRADE CENTRE, MUMBAI",MR. N N MATHUR 22181547,MUMBAI,GREATER BOMBAY,MAHARASHTRA
STBP0000643,State Bank of Patiala,STBP0000643,,LUCKNOW(PICUP),PICUP OFFICE VIBHUTI KHAND GOMTI NAGAR LUCKNOW UP,0522-2720812/R-2395672,LUCKNOW,LUCKNOW,UTTAR PRADESH
STBP0000644,State Bank of Patiala,STBP0000644,,AMRITSAR TEXT.,"KRISHNA SQUARE-I,BATALA ROAD","0183-2272010, 5404013",AMRITSAR,AMRITSAR,PUNJAB
STBP0000645,State Bank of Patiala,STBP0000645,,SHAMLI,SINGHAL OIL MILLS BUDHANA ROAD SHAMLI-247776,01398-252343/R-252344,SHAMLI,SAHARANPUR,UTTAR PRADESH
STBP0000646,State Bank of Patiala,STBP0000646,,JAGADHRI SGNK HIGH SCHOOL,SHRI GURU NANAK KHALSA HIGH SCHOOL JAGADHARI,01732-277636,JAGADHRI,YAMUNANAGAR,HARYANA
STBP0000647,State Bank of Patiala,STBP0000647,,THANESAR,ARYA HIGH SCHOOL THANESAR,234323,KURUKSHETRA,KURUKSHETRA,HARYANA
STBP0000649,State Bank of Patiala,STBP0000649,,MOHALI (YPS),YPS SCHOOL  MOHALI,0172-2230558,SAS NAGAR(MOHALI),RUPNAGAR,PUNJAB
STBP0000651,State Bank of Patiala,STBP0000651,,RISHIKESH,29-DEHRADUN ROAD RISHSKESH,0135-2432941/R-433941,RISHIKESH,DEHRADUN,UTTARAKHAND
STBP0000652,State Bank of Patiala,STBP0000652,,GIDDERBAHA GUR MANDI,TEH GIDDERBAHA DIST FARIDKOT-152001,01637-230673,GIDDAR BAHA,MUKTSAR,PUNJAB
STBP0000653,State Bank of Patiala,STBP0000653,,LUDHIANA (HOSY),CHAURI SARAK DIVISION NO. 3 LUDHIANA,O161-2728073 -2728763,LUDHIANA,LUDHIANA,PUNJAB
STBP0000654,State Bank of Patiala,STBP0000654,,DERABASSI SSI,TEH RAJPURA,01769-70724,DERA BASSI,PATIALA,PUNJAB
STBP0000655,State Bank of Patiala,STBP0000655,,MOHALI SSI,SSI SPECIALISED BR S C F-33 PHASE-VII MOHALI-160055,0175-394523/257535,SAS NAGAR(MOHALI),RUPNAGAR,PUNJAB
STBP0000656,State Bank of Patiala,STBP0000656,,BARNALA S.D. COLLEGE,"S D COLLEGE, BARNALA(PUNJAB)",01679-232137,BARNALA,SANGRUR,PUNJAB
STBP0000657,State Bank of Patiala,STBP0000657,,BATHINDA CANTT.,BATHINDA CANTT,0164-2240128,BATHINDA,BHATINDA,PUNJAB
STBP0000658,State Bank of Patiala,STBP0000658,,KOSI KALAN,"998 MAIN RAM DASS NATIONAL HIGHWAY BYE PASS, KOSI KALAN DISTT. MATHURA",05662-233367,KOSI KALAN,MATHURA,UTTAR PRADESH
STBP0000659,State Bank of Patiala,STBP0000659,,MOGA M.C.,MUNICIPAL COMMITTEE TEH MOGA,01636-224518,MOGA,MOGA,PUNJAB
STBP0000660,State Bank of Patiala,STBP0000660,,FARIDKOT KNJ SCHOOL,K N JAIN SCHOOL   FARIDKOT,01639-250096,FARIDKOT,FARIDKOT,PUNJAB
STBP0000661,State Bank of Patiala,STBP0000661,,COIMBATORE,"R S PURAM, COIMBATORE-2",0422-2552743,COIMBATORE,COIMBOTORE,TAMIL NADU
STBP0000662,State Bank of Patiala,STBP0000662,,RUDRAPUR,173/3 CIVIL LINES RUDRAPUR,05944-241218/241388,RUDRAPUR,UDHAMSINGH NAGAR,UTTARAKHAND
STBP0000663,State Bank of Patiala,STBP0000663,,KALKA NRW,NORTHERN RAILWAY WORKSHOP HARYANA-,01733-253421/253442,KALKA,PANCHKULA,HARYANA
STBP0000664,State Bank of Patiala,STBP0000664,,KUMBRA,VILLAGE KUMBRA,0172-2305222,KUMBRA,RUPNAGAR,PUNJAB
STBP0000665,State Bank of Patiala,STBP0000665,,APRA,VILL. APRA TEH. PHILLAUR DISTT. JALANDHAR,"O1826-250450, 253164(FAX)",APRA,JALANDHAR,PUNJAB
STBP0000666,State Bank of Patiala,STBP0000666,,MUZZAFAR NAGAR(PREM PURI),"PREM PURI, MUZZAFFAR NAGAR, UP",0131-2451619/R-260035,MUZAFFARNAGAR,MUZAFFAR NAGAR,UTTAR PRADESH
STBP0000667,State Bank of Patiala,STBP0000667,,KOTKAPURA (MOGA ROAD),MOGA ROAD KOTKAPURA,01635-224477,KOT KAPURA,FARIDKOT,PUNJAB
STBP0000668,State Bank of Patiala,STBP0000668,,MOHALI PHASE-X,MOHALI PHASE-X,0172-2212146,SAS NAGAR(MOHALI),RUPNAGAR,PUNJAB
STBP0000670,State Bank of Patiala,STBP0000670,,PATIALA VICTORIA SCHOOL,"VICTORIA SCHOOL,PATIALA -147001",0175-2222926,PATIALA,PATIALA,PUNJAB
STBP0000671,State Bank of Patiala,STBP0000671,,PATIALA SHAKTI VIHAR,"SAKTI VIHAR,PATIALA -147001",0175-2223975,PATIALA,PATIALA,PUNJAB
STBP0000672,State Bank of Patiala,STBP0000672,,KOT FATUHI,NRI SPLD. BR. THE. GARHSHANKAR,"01884-250559, 5401221",KOTFATUHI,HOSIARPUR,PUNJAB
STBP0000673,State Bank of Patiala,STBP0000673,,PILIBANGAN,INDUSTRIAL AREA PILIBANGAN,01509-233950,PILIBANGAN,HANUMANGARH,RAJASTHAN
STBP0000674,State Bank of Patiala,STBP0000674,,UJJAIN,"FREE GANJ, 30, VARANASI MARG, UJJAIN",0734--514285/R-555259/FAX-514550,UJJAIN,UJJAIN,MADHYA PRADESH
STBP0000675,State Bank of Patiala,STBP0000675,,RAYYA,VPO RAYYA,"01853-222046, 5401257",RAYYA,AMRITSAR,PUNJAB
STBP0000676,State Bank of Patiala,STBP0000676,,PATIALA PERSONAL BKG,"LEELA BHAVWAN, PATIALA(PUNJAB)",0175-2200851,PATIALA,PATIALA,PUNJAB
STBP0000677,State Bank of Patiala,STBP0000677,,PATIALA STATE COLLEGE,"STATE COLLEGE, PATIALA(PUNJAB)",0175-2200770,PATIALA,PATIALA,PUNJAB
STBP0000678,State Bank of Patiala,STBP0000678,,NAJIBABAD,TEHSIL ROAD DIST BIJNMORE UP,01341-221329/R-221458,NAJIBABAD,BIJNOR,UTTAR PRADESH
STBP0000679,State Bank of Patiala,STBP0000679,,AUR,"VPO AUR,DISTT. NAWASHAHR",O1823-245631,AUR,NAVANSAHAR,PUNJAB
STBP0000680,State Bank of Patiala,STBP0000680,,GORAYA  P & SB,"G.T.ROAD,GORAYA THE. PHILLAUR DISTT JALANDHAR",O1826-262757 (FAX),GORAYA,JALANDHAR,PUNJAB
STBP0000681,State Bank of Patiala,STBP0000681,,NURMAHAL,"MAIN BAZAR VPO NURMAHAL,DISTT JALANDHAR",O1826-242885,NURMAHAL,JALANDHAR,PUNJAB
STBP0000682,State Bank of Patiala,STBP0000682,,ANOOPGARH,DHAN MANDI  RAJASTHAN,01498-222298,ANUPGARH,GANGANAGAR,RAJASTHAN
STBP0000683,State Bank of Patiala,STBP0000683,,ATELI MANDI,DIST MOHINDERGFARH,1282-276573,ATELI,MAHENDRAGARH,HARYANA
STBP0000684,State Bank of Patiala,STBP0000684,,YAMUNA NAGAR (SSI),HARYANA,01732-252564,YAMUNANAGAR,YAMUNANAGAR,HARYANA
STBP0000685,State Bank of Patiala,STBP0000685,,"PANIPAT,SSI",SSI PANIPAT,0180-2649091,PANIPAT,PANIPAT,HARYANA
STBP0000686,State Bank of Patiala,STBP0000686,,BATHINDA  MALL,MALL ROAD BATHINDA,0164-2254324,BATHINDA,BHATINDA,PUNJAB
STBP0000687,State Bank of Patiala,STBP0000687,,NAWASHAHR P & SB,"CHANDIGARH ROAD,NAWASHAHR",O1823-221029 (FAX),NAWANSHAHAR,NAVANSAHAR,PUNJAB
STBP0000688,State Bank of Patiala,STBP0000688,,BANGA P& SB,"PHAGWARA ROAD,BANGA,DISTT. NAWASHAHR",O1823-260946 (FAX),BANGA,NAVANSAHAR,PUNJAB
STBP0000689,State Bank of Patiala,STBP0000689,,ALLAHABAD DEGREE COLLEGE,DEGREE COLLEGE ALLAHABAD UP-211001,0532-2557594/R-2618673,ALLAHABAD,ALLAHABAD,UTTAR PRADESH
STBP0000690,State Bank of Patiala,STBP0000690,,MORADABAD (SSI),LAJPAT NAGAR MORADABAD UP-244001,0591-2491209/FAX-2491210/R-2412719,MORADABAD,MORADABAD,UTTAR PRADESH
STBP0000691,State Bank of Patiala,STBP0000691,,SONEPAT MINI SECTT.,MINI SECTT SONEPAT,01263-262131,SONIPAT,SONIPAT,HARYANA
STBP0000692,State Bank of Patiala,STBP0000692,,BEGOWAL P & SB,VPO BEGOWAL DISTT. KAPURTHALA,O1822-248181,BEGOWAL,KAPURTHALA,PUNJAB
STBP0000693,State Bank of Patiala,STBP0000693,,GURGAON SSI,"NEW RAILWAY ROAD, GURGAON(HARYANA)","0124-2305850,0124-2221919",GURGAON,GURGAON,HARYANA
STBP0000694,State Bank of Patiala,STBP0000694,,GHAGA,VPO GHAGGA TEH SAMANA,01764-252379,GHAGGA,PATIALA,PUNJAB
STBP0000695,State Bank of Patiala,STBP0000695,,BADHNI KALAN,TEH NIHAL SINGH WALA,01636-250194,BADANI KALAN,MOGA,PUNJAB
STBP0000696,State Bank of Patiala,STBP0000696,,JODHPUR,"35 STADIUM SHOPPING CENTRE NEAR DARPAN CENEMA, JODHPUR",0291-2540738/2543051,JODHPUR,JODHPUR,RAJASTHAN
STBP0000697,State Bank of Patiala,STBP0000697,,"OVERSEAS BRANCH,JALANDHAR","JALANDHAR 289, SHAHEED UDHAM SINGH MARKET,OPPOSITE T.V. CENTRE, JALANDHAR(PUNJAB)-144001","0181-2401965,0181-2404107",JALANDHAR,JALANDHAR,PUNJAB
STBP0000698,State Bank of Patiala,STBP0000698,,JAIPUR RAJAPARK,471/5 VYAS MARG JAIPUR,0141-2623982,JAIPUR,JAIPUR,RAJASTHAN
STBP0000699,State Bank of Patiala,STBP0000699,,ROHTAK CIRCULAR ROAD,D L F COLONY ROHTAK,01262-250183,ROHTAK,ROHTAK,HARYANA
STBP0000700,State Bank of Patiala,STBP0000700,,KARNAL URBANESTATE SEC-6,URBAN ESTATE KARNAL,0184-2281230,KARNAL,KARNAL,HARYANA
STBP0000701,State Bank of Patiala,STBP0000701,,JABALPUR JAWAHARGANJ,874 JAWAHAR GANJ MAIN ROAD JABALPUR,0761-411254,JABALPUR,JABALPUR,MADHYA PRADESH
STBP0000702,State Bank of Patiala,STBP0000702,,JANDIALA,"NEAR BUS STAND,THE PHILLAUR,DISTT JALANDHAR",O1826-275990,JUNDIALA,JALANDHAR,PUNJAB
STBP0000703,State Bank of Patiala,STBP0000703,,JALANDHAR CANTT.,"JALANDHAR CANTT.,JALANDHAR",O181-2263286,JALANDHAR,JALANDHAR,PUNJAB
STBP0000704,State Bank of Patiala,STBP0000704,,MUKANDPUR,"MAIN ROAD,MUKANDPUR,DISTT. NAWASHAHR",O1823-276717 (FAX),MOKANDPUR,NAVANSAHAR,PUNJAB
STBP0000705,State Bank of Patiala,STBP0000705,,NAGROTA BAGWAN,TEH KANGRA HP-,01892-252903,NAGROTA BAGWAN,KANGRA,HIMACHAL PRADESH
STBP0000706,State Bank of Patiala,STBP0000706,,PATIALA DC,"THE MALL, PATIALA(PUNJAB)",0175-2309932,PATIALA,PATIALA,PUNJAB
STBP0000707,State Bank of Patiala,STBP0000707,,PHAGWARA P & SB,"BANGA ROAD,PHAGWARA DISTT.KAPURTHALA",01824-266020,PHAGWARA,KAPURTHALA,PUNJAB
STBP0000708,State Bank of Patiala,STBP0000708,,"PERSONAL BANKING BRANCH,PANCHKULA","SECTOR 6, PANCHKULA(HARYANA)","0172-2576896,0172-2577282",PANCHKULA,PANCHKULA,HARYANA
STBP0000709,State Bank of Patiala,STBP0000709,,LUDHIANA (H T),NEAR DARPAN STUDIO BN CHOWK LUDHIANA,O161-2449405 -2440014,LUDHIANA,LUDHIANA,PUNJAB
STBP0000710,State Bank of Patiala,STBP0000710,,MAHILPUR,VPO MAHILPUR,"01884-245265, 5401130",MAHALPUR,HOSIARPUR,PUNJAB
STBP0000711,State Bank of Patiala,STBP0000711,,CHANDIGARH 32-C,SECTOR-32 CHANDIGARH,0172-2667122/2622981,CHANDIGARH,CHANDIGARH,CHANDIGARH
STBP0000712,State Bank of Patiala,STBP0000712,,ROHTAK KATH MANDI,ROHTAK,01258-240178,ROHTAK,ROHTAK,HARYANA
STBP0000713,State Bank of Patiala,STBP0000713,,MANAKPUR,MANAKPUR(PUNJAB),0175-254226,MANAK PURA,PATIALA,PUNJAB
STBP0000714,State Bank of Patiala,STBP0000714,,JALANDHAR P & SB,"37,COOL ROAD,JALANDHAR","O181-2233472, 2237836(FAX)",JALANDHAR,JALANDHAR,PUNJAB
STBP0000715,State Bank of Patiala,STBP0000715,,MUMBAI (BPCL),"MAHUL BPCL REFINERY,MUMBAI",022-5540063,MUMBAI,GREATER BOMBAY,MAHARASHTRA
STBP0000716,State Bank of Patiala,STBP0000716,,LUCKNOW JAWAHAR BHAWAN,16 ASHOK MARG LUCKNOW-228001,0522-2286881/R-2392964,LUCKNOW,LUCKNOW,UTTAR PRADESH
STBP0000717,State Bank of Patiala,STBP0000717,,KUSUMPATI(SHIMLA),SDA COMPLEX KAMUMPATI SHIMLA,0177-2621843,SIMLA,SHIMLA,HIMACHAL PRADESH
STBP0000718,State Bank of Patiala,STBP0000718,,GARHDIWAL,"VPO GARHDIWAL, THE. DASUYA","01886-260021, 5401209",GARHDIWALA,HOSIARPUR,PUNJAB
STBP0000719,State Bank of Patiala,STBP0000719,,CHANDIGARH DISTT. COURTS,DISTRICT COURT SECTOR-17,0172-2708815,CHANDIGARH,CHANDIGARH,CHANDIGARH
STBP0000720,State Bank of Patiala,STBP0000720,,NEW DELHI MOUNT KARMEL,"ANAND NIKETAN, NEW DELHI",011-24102230,DELHI,NEW DELHI,DELHI
STBP0000721,State Bank of Patiala,STBP0000721,,KANINA MANDI,TEH MOHINDERGARH HARYANA,01285-235613,KANINA,MAHENDRAGARH,HARYANA
STBP0000722,State Bank of Patiala,STBP0000722,,NEW DELHI (BUDH VIHAR),"BUDH VIHAR, NEW DELHI",011-27272906,DELHI,NEW DELHI,DELHI
STBP0000723,State Bank of Patiala,STBP0000723,,LUDHIANA (BRSN),OPP. MILK PLANT  BRS NAGAR LUDHIANA,O161-2456071,LUDHIANA,LUDHIANA,PUNJAB
STBP0000724,State Bank of Patiala,STBP0000724,,AMBALA (SAJC),S A JAIN COLLEGE AMBALA,0171-2578802,AMBALA,AMBALA,HARYANA
STBP0000725,State Bank of Patiala,STBP0000725,,"RATIA,GRAIN MARKET",DIST FATEHABAD OFFICIATING,01697-251977/252977,RATTIA,FATEHABAD,HARYANA
STBP0000726,State Bank of Patiala,STBP0000726,,PANCHKULA (SEC. 12),PANCHKULA (SEC. 12),01733-220880,PANCHKULA,PANCHKULA,HARYANA
STBP0000727,State Bank of Patiala,STBP0000727,,VASHI,"Z-7, APMC MARKET 2, DANA BUNDER,VASHI, NAVI MUMBAI-400705",022-27802150,MUMBAI,GREATER BOMBAY,MAHARASHTRA
STBP0000728,State Bank of Patiala,STBP0000728,,LUDHIANA (K N),KITCHLU NAGAR LUDHIANA,O161-2302523 -2301773,LUDHIANA,LUDHIANA,PUNJAB
STBP0000729,State Bank of Patiala,STBP0000729,,ELLENABAD,ELLENABAD,01698-222082,ELLANABAD,SIRSA,HARYANA
STBP0000730,State Bank of Patiala,STBP0000730,,YAMUNANAGAR(GNGC),YAMUNANAGAR(GNGC),0732-252024,YAMUNANAGAR,YAMUNANAGAR,HARYANA
STBP0000731,State Bank of Patiala,STBP0000731,,NEW DELHI ROHINI,YUYASHAKTI MODEL SCHOOL SECTOR-3 ROHINI DELHI-110085,"011-27511665, 27515464",DELHI,NEW DELHI,DELHI
STBP0000732,State Bank of Patiala,STBP0000732,,"COMMERCIAL BRANCH,DELHI","2ND FLOOR, CHANDRALOK BUILDING,JANPATH,NEW DELHI-110001",011-23321398,DELHI,NEW DELHI,DELHI
STBP0000733,State Bank of Patiala,STBP0000733,,BIILASPUR,HARYANA,01732-228457,BILASPUR,YAMUNANAGAR,HARYANA
STBP0000734,State Bank of Patiala,STBP0000734,,GANNAUR,CHHOTI MANDI,01263-272196,GANAUR,SONIPAT,HARYANA
STBP0000735,State Bank of Patiala,STBP0000735,,KICHHA,"MAIN MARKET U S NAGAR, KICHHA,  (UTTARAKHAND)",05944-263713/R-260013,KICHHA,UDHAMSINGH NAGAR,UTTARAKHAND
STBP0000736,State Bank of Patiala,STBP0000736,,CHANDIGARH SEC 16,SECGTOR0-16 GENERAL HOSPITAL CHANDIGARH,0172-2771516,CHANDIGARH,CHANDIGARH,CHANDIGARH
STBP0000737,State Bank of Patiala,STBP0000737,,BAZPUR,"BAZPUR, DIST UDHAM SINGH NAGAR (UTTARAKHAND)",05949-283860,BAZPUR,UDHAMSINGH NAGAR,UTTARAKHAND
STBP0000738,State Bank of Patiala,STBP0000738,,MULLANPUR,JAGRAON ROAD MULLANPUR,O161-2881515,MULLANPUR DAKHA,LUDHIANA,PUNJAB
STBP0000739,State Bank of Patiala,STBP0000739,,BHUNA,JAKHAL ROAD DIST FATEHABAD,01667-243162,BHUNA,FATEHABAD,HARYANA
STBP0000740,State Bank of Patiala,STBP0000740,,NER CHOWK,CAHDIAR COMPLEX MAVI ROAD,01905-243349,NER CHOWK,MANDI,HIMACHAL PRADESH
STBP0000741,State Bank of Patiala,STBP0000741,,KARSOG,VPO KARSOG,01907-203899,KARSOG,MANDI,HIMACHAL PRADESH
STBP0000742,State Bank of Patiala,STBP0000742,,LONGOWAL,"GAHU PATTI, LONGOWAL(PUNJAB)",01672-283529,LONGOWAL,SANGRUR,PUNJAB
STBP0000743,State Bank of Patiala,STBP0000743,,GURU HAR SAHAI,OLD MANDI GURU HAR SAHAI,01685-232795,GURUHARSAHAI,FEROZEPUR,PUNJAB
STBP0000744,State Bank of Patiala,STBP0000744,,KHATIMA,"TANAKPUR ROAD, KHATIMA  (UTTARAKHAND)",0594-253308/R-250083,KHATIMA,UDHAMSINGH NAGAR,UTTARAKHAND
STBP0000745,State Bank of Patiala,STBP0000745,,ZIRAKPUR,SCF-23 KALGIDHAR ENCLAVE PANCHKULA ROAD,01762-271576,ZIRAKPUR,PATIALA,PUNJAB
STBP0000746,State Bank of Patiala,STBP0000746,,BHAGTA BHAI KA,JAITU BARNALA ROAD TEH PHUL TOWN,01651-259310,BHAGTA,BHATINDA,PUNJAB
STBP0000747,State Bank of Patiala,STBP0000747,,RAJPURA K.S.M.,"K.S.M, RAJPURA(PUNJAB)",01762-224288,RAJPURA,PATIALA,PUNJAB
STBP0000748,State Bank of Patiala,STBP0000748,,SITARGANJ,"KICHHA ROAD, SITTARGANJ  (UTTARAKHAND)",05948-254205,SITARGANJ,UDHAMSINGH NAGAR,UTTARAKHAND
STBP0000749,State Bank of Patiala,STBP0000749,,"SEEPZ++,MUMBAI","BLOCK 1/002,SEEPZ++,ANDHERI(E),MUMBAI-400096","022-28293000,022-28293002",MUMBAI,GREATER BOMBAY,MAHARASHTRA
STBP0000750,State Bank of Patiala,STBP0000750,,NEW DELHI PATPARGANJ,"68A, PANDAV NAGAR, PATPARGANJ, NEW DELHI",011-22799401,DELHI,NEW DELHI,DELHI
STBP0000751,State Bank of Patiala,STBP0000751,,JAMALPUR,"SECTOR 32, JAMALPUR LUDHIANA",O161-2602221,LUDHIANA,LUDHIANA,PUNJAB
STBP0000752,State Bank of Patiala,STBP0000752,,CHANDIGARH SEC 34,SECTOR-34 CHANDIGARH,172-2660620,CHANDIGARH,CHANDIGARH,CHANDIGARH
STBP0000753,State Bank of Patiala,STBP0000753,,GURGAON SUSHANT LOK,"MILLENIUM PLAZA, TOWER-A, SECTOR 27, SUSHANT LOK , GURGAON",0124-2573883,GURGAON,GURGAON,HARYANA
STBP0000754,State Bank of Patiala,STBP0000754,,SUNAM N.G.M.,"NEW GRAIN MARKET,SUNAM(PUNJAB)",01676-244781,SUNAM,SANGRUR,PUNJAB
STBP0000755,State Bank of Patiala,STBP0000755,,AMBALA CANTT ARYA COLLEGE,AMBALA CANTT ARYA COLLEGE,0171-2644523,AMBALA CANTT.,AMBALA,HARYANA
STBP0000756,State Bank of Patiala,STBP0000756,,TOHANA I.G. GOVT. COLLEGE,TOHANA I.G. GOVT. COLLEGE,01692-230153,TOHANA,FATEHABAD,HARYANA
STBP0000757,State Bank of Patiala,STBP0000757,,DHULKOTE,DHULKOTE,0171-2254195,AMBALA,AMBALA,HARYANA
STBP0000758,State Bank of Patiala,STBP0000758,,TREASURY BRANCH,"7TH FLOOR, ""SYNERGY"", SBILHO BUILDING, BKC, BANDRA EAST, MUMBAI",MADURAI  STATE: TAMILNADU  PIN : 625002,MUMBAI,GREATER BOMBAY,MAHARASHTRA
STBP0000759,State Bank of Patiala,STBP0000759,,MOHALI SEC 70,SECTOR-70 SAS NAGAR MOHALI,0172-2267007,SAS NAGAR(MOHALI),RUPNAGAR,PUNJAB
STBP0000762,State Bank of Patiala,STBP0000762,,AMBALA HUDA SECTOR 9,AMBALA HUDA SECTOR 9,0171-2643510,AMBALA,AMBALA,HARYANA
STBP0000763,State Bank of Patiala,STBP0000763,,LADWA,LADWA,01744-220466,LADWA,KURUKSHETRA,HARYANA
STBP0000764,State Bank of Patiala,STBP0000764,,BATHINDA DAC COMPLEX,DISTT ADMN COMP MINI SECTT BATHINDA,0164-2222486,BATHINDA,BHATINDA,PUNJAB
STBP0000765,State Bank of Patiala,STBP0000765,,NILO - KHERI,KURUKSHETRA,,NILOKHERI,KARNAL,HARYANA
STBP0000766,State Bank of Patiala,STBP0000766,,BHIWANI ADARSH MAHILA MAHA VID,BHIWANI,01664-224915,BHIWANI,BHIWANI,HARYANA
STBP0000767,State Bank of Patiala,STBP0000767,,HOSHIARPUR (MSM),MAHAVIR SPINNING MILLS,"01882-249239, 5401273",HOSHIARPUR,HOSIARPUR,PUNJAB
STBP0000768,State Bank of Patiala,STBP0000768,,HAMIRPUR GOVT. POLYTECHNIC COLLEGE,HAMIRPUR GOVT. POLYTECHNIC COLLEGE,01972-258565,HAMIRPUR,HAMIRPUR,HIMACHAL PRADESH
STBP0000769,State Bank of Patiala,STBP0000769,,"JIND,DRDA","DRDA,JIND",01742-288247,JIND,JIND,HARYANA
STBP0000770,State Bank of Patiala,STBP0000770,,TALWANDI BHAI – FEROZPUR,FEROZPUR,,TALWANDI BHAI,FEROZEPUR,PUNJAB
STBP0000771,State Bank of Patiala,STBP0000771,,COMMERCIAL BR FARIDABAD,"OM SHUBHAM TOWER,69-70-71 NEELAM BATA ROAD, FARIDABAD",,FARIDABAD,FARIDABAD,HARYANA
STBP0000773,State Bank of Patiala,STBP0000773,,URBAN ESTATE P-II PATIALA,SC 122 URBAN ESTATE PHASE II PATIALA(PUNJAB),,PATIALA,PATIALA,PUNJAB
STBP0000774,State Bank of Patiala,STBP0000774,,MACHHIWARA,"MACHHIWARA, DIST LUDHIANA, PUNJAB",,MACHHIWARA,LUDHIANA,PUNJAB
STBP0000775,State Bank of Patiala,STBP0000775,,PARPOLA,"PARPOLA TEHSIL BAIJNATH, DIST KANGRA , HIMACHAL PRADESH",,KANGRA,KANGRA,HIMACHAL PRADESH
STBP0000776,State Bank of Patiala,STBP0000776,,GHUMARWIN,"NEAR RAJENDRA FILLING STATION, GHUMARWIN, DIST BILASPUR(HP)-174021",01978-255776,GHUMARWIN,BILASPUR,HIMACHAL PRADESH
STBP0000781,State Bank of Patiala,STBP0000781,,MINI SECTT.JAGADHARI,"MINI SECTT.JAGADHARI,DISTT-YAMUNANAGAR (HARYANA)",01732-224405,JAGADHRI,YAMUNANAGAR,HARYANA
STBP0000782,State Bank of Patiala,STBP0000782,,GANDHIDHAM,"PLOT NO. 20,VRINDAVAN COMPLEX,SECTOR-9,GANDHIDHAM-370201","02836-226788,226733 (FAX)",GANDHIDHAM,KUTCH,GUJARAT
STBP0000783,State Bank of Patiala,STBP0000783,,TIRUPUR,"TWOWIN CHAMBERS,TIRUPUR DISTT-COIMBATORE (TAMILNADU)",0421-2430008,TIRUPUR,COIMBOTORE,TAMIL NADU
STBP0000784,State Bank of Patiala,STBP0000784,,SURAT,"K.K.TOWERS,SURAT",0261-2334552,SURAT,SURAT,GUJARAT
STBP0000808,State Bank of Patiala,STBP0000808,,"BHOWANIPUR,KOLKATA","15,ASHUTOSH MUKHERJEE MARG BHOWANIPUR KOLKATA",033-24867835,KOLKATA,KOLKATA,WEST BENGAL
STBP0000809,State Bank of Patiala,STBP0000809,,"NARELA, NEW DELHI","HALL NO.103, FIRST FLOOR, DSIDC INDUSTRIAL COMPLEX, NARELA, NEW DELHI",011-27782060,DELHI,NEW DELHI,DELHI
STBP0000811,State Bank of Patiala,STBP0000811,,"MALAD(WEST), MUMBAI","SHOP NO.-4 MAHAPALIKA MARKET,NEAR VIKAS PARK,MIDCHOWKI,LINK ROAD. MALAD WEST,MUMBAI",022-28802271,MUMBAI,GREATER BOMBAY,MAHARASHTRA
STBP0000812,State Bank of Patiala,STBP0000812,,"MULUND(EAST), MUMBAI","KUMAR COOPERATIVE HOUSING SOCIETY,RDP-1,PLOT NO. 10,MHADA COLONY.MULUND EAST,MUMBAI","022-25630029,25630910(FAX)",MUMBAI,GREATER BOMBAY,MAHARASHTRA
STBP0000813,State Bank of Patiala,STBP0000813,,"ANDHERI(EAST),MUMBAI","KURLA ROAD-GROUND FLOOR,SHOP NO. 4&5,CENTRE POINT BUILDING,ANDHERI KURLA ROAD,CHAKALA,ANDHERI(EAST),MUMBAI","022-28208268,28204675(FAX)",MUMBAI,GREATER BOMBAY,MAHARASHTRA
STBP0000814,State Bank of Patiala,STBP0000814,,FARRUKHNAGAR,"WAZIRPUR ROAD,NEAR ANAJ MANDI,FARRUKHNAGAR",0124-2275430,FARRUKHNAGAR,GURGAON,HARYANA
STBP0000815,State Bank of Patiala,STBP0000815,,BHILWARA,"6,S-1,BASANT VIHAR,BHILWARA-311001,",01482-232080,BHILWARA,BHILWARA,RAJASTHAN
STBP0000816,State Bank of Patiala,STBP0000816,,"PANCHKULA,MDC,SEC-5","SC0-87,88,SWASTIK VIHAR,MDC,SEC-5,PANCHKULA",0172-2555175,PANCHKULA,PANCHKULA,HARYANA
STBP0000817,State Bank of Patiala,STBP0000817,,"PANCHKULA,SEC-15","SCO-11,SEC-15,PANCHKULA","0172-2591223,224",PANCHKULA,PANCHKULA,HARYANA
STBP0000818,State Bank of Patiala,STBP0000818,,NISSING,"KAITHAL ROAD,NISSING",01745-270400,NISANG,KARNAL,HARYANA
STBP0000819,State Bank of Patiala,STBP0000819,,TOSHAM,"NEAR PANCHAYAT BHAWAN,TOSHAM","01253-259613,259614",TOSHAM,BHIWANI,HARYANA
STBP0000824,State Bank of Patiala,STBP0000824,,"AASHIANA,LUCKNOW","CP-5/I,SEC-I,ANURAG PLAZA,AASHIANA,LUCKNOW",0522-2421152,LUCKNOW,LUCKNOW,UTTAR PRADESH
STBP0000825,State Bank of Patiala,STBP0000825,,"SECTOR 46-C, CHANDIGARH","SCF NO.84, SECTOR-46 C, CHANDIGARH",0172-2620396,CHANDIGARH,CHANDIGARH,CHANDIGARH
STBP0000826,State Bank of Patiala,STBP0000826,,ALIGANJ LUCKNOW,"AISHWARYA PLAZA - 1, BLOCK NO 4, SECTOR-4, ALIGANJ, LUCKNOW",0522-2762202,LUCKNOW,LUCKNOW,UTTAR PRADESH
STBP0000827,State Bank of Patiala,STBP0000827,,"PANCHKULA,SEC-20","SCO-236,SEC-20,PANCHKULA","0172-2552153,4658677",PANCHKULA,PANCHKULA,HARYANA
STBP0000830,State Bank of Patiala,STBP0000830,,GREATER NOIDA,"B2-B3 GAMMA SHOPPING MALL, GAMMA-1, JAGAT FARM, GREATER NOIDA",0120-2322520,NOIDA,GAUTAM BODDA NAGAR,UTTAR PRADESH
STBP0000831,State Bank of Patiala,STBP0000831,,"SECTOR 15 D, CHANDIGARH","SCO NO.82-81, SECTOR-15 D, CHANDIGARH",0172-2703805,CHANDIGARH,CHANDIGARH,CHANDIGARH
STBP0000832,State Bank of Patiala,STBP0000832,,"INDRA NAGAR, LUCKNOW","PLOT NO.1 & B, ISHWARPURI, SECTOR-12, INDRA NAGAR, LUCKNOW",9451175877,LUCKNOW,LUCKNOW,UTTAR PRADESH
STBP0000833,State Bank of Patiala,STBP0000833,,MANSA,"NEHRU MEMORIAL PG COLLEGE, MANSA",01652-229292,MANSA,MANSA,PUNJAB
STBP0000834,State Bank of Patiala,STBP0000834,,"PATHANKOT SMDRDSD COLLEGE,PATHANKOT","SMDRSD COLLEGE,COLLEGE ROAD ,PATHANKOT,DISTT-GURDASPUR(PUNJAB)",0186-2240368,PATHANKOT,GURDASPUR,PUNJAB
STBP0000835,State Bank of Patiala,STBP0000835,,PHAGWARA (GURU HARGOBIND NAGAR),"SCF-93, HARGOBIND NAGAR, PHAGWARA – 144401",01824-220051,PHAGWARA,KAPURTHALA,PUNJAB
STBP0000836,State Bank of Patiala,STBP0000836,,BAGHA,"VILLAGE BAGHA, P.O. KANDHAR,BLOCK KUNIHAR, TEH. ARKI, DISTT. SOLAN H.P.",09418461137,ARKI,SOLAN,HIMACHAL PRADESH
STBP0000837,State Bank of Patiala,STBP0000837,,CHENNAI ADARSH COLLEGE,"ANNA ADARSH COLLEGE, CHENNAI",044-26211192,CHENNAI,CHENNAI,TAMIL NADU
STBP0000838,State Bank of Patiala,STBP0000838,,CHAHERU,"NEAR CHAHERU RAILWAY BRIDGE ,THE-PHAGWARA,DIST-KAPURTHALA",9878085082,CHAHERU,KAPURTHALA,PUNJAB
STBP0000839,State Bank of Patiala,STBP0000839,,DINANAGAR,"GT ROAD, OPP BUS STAND,DINANAGAR, ,DIST-GURDASPUR",01875-224224,DINANAGAR,GURDASPUR,PUNJAB
STBP0000840,State Bank of Patiala,STBP0000840,,LEHRA MOHABAT,"GHTP(GURU HARGOVIND THERMAL PLANT)TEH-RAMPURAPHUL,DIST-BHATINDA","0164-2271711,2271060",LEHRA MOHBAT,BHATINDA,PUNJAB
STBP0000841,State Bank of Patiala,STBP0000841,,REC JALANDHAR,REGIONAL ENGINEERING COLLEGE JALANDHAR,0181-2690695,JALANDHAR,JALANDHAR,PUNJAB
STBP0000842,State Bank of Patiala,STBP0000842,,BELA,"FARMACY COLLEGE, ROPAR ROAD, BELA,TEH-CHAMKAUR SAHIB, DIST-ROPAR","01881-263411,263014",BELA,RUPNAGAR,PUNJAB
STBP0000852,State Bank of Patiala,STBP0000852,,MANDI JAITSAR,"DHAN MANDI, JAITSAR, DIST-SRIGANGANAGAR","01498-265498,495",JETSAR,GANGANAGAR,RAJASTHAN
STBP0000853,State Bank of Patiala,STBP0000853,,GOLUWALA,"BASI DA MARKET, TEH-PILLIBANGAN, DIST-HANUMANGARH",01508-220450,GOLUWALA NIWADAN,HANUMANGARH,RAJASTHAN
STBP0000854,State Bank of Patiala,STBP0000854,,MALAUD,"STATE BANK OF PATIALA, MALAUD, TEH-PAYAL, DIST-LUDHIANA",0161-2859203,MALAUDH,LUDHIANA,PUNJAB
STBP0000855,State Bank of Patiala,STBP0000855,,RAMPURA BHARTIYA MODEL SCHOOL,"BHARTIYA MODEL SCHOOL, PATIALA MANDI, RAMPURAPHUL",01651-2221000,RAMPURA PHUL,BHATINDA,PUNJAB
STBP0000856,State Bank of Patiala,STBP0000856,,CHENNAI ADARSH VIDYALYA,"NO. 202,204,206 ADARSH VIDYALYA, PETERS ROAD, CHENNAI",044-28524604,CHENNAI,CHENNAI,TAMIL NADU
STBP0000857,State Bank of Patiala,STBP0000857,,BATHINDA (SSD GIRLS COLLEGE),"SSD GIRLS COLLEGE, AMRIK SINGH ROAD, BATHINDA",0164-2253239,BATHINDA,BHATINDA,PUNJAB
STBP0000861,State Bank of Patiala,STBP0000861,,VALSAD,"DHARAMPUR ROAD, ABRAMA,VALSAD-396001",02632-227242,BULSAR,VALSAD,GUJARAT
STBP0000862,State Bank of Patiala,STBP0000862,,PANVEL,"24,TANISHQ HEIGHTS, MTNL ROAD, NEAR RUPALI CINEMA CIRCLE, PANVEL-410206",022-27482285,PANVEL,RAIGAD,MAHARASHTRA
STBP0000863,State Bank of Patiala,STBP0000863,,HARIANA,"NEAR BAWA AUTOS,VILL+PO-HARIANA-144208",01886-251499,HARIANA,HOSIARPUR,PUNJAB
STBP0000864,State Bank of Patiala,STBP0000864,,AMRITSAR CIVIL LINES,"J K TOWER, CIVIL LINES MALL ROAD AMRITSAR-143001",0183-5014635,AMRITSAR,AMRITSAR,PUNJAB
STBP0000865,State Bank of Patiala,STBP0000865,,AMRITSAR CHHEHRATTA,"G T ROAD, AMRITSAR(CHHEHRATTA), DIST- AMRITSAR-143105",0183-2258040,AMRITSAR,AMRITSAR,PUNJAB
STBP0000866,State Bank of Patiala,STBP0000866,,"FARIDKOT,  GURU GOVIND SINGH MEDICAL COLLEGE","GURU GOVIND SINGH MEDICAL COLLEGE,SADIQ ROAD, FARIDKOT-151203",01639-250179,FARIDKOT,FARIDKOT,PUNJAB
STBP0000867,State Bank of Patiala,STBP0000867,,GHANAUR,"NEAR POLICE STATION,V&P.O.GHANAUR,TEHSIL RAJPURA,DISTT.PATIALA (PUNJAB),PIN-140702",01762-267022,GHANAUR,PATIALA,PUNJAB
STBP0000868,State Bank of Patiala,STBP0000868,,MADURAI,"109 VAKIL NEW STREET SIMMAKKAL, MADURAI-625001",0452-2325723,MADURAI,MADURAI,TAMIL NADU
STBP0000869,State Bank of Patiala,STBP0000869,,RAJKOT,"KRISHNA CON ARCH-2, 8 TO 14, FIRST FLOOR, TAGORE ROAD RAJKOT-360002",0281-2480234,RAJKOT,RAJKOT,GUJARAT
STBP0000870,State Bank of Patiala,STBP0000870,,RAIPUR,"OPP RAJKUMAR COLLEGE, G.E. ROAD, RAIPUR-492001",0771-2254701,RAIPUR,RAIPUR,CHHATTISGARH
STBP0000871,State Bank of Patiala,STBP0000871,,NASHIK,"CIDCO AMBADLINK ROAD, UPENDERNAGAR, SHRADHA COMPLEX, NASIK-422009",0253-2384718,NASHIK,NASHIK,MAHARASHTRA
STBP0000872,State Bank of Patiala,STBP0000872,,BATHINDA MILK PLANT,"VERKA MILK PLANT, DIST-BATHINDA -151001",0164-2212624,BATHINDA,BHATINDA,PUNJAB
STBP0000873,State Bank of Patiala,STBP0000873,,ADAMPUR,"MAIN HOSHIARPUR ROAD, ADAMPUR-144102",0181-2751424,ADAMPUR,JALANDHAR,PUNJAB
STBP0000874,State Bank of Patiala,STBP0000874,,MODEL TOWN JALANDHAR,"716, MODEL TOWN, NEAR RANA HOSPITAL, JALANDHAR-144003",0181-2463724,JALANDHAR,JALANDHAR,PUNJAB
STBP0000875,State Bank of Patiala,STBP0000875,,"URBAN ESTATE , JALANDHAR",SCF NO.33 URBAN STATE PHASE-II JALANDHAR-144001,0181-2463254,JALANDHAR,JALANDHAR,PUNJAB
STBP0000876,State Bank of Patiala,STBP0000876,,KHANNA,"A.S.COLLEGE FOR WOMEN,AMLOH ROAD,KHANNA,DISTT.LUDHIANA(PUNJAB),PIN-14141",01628-220725,KHANNA,LUDHIANA,PUNJAB
STBP0000877,State Bank of Patiala,STBP0000877,,VAPI,"SHOP NO.15-19, TIRUPATI PLAZA, VAPI DAMAN ROAD, CHALA, VAPI-398191",0260-2460377,VAPI,VALSAD,GUJARAT
STBP0000878,State Bank of Patiala,STBP0000878,,KHARGHAR,"SHOP NO.6-9, BHOOMI TOWER, PLOT NO.28, SECTOR-4, KHARGHAR, DIST-RAIGAD, PIN-410210",022-27742530,MUMBAI,GREATER BOMBAY,MAHARASHTRA
STBP0000879,State Bank of Patiala,STBP0000879,380007005,MID CORPORATE AHMEDABAD,"STATE BANK OF PATIALA, MID CORPORATE BRANCH, OPP. JAIN DEVASAR, NAVRANGPUR,AHMEDABAD",079-26448710,AHMEDABAD,AHMEDABAD,GUJARAT
STBP0000880,State Bank of Patiala,STBP0000880,,KARUR,"STATE BANK OF PATIALA, NO. 1044, KBS ARCADE, IST FLOOR, COVAI ROAD, KARUR-639002",04324-248797,KARUR,KARUR,TAMIL NADU
STBP0000882,State Bank of Patiala,STBP0000882,,RANCHI,"CHAMBERS BHAVAN KADROO MORE, MAIN ROAD RANCHI-834001",9470193952,RANCHI,RANCHI,JHARKHAND
STBP0000883,State Bank of Patiala,STBP0000883,,PINJORE,"194, NALAGARH ROAD, PINJORE, DISTT. PANCHKULA","01733-230212, 230222",PINJORE,PANCHKULA,HARYANA
STBP0000884,State Bank of Patiala,STBP0000884,,BARIWALA,"STATE BANK OF PATIALA V & PO BARIWALA, TEHSIL & DISTT.- MUKTSAR-152025",01633-275500,BARIWALA,MUKTSAR,PUNJAB
STBP0000885,State Bank of Patiala,STBP0000885,,"ST. STEPHEN SCHOOL, SECTOR-45","ST. STEPHEN SCHOOL, SECTOR-45, CHANDIGARH - 160047",0172-2648005,CHANDIGARH,CHANDIGARH,CHANDIGARH
STBP0000886,State Bank of Patiala,STBP0000886,,ISMAILBAD,"AMBALA-HISSAR ROAD, PASRICHA MARKET, ISMAILABAD-136129",01744-253600,ISMAILBAD,KURUKSHETRA,HARYANA
STBP0000887,State Bank of Patiala,STBP0000887,,INDRI,"AMAR MARKET, NEAR PATWAR KHANNA, INDRI",0184-2382855,INDRI,KARNAL,HARYANA
STBP0000893,State Bank of Patiala,STBP0000893,160007054,CHANDIGARH,"SCO-210, SEC-36D, CHANDIGARH",0172-2606010,CHANDIGARH,CHANDIGARH,CHANDIGARH
STBP0000894,State Bank of Patiala,STBP0000894,,UKLANA,"CHHABIL DAS COLONY, NEAR OLD MARVEL FACTORY, UKLANA",01693-235567,UKLANA,HISSAR,HARYANA
STBP0000895,State Bank of Patiala,STBP0000895,452007003,MID CORPORATE INDORE,"STATE BANK OF PATIALA MID CORPORATE BRANCH, ORBIT MALL, LOWER GROUND FLOOR,53 & 53A SCHEME NO.54 A B ROAD INDORE-452010",0731-4246392,INDORE,INDORE,MADHYA PRADESH
STBP0000896,State Bank of Patiala,STBP0000896,,AURANGABAD,"RAMDAS TOWER, PLOT NO-3 KALPATARU HOUSING SOCIETY GAJANAN  MANDIR TO CIDCO ROAD, GARKHEDA, AURANGABAD-431005",0240-2453235,AURANGABAD,AURANGABAD,MAHARASHTRA
STBP0000897,State Bank of Patiala,STBP0000897,416007002,KOLHAPUR,"STATE BANK OF PATIALA 14, SURVE COLONY, TARA BAI PARK, KOLHAPUR, MAHARASHTRA - 416 003",0231-2661160/40/30,KOLHAPUR,KOLHAPUR,MAHARASHTRA
STBP0000899,State Bank of Patiala,STBP0000899,,BHATTU KALAN,"SHOP-155, GRAIN MARKET, BHATTUKALAN",01667-252633,BHATTU KALAN,FATEHABAD,HARYANA
STBP0000900,State Bank of Patiala,STBP0000900,,GURGAON SOHNA ROAD,"SCO-30, JAIL COMPLEX, SOHNA ROAD, GURGAON-122001",0124-2300059,GURGAON,GURGAON,HARYANA
STBP0000909,State Bank of Patiala,STBP0000909,,KARNAL DNM HIGH SCHOOL,"DAYANAND MODEL HIGH SCHOOL,MELA RAM SCHOOL MARKET,MUGHAL CANAL,KARNAL-132001",0184-2268321,KARNAL,KARNAL,HARYANA
STBP0000917,State Bank of Patiala,STBP0000917,160007001,TANDA,"R P GOVT COLLEGE, TANDA-1761, DIST-KANGRA",01892-267230,KANGRA,KANGRA,HIMACHAL PRADESH
STBP0000918,State Bank of Patiala,STBP0000918,411007003,"BANER, PUNE","1,2,3, ADAMS COURT, BANER ROAD, BANER, PUNE – 411 045",020-27290888,PUNE,PUNE,MAHARASHTRA
STBP0000919,State Bank of Patiala,STBP0000919,395007003,"BHATAR ROAD, SURAT","1ST FLOOR, SHEETAL SHOPPING SQUARE, NEAR TURNING POINT, BHATAR ROAD,SURAT",9427302954,SURAT,SURAT,GUJARAT
STBP0000921,State Bank of Patiala,STBP0000921,NON MICR,BARAMATI,"STATE BANK OF PATIALA, 1,2, VIDYA CORNER, MIDC, BARAMATI-413133",02112-244323,BARAMATI,PUNE,MAHARASHTRA
STBP0000922,State Bank of Patiala,STBP0000922,560007005,"ELECTRONIC CITY, BANGALORE","STATE BANK OF PATIALA, ELECTRONIC CITY BRANCH, MEENAKSHI TOWERS, 1/43/2, SINGASANDRA, HOSUR MAIN ROAD, BANGALORE - 560 068",080 25743762,BANGALORE,BANGALORE URBAN,KARNATAKA
STBP0000923,State Bank of Patiala,STBP0000923,600007008,"AMBAL NAGAR, CHENNAI","9/1, POONTHAMALLE ROAD,AMBAL NAGAR, EKKATTUTHANGAL, CHENNAI – 600 032",044-2225481 FAX 044-22254815,CHENNAI,CHENNAI,TAMIL NADU
STBP0000924,State Bank of Patiala,STBP0000924,,MADHAPUR,"STATE BANK OF PATIALA  1-99/14, FIRST FLOOR, MAIN ROAD, MADHAPUR, HYDERABAD-500081",040-23111471,MADHAPUR,RANGAREDDY,ANDHRA PRADESH
STBP0000925,State Bank of Patiala,STBP0000925,141007018,GIASPURA LUDHIANA,"71,FAMEZ TOWER, GIASPURA, G.T.ROAD, LUDHIANA-141012",0161-2510224,LUDHIANA,LUDHIANA,PUNJAB
STBP0000926,State Bank of Patiala,STBP0000926,141007019,MODEL TOWN LUDHIANA,"SCO-12-13, MODEL TOWN EXTN.,D-BLOCK,DUGRI ROAD, LUDHIANA-141003",0161-2500563,LUDHIANA,LUDHIANA,PUNJAB
STBP0000928,State Bank of Patiala,STBP0000928,141007020,AGAR NAGAR LUDHIANA,"SCF 21-22, A-BLOCK, AGAR NAGAR FEROZEPUR ROAD,LUDHIANA-141012",0161-2550461,LUDHIANA,LUDHIANA,PUNJAB
STBP0000929,State Bank of Patiala,STBP0000929,NONMICR,VIDYUT NAGAR HISSAR,"SHOP NO. 1 TO 4, DBVNL SHOPPING COMPLEX, VIDYUT NAGAR, HISSAR-125005",01662-223053,HISAR,HISAR,HARYANA
STBP0000930,State Bank of Patiala,STBP0000930,110007064,"DWARKA, SECTOR 6, DELHI","PLOT NO.6, AGGARWAL DWARKA PLAZA, 1ST FLOOR, SECTOR -6 ,DWARKA,  NEW DELHI – 110 075 ",011-25071991/4774,DELHI,NEW DELHI,DELHI
STBP0000931,State Bank of Patiala,STBP0000931,160007056,SEC-40 CHANDIGARH,"GOVT. MODEL SENIOR SECONDARY SCHOOL, SEC-40 CHANDIGARH",0172-2691289,CHANDIGARH,CHANDIGARH,CHANDIGARH
STBP0000932,State Bank of Patiala,STBP0000932,NA,"NEW GRAIN MARKET, FAZILKA","SCF-66, NEW GRAIN MARKET, FAZILKA",01638-265452,FAZILKA,FEROZPUR,PUNJAB
STBP0000933,State Bank of Patiala,STBP0000933,110007065,"MID CORPORATE GROUP, GURGAON","91, IDC, 1ST FLOOR, M.G. ROAD, GURGAON","0124-2220990,220991GURGAON",GURGAON,GURGAON,HARYANA
STBP0000934,State Bank of Patiala,STBP0000934,NON-MICR,"MINI SECTT., ROHTAK","MINI SECTT. , ROHTAK – 124 001",01262-246483,ROHTAK,ROHTAK,HARYANA
STBP0000935,State Bank of Patiala,STBP0000935,151007040,AGRI CPC KOTKAPURA,"AGRI CENTRAL PROCESSING CENTRE, 1ST FLOOR, SATTA BAZAR, KOTKAPURA, FARIDKOT-151204",01635-228828,KOT KAPURA,FARIDKOT,PUNJAB
STBP0000949,State Bank of Patiala,STBP0000949,160007058,CHANDIGARH SECTOR-35C,"STATE BANK OF PATIALA SCO 439-440 SECTOR 35C ,CHANDIGARH-160022","0172-2603270,2660156",CHANDIGARH,CHANDIGARH,CHANDIGARH
STBP0000965,State Bank of Patiala,STBP0000965,NON-MICR,"DHURI,MALERKOTLA ROAD","MALERKOTLA ROAD,DHURI-148024,TEHSIL-DHURI,DIST-SANGRUR,PUNJAB",01675-225680,DHURI,SANGRUR,PUNJAB
STBP0000966,State Bank of Patiala,STBP0000966,,SIRHIND G.T.ROAD,G.T.ROAD SIRHIND DISTT FATEHGARH SAHIB,01763-229966,SIRHIND,FATEHGARH SAHIB,PUNJAB
STBP0000967,State Bank of Patiala,STBP0000967,NON-MICR,SHERPUR,VILL. SHERPUR POST SHERPUR TEHSIL DHURI DISTT SANGRUR PUNJAB,01675-234568,SANGRUR,SANGRUR,PUNJAB
STBP0000968,State Bank of Patiala,STBP0000968,NOT APPLICABLE,KOHARA,"STATE BANK OF PATIALA, OPPOSITE TELEPHONE EXCHANGE, MACHHIWARA ROAD, KOHARA,THE.& DIST-LUDHIANA",0161-2848335,KOHARA,LUDHIANA,PUNJAB
STBP0000969,State Bank of Patiala,STBP0000969,,PANCHKULA SECTOR 4,"SCO 40, SECTOR 4 PANCHKULA DISTT PANCHKULA HARYANA",0172-258077,PANCHKULA,PANCHKULA,HARYANA
STBP0000970,State Bank of Patiala,STBP0000970,NON-MICR,"ANAJ MANDI, FATEHABAD","BEHIND ANAJ MANDI, FATEHABAD",01667-225455,FATEHABAD,FATEHABAD,HARYANA
STBP0000971,State Bank of Patiala,STBP0000971,NON-MICR,"NEW MC MARKET, SIRSA","203-204, NEW M C MARKET, OLD CIVIL HOSPITAL ROAD, SIRSA",01666-235941,SIRSA,SIRSA,HARYANA
STBP0000974,State Bank of Patiala,STBP0000974,NOT APPLICABLE,KALANWALI,"STATE BANK OF PATIALA, PLOT NO 10,NEAR MARKET COMMITTEE, KALANWALI, DIST-SIRSA,HARYANA","01696-224224,224096",KALANWALI,SIRSA,HARYANA
STBP0000975,State Bank of Patiala,STBP0000975,NON-MICR,NARAINGARH,"NEAR PANJLASA CHOWK, SADHAURA ROAD NARAINGARH DISTT AMBALA HARYANA",,AMBALA,AMBALA,HARYANA
STBP0000976,State Bank of Patiala,STBP0000976,NOT APPLICABLE,BHOLATH,"STATE BANK OF PATIALA BHOLATH, DISTT. KAPURTHALA, PUNJAB-144622",01822-240009,BHOLATH,KAPURTHALA,PUNJAB
STBP0000977,State Bank of Patiala,STBP0000977,NOT APPLICABLE,MEHATPUR,"STATE BANK OF PATIALA MEHATPUR, DISTT. JALLANDHAR-144041",01821-251655,MAHATPUR,JALANDHAR,PUNJAB
STBP0000978,State Bank of Patiala,STBP0000978,NOT APPLICABLE,NARNAUL ROAD,"NARNAUL ROAD MOHINDERGARH,HARYANA -123029",01285-221100,MOHINDERGARH,MOHINDERGARH,HARYANA
STBP0000979,State Bank of Patiala,STBP0000979,110007074,DELHI-MODEL TOWN 1,"B 5/2 ,NEAR METRO STATION, MODEL TOWN 1,DELHI-110009",011-27232900,DELHI,DELHI,DELHI
STBP0000980,State Bank of Patiala,STBP0000980,NON-MICR,PAKHOWAL,"RAIKOT ROAD, OPP GRAIN MARKET,VILL & POST PAKHOWAL DISTT LUDHIANA PUNJAB",0161-2866662,LUDHIANA,LUDHIANA,PUNJAB
STBP0000981,State Bank of Patiala,STBP0000981,,KURUKSHETRA PIPLI ROAD,"NEAR PAYAL NURSING HOME, PIPLI ROAD KURUKSHETRA DISTT KURUKSHETRA HARYANA",,KURUKSHETRA,KURUKSHETRA,HARYANA
STBP0000983,State Bank of Patiala,STBP0000983,400007016,"CHEMBUR,MUMBAI","THE BUREAU, PLOT NO 447, R C MARG, M WARD,CHEMBUR-EAST,MUMBAI,PIN-400071",022-25298013,MUMBAI,GREATER BOMBAY,MAHARASHTRA
STBP0000984,State Bank of Patiala,STBP0000984,APPLIED,"BORIVALI ,MUMBAI","GANJAWALA RESIDENCY,GANJAWALA LANE,BORIVALI WEST,MUMBAI 400092",022-28945334/28919372/28914342,MUMBAI,GREATER BOMBAY,MAHARASHTRA
STBP0000985,State Bank of Patiala,STBP0000985,NON-MICR,GHUDDA,VILL. GHUDDA PO GHUDDA DISTT BATHINDA PUNJAB,0164-2425862,BATHINDA,BATHINDA,PUNJAB
STBP0000986,State Bank of Patiala,STBP0000986,NON-MICR,RAMSARA,"VILL. RAMSARA, P.O. RAMAN, TEH. TALWANDI SABO, DISTT. BATHINDA",01655-242561,RAMAN,BATHINDA,PUNJAB
STBP0000987,State Bank of Patiala,STBP0000987,NOT APPLICABLE,AJITWAL,"OPP TEELPHONE EXCHANGE,G T ROAD,AJITWAL-142053,DIST- MOGA,PUNJAB",01636-263133,AJITWAL,MOGA,PUNJAB
STBP0000988,State Bank of Patiala,STBP0000988,NOT APPLICABLE,BAJAKHANA,"BARNALA ROAD,VPO- BAJAKHANA, DIST-FARIDKOT",01635-246140,BAJAKHANA,FARIDKOT,PUNJAB
STBP0000989,State Bank of Patiala,STBP0000989,NON-MICR,"ABOHAR,JAIN NAGAR","JAIN NAGAR,ABOHAR,DIST-FEROZPUR,PUNJAB",01634-220615,ABOHAR,FEROZPUR,PUNJAB
STBP0000990,State Bank of Patiala,STBP0000990,NON-MICR,NABHA-PATIALA ROAD,"OPP LIC OFFICE,PATIALA  ROAD,NABHA,DIST-PATIALA,PUNJAB,PIN-147201",01765-223336,NABHA,PATIALA,PUNJAB
STBP0000991,State Bank of Patiala,STBP0000991,126007991,"SAFIDON,OPP GOVT SR SEC SCHOOL","MUNICIPAL  COMMITTEE AREA,OPP GOVT SR SEC SCHOOL, SAFIDON-126112 DIST-JIND,HARYANA",01686-262253,SAFIDON,JIND,HARYANA
STBP0000992,State Bank of Patiala,STBP0000992,NON-MICR,NANGAL KALAN-TAHLIWAL,"VPO-TAHLIWAL,TEHSIL-HARSOLI,DIST-UNA,HIMACHAL PRADESH",01975-257392,TAHLIWALA,UNA,HIMACHAL PRADESH
STBP0000995,State Bank of Patiala,STBP0000995,110007067,GURGAON -KHANDSA ROAD,"SCO-72,SECTOR,10-A MARKET,KHANDSA ROAD,GURGAON-122001,DIST-GURGAON,HARYANA",0124-4141830,KHANDSA,GURGAON,HARYANA
STBP0001000,State Bank of Patiala,STBP0001000,NON-MICR,BHIWADI,"A-96 H, NEELAM CHOWK,BHIWADI-301019,DIST-ALWAR,RAJASTHAN",01493-226338,BHIWADI,ALWAR,RAJASTHAN
STBP0001012,State Bank of Patiala,STBP0001012,NOT APPLICABLE,"IBBAN,PTU","KAPURTHALA,JALANDHAR ROAD,NEAR PTU,IBBAN,DISTT.-KAPURTHALA",01822-255009,IBBAN,KAPURTHALA,PUNJAB
STBP0001013,State Bank of Patiala,STBP0001013,NON-MICR,LANDRA,"KHARAR-BANUR ROAD,NEAR MAIN BUS STAND,VPO-LANDRAN,DIST-SAS NAGAR,PUNJAB-140307",0160-2252146,LANDRAN,RUPNAGAR,PUNJAB
STBP0001014,State Bank of Patiala,STBP0001014,400007017,KANDIVALI,"SHOP NO.1-5,GND FLOOR,ANITA ACCORD,LOKHANDVALA COMPLEX,MHADA LAYOUT,AKURLI ROAD,KANDIVALI EAST,MUMBAI-400101",022-29660037,MUMBAI,GREATER BOMBAY,MAHARASHTRA
STBP0001015,State Bank of Patiala,STBP0001015,NON-MICR,"HARDWAR,SHIVALIK NAGAR","D-23,SHIVALIK NAGAR, HARDWAR, DISTT HARDWAR UTTRAKHAND",01334-231808,HARDWAR,HARIDWAR,UTTARAKHAND
STBP0001016,State Bank of Patiala,STBP0001016,110007069,"GHAZIABAD, SHASHTRI NAGAR","SI-7,SHASHTRI NAGAR GHAZIABAD,UP",0120-2705183,GHAZIABAD,GHAZIABAD,UTTAR PRADESH
STBP0001017,State Bank of Patiala,STBP0001017,160007062,"CHANDIGARH,SECTOR-19 C","SCO NO. 21-22, SECTOR 19-C CHANDIGARH 160019",0172-2724910,CHANDIGARH,CHANDIGARH,CHANDIGARH
STBP0001018,State Bank of Patiala,STBP0001018,160007063,"MOHALI,SECTOR-67","NIPER, SECTOR-67, MOHALI,DIST-SAS NAGAR,PUNJAB,PIN-160062",0172-2232363,SAS NAGAR(MOHALI),RUPNAGAR,PUNJAB
STBP0001019,State Bank of Patiala,STBP0001019,110007070,"ALPHA 1,GREATER NOIDA","KAISONS ALPHA SQUARE,A-3,ALPHA COMMERCIAL BELT,ALPHA-1,GREATER NOIDA,PIN-201308",0120-2396150,NOIDA,GAUTAM BUDDHA NAGAR,UTTAR PRADESH
STBP0001020,State Bank of Patiala,STBP0001020,110007071,"JASOLA,NEW DELHI","48,POCKET 1,1ST FLOOR,JASOLA,NEW DELHI,PIN-110025",011-29947562,DELHI,DELHI,DELHI
STBP0001021,State Bank of Patiala,STBP0001021,110007072,NOIDA SECTOR 63,"H-1,A-7,SECTOR-63,DIST-GAUTAM BUDH NAGAR,NOIDA- 201301,UP",0120-2427120,NOIDA,GAUTAM BUDDHA NAGAR,UTTAR PRADESH
STBP0001022,State Bank of Patiala,STBP0001022,APPLIED,"TALWANDI, KOTA","1-A-3, TALWANDI, IL CHORAHA, KOTA, RAJASTHAN 324005","9462728460, 0744 2500224(FAX)",KOTA,KOTA,RAJASTHAN
STBP0001023,State Bank of Patiala,STBP0001023,110007073,MANESAR,"AMARPALI COPORATE CENTRE,GROUND FLOOR,BLOCK-J,SECTOR 2,IMT MANESAR,DIST-GURGAON,PIN-122050",0124-2291223,MANESAR,GURGAON,HARYANA
STBP0001024,State Bank of Patiala,STBP0001024,151007014,BATHINDA-PB,"SCO NO.11-12,URBANESTATE,PHASE-2,BHATINDA-151001,PUNJAB",0164-2240251,BATHINDA,BATHINDA,PUNJAB
STBP0001025,State Bank of Patiala,STBP0001025,APPLIED,FARIDKOT MINI SECRETARIATE,"FARIDKOT MINI SECRETARIATE,PUNJAB",01639 253188,FARIDKOT,FARIDKOT,PUNJAB
STBP0001026,State Bank of Patiala,STBP0001026,NOT APPLICABLE,MANSA- NEW COURT COMPLEX," NEW COURT COMPLEX, COURT ROAD,MANSA- 151505",01652-232146,MANSA,MANSA,PUNJAB
STBP0001027,State Bank of Patiala,STBP0001027,APPLIED,NADALA,"DHILWAN ROAD,VPO NADALA,DISTT KAPURTHALA",01822 270200,NADALA,KAPURTHALA,PUNJAB
STBP0001028,State Bank of Patiala,STBP0001028,APPLIED,JAMSHER KHAS,"V PO JAMSHER KHAS, TEHSIL DIST JALANDHAR, PUNJAB, PIN 144020",0181 2775776,JALANDHAR,JALANDHAR,PUNJAB
STBP0001029,State Bank of Patiala,STBP0001029,APPLIED,AJNALA,"CHOGWAN ROAD, AJNALA, DISTT  AMRITSAR, PUNJAB, PIN 143102 ","01858 220080,220079",AJNALA,AMRITSAR,PUNJAB
STBP0001030,State Bank of Patiala,STBP0001030,110007074,BHIKHIWIND,"KHEM KARAN ROAD,VPO BHIKHIWIND,TEHSIL-PATTI,PIN-143003",01851-273291,BHIKIWIND,AMRITSAR,PUNJAB
STBP0001031,State Bank of Patiala,STBP0001031,APPLIED,KHEMKARAN,"MAIN BAZAR, VPO KHEMKARAN,TEHSIL PATTI, DISTT. TARAN TARAN, PIN 143419","01851 268085, 268086",KHEM KARAN,AMRITSAR,PUNJAB
STBP0001032,State Bank of Patiala,STBP0001032,APPLIED,SAMBA,"OPPOSITE BHARGAWA DEGREE COLLEGE, NATIONAL HIGHWAY,SAMBA, TEHSIL DISTT. SAMBA, PIN 184121",,SAMBA,SAMBA,JAMMU & KASHMIR
STBP0001033,State Bank of Patiala,STBP0001033,NA,SHAM CHAURASI,"VPO SHAM CHAURASI, DISTT HOSHIARPUR,PUNJAB,PIN 144102",01882 263101,SHAM CHAURASI,HOSHIARPUR,PUNJAB
STBP0001047,State Bank of Patiala,STBP0001047,APLLIED,JANDLI KHURD,"FATEHABAD ROAD, V & PO JANDLI KHURD, DIST. FATEHABAD, HARYANA 125111",01667 255425,FATEHABAD,FATEHABAD,HARYANA
STBP0001048,State Bank of Patiala,STBP0001048,APPLIED,BANBHORI,"JAI MATA NURSING SCHOOL COLLEGE COMPLEX, VPO BANBHORI,TEHSIL BARWALA,DISTT  HISSAR, HARYANA, PIN 125122 ",,BARWALA,HISAR,HARYANA
STBP0001049,State Bank of Patiala,STBP0001049,APPLIED,TALWANDI BUTIAN,"VPO TALWANDI BUTIAN, TEHSIL SHAHKOT, DISTT. JALANDHAR, PUNJAB, PIN 144702",01821 275007,SHAHKOT,JALANDHAR,PUNJAB
STBP0001061,State Bank of Patiala,STBP0001061,APPLIED,KHARKARA,"VPO- KHARKARA, TEHSIL  GUHLA, DISTT  KAITHAL, HARYANA, PIN 136034 ",01743 236128,KHARKARA,ROHTAK,HARYANA
STBP0001062,State Bank of Patiala,STBP0001062,APPLIED,ADHOYA,"VILLAGE ADHOYA, PO DIWANA, TEHSIL PEHOWA, DIST KURUKSHETRA, HARYANA, PIN 136128",01741 275101,PEHOWA,KURUKSHETRA,HARYANA
STBP0001063,State Bank of Patiala,STBP0001063,APPLIED,BOHATWALA,"JIND ROAD, VILL. BOHATWALA, PO DALAMWALA, TEHSIL DISTT. JIND, HARYANA, PIN 126102",01681 285162,JIND,JIND,HARYANA
STBP0001064,State Bank of Patiala,STBP0001064,APPLIED,RED HILLS,"GNT ROAD, RED HILLS, CHENNAI VIJAYWADA ROAD, TEHSIL AMBATTUR, DIST THIRUVALLUR, TAMILNADU, PIN 600052",044 26310185,AMBATTUR,THIRUVALLUR,TAMIL NADU
STBP0001066,State Bank of Patiala,STBP0001066,500 007 005,SHAMSHABAD,"NO 20-114/3, RB NAGAR, SHAMSHABAD, DIST RANGA REDDY, ANDHRA PRADESH, PIN 501218",08413 223471,SHAMSHABAD,RANGAREDDY,ANDHRA PRADESH
STBP0001067,State Bank of Patiala,STBP0001067,APPLIED,SULAR GHARAT,"VPO SULAR GHARA,SANGRUR PATRAN MAIN ROAD,TEH SUNAM,DISTT SANGRUR,PIN 148035",01676 238740,SULARGHRAT,SANGRUR,PUNJAB
STBP0001068,State Bank of Patiala,STBP0001068,APPLIED,NAMOL,"GURUDWARA NANAK PURI, LONGOWAL ROAD, NAMOL,TEHSIL SUNAM,DISTT. SANGRUR,PUNJAB, PIN 148106",01676 286116,SUNAM,SANGRUR,PUNJAB
STBP0001069,State Bank of Patiala,STBP0001069,APPLIED,LOHGARH,"MEHAL KALAN CHHAPA ROAD,VILLAGE  LOHGARH, PO MITHEWAL, TEHSIL BARNALA, DISTT BARNALA,PUNJAB,PIN 148020",01679 221005,BARNALA,SANGRUR,PUNJAB
STBP0001070,State Bank of Patiala,STBP0001070,APPLIED,NARUR,"VPO-NARUR,TEHSIL  PHAGWARA,DISTT  KAPURTHALA,PUNJAB, PIN 144405",01824 243038,PHAGWARA,KAPURTHALA,PUNJAB
STBP0001071,State Bank of Patiala,STBP0001071,APPLIED,SAKETRI,"OPPOSITE WATER TANK, VILLAGE SAKETRI, PO BHAINSA TIBBA, TEHSIL DISTT. PANCHKULA, HARYANA, PIN 134109",0172 2555051,PANCHKULA,PANCHKULA,HARYANA
STBP0001072,State Bank of Patiala,STBP0001072,APPLIED,SHAHJADPUR,"PLOT NO 1234-AB, OPP. REDDISH RESTAURANT, VPO SHAHJADPUR,TEHSIL  NARAINGARH, DISTT  AMBALA, HARYANA, PIN 134002  ",01734 277173,NARAINGARH,AMBALA,PUNJAB
STBP0001073,State Bank of Patiala,STBP0001073,APPLIED,BEHRAMPUR BET,"ROPAR MACHHIWARA ROAD,VPO BEHRAMPUR BET,TEHSIL  CHAMKAUR SAHIB, DIST  RUPNAGAR,PUNJAB,PIN 140111","01881 268200, 268400",BEHRAMPUR BET,RUPNAGAR,PUNJAB
STBP0001074,State Bank of Patiala,STBP0001074,APPLIED,BHUMPTI,"SHIVALAYA CHOWK,VPO  BHUMPTI,TEHSIL  ARKI,DIST  SOLAN,HIMACHAL PRADESH,PIN 173221","01796 238333,238344",ARKI,SOLAN,HIMACHAL PRADESH
STBP0001075,State Bank of Patiala,STBP0001075,APPLIED,RAJGARH,"UCHHBU COMPLEX, MAIN BAZAR, RAJGARH, DISTT. SIRMAUR, HIMACHAL PRADESH, PIN 173101",01799 220600,RAJGARH,SIRMAUR,HIMACHAL PRADESH
STBP0001076,State Bank of Patiala,STBP0001076,APPLIED,THEOG,"PREM GHAT,PO THEOG, TEHSIL THEOG,DISTT. SHIMLA,HIMACHAL PRADESH,PIN 171201",01783 238911,THEOG,SIMLA,HIMACHAL PRADESH
STBP0001077,State Bank of Patiala,STBP0001077,APPLIED,SHAMSHI,"NATIONAL HIGHWAY 21,CHANDIGARH MANALI ROAD,VPO SHAMSHI,TEHSIL KULLU, DIST  KULLU,HIMACHAL PRADESH,PIN 175126",01902 266457,SHAMSHI,KULU,HIMACHAL PRADESH
STBP0001078,State Bank of Patiala,STBP0001078,APPLIED,AITIANA,"VPO AITIANA,TEHSIL RAIKOT,DISTT LUDHIANA 141107",098155 99490,RAIKOT,LUDHIANA,PUNJAB
STBP0001079,State Bank of Patiala,STBP0001079,NON MICR,KADDON,"KADDON PAYAL RD, NEAR MOBILE TRANSMISSION TOWER, VILL KADDON, TEHSIL PAYAL, DIST LUDHIANA, PIN 141421",01628 258476,PAYAL,LUDHIANA,PUNJAB
STBP0001080,State Bank of Patiala,STBP0001080,APPLIED,SOHIAN,"JAGRAON  MOGA ROAD, VPO  SOHIAN,TEHSIL  JAGRAON, DISTT LUDHIANA, PUNJAB ",01624 234011,JAGRAON,LUDHIANA,PUNJAB
STBP0001081,State Bank of Patiala,STBP0001081,APPLIED,DEHLON,"LUDHIANA  MALERKOTLA ROAD, VPO  DEHLON, TEHSIL  LUDHIANA, DISTT  LUDHIANA, PUNJAB, PIN 141418 ",0161 2850034,DEHLON,LUDHIANA,PUNJAB
STBP0001082,State Bank of Patiala,STBP0001082,APPLIED,CHAND BHAN,"VPO CHAND BHAN,TEHSIL JAITU,DISTT FARIDKOT 151202",01635 235598,JAITU,FARIDKOT,PUNJAB
STBP0001083,State Bank of Patiala,STBP0001083,APPLIED,KALA TIBBA,"VPO KALA TIBBA,TEHSIL ABOHAR,DISTT FEROZEPUR 152116",01634 230987,ABOHAR,FEROZPUR,PUNJAB
STBP0001084,State Bank of Patiala,STBP0001084,NA,ABLU,"VPO ABLU,TEH DISTT BHATINDA",0164 2765020,BATHINDA,BATHINDA,PUNJAB
STBP0001085,State Bank of Patiala,STBP0001085,APPLIED,DYALPURA BHAIKA,"NEAR GRAIN MARKET,VPO DYALPURA BHAIKA,TEHSIL RAMPURAPHUL,DISTT BATHINDA 151108",01651 235410,RAMPURA PHUL,BATHINDA,PUNJAB
STBP0001086,State Bank of Patiala,STBP0001086,APPLIED,RAIYA,"NEAR BUS STOP,VPO RAIYA,TEHSIL RAMPURAPHUL,DISTT BATHINDA",01651 241124,RAMPURA PHUL,BATHINDA,PUNJAB
STBP0001087,State Bank of Patiala,STBP0001087,APPLIED,JHINGAR KALAN,"V PO JHINGAR KALAN, ADDA GARNA SAHIB, PATHANKOT ROAD, TEHSIL DASUYA, DIST HOSHIARPUR PUNJAB, PIN 144205",01883 251021,DASUYA,HOSHIARPUR,PUNJAB
STBP0001089,State Bank of Patiala,STBP0001089,APPLIED,KHANIAN,"AMLOH ROAD, VILLAGE  KHANIAN, PO AMLOH, TEHSIL  AMLOH, DISTT  FATEHGARH SAHIB, PUNJAB, PIN 147203 ",01765 233027,AMLOH,FATEHGARH SAHIB,PUNJAB
STBP0001090,State Bank of Patiala,STBP0001090,APPLIED,HAMIRGARH,"STATION ROAD,NEAR BUS STAND,HAMIRGARH ,TEHSIL HAMIRGARH,DIST. BHILWARA,RAJASTHAN,PIN 311025",01482 286040,HAMIRGARH,BHILWARA,RAJASTHAN
STBP0001091,State Bank of Patiala,STBP0001091,NOT APPLICABLE,GULABPURA,"KUMHAR MOHALA,SADDAR BAZAR,GULABPURA,DISTT BHILWARA,PIN 311021",01483 223050,GULABPURA,BHILWARA,RAJASTHAN
STBP0001092,State Bank of Patiala,STBP0001092,APPLIED,KARWAR,"RAJASTHAN AYURVED UNIVERSITY,NAGAUR ROAD,KARWAR,DIST JODHPUR,RAJASTHAN,PIN  342037",,KARWAR,BUNDI,RAJASTHAN
STBP0001093,State Bank of Patiala,STBP0001093,APPLIED,TIJARA,"WARD NO 12, G F NEAR OLD BUS STAND, OPP. IRRIGATION DEPTT REST HOUSE, TIJARA, DISTT  ALWAR, RAJASTHAN, PIN 301411 ",,TIJARA,ALWAR,RAJASTHAN
STBP0001094,State Bank of Patiala,STBP0001094,NOT APPLICABLE,MANDAL,"NEAR PETROL PUMP,OPPOSITE BALVIDYA MANDIR,BAEWER ROAD,MANDAL,DISTT BHILWARA",01486 266133,MANDAL,BHILWARA,RAJASTHAN
STBP0001095,State Bank of Patiala,STBP0001095,APPLIED,SISAR KHAS,"SISAR KHAS, TEHSIL MEHAM, DISTT. ROHTAK, HARYANA, PIN 124121",01257 234046,MEHAM,ROHTAK,HARYANA
STBP0001096,State Bank of Patiala,STBP0001096,APPLIED,DABLI RATHAN,"OPP. NEW GRAIN MARKET,DABLI RATHAN,TEHSIL HANUMANGARH,DISTT. HANUMANGARH,RAJASTHAN,PIN 355801",01552 283006,HANUMANGARH,HANUMANGARH,RAJASTHAN
STBP0001097,State Bank of Patiala,STBP0001097,APPLIED,SANGRIA,"COURT ROAD,SANGRIA,DIST  HANUMANGARH,RAJASTHAN",01499 222158,SANGARIA,HANUMANGARH,RAJASTHAN
STBP0001098,State Bank of Patiala,STBP0001098,APPLIED,BHADRA,"SAHWA ROAD,OPP. GANDHI PARK,BHADRA,DIST.HANUMANGARH,RAJASTHAN,PIN  335501",01504 224098,BHADRA,HANUMANGARH,RAJASTHAN
STBP0001099,State Bank of Patiala,STBP0001099,APPLIED,BIGHAPUR,"PATEL BHAWAN, VPO BIGHAPUR,TEHSIL  BIGHAPUR, DISTT  UNNAO, U.P, PIN 229503 ",05142 246779,BIGHAPUR,UNNAO,UTTAR PRADESH
STBP0001100,State Bank of Patiala,STBP0001100,APPLIED,POWAYAN,"POWAYAN SHAHJAHANPUR ROAD, POWAYAN, DISTT SHAHJAHANPUR, U.P, PIN 242401 ",,POWAYAN,SHAJAHANPUR,UTTAR PRADESH
STBP0001101,State Bank of Patiala,STBP0001101,APPLIED,MANDI LADHUKA,"V PO MANDI LADHUKA, TEHSIL FAZILKA,DIST  FEROZEPUR,PUNJAB,PIN 152123",01638 221763,LADHUKA MANDI,FEROZPUR,PUNJAB
STBP0001102,State Bank of Patiala,STBP0001102,APPLIED,FATEHGARH PANJTOOR,"DHARAMKOT ROAD,V PO FATEHGARH,PANJTOOR-,TEHSIL ZIRA,DISTT. MOGA,PUNJAB,PIN 142051","01682 269098, 269099",FATEHGARH PUNJTUR,MOGA,PUNJAB
STBP0001103,State Bank of Patiala,STBP0001103,APPLIED,MAMDOT,"KAILASH MARKET,MAIN ROAD,VPO MAMDOT,,TEHSIL  DISTT. FEROZPUR,PUNJAB,PIN 152023","01632 262140, 262141",MAMDOT,FEROZPUR,PUNJAB
STBP0001104,State Bank of Patiala,STBP0001104,APPLIED,SARSAWA,"OPP BHARAT PETROLEUM PUMP, AMBALA ROAD, SARSAWA, TEHSIL  NAKUR, DISTT SAHARANPUR, UP, PIN 247232",01331 244488,SARSAWA,LAKHIMPUR KHERI,UTTAR PRADESH
STBP0001105,State Bank of Patiala,STBP0001105,APPLIED,CHHUTMALPUR,"NEAR MUSKAN PALACE, CHHUTMALPUR, TEHSIL  CHHUTMALPUR, DISTT SAHARANPUR, UP ,PIN 247662 ",0132 781166,CHUTMALPUR,SAHARANPUR,UTTAR PRADESH
STBP0001106,State Bank of Patiala,STBP0001106,APPLIED,DHAMPUR,"OPP TEACHERS COLONY, KALAGARH ROAD, DHAMPUR, TEHSIL  DHAMPUR, DISTT BIJNOR, UP, PIN 246761",01344 220156,DHAMPUR,BIJNOR,UTTAR PRADESH
STBP0001107,State Bank of Patiala,STBP0001107,APPLIED,TEONA,"BUS STAND ROAD,V PO  TOENA,TEHSIL  DIST. BATHINDA,PIN 151001","0164 2428003, 2428004",BATHINDA,BATHINDA,PUNJAB
STBP0001108,State Bank of Patiala,STBP0001108,APPLIED,TIBBI,"NEAR BUS STAND,TIBBI,DIST. HANUMANGARH,RAJASTHAN,PIN 335526",01539 224301,TIBBI,HANUMANGARH,RAJASTHAN
STBP0001109,State Bank of Patiala,STBP0001109,APPLIED,KEYLONG,"VILLAGE KEYLONG,POST KEYLONG,TEHSIL LAHOUL,DISTT. LAHOUL SPITI,HIMACHAL PRADESH,PIN 175132",01900 222301,KEYLONG,LAHUL & SPITI,HIMACHAL PRADESH
STBP0001110,State Bank of Patiala,STBP0001110,APPLIED,SHAHPUR,"VPO SHAHPUR,NEAR TEHSIL OFFICE,DISTT. KANGRA,HIMACHAL PRADESH,PIN 176206",01892 238138,SHAHPUR,KANGRA,HIMACHAL PRADESH
STBP0001112,State Bank of Patiala,STBP0001112,APPLIED,NATHDWARA,"TEHSIL ROAD, NEAR BUS STAND, NATHDWARA, DIST RAJSAMAND, RAJASTHAN, PIN 313301",02953 230050,NATHDWARA,RAJSAMAND,RAJASTHAN
STBP0001113,State Bank of Patiala,STBP0001113,APPLIED,RAYLA,"BUS STAND, NEAR RAILWAY CROSSING, VPO RAYLA, TEH BANERA, DIST BHILWARA, RAJASTHAN, PIN 311024",01487 273033,BHILWARA,BHILWARA,RAJASTHAN
STBP0001114,State Bank of Patiala,STBP0001114,APPLIED,JHANWAR,"JATABAS, VPO JHANWAR, PAL ROAD, TEHSIL LUNI, DISTT. JODHPUR, RAJASTHAN, PIN 340001",02931 275811,JHANWAR,JODHPUR,RAJASTHAN
STBP0001115,State Bank of Patiala,STBP0001115,APPLIED,BHOPALGARH,"NEHRU CHOWK, OPP. PANCHYAT SAMITI, BHOPALGARH, DISTT. JODHPUR, RAJASTHAN, PIN 342603",02920 222029,BHOPALGARH,JODHPUR,RAJASTHAN
STBP0001116,State Bank of Patiala,STBP0001116,APPLIED,KHAIRTHAL,"OPPOSITE PARSURAM, BHAWAN MATOUR ROAD, KHAIRTHAL,TEH KISHANGARH, DIST ALWAR, RAJASTHAN, PIN 301404",,KHAIRTHAL,ALWAR,RAJASTHAN
STBP0001117,State Bank of Patiala,STBP0001117,APPLIED,CHARKHI DADRI,"CHARKHI DADRI, ROHTAK ROAD, HARYANA 127306",01250 221528,CHARKHI DADRI,BHIWANI,HARYANA
STBP0001118,State Bank of Patiala,STBP0001118,APPLIED,MARDAN HERI,"NEAR BUS STAND, VILL. MARDAN HERI, PO DAKALA, TEHSIL PATIALA, DISTT. PATIALA, PUNJAB, PIN 147001",0175 2230063,DAKALA,PATIALA,PUNJAB
STBP0001119,State Bank of Patiala,STBP0001119,131071119,"NEW GRAIN MARKET, GOHANA","SHOP NO 63, NEW GRAIN MARKET, GOHANA,DISTT. SONIPAT,HARYANA",01263 257011,GOHANA,SONIPAT,HARYANA
STBP0001120,State Bank of Patiala,STBP0001120,APPLIED,TEHRI,"T 12, BURARI ROAD, NEW TEHRI 249001, DISTT. TEHRI GARHWAL, UTTARAKHAND, PIN 249001",,TEHRI,TEHRI GARHWAL,UTTARAKHAND
STBP0001121,State Bank of Patiala,STBP0001121,APPLIED,PAURI,"NEW VIKAS COLONY, SRINAGAR ROAD, PAURI, DISTT. GARHWAL, PIN 246001",,PAURI,GARHWAL,UTTARAKHAND
STBP0001122,State Bank of Patiala,STBP0001122,APPLIED,UTTARKASHI,"OPPOSITE PETROL PUMP, NEAR BUS STAND, BHATWARI ROAD, UTTARKASHI, UTTARKASHI, PIN 249193",,UTTARKASHI,UTTAR KASHI,UTTARAKHAND
STBP0001123,State Bank of Patiala,STBP0001123,APPLIED,BAWANI KHERA,"OPP DHARMBIR DEPTO, MAIN ROAD, BARWANI KHERA, HARYANA, PIN 127032",01254 233133,BAWANI KHERA,BHIWANI,HARYANA
STBP0001124,State Bank of Patiala,STBP0001124,APPLIED,SIALBA,"KHIJRABAD ROAD, VILL. SIALBA, PO SIALBA MAJRI, TEHSIL KHARAR, DISTT. SAS NAGAR, PUNJAB, PIN 140110","0160 2643003,2643004",KHARAR,RUPNAGAR,PUNJAB
STBP0001125,State Bank of Patiala,STBP0001125,APPLIED,RAWATSAR,"SHOP NO 39, NEW GRAIN MARKET, RAWATSAR, DISTT. HANUMANGARH, RAJASTHAN",01537 231222,RAWATSAR,HANUMANGARH,RAJASTHAN
STBP0001126,State Bank of Patiala,STBP0001126,APPLIED,NOHAR,"HISSARIA COMPLEX, NEAR JAJU HOSPITAL, MAIN ROAD, RANI BAZAR, NOHAR, DISTT. HANUMANGARH, RAJASTHAN",01555 221711,NOHAR,HANUMANGARH,RAJASTHAN
STBP0001127,State Bank of Patiala,STBP0001127,APPLIED,GOSAINGANJ,"PLOT NO 476, SANKALP FILLING STATION, NH 56, GOSAINGANJ, DISTT. LUCKNOW, U.P., PIN 227125",,GOSAINGANJ,LUCKNOW,UTTAR PRADESH
STBP0001128,State Bank of Patiala,STBP0001128,APPLIED,BACHHRAWAN,"NEAR GUPTA FILLING STATION, ALLAHABAD ROAD, BACHHRAWAN, DISTT. RAI BARELI, U.P., PIN 229301",0535 2636626,BACHHRAWAN-BACHHRAWAN TQ,RAI BARELI,UTTAR PRADESH
STBP0001129,State Bank of Patiala,STBP0001129,APPLIED,SIDHAULI,"172, NAROTTAM NAGAR, SIDHAULI, DISTT. SITAPUR, U.P.,PIN 261303",,SIDHAULI,SITAPUR,UTTAR PRADESH
STBP0001130,State Bank of Patiala,STBP0001130,APPLIED,SANGHOL,"VPO SANGHOL, TEHSIL KHAMANO, DISTT. FATEHGARH SAHIB, PUNJAB, PIN 141128",01628 255633,SANGOL,FATEHGARH SAHIB,PUNJAB
STBP0001131,State Bank of Patiala,STBP0001131,APPLIED,NINDANA,"NEAR TATA TOWER, NINDANA, TEHSIL MEHAM, DISTT. ROHTAK, HARYANA, PIN 124513",01257 276333,MEHAM,ROHTAK,HARYANA
STBP0001132,State Bank of Patiala,STBP0001132,APPLIED,KHALINI,"THAKUR NIWAS,NEAR SHIMLA PUBLIC SCHOOL,KHALINI,SHIMLA,HIMACHAL PRADESH, PIN 171002",0177 2623502,SIMLA,SIMLA,HIMACHAL PRADESH
STBP0001133,State Bank of Patiala,STBP0001133,APPLIED,NAURA,"AMLOH ROAD, VILL. NAURA, PO DANDRALA DHINDSA, TEHSIL NABHA, DISTT. PATIALA, PUNJAB, PIN 147201",01765 266366,DHANDRALA DHINDSAN,PATIALA,PUNJAB
STBP0001134,State Bank of Patiala,STBP0001134,NON-MICR,SARKAGHAT,"VPO SARKAGHAT,TEHSIL SARKAGHAT, DISTT. MANDI,HIMACHAL PRADESH, PIN 175024",01905 230539,SARKAGHAT,MANDI,HIMACHAL PRADESH
STBP0001135,State Bank of Patiala,STBP0001135,NON-MICR,AMRITSAR,"NEAR ARTS BLOCK,GURU NANAK DEV UNIVERSITY CAMPUS,AMRITSAR","0183 2450042,2450082",AMRITSAR,AMRITSAR,PUNJAB
STBP0001136,State Bank of Patiala,STBP0001136,APPLIED,"CCPC,AMRITSAR","FIRST FLOOR,EAST MOHAN NAGAR, AMRITSAR-143001",0183-2582032,AMRITSAR,AMRITSAR,PUNJAB
STBP0001141,State Bank of Patiala,STBP0001141,APPLIED,KHAWANGI,"VILLAGE PO KHAWANGI, TEHSIL KALPA, DIST KINNAUR, PIN 172107, KIMACHAL PRADESH","01786 223951, 9805350053",KALPA,KINNAUR,HIMACHAL PRADESH
STBP0001142,State Bank of Patiala,STBP0001142,NON-MICR,ALMORA,"MUNICIPAL COMMITTEE SHOPPING COMPLEX,MALL ROAD,ALMORA,UTTARAKHAND,PIN 263601",05962 233166,ALMORA,ALMORA,UTTARAKHAND
STBP0001143,State Bank of Patiala,STBP0001143,NON-MICR,GOPESHWAR CHAMOLI,"NAGAR PALIKA BUILDING, NEAR PETROL PUMP,MANDAL ROAD,CHAMOLI GOPESHWAR,DISTT. CHAMOLI,PIN 246401",01372 251090,GOPESHWAR CHAMOLI,CHAMOLI,UTTARAKHAND
STBP0001144,State Bank of Patiala,STBP0001144,NON-MICR,RUDRAPRAYAG,"BADRINATH ROAD, RUDRAPRAYAG,UTTARAKHAND, PIN 246171",01364 233518,RUDRAPRAYAG,RUDRAPRAYAG,UTTARAKHAND
STBP0001145,State Bank of Patiala,STBP0001145,APPLIED,BANIKHET,"VPO BANIKHET, TEH DALHOUSIE, DIST CHAMBA, PIN 176303","01899 254466,254477,  9805502842",BANIKHET,CHAMBA,HIMACHAL PRADESH
STBP0001146,State Bank of Patiala,STBP0001146,APPLIED,KHUDI KALAN,"PANCHAYAT BUILDING, NEAR GOVT PRIMARY SCHOOL, VPO KHUDI KALAN,TEHSIL BARNALA,DISTT BARNALA,PUNJAB,PIN 148107",01679 285092,BARNALA,SANGRUR,PUNJAB
STBP0001147,State Bank of Patiala,STBP0001147,APPLIED,MANALI,"1ST FLOOR,GOVINDA SHOPING COMPLEX,OLD MISSION ROAD,THE MALL,MANALI,DISTT KULLU,PIN 175131",01902 250060,MANALI,KULU,HIMACHAL PRADESH
STBP0001148,State Bank of Patiala,STBP0001148,APPLIED,JALANDHAR (FOCAL POINT),"24 SERVICE INDUSTRY, BEHIND HP PETROL PUMP, TRANSPORT NAGAR, FOCAL POINT, JALANDHAR 144004",0181 2601224,JALANDHAR,JALANDHAR,PUNJAB
STBP0001149,State Bank of Patiala,STBP0001149,APPLIED,KAPURTHALA ROAD JALANDHAR,"9 EKTA VIHAR 120,KAPURTHALA ROAD,DILBAGH NAGAR EXTN.,JALANDHAR CITY",0181 2472233,JALANDHAR,JALANDHAR,PUNJAB
STBP0001150,State Bank of Patiala,STBP0001150,NON MICR,RAMA MANDI JALANDHAR,"SETHI COMPLEX, RAMA MANDI, JALANDHAR CITY",0181 2414248,JALANDHAR,JALANDHAR,PUNJAB
STBP0001151,State Bank of Patiala,STBP0001151,APPLIED,NARKANDA,"VPO NARKANDA,TEHSIL KUMARSAIN,DISTT SHIMLA,PIN 171213",01782 242503,NARKANDA,SIMLA,HIMACHAL PRADESH
STBP0001152,State Bank of Patiala,STBP0001152,APPLIED,NADAUN,"JAI SHREE COMPLEX, JAI SHREE TEMPLE ROAD, NADAUN, DIST HAMIRPUR, PIN 177033","01972 235214, 232638   , 9816649560",NADAUN,HAMIRPUR,HIMACHAL PRADESH
STBP0001154,State Bank of Patiala,STBP0001154,NON-MICR,"AZAD NAGAR,HISAR","AZAD NAGAR,RAJGARH ROAD,HISAR,PIN 125001,DISTT HISAR,HARYANA",,HISAR,HISAR,HARYANA
STBP0001155,State Bank of Patiala,STBP0001155,APPLIED,NARWANA ADB,"PATIALA ROAD, NARWANA 126116, DISTT JIND, HARYANA","01684 240194, 240195",NARWANA,JIND,HARYANA
STBP0001156,State Bank of Patiala,STBP0001156,APPLIED,"ALAMGARH, LUCKNOW",C 3 CINDERS DUMP YOJANA ALAMGARH LUCKNOW,,LUCKNOW,LUCKNOW,UTTAR PRADESH
STBP0001157,State Bank of Patiala,STBP0001157,APPLIED,MOGA AKALSAR ROAD,AKALSAR ROAD MOGA,01636 223472,MOGA,MOGA,PUNJAB
STBP0001158,State Bank of Patiala,STBP0001158,APPLIED,GHARUAN,"VPO GHARUN, TEHSIL KHARAR, DISTT SAS NAGAR,MOHALI,PIN 140413",0160 2635633,GHARUAN,RUPNAGAR,PUNJAB
STBP0001159,State Bank of Patiala,STBP0001159,APPLIED,HANUMANGARH JUNCTION,"SHOP NO 18, SRI GANGANAGAR ROAD, NEW DHAN MANDI,HANUMAN JUNCTION,PIN 335512,DISTT HANUMANGARH,RAJASTHAN",,HANUMANGARH,HANUMANGARH,RAJASTHAN
STBP0001160,State Bank of Patiala,STBP0001160,NON-MICR,"KOTHAPET,HYDERABAD","PLOT NO 80,81,90,91,KAUSTHUB TOWERS,CTO COLONY,KOTHAPET TO NAGOLE ROAD,KOTHAPET,HYDERABAD 500035,DISTT HYDERABAD,ANDHRA PRADESH",,HYDERABAD,HYDERABAD,ANDHRA PRADESH
STBP0001161,State Bank of Patiala,STBP0001161,NON-MICR,"BANASWADI,BANGALORE","21,OMBR LAYOUT,MAIN ROAD,BANASWADI,BANGALORE 560043,DISTT BANGALORE",,BANGALORE,BANGALORE URBAN,KARNATAKA
STBP0001162,State Bank of Patiala,STBP0001162,APPLIED,BANGALORE HSR LAYOUT,"54, HSR LAYOUT, VI SECTOR, 17 CROSS, 12 MAIN, BANGALORE 560102",080 25723901 080 25723902,BANGALORE,BANGALORE URBAN,KARNATAKA
STBP0001163,State Bank of Patiala,STBP0001163,APPLIED,BANAGALORE WHITE FIELD,"KATHA NO 613, OLD NO 7, SY NO 2/1, ANMOL CARLSON COURT, WHITE FIELD MAIN ROAD, WHITE FIELD, BANGALORE, PIN 560066 ","080 28452256, 080 28452257(FAX)",BANGALORE,BANGALORE URBAN,KARNATAKA
STBP0001164,State Bank of Patiala,STBP0001164,APPLIED,ERNAKULAM,"39/4164, FIRST FLOOR, SHEMA BUILDING, M G ROAD, RAVIPURAM, KOCLHI, ERNAKULAM 682106",0484-2356979,ERNAKULAM,ERNAKULAM,KERALA
STBP0001165,State Bank of Patiala,STBP0001165,APPLIED,TAMBARAM,"21/6, SUKH NIWAS, KAMARAJ STREET, TAMBARAM (WEST), DIST KANCHEEPURAM, TAMILNADU, PIN 600045","044 22262671, 044 22262672(FAX)",TAMBARAM,KANCHEEPURAM,TAMIL NADU
STBP0001166,State Bank of Patiala,STBP0001166,NON-MICR,"VELACHERY,CHENNAI","VELACHERY MAIN ROAD,VELACHERY,CHENNAI,PIN 600042","044 22434400,22434500",CHENNAI,CHENNAI,TAMIL NADU
STBP0001167,State Bank of Patiala,STBP0001167,APPLIED,"AVINASHI ROAD, COIMBATORE","BHARATHIYAR ROAD,PAPANAICKEN PALAYAM LAKSHMI MILLS JUNCTION,AVINASHI ROAD, COIMBATORE,DISTT COIMBATORE,PIN 641037","0422 2240093,2240038",COIMBATORE,COIMBATORE,TAMIL NADU
STBP0001168,State Bank of Patiala,STBP0001168,184007001,HATLI MORH,"HATLI MORH, KATHUA, JAMMU KASHMIR",01922 238731,HATLI,KATHUA,JAMMU & KASHMIR
STBP0001169,State Bank of Patiala,STBP0001169,APPLIED,MALL ROAD HOSHIARPUR,"MALL ROAD, OPP. INCOME TAX OFFICE, HOSHIARPUR, PUNJAB 146001",01882 243825,HOSHIARPUR,HOSHIARPUR,PUNJAB
STBP0001170,State Bank of Patiala,STBP0001170,APPLIED,AMB,"STATE BANK OF PATIALA, UNA ROAD, AMANDEEP MOTORS, AMB DT UNA, PIN 177203",1976260038,AMB,UNA,HIMACHAL PRADESH
STBP0001171,State Bank of Patiala,STBP0001171,NON-MICR,"SECTOR 3,FARIDABAD","SCO 50,HUDA MARKET,SECTOR 3,FARIDABAD 121004,DISTT FARIDABAD,HARYANA",,FARIDABAD,FARIDABAD,HARYANA
STBP0001172,State Bank of Patiala,STBP0001172,APPLIED,"SECTOR 19,FARIDABAD","SCF 42, HUDA MARKET, PART II,SECTOR 19,FARIDABAD,HARYANA",0129 43176575,FARIDABAD,FARIDABAD,HARYANA
STBP0001174,State Bank of Patiala,STBP0001174,APPLIED,"MODEL TOWN, KARNAL","SHOP NO 19 20, CHHOTI MARKET, MODEL TOWN, KARNAL 132001, DISTT KARNAL, HARYANA",0184 2265092,KARNAL,KARNAL,HARYANA
STBP0001175,State Bank of Patiala,STBP0001175,NON MICR,SBC COLLEGE OF ENGG,"SBSCET, MOGA ROAD, FEROZEPUR CANTT-152004, PUNJAB",9779511779,FIROZPUR,FIROZPUR,PUNJAB
STBP0001176,State Bank of Patiala,STBP0001176,NON-MICR,"NEW GRAIN MARKET,MALOUT","NEW GRAIN MARKET,OPPOSITE LIC OFFICE,MALOUT 152107,DISTT MUKTSAR,PUNJAB",,MALOUT,MUKTSAR,PUNJAB
STBP0001177,State Bank of Patiala,STBP0001177,APPLIED,BAJWARA,"SSG,PURC,BAJWARA,DISTT HOSHIARPUR,PUNJAB,PIN 146001",,BAJWARA,HOSHIARPUR,PUNJAB
STBP0001178,State Bank of Patiala,STBP0001178,NON-MICR,LAKHAN MAJRA,"JIND ROAD,VPO LAKHAN MAJRA,TEHSIL MEHAM,DISTT ROHTAK,HARYANA,PIN 124514",,LAKHAN MANJRA,ROHTAK,HARYANA
STBP0001179,State Bank of Patiala,STBP0001179,APLLIED,MAJITHA ROAD AMRITSAR,"OPP GURU NANAK DEV HOSPITAL, MAJITHA ROAD, AMRITSAR",0183-2571722,MAJITHA,AMRITSAR,PUNJAB
STBP0001180,State Bank of Patiala,STBP0001180,APPLIED,TARN TARAN ROAD,"OPP MILAP TENT HOUSE, NEAR NAMDHARI KANDA, TARN TARAN ROAD, AMRITSAR, PUNJAB",0183 2481718,TARN TARAN,AMRITSAR,PUNJAB
STBP0001181,State Bank of Patiala,STBP0001181,APPLIED,"CIRCULAR ROAD, AMRITSAR","1176/4, DYNASTY TOWER, CIRCULAR ROAD, AMRITSAR, PUNJAB",0183 2570717,AMRITSAR,AMRITSAR,PUNJAB
STBP0001182,State Bank of Patiala,STBP0001182,NON-MICR,"BATALA ROAD,GURDASPUR","8 20,SCHEME NO 1,IMPROVEMENT TRUST COLONY,BATALA ROAD,GURDASPUR 143521",01874 240135,GURDASPUR,GURDASPUR,PUNJAB
STBP0001183,State Bank of Patiala,STBP0001183,APPLIED,SARHALI ROAD TARN TARAN,"SARHALI ROAD, TARN TARAN",,TARN TARAN,AMRITSAR,PUNJAB
STBP0001184,State Bank of Patiala,STBP0001184,APPLIED,"DALHOUSIE ROAD, PATHANKOT","NEAR SHANI DEV MANDIR, DALHOUSIE ROAD, PATHANKOT 145001, DISTT GURDASPUR, PUNJAB","0186 5100289, 2220255",PATHANKOT,GURDASPUR,PUNJAB
STBP0001186,State Bank of Patiala,STBP0001186,APPLIED,DILSHAD GARDEN,"488/6, NEAR RADHA KRISHNA MANDIR,GURU TEG BAHADUR ROAD, DILSHAD GARDEN, NEW DELHI 110095",011 22570697/011 2870700,DELHI,DELHI,DELHI
STBP0001187,State Bank of Patiala,STBP0001187,APPLIED,RAJINDER NAGAR,"DF 139, SHANKAR ROAD, RAJINDER NAGAR, NEW DELHI 110060",011 28745764/011 28745674,DELHI,DELHI,DELHI
STBP0001188,State Bank of Patiala,STBP0001188,APPLIED,MUNIRKA,"249 A, RAMA MARKET, MUNRIKA, NEW DELHI 110067",011 26176772/011 26176773,DELHI,DELHI,DELHI
STBP0001189,State Bank of Patiala,STBP0001189,APPLIED,"DAC, SANGRUR","DISTRICT ADMINISTRATIVE COMPLEX, SANGRUR 148001, DISTT SANGRUR, PUNJAB",01672 241078,SANGRUR,SANGRUR,PUNJAB
STBP0001191,State Bank of Patiala,STBP0001191,440007003,CIVIL LINE NAGPUR,"SHOP NO 1-2-3, POONAM PLAZA, CIVIL LINES, NAGPUR (MAH), PIN 440001",0712-2540171,NAGPUR,NAGPUR,MAHARASHTRA
STBP0001192,State Bank of Patiala,STBP0001192,APPLIED,BORIVALI EAST,"GROUND FLOOR, GREEN VIEW COMPLEX, NANCY COLONY, BORIVALI EAST, MUMBAI 400066",7738050027,MUMBAI,GREATER BOMBAY,MAHARASHTRA
STBP0001193,State Bank of Patiala,STBP0001193,APPLIED,CBD BELAPUR,"SHOP NO 5-6, ELLORA, PLOT NO 27, SECTOR 11, CBD BELAPUR, NAVI MUMBAI 400614",,MUMBAI,GREATER BOMBAY,MAHARASHTRA
STBP0001194,State Bank of Patiala,STBP0001194,560007009,YELAHANKA NEW TOWN BRANCH,"NO.804, MIG, 2ND STAGE, SECTOR B, MOTHER DAIRY ROAD, YELAHANKA NEW TOWN, BANAGALORE 560064",080 28565065,YELAHANKA,BANGALORE URBAN,KARNATAKA
STBP0001195,State Bank of Patiala,STBP0001195,APPLIED,"ICCHEWALA ROAD, FEROZPUR CITY","ICCHEWALA ROAD, OPP. BUS STAND, FEROZPUR CITY, PUNJAB - 152002",01632 225671,FIROZPUR,FEROZPUR,PUNJAB
STBP0001198,State Bank of Patiala,STBP0001198,110007082,"SECTOR 48, GURGAON","A 05, IRIS TECH PARK, SECTOR 48, SOHNA ROAD, GURGAON 122018","0124 2219185, 2219186",GURGAON,GURGAON,HARYANA
STBP0001199,State Bank of Patiala,STBP0001199,110007081,"SECTOR 56, GURGAON","SCO NO 20, HUDA MARKET, SECTOR 56, GURGAON 122011","0124 2386361, 2385526",GURGAON,GURGAON,HARYANA
STBP0001200,State Bank of Patiala,STBP0001200,APPLIED,PANCHKULA SECT25,"GROUND FLOOR, SCO 113, SECTOR 25, PANCHKULA 134116, HARYANA","0172 2550436, 2550736 (FAX)",PANCHKULA,PANCHKULA,HARYANA
STBP0001201,State Bank of Patiala,STBP0001201,APPLIED,CHANDIGARH (SECT 49B),"BOOTH NO. 1-2, SECTOR 49-B, CHANDIGARH 160047",0172 2630604,CHANDIGARH,CHANDIGARH,CHANDIGARH
STBP0001202,State Bank of Patiala,STBP0001202,APPLIED,GORAKHPUR,"DUBEY COMPLEX, BEHTI HATA, GORAKHPUR",9454486118,GORAKHPUR,GORAKHPUR,UTTAR PRADESH
STBP0001203,State Bank of Patiala,STBP0001203,APPLIED,"GMS ROAD, DEHRADUN","748, RAM BAGH, KANWALI ROAD, NEAR ANURAG NURSERY, DEHRADUN","0135 2760912, 2760913",DEHRADUN,DEHRA DUN,UTTARAKHAND
STBP0001204,State Bank of Patiala,STBP0001204,APPLIED,"MOHAN GARDEN, NEW DELHI","SHOP NO 11 & 12, MOHAN BHAGWATI SHOPPING COMPLEX, NEAR METRO PILLAR NO 769, UTTAM NAGAR, MAIN NAGAFGARH ROAD, MOHAN GARDEN, NEW DELHI - 110059","011 25352355, 011 235352356",DELHI,DELHI,DELHI
STBP0001205,State Bank of Patiala,STBP0001205,APPLIED,NAGAUR ROAD,"NAGAUR BYE PASS ROAD, MAGRA PUNJALA, NAGAUR ROAD, JODHPUR, RAJASTHAN 342001",0291 2571205/ 0291 2571206,MAGARA-PUNJALA,JODHPUR,RAJASTHAN
STBP0001206,State Bank of Patiala,STBP0001206,APPLIED,BASAWESHWARANAGAR,"93 M MPLAZA WEST OF CHORD ROAD, BHIMAJYOTHI LIC COLONY, BASAWESHWARANAGAR, BANGALORE 560079",9663233509,BANGALORE,BANGALORE URBAN,KARNATAKA
STBP0001207,State Bank of Patiala,STBP0001207,NONMICR,KOTKAPURA,"FARIDKOT ROAD, KOTKAPURA 151204",0163 525328,KOT KAPURA,FARIDKOT,PUNJAB
STBP0001208,State Bank of Patiala,STBP0001208,APPLIED,PHOLARIWALA,"V & PO PHOLARIWALA, TEHYSIL & DISTRICT JALANDHAR, PUNJAB-144022",0181 2634933,PHOLARIWALA,JALANDHAR,PUNJAB
STBP0001210,State Bank of Patiala,STBP0001210,APPLIED,SALOGRA,"VPO SALOGRA,TEHSIL DIST SOLAN,HIMACHAL PRADESH,PIN 173214",,SOLAN,SOLAN,HIMACHAL PRADESH
STBP0001212,State Bank of Patiala,STBP0001212,APPLIED,JAINAGAR,"JAINAGAR, TEHSIL ARKI, DIST SOLAN, HIMACHAL PRADESH, PIN CODE 173221",,ARKI,SOLAN,HIMACHAL PRADESH
STBP0001213,State Bank of Patiala,STBP0001213,APPLIED,BARI BRAHMANA,"NATIONAL HIGHWAY, NEAR PRIMARY HEALTH CENTRE, WARD NO 1, BARI BRAHMANA, THE & DIST SAMBA, JAMMU KASHMIR 181133",01923 222939,RAMGARH,SAMBA,JAMMU & KASHMIR
STBP0001214,State Bank of Patiala,STBP0001214,APPLIED,RAKRI,"MAIN ROAD, V RAKRI, PO DATARPUR, TEHSIL MUKERIAN, DIST HOSHIARPUR, PUNJAB 144222",01883 230125,MUKERIAN,HOSHIARPUR,PUNJAB
STBP0001215,State Bank of Patiala,STBP0001215,APPLIED,AKKAR,"NEAR GURUDWARA NEEM, SAHIB, VILL AKKAR, PO SEHRA, TEHSIL RAJPURA, DIST PATIALA, PUNJAB 140701",01763 262015,RAJPURA,PATIALA,PUNJAB
STBP0001217,State Bank of Patiala,STBP0001217,APPLIED,HAMIDI,"VPO HAMIDI, DISTRICT BARNALA, PUNJAB 148025",9779584648,BARNALA,SANGRUR,PUNJAB
STBP0001218,State Bank of Patiala,STBP0001218,APPLIED,CHHAHAR,"VPO CHHAHAR, TEHSIL SUNAM, DIST SANGRUR, PUNJAB 148035","01676 282217, 282217",SUNAM,SANGRUR,PUNJAB
STBP0001219,State Bank of Patiala,STBP0001219,APPLIED,BOPARAI KHURD,"BOPARAI KHURD, PO NATHOWAL, TEHSIL RAIKOT, DIST LUDHIANA, PUNJAB  142032",01624 260466,RAIKOT,LUDHIANA,PUNJAB
STBP0001220,State Bank of Patiala,STBP0001220,APPLIED,HANS,"VPO HANS, TEHSIL JAGRAON, DIST LUDHIANA, PUNJAB 142026",01624 233100,JAGRAON,LUDHIANA,PUNJAB
STBP0001221,State Bank of Patiala,STBP0001221,APPLIED,RAMPUR,"VPO RAMPUR, TEHSIL PAYAL, DISTRICT LUDHIANA, PIN CODE 141418",01628 284007,PAYAL,LUDHIANA,PUNJAB
STBP0001222,State Bank of Patiala,STBP0001222,160007075,BARWALA,"CHANDIGARH-NARAINGARH NYE-PASS ROAD, VPO BARWALA, DISTT PANCHKULA, HARYANA 134118","01733 256358, 256359(FAX)",BARWALA,PANCHKULA,HARYANA
STBP0001224,State Bank of Patiala,STBP0001224,APPLIED,GEONG,"V & PO GEONG, TEHSIL & DISTRICT KAITHAL, HARYANA-136027",01746 288426,KAITHAL,KAITHAL,HARYANA
STBP0001225,State Bank of Patiala,STBP0001225,APPLIED,RAJLI,"VPO RAJLI, TEHSIL & DIST HISAR, HARYANA 125121",,HISAR,HISAR,HARYANA
STBP0001226,State Bank of Patiala,STBP0001226,APPLIED,JAMALPUR SHEKHAN,"NEAR DURGA MANDIR, VPO JAMALPUR SHEKHAN, TEHSIL TOHANA, DIST FATEHABAD, HARYANA 125120",9729874994,TOHANA,FATEHABAD,HARYANA
STBP0001227,State Bank of Patiala,STBP0001227,APPLIED,JALLOPUR,"VPO JALLOPUR, TEHSIL RATIA, DIST FATEHABAD, HARYANA 125051",,RATTIA,FATEHABAD,HARYANA
STBP0001229,State Bank of Patiala,STBP0001229,APPLIED,JHARLI,"NEAR NTPC METRO MARKET, BHAU JHORLI ROAD, VPO JHARLI, TEHSIL DIST JHAJJAR, HARYANA 124125",9416359450,JHARLI,JHAJJAR,HARYANA
STBP0001230,State Bank of Patiala,STBP0001230,APPLIED,ALIPUR,"KHASRA #74/31, KARNAL ROAD, OPP SWAMI SHARDHA NAND COLLEGE, ALIPUR, NEW DELHI 10036",011 27206675/76,ALIPORE VILLAGE,DELHI,DELHI
STBP0001231,State Bank of Patiala,STBP0001231,APPLIED,PATEL NAGAR,"LAL MANDIR, EAST PATEL NAGAR, NEW DELHI 110008",011-25883460,DELHI,DELHI,DELHI
STBP0001235,State Bank of Patiala,STBP0001235,AGENCY CLEARING CELL,NAVI MUMBAI,NAVI MUMBAI,MAHARASHTRA,"SBI,HRMS PREMISES, 4TH FLOOR, TOWER NO. 7, C.B.D. BELAPUR RAILWAY STATION BUILDING,NAVI MUMBAI-400614",022-27592111,022-32485173
STBP0001236,State Bank of Patiala,STBP0001236,APPLIED,JAKOLARI,"VPO JAKOLARI, NEAR RAILWAY STATION JAKOLARI, TEHSIL AND DIST PATHANKOT, PUNJAB 145025",0186 2265777,PATHANKOT,GURDASPUR,PUNJAB
STBP0001240,State Bank of Patiala,STBP0001240,APPLIED,SUJANPUR TIRA,"TIRA ROAD, NEAR GIRLS SCHOOL","01972-272011, 272041",SUJANPUR TIRA,HAMIRPUR,HIMACHAL PRADESH
STBP0001241,State Bank of Patiala,STBP0001241,APPLIED,JALALPUR,"JALALPUR, POST OFFICE, BAHADURGARH, TEHSIL & DIST PATIALA",0175 2653007,JALALPUR,PATIALA,PUNJAB
STBP0001242,State Bank of Patiala,STBP0001242,APPLIED,"ST JOHNS COLLEGE, AGRA","ST JOHNS COLLEGE, M.G. ROAD, AGRA",0562 2855116,AGRA,AGRA,UTTAR PRADESH
STBP0001244,State Bank of Patiala,STBP0001244,160007076,HSEB PANCHKULA,"HSEB, HVPNL BUILDING, SHAKTI BHAWAN, SECTOR 6, PANCHKULA, PINCODE 134109",9779585939,PANCHKULA,PANCHKULA,HARYANA
STBP0001245,State Bank of Patiala,STBP0001245,APPLIED,SADUL SHEHAR,"MAHARAJA AGGARSEN MARG, WARD NO 10, SADUL SHEHAR, DIST SRI GANGANAGAR, RAJASTHAN 335062",01503 222090,SADUL-SAHAR,GANGANAGAR,RAJASTHAN
STBP0001249,State Bank of Patiala,STBP0001249,141007027,AAYAKAR BHAWAN,"RISHI NAGAR, LUDHIANA",0161 2302245,LUDHIANA,LUDHIANA,PUNJAB
STBP0001251,State Bank of Patiala,STBP0001251,APPLIED,BANGA SN COLLEGE,"C/O SIKH NATIONAL COLLEGE, NAWAN SHAHAR ROAD, BANGA, DIST SHAHEED UDHAM SINGH NAGAR, PUNJAB, PIN 144505",01823 231218,BANGA,NAWANSHAHR,PUNJAB
STBP0001255,State Bank of Patiala,STBP0001255,APPLIED,SITO GUNNO,"VPO SITO GUNNO, TEHSIL ABOHAR, DIST FAZILKA, PUNJAB 152116",01634-270077,FAZILKA,FEROZPUR,PUNJAB
STBP0RRMLGB,State Bank of Patiala,STBP0RRMLGB,148007002,NEFT MALWA GRAMIN BANK,"NEAR BARRA CHOWK, SANGRUR, PUNJAB-148001","1672 241631,234313",SANGRUR,SANGRUR,PUNJAB
STBP0001190,State Bank of Patiala,STBP0001190,APPLIED,BHAGYA NAGAR,"66, Bhagyanagar, Near ST office, Aurangabad, Maharashtra-431001",0240-2352346,AURANGABAD,AURANGABAD,MAHARASHTRA
STBP0001196,State Bank of Patiala,STBP0001196,APPLIED,TFCPC,"TFCPC,ZONAL OFFICE,SECOND FLOOR,NBCC PLACE,BHISHM PITAMAH MARG,LODHI ROAD,NEW DELHI 110003",,DELHI,DELHI,DELHI
STBP0001248,State Bank of Patiala,STBP0001248,APPLIED,LUDHIANA (JIAN COLLEGE),"DEVKI DEVI JAIN MEMORIAL COLLEGE FOR WOMEN, KIDWAI NAGAR, INDUSTRIAL AREA, LUDHIANA-141008, PUNJAB",0161 - 2170679,LUDHIANA,LUDHIANA,PUNJAB
STBP0001257,State Bank of Patiala,STBP0001257,APPLIED,ARNIWALA,ARNIWALA SHEIKH SUBHAN-PIN 152124 DISTT. & TEH FAZILKA PUNJAB,1638241452,FAZILKA,FEROZPUR,PUNJAB
STBP0001258,State Bank of Patiala,STBP0001258,APPLIED,GURER,"GURER ASADPUR PULIYA, SAMBHAL ROAD, GURER-244301, MORADABAD, UTTAR PRADESH",05921 - 248034,MORADABAD,MORADABAD,UTTAR PRADESH
STBP0001259,State Bank of Patiala,STBP0001259,APPLIED,KHARKAN,OPP. GRAM PANCHAYAT BHAWAN NEAR BUS STAND VPO KHARKAN DISTT KAITHAL PIN 136035,"01743-230411, 230412",KAITHAL,KAITHAL,HARYANA
STBP0001260,State Bank of Patiala,STBP0001260,APPLIED,TARAORI,"46, NEW GRAIN MARKET, TARAORI, DIST KARNAL, HARYANA 132116",01745-242071,TARAORI,KARNAL,HARYANA
STBP0001263,State Bank of Patiala,STBP0001263,APPLIED,SANCHLA,"NEAR BUS STAND, VPO SANCHLA-125111, TEHSIL TOHANA, DIST FATEHABAD, HARYANA",,TOHANA,FATEHABAD,HARYANA
STBP0001267,State Bank of Patiala,STBP0001267,,"MINI SECRETARIAT, RAJPURA","MINI SECRETARIAT,RAJPURA - 140401",,RAJPURA,PATIALA,PUNJAB
STBP0001269,State Bank of Patiala,STBP0001269,APPLIED,ROORKEE,"VPO ROORKEE, THE, DIST FATEHGARH, PUNJAB 147104",977958237,FATEHGARH SAHIB,FATEHGARH SAHIB,PUNJAB
STBP0001275,State Bank of Patiala,STBP0001275,APPLIED,LALANWALI,"VILL LALANWALI P.O , TEHSIL & DISTT FAZILKA  (PUNJAB) PIN 152123",01638-248044,FAZILKA,FEROZPUR,PUNJAB
STBP0001282,State Bank of Patiala,STBP0001282,APPLIED,GOREGAON,"SHOP NO C D, A K PLAZA, HOTEL GRAND SAROVAR PREMIER, JUNCTION OF VEER SAVARKAR FLYOVER & SV ROAD, OPP MTNL EXCHANGE, GOREGAON WEST, MUMBAI 400062",022-28788012/28788013,MUMBAI,GREATER BOMBAY,MAHARASHTRA
STBP0001153,State Bank of Patiala,STBP0001153,APPLIED,MOHALI,"SCF - 55, PHASE - V, MOHALI, PUNJAB - 160059",0172-2264988,MOHALI,RUPNAGAR,PUNJAB
STBP0001232,State Bank of Patiala,STBP0001232,APPLIED,THANE WEST,"SHOP NO 3 & 4, HORIZON TOWER, BHAKTI MANDIR ROAD, HARI NIWAS CIRCLE, THANE WEST, MAHARASHTRA",022 25432398,THANE,THANE,MAHARASHTRA
STBP0001261,State Bank of Patiala,STBP0001261,APPLIED,GHATKOPAR EAST,"SHOP NO. 2, GROUND FLOOR, MANRATNA BUSINESS PARK, JUNCTION OF DERASAR LANE & TILAK ROAD,GHATKOPAR EAST, MUMBAI 400077",022-25086601,MUMBAI,GREATED BOMBAY,MAHARASHTRA
STBP0001266,State Bank of Patiala,STBP0001266,APPLIED,BARAHI,"MAIN ROAD, V & PO BARAHI, TEHSIL BAHADURGARH, DIST, JHAJJAR, HARYANA - 124525",01276-211960,BARAHI,JHAJJAR,HARYANA
STBP0001268,State Bank of Patiala,STBP0001268,APPLIED,NADHAURI,"NEAR BUS STAND, V & PO NADHAURI, TEHSIL & DIST. FATEHABAD, HARYANA",,NADHAURI,FATEHABAD,HARYANA
STBP0001274,State Bank of Patiala,STBP0001274,APPLIED,MULUND WEST,"SHOP NO. 5,6,7,8, GANESH KRUPA BUILDING, R.H.B ROAD, MULUND WEST, MAHARASHTRA","022 25922001, 25923346",MUMBAI,GREATER BOMBAY,MAHARASHTRA
STBP0001279,State Bank of Patiala,STBP0001279,APPLIED,MINI SECRETARIAT,"DISTRICT ADMINISTRATION OFFICE, MINI SECRETARIAT, D BLOCK, PATIALA 147001",0175 2353812,PATIALA,PATIALA,PUNJAB
STBP0001223,State Bank of Patiala,STBP0001223,APPLIED,D.A.C.BARNALA,"BARNALA, SANGRUR, PUNJAB - 148101",9779584583,BARNALA,SANGRUR,PUNJAB
STBP0001246,State Bank of Patiala,STBP0001246,APPLIED,SOLAN (GOVT DEG COLG),"GOVT DEGREE COLLEGE, SOLAN, HIMACHAL PRADESH, PIN 173212",01792 229069,SOLAN,SOLAN,HIMACHAL PRADESH
STBP0001272,State Bank of Patiala,STBP0001272,APPLIED,SECTOR 29 CHANDIGARH,"SECTOR 29 D, CHANDIGARH",0172 2652950,CHANDIGARH,CHANDIGARH,CHANDIGARH
STBP0001277,State Bank of Patiala,STBP0001277,APPLIED,FAGU,"VPO FAGU, TEHSIL THEOG, DIST SHIMLA, HIMACHAL PRADESH, PIN 171209",,THEOG,SIMLA,HIMACHAL PRADESH
STBP0001285,State Bank of Patiala,STBP0001285,APPLIED,KARNA SEC 3,"SCO 11 HSIIDC SEC 3, KARNAL, HARYANA",0184 2220180,KARNAL,KARNAL,HARYANA
STBP0001286,State Bank of Patiala,STBP0001286,APPLIED,LADWA ROAD,"LADWA ROAD, PIPLI, DIST KURUKSHETRA, HARYANA, PIN 51286",,PIPLI,KURUKSHETRA,HARYANA
STBP0001293,State Bank of Patiala,STBP0001293,APPLIED,JACHH,"JACCH (JASSUR), DISTT. KANGRA, HIMACHAL PRADESH",1894 226246,JASUR,KANGRA,HIMACHAL PRADESH
STBP0001300,State Bank of Patiala,STBP0001300,APPLIED,GOV POLY COLG SUNDER NAGAR,"GOVT POLYTECHNIC COLLEGE,CHATROKHARI (SUNDER NAGAR), DIST MANDI, HIMACHAL PRADESH, PIN 175018",01907 266336,SUNDAR NAGAR,MANDI,HIMACHAL PRADESH
STBP0001301,State Bank of Patiala,STBP0001301,APPLIED,HARNODA,"VPO HARNODA, THE SARDAR, DIST BILASPUR, HIMACHAL PRADESH",01978 210125,BILASPUR,BILASPUR,HIMACHAL PRADESH
STBP0001237,State Bank of Patiala,STBP0001237,APPLIED,SARNA,"NEAR SHAKUNTLA PALACE, G.T. ROAD, SARNA, DISTT PATHANKOT - 145025",0186-2345577,PATHANKOT,GURDASPUR,PUNJAB
STBP0001238,State Bank of Patiala,STBP0001238,APPLIED,PUTLIGHAR,"NEAR OM INTERNATIONAL, 6, G.T. ROAD, PUTLIGHAR, AMRITSAR 143001",0183-5068657,AMRITSAR,AMRITSAR,PUNJAB
STBP0001295,State Bank of Patiala,STBP0001295,APPLIED,BEANT COLLEGE OF ENGINEERING AND TECHNOLOGY,"INSIDE BEANT COLLEGE OF ENGINEERING AND TECHNOLOGY, VILL BARIAR, DISTT GURDASPUR 143521",01874-223791,BARIAR,GURDASPUR,PUNJAB
STBP0001271,State Bank of Patiala,STBP0001271,636007002,SALEM,"RAJA TOWERS, NO. 49/5, 1ST FLOOR, NEW BUS STAND ROAD, MEYYANUR, SALEM, TAMILNADU-636004",0427 2446016,SALEM,SALEM,TAMIL NADU
STBP0001287,State Bank of Patiala,STBP0001287,11007087,SHAKTI NAGAR EXTN ASHOK VIHAR DELHI,"A-1/2, GROUND FLOOR, SHAKTI NAGAR EXTN., SWAMI NARAIN MARG, ASHOK VIHAR, PHASE III, DELHI 110052",011 27301338,DELHI,DELHI,DELHI
STBP0001276,State Bank of Patiala,STBP0001276,APPLIED,BHUTTA,"VPO BHUTTA, TEHSIL LUDHIANA EAST, DIST LUDHIANA, PUNJAB - 141206",0161 2852967,LUDHIANA,LUDHIANA,PUNJAB
STBP0001291,State Bank of Patiala,STBP0001291,APPLIED,JANKIPURAM,"B2 133, SEC F, SITAPUR ROAD SCHEME, JANKIPURAM, LUCKNOW - 226020",0522 2733380,LUCKNOW,LUCKNOW,UTTAR PRADESH
STBP0001299,State Bank of Patiala,STBP0001299,APPLIED,MALEWAL,"INSIDE GURUDWARA SAHIB BUILDING, VPO MALEWAL, TEHSIL NABHA, DIST PATIALA, PUNJAB - 147202",01765 264164,NABHA,PATIALA,PUNJAB
STBP0001302,State Bank of Patiala,STBP0001302,APPLIED,BHUBANESWAR,"PLOT NO 220, CUTTACK TOAD, BHUBANESWAR, DIST, KHURDA, ORISSA - 751006",0674 2571905,BHUBANESWAR,KHURDA,ORISSA
STBP0001303,State Bank of Patiala,STBP0001303,APPLIED,BHANDUP,"CORPORA, SHOP NO G4, NEAR SANGRILLA BISCUIT, LBS MARG, BHANDUP WEST, MUMBAI - 400078",022 25957569,MUMBAI,GREATER BOMBAY,MAHARASHTRA
STBP0001304,State Bank of Patiala,STBP0001304,APPLIED,GANDHINAGAR,"718, MAIN SHOPPING CENTRE, BEHIND PANCHDEV MANDIR, SECTOR-22, GANDHINAGAR, GUJARAT - 382022",079 23243427,GANDHINAGAR,GANDHINAGAR,GUJARAT
STBP0001305,State Bank of Patiala,STBP0001305,APPLIED,MIRA BHAYANDER,"SHEETAL SAURABH BUILDING, 60 FEET ROAD, SHEETAL NAGAR, OPP MTNL, MIRA ROAD EAST. MIRA BHAYANDER, THANE - 401107",022 28112112,MIRA-BHAYANDAR,THANE,MAHARASHTRA
STBP0001281,State Bank of Patiala,STBP0001281,APPLIED,SADHUWALI,"BISHNOI MANDIR, SADHUWALI, SRI GANGANAGAR - 335001",0154-2492071,GANGANAGAR,GANGANAGAR,RAJASTHAN
STBP0000908,State Bank of Patiala,STBP0000908,APPLIED,ZONAL OFFICE MUMBAI,"UNIT 603, 604, 6 FLOOR, B WING, KOHINOOR CITY, COMMERCIAL I, KIROL ROAD, OFF LBS MARG, KURLA WEST, MUMBAI 400070",022 25046274,MUMBAI,GREATER BOMBAY,MAHARASHTRA
STBP0001264,State Bank of Patiala,STBP0001264,APPLIED,RANBIR SINGH PORA,"SUCHET GARH ROAD, OPP BSF GATE, RANBIR SINGH PORA, THE DIST JAMMU, JAMMU KASHMIR 181102",01923 241910,RANBIR SINGH PORA,JAMMU,JAMMU & KASHMIR
STBP0001273,State Bank of Patiala,STBP0001273,APPLIED,CHANDIGARH SECTOR 20D,"SCO NO 13, SECTOR 20D, CHANDIGARH 160020",0172 2722013,CHANDIGARH,CHANDIGARH,CHANDIGARH
STBP0001278,State Bank of Patiala,STBP0001278,APPLIED,BALDYAN,"VPO BALDYAN, TEHSIL AND DIST SHIMLA, HIMACHAL PRADESH 171007",0177 2740990,SIMLA,SIMLA,HIMACHAL PRADESH
STBP0001307,State Bank of Patiala,STBP0001307,APPLIED,MANDI DABAWALI,"CHAUTALA ROAD, MANDI DABAWALI, DIST SIRSA, HARYANA - 125104",01668 223368,MANDI DABWALI,SIRSA,HARYANA
STBP0001311,State Bank of Patiala,STBP0001311,APPLIED,SANGRUR GOVT RANBIR COLLEGE,"GOVT RANBIR COLLEGE, SANGRUR DIST, PUNJAB 148001",,SANGRUR,SANGRUR,PUNJAB
STBP0001313,State Bank of Patiala,STBP0001313,APPLIED,SRI GANGANAGAR H H GARDEN,"H H GARDEN, SADUL SHEHAR ROAD, SRI GANGANAGAR, RAJASTHAN 335001",,SADUL-SAHAR,GANGANAGAR,RAJASTHAN
STBP0001315,State Bank of Patiala,STBP0001315,APPLIED,MUMBAI ANDHERI EAST,"UNIT NO 1, GROUND FLOOR, APPLE HERITAGE, MATHURADAS VASANTH ROAD, CHAKALA, ANDHERI EAST, MUMBAI 400093",,MUMBAI,GREATER BOMBAY,MAHARASHTRA
STBP0001262,State Bank of Patiala,STBP0001262,APPLIED,ANDHERI WEST,"UNIT NO 15,16,17,18, GROUND FLOOR, JANAKI CENTER, 29, SHAH INDUSTRIAL ESTATE, OFF VEERA DESAI ROAD, ANDHERI WEST, MUMBAI - 400058",,MUMBAI,GREATED BOMBAY,MAHARASHTRA
STBP0001270,State Bank of Patiala,STBP0001270,APPLIED,GUMMIDIPOONDI,"NO 324, GNT ROAD, GUMMIDIPOONDI, DIST THIRUVALLUR, TAMILNADU 601201",044 27929923,GUMMIDIPUNDI,THIRUVALLUR,TAMIL NADU
STBP0001306,State Bank of Patiala,STBP0001306,APPLIED,MALLANWALA,"MAKHU ROAD, MALLANWALA, FEROZEPUR DIST, PUNJAB",9779585462,MALLANWALA,FEROZPUR,PUNJAB
STBP0001310,State Bank of Patiala,STBP0001310,APPLIED,SARDAR SHEHAR,"VPO SARDAR SHEHAR, NARAYAN KATRA, DISTT CHURU, RAJASTHAN, PIN 331403",01564 220300,SARDARSHAHAR,CHURU,RAJASTHAN
STBP0001290,State Bank of Patiala,STBP0001290,APPLIED,NAGGAR,"VPO NAGGAR, TEHSIL AND DIST KULLU, HIMACHAL PRADESH, 175130",01902 248051,NAGGAR,KULU,HIMACHAL PRADESH
STBP0001308,State Bank of Patiala,STBP0001308,144007977,BHOGPUR,"WARD NO 7, G T ROAD, PATHANKOT ROAD, JALANDHAR, PUNJAB 144201",0181 2722901,BHOGPUR,JALANDHAR,PUNJAB
STBP0001312,State Bank of Patiala,STBP0001312,APPLIED,SARAWAN,"SARAWAN, DIST MUKATSAR, TEHSIL MALOUT, PUNJAB 151210",01637 250000,MALOUT,MUKTSAR,PUNJAB
STBP0001316,State Bank of Patiala,STBP0001316,APPLIED,NANGAL CHOWDHARY,"VPO NANGAL CHAUDHARY, DIST MOHINDERGARH, HARYANA 123023",01282 278280,NANGAL CHOWDHARY,MAHENDRAGARH,HARYANA