ID,BANK,IFSC_CODE,MICR_CODE,BRANCH_NAME,ADDRESS,CONTACT,CITY,DISTRICT,STATE
SIBL0000001,South Indian Bank,SIBL0000001,688059002,ALAPPUZHA,"ALAPPUZHA BRANCH,SD PHARMACY BUILDING,NEAR MUNICIPAL TOWN HALL,ALAPPUZHA , ALAPUZHA , KERALA, PIN-688001","SANTHOSH ARNOLD , SENIOR MANAGER 0477-2260420",ALAPPUZHA,ALAPUZZHA,KERALA
SIBL0000002,South Indian Bank,SIBL0000002,682059012,ALUVA,"ALUVA BRANCH,RAILWAY STATION SQUARE,ALUVA , ERNAKULAM, KERALA, PIN-683101","BASIL ANTONY, SENIOR MANAGER 0484 2625160",ALUVA,ERNAKULAM,KERALA
SIBL0000003,South Indian Bank,SIBL0000003,NON MICR,AMMADAM,"AMMADAM BRANCH, VIII/164, ST.ANTONY'S CHCH BLDG,MAIN ROAD ,AMMADAM , THRISSUR , KERALA, PIN-680563","AUGUSTY K.I., MANAGER 0487-2278383",AMMADAM,TRISSUR,KERALA
SIBL0000004,South Indian Bank,SIBL0000004,NON MICR,ARKONAM,"ARKONAM BRANCH, 198, GANDHI ROAD ,ARKONAM , VELLORE, TAMIL NADU, PIN-631001","SAMUEL THOMAS, SENIOR MANAGER 04177 - 232201",ARKONAM,VELLORE,TAMIL NADU
SIBL0000005,South Indian Bank,SIBL0000005,626059202,ARUPPUKOTTAI,"ARUPPUKOTTAI BRANCH,ANUT COMPLEX,(1ST FLOOR) , 23, PANDALGUDI ROAD JN , VIRUDHUNAGAR , TAMIL NADU, PIN-626101","RAMESH K., CHIEF MANAGER 04566 - 222422",ARUPPUKOTTAI,VIRUDHUNAGAR,TAMIL NADU
SIBL0000006,South Indian Bank,SIBL0000006,NON MICR,AYARKUNNAM,"AYARKUNNAM BRANCH, KUNNAPPALLIL BUILDING, , AYARKUNNAM , KOTTAYAM , KERALA, PIN-686564","LEELAMA K.L., SENIOR MANAGER 0481-2542439",AYARKUNNAM,KOTTAYAM,KERALA
SIBL0000007,South Indian Bank,SIBL0000007,680059008,AYYANTHOLE,"AYYANTHOLE BRANCH,AKKARA PATTIAKAL,BUILDING (1ST FLOOR),CIVIL LINES , THRISSUR , KERALA, PIN-680003","VINCENT T.J., MANAGER 0487-2388009",AYYANTHOLE,TRISSUR,KERALA
SIBL0000008,South Indian Bank,SIBL0000008,560059002,BANGALORE CITY,"BANGALORE CITY BRANCH, 10, RAJDOOT COMPLEX,AVENUE ROAD ,BANGALORE CITY, BANGALORE, KARNATAKA , PIN-560002","JOSE M.T., ASST.GENERAL MANAGER 080 - 22256668-22256466,",BANGALORE,BANGALORE URBAN,KARNATAKA
SIBL0000009,South Indian Bank,SIBL0000009,560059004,BANGALORE CANTONMENT,"BANGALORE CANTONMENT BRANCH,26/3,HOSPITAL ROAD ,CANTONMENT, BANGALORE, KARNATAKA , PIN-560001","VARGHESE ALEXANDER, CHIEF MANAGER 080 - 2860649",BANGALORE,BANGALORE URBAN,KARNATAKA
SIBL0000010,South Indian Bank,SIBL0000010,NON MICR,BHARANANGANAM,"BHARANANGANAM BRANCH, MAIN STREET,BHARANANGANAM , KOTTAYAM , KERALA, PIN-686578","THOMAS T., MANAGER 04822 - 236391",KOTTAYAM,KOTTAYAM,KERALA
SIBL0000011,South Indian Bank,SIBL0000011,638059006,BHAVANI,"BHAVANI BRANCH, 701 ,MURUGAN TRANSPORT BLDG: ,METTUR ROAD , BHAVANI, BHAVANI - 638 302, TAMIL NADU, PIN-638302","SUBRAMANIAM A., MANAGER04256 - 230409,230005",BHAVANI,ERODE,TAMIL NADU
SIBL0000012,South Indian Bank,SIBL0000012,680059152,CHALAKUDY,"CHALAKUDY BRANCH,MANJALY ACHANDY TRADE CENTRE,NEAR CHURCH STOP,TRUNK ROAD, THRISSUR , KERALA, PIN-680307","MOHANAN K., CHIEF MANAGER 0480 - 2702387,0480 2706799",CHALAKUDY,TRISSUR,KERALA
SIBL0000013,South Indian Bank,SIBL0000013,NON MICR,CHANGANACHERRY,"CHANGANACHERRY BRANCH,DOCTOR'S TOWERS (1ST FLOOR) ,MC ROAD ,CHANGANACHERRY, KOTTAYAM , KERALA, PIN-686101","JOSE MANUEL, SENIOR MANAGER 0481- 2420386",CHANGANASSERY,KOTTAYAM,KERALA
SIBL0000014,South Indian Bank,SIBL0000014,NON MICR,CHANGARAMKULAM,"CHANGARAMKULAM BRANCH, MAS SHPPING CMPLX,NARINIPUZHA RD ,CHANGARAMKULAM,PO NANNAMUKKU , MALAPPURAM , KERALA, PIN-679575","FRANCIS K.A., SENIOR MANAGER 0494-2650389",MALAPPURAM,MALAPURAM,KERALA
SIBL0000015,South Indian Bank,SIBL0000015,NON MICR,CHELAKKARA,"CHELAKKARA BRANCH, EDAYANAL SHOPPING CENTRE, NEAR GHS ,MAIN ROAD ,CHELAKKARA, THRISSUR , KERALA, PIN-680586","JOSEPH C.A., MANAGER 04884 - 252030",CHELAKKARA,TRISSUR,KERALA
SIBL0000016,South Indian Bank,SIBL0000016,NON MICR,CHITTUR,"CHITTUR BRANCH,11/223,MAIN ROAD ,CHITTUR , PALAKKAD , KERALA, PIN-678101","VENKITARAMAN N.S., SENIOR MANAGER 04923- 222350",CHITTUR,PALAKKAD,KERALA
SIBL0000017,South Indian Bank,SIBL0000017,680059102,CHAVAKKAD,"CHAVAKAD BRANCH,22/546-C(I) ,MUNICIPAL SHOPPING COMPLEX,MAIN ROAD , THRISSUR , KERALA, PIN-680506","BABY E.D., SENIOR MANAGER 0487 - 2507347,2508735",CHAVAKKAD,TRISSUR,KERALA
SIBL0000018,South Indian Bank,SIBL0000018,682059011,MATTANCHERRY,"KOCHI (MATTANCHERRY) BRANCH,FIFA TOWERS ,PANAYAPILLY ,KOCHI , ERNAKULAM, KERALA, PIN-682002","JOHN JOSEPH P.A., MANAGER 0484-2221601,",KOCHI,ERNAKULAM,KERALA
SIBL0000019,South Indian Bank,SIBL0000019,641059002,COIMBATORE RAJA STREET,"COIMBATORE RAJA STREET BRANCH, 838-839,SIB BUILDING,RAJA STREET , COIMBATORE , TAMIL NADU, PIN-641001","JACOB M.P., CHIEF MANAGER 0422-2399844",COIMBATORE,COIMBOTORE,TAMIL NADU
SIBL0000020,South Indian Bank,SIBL0000020,680059252,KODUNGALLUR,"KODUNGALLUR BRANCH,PADIYAN'S COMPLEX ,NORTH NADA,KODUNGALLUR , THRISSUR , KERALA, PIN-680664","JOSEPH C.C., SENIOR MANAGER 0480 2802256",KODUNGALLUR,TRISSUR,KERALA
SIBL0000021,South Indian Bank,SIBL0000021,624059002,DINDIGUL,"DINDIGUL BRANCH, 3, MAIN ROAD ,DINDIGUL,DINDIGUL DT., DINDIGUL , TAMIL NADU, PIN-624001","JOSE P.LAZAR, SENIOR MANAGER 0451 - 2422234",MADURAI,MADURAI,TAMIL NADU
SIBL0000022,South Indian Bank,SIBL0000022,NON MICR,ELAPULLY,"ELAPULLY BRANCH, ANAND COMPLEX, DOOR NO. 9/1177 ,MAIN ROAD ,PARA, PALAKKAD , KERALA, PIN-678622","SATHEESH BABU P.K., MANAGER 0491 2583234",ELAPPULLY,PALAKKAD,KERALA
SIBL0000023,South Indian Bank,SIBL0000023,638059002,ERODE,"ERODE BRANCH, 363, NETAJI ROAD ,ERODE ,ERODE DT. , ERODE, TAMIL NADU, PIN-638001","VIJAYAKUMAR R., CHIEF MANAGER 0424 2257547",ERODE,ERODE,TAMIL NADU
SIBL0000024,South Indian Bank,SIBL0000024,682059002,ERNAKULAM MARKET ROAD,"ERNAKULAM MARKET ROAD BRANCH,MARKET ROAD ,ERNAKULAM ,KOCHI , ERNAKULAM, KERALA, PIN-682035","SASIDHARAN PILLAI K., CHIEF MANAGER 0484-2360227,2293126",KOCHI,ERNAKULAM,KERALA
SIBL0000025,South Indian Bank,SIBL0000025,682059003,ERNAKULAM M G ROAD,"ERNAKULAM M.G. ROAD BRANCH,XXXIX/2018 & 2019 ,MG ROAD ,ERNAKULAM , ERNAKULAM, KERALA, PIN-682016","BABU C.A., CHIEF MANAGER 0484 23606622",KOCHI,ERNAKULAM,KERALA
SIBL0000026,South Indian Bank,SIBL0000026,NON MICR,ERUMAPETTY,"ERUMAPETTY BRANCH, DOOR NO. 1/374, NEW CHURCH BUILDING,MAIN ROAD ,ERUMAPETTY, THRISSUR , KERALA, PIN-680584","JOSE P.I., MANAGER 04885 262234",ERUMAPPETTY,TRISSUR,KERALA
SIBL0000027,South Indian Bank,SIBL0000027,638059004,GOBICHETTIPALAYAM,"GOBICHETTIPALAYAM BRANCH,D NO. 101 ,MILL ROAD ,GOBICHETTIPALAYAM , ERODE, TAMIL NADU, PIN-638476","BALAMURUGAN S., SENIOR MANAGER 04285-222016",GOBICHETTIPALAYAM,ERODE,TAMIL NADU
SIBL0000028,South Indian Bank,SIBL0000028,680059202,IRINJALAKUDA,"IRINJALAKUDA BRANCH,XVIII/343 ,BLAZE COURT ,MAIN ROAD , THRISSUR , KERALA, PIN-680121","VARGHESE P.G., SENIOR MANAGER 0480 2825230",IRINJALAKUDA,TRISSUR,KERALA
SIBL0000029,South Indian Bank,SIBL0000029,600059021,KANCHEEPURAM,"KANCHEEPURAM BRANCH,8-A ,VALLAL PACHAIYAPPAN STREET,KANCHEEPURAM, KANCHEEPURAM , TAMIL NADU, PIN-631501","DOMINIC XAVIER A., SENIOR MANAGER 044 - 27222662",KANCHIPURAM,KANCHEEPURAM,TAMIL NADU
SIBL0000030,South Indian Bank,SIBL0000030,680059022,KANDASSANKADAVU,"KANDASSANKADAVU BRANCH, CHURCH SHOPPIG COMPLEX, IX/580 ,KANDASSANKADAVU , THRISSUR , KERALA, PIN-680613","TONY PAUL MANJILA, MANAGER 0487-2630394",THRISSUR,TRISSUR,KERALA
SIBL0000031,South Indian Bank,SIBL0000031,680059021,KANJANY,"KANJANY BRANCH,MAIN ROAD ,KANJANY , THRISSUR , KERALA, PIN-680612","DAVY T.J., MANAGER 0487 2632368",THRISSUR,TRISSUR,KERALA
SIBL0000032,South Indian Bank,SIBL0000032,NON MICR,KANJIRAMATTOM,"KANJIRAMATTTOM BRANCH,AP-3/476,ST. IGNATIOUS CHURCH BUILDING ,MAIN STREET , ERNAKULAM, KERALA, PIN-682315","JOSEPH V.X., MANAGER 0484 2746285",KANJIRAMATTOM,ERNAKULAM,KERALA
SIBL0000033,South Indian Bank,SIBL0000033,NON MICR,KATTOOR,"KATTOOR BRANCH, THALIAPADATH BUILDING, KATTOOR ,THRISSUR DT.,KERALA, THRISSUR , KERALA, PIN-680702","JOSEPH V.D., SENIOR MANAGER 0480 2877230",KATTUR,TRISSUR,KERALA
SIBL0000034,South Indian Bank,SIBL0000034,NON MICR,KINATTUKADAVU,"KINATTUKADAVU BRANCH, 62, MAIN ROAD,KINATTUKADAVU , COIMBATORE , TAMIL NADU, PIN-642109","AMAL RAJ P., MANAGER 04259-242023",COIMBATORE,COIMBOTORE,TAMIL NADU
SIBL0000035,South Indian Bank,SIBL0000035,680059353,KODAKARA,"KODAKARA BRANCH,MAIN ROAD ,KODAKARA, THRISSUR , KERALA, PIN-680684","GEORGE N.I., SENIOR MANAGER 0480-2720249",KODAKARA,TRISSUR,KERALA
SIBL0000036,South Indian Bank,SIBL0000036,NON MICR,KOLLENGODE,"KOLLENGODE BRANCH,D NO. VI/208/L,FIRST FLOOR ,AISWARYAM COMPLEX , PALAKKAD , KERALA, PIN-678506","BALASUBRAMANIAN M.T., MANAGER 04923-262328",KOLLENGODE I,PALAKKAD,KERALA
SIBL0000037,South Indian Bank,SIBL0000037,NON MICR,KOTTAYAM,"KOTTAYAM BRANCH,275/ IX ,CATHOLIC CENTRE ,CENTRAL JUNCTION, KOTTAYAM , KERALA, PIN-686001","JOSEPH P T, CHIEF MANAGER 0481 2566801,2566930",KOTTAYAM,KOTTAYAM,KERALA
SIBL0000038,South Indian Bank,SIBL0000038,673059002,KOZHIKODE MAIN,"KOZHIKODE (MAIN) BRANCH, D. NO. 18/1175B, 1ST FLOOR, TEE TEE COMPLEX , JAIL ROAD, KOZHIKODE, KERALA, PIN-673004","VENUGOPALAN K.P., CHIEF MANAGER 0495-2701880",CALICUT,KOZHIKODE,KERALA
SIBL0000039,South Indian Bank,SIBL0000039,NON MICR,KOZHINJAMPARA,"KOZHINJAMPARA BRANCH, 111/403, CHITTUR ROAD,KOZHINJAMPARA , PALAKKAD , KERALA, PIN-678555","JOSE C.C., MANAGER 04923 272242",KOZHINJAMPARA,PALAKKAD,KERALA
SIBL0000040,South Indian Bank,SIBL0000040,NON MICR,KOZHUVANAL,"KOZHUVANAL BRANCH, 8/174, PANTHALANICKAL BUILDING ,KOZHUVANAL, KOTTAYAM , KERALA, PIN-686523","SEBASTIAN P.T., MANAGER 04822-267031",KOZHUVANAL,KOTTAYAM,KERALA
SIBL0000041,South Indian Bank,SIBL0000041,680059302,KUNNAMKULAM,"KUNNAMKULAM BRANCH,1ST FLOOR ,HALL NO. 3 & 4,MUNICIPAL C SHAPE BUILDING, THRISSUR , KERALA, PIN-680503","GEORGE T.I., CHIEF MANAGER 04885-222217,222912",KUNNAMKULAM,TRISSUR,KERALA
SIBL0000042,South Indian Bank,SIBL0000042,600059002,CHENNAI  G T,"CHENNAI G.T BRANCH, 64, ARMENIAN STREET,CATHOLIC CENTRE ,CHENNAI GT, CHENNAI, TAMIL NADU, PIN-600001","BALAKRISHNAN K.N., ASST.GENERAL MANAGER 044-25360592,25385711",CHENNAI,CHENNAI,TAMIL NADU
SIBL0000043,South Indian Bank,SIBL0000043,600059003,CHENNAI MOUNT ROAD,"CHENNAI MOUNT ROAD BRANCH, 19 ,GROUND FLOOR , ,MOUNT ROAD, OPP: ANNASALAIHPO, CHENNAI, TAMIL NADU, PIN-600002","JACOB K.JOHN, CHIEF MANAGER 044-28549050,28549047",CHENNAI,CHENNAI,TAMIL NADU
SIBL0000044,South Indian Bank,SIBL0000044,625059000,MADURAI,"MADURAI BRANCH, 24, NAICKER NEWSTREET,MADURAI ,MADURAI DT. , MADURAI, TAMIL NADU, PIN-625001","MOHANDAS V., SENIOR MANAGER 0452 2623967",MADURAI,MADURAI,TAMIL NADU
SIBL0000045,South Indian Bank,SIBL0000045,673059052,MAHE,"MAHE BRANCH,ARISTO SHOPPING COMPLEX ,MAIN ROAD ,MAHE DT., MAHE , PONDICHERRY , PIN-673310","SEBASTIAN M.V., SENIOR MANAGER 0490-2332226",MAHE,MAHE,PONDICHERRY
SIBL0000046,South Indian Bank,SIBL0000046,575059002,MANGALORE,"MANGALORE BRANCH,FERNANDEZ BUILDING,MILAGRESS CROSS ROAD,HAMPANKATTA , DAKSHIN KANNAD , KARNATAKA , PIN-575001","FRANCIS P.J., CHIEF MANAGER 0824-2422069",MANGALORE,DAKSHINA KANNADA,KARNATAKA
SIBL0000047,South Indian Bank,SIBL0000047,676059002,MANJERI,"MANJERI BRANCH,XX/240,RAM BUILDING,(1ST FLOOR) , MALAPPURAM , KERALA, PIN-676121","JOHNSON C.P., MANAGER 0483 2766124",MANJERI,MALAPURAM,KERALA
SIBL0000048,South Indian Bank,SIBL0000048,NON MICR,MANNARKAD,"MANNARKAD BRANCH,KCK SQUARE,1ST FLOOR ,OPP. PUNCHAYAT BUS STAND, PALAKKAD , KERALA, PIN-678582","ANTHONIS K.J., MANAGER 04924 - 222340",MANNARKAD,PALAKKAD,KERALA
SIBL0000049,South Indian Bank,SIBL0000049,NON MICR,MATHILAKAM,"MATHILAKAM BRANCH, 5/422 A , ST:JOSEPHS LATIN CHURCH BLDG:, PALLIVALAVU , THRISSUR , KERALA, PIN-680685","VINCENT K., MANAGER 0480-2848326",THRISSUR,TRISSUR,KERALA
SIBL0000050,South Indian Bank,SIBL0000050,682059027,MULANTHURUTHY,"MULANTHURUTHY BRANCH, PURAPPADATHIL ARCADE ,MAIN ROAD ,MULANTHURUTHY , ERNAKULAM, KERALA, PIN-682314","BABY P.O., MANAGER 0484-2740267",MULAMTHURUTHY,ERNAKULAM,KERALA
SIBL0000051,South Indian Bank,SIBL0000051,680059105,MULLASSERY,"MULLASSERY BRANCH, III/478, MAIN ROAD ,MULLASSERY, THRISSUR , KERALA, PIN-680509","FRANCY JOSE., SENIOR MANAGER 0487 2260377",MULLASSERY,TRISSUR,KERALA
SIBL0000052,South Indian Bank,SIBL0000052,611059002,NAGAPATTINAM,"NAGAPATTINAM BRANCH,A.S.A.M & M.A ANNUAL COMPLEX,NO.1- C(1ST FLOOR),NEELA SOUTH STREET, NAGAPATTINAM , TAMIL NADU, PIN-611001","THOMAS THAMBY X., MANAGER 04365 - 242419",NAGAPATTINAM,NAGAPATTINAM,TAMIL NADU
SIBL0000053,South Indian Bank,SIBL0000053,629059002,NAGERCOIL,"NAGERCOIL BRANCH,1ST FLOOR ,XAVIER BUILDING ,ASSISSI CAMPUS, KANYAKUMARI, TAMIL NADU, PIN-629001","DAVID J UKKEN., CHIEF MANAGER 04652-227380",NAGERCOIL,KANNIYAKUMARI,TAMIL NADU
SIBL0000054,South Indian Bank,SIBL0000054,NON MICR,NALEPILLY,"NALEPILLY BRANCH, D NO. VIII/173 A, GROUND FLOOR ,AMERICAN PLAZA,MAIN ROAD , PALAKKAD , KERALA, PIN-678553","SOLOMON V.L., MANAGER 04923-282251",NALLEPPILLEY,PALAKKAD,KERALA
SIBL0000055,South Indian Bank,SIBL0000055,690059002,NANGIARKULANGARA,"NANGIARKULANGARA BRANCH, GOKULAM, 1/271-A ,NH 47 ,NANGIARKULANGARA, ALAPUZHA , KERALA, PIN-690513","RADHAKRISHNAN POTTY L., MANAGER 0479-2412705",ALAPPUZHA,ALAPUZZHA,KERALA
SIBL0000056,South Indian Bank,SIBL0000056,NON MICR,NEMMARA,"NEMMARA BRANCH,VII/472 ,MAIN ROAD ,NEMMARA , PALAKKAD , KERALA, PIN-678508","VIJAYAKUMARAN B., MANAGER 04923 - 244251",NEMMARA,PALAKKAD,KERALA
SIBL0000057,South Indian Bank,SIBL0000057,679059051,NILAMBUR,"NILAMBUR BRANCH,PEEVEE'S ARCADE ,NILAMBUR JN ,NILAMBUR, MALAPPURAM , KERALA, PIN-679329","NANDAKUMAR A., MANAGER 04931-220233",NILAMBUR,MALAPURAM,KERALA
SIBL0000058,South Indian Bank,SIBL0000058,682059020,NORTH PARUR,"NORTH PARUR BRANCH,VII/3 ,MAIN ROAD ,NORTH PARUR , ERNAKULAM, KERALA, PIN-683513","CHERIAN A.H., MANAGER 0484-2442381",PARAVUR,ERNAKULAM,KERALA
SIBL0000059,South Indian Bank,SIBL0000059,680059009,OLLURKARA,"OLLUKARA BRANCH,ALAPPAT BUILDING,NH 47 ,NADATHARA ROAD JUNCTION , THRISSUR , KERALA, PIN-680651","SHINY J MENACHERRY, MANAGER 0487-2370545 ",OLLUKARA,TRISSUR,KERALA
SIBL0000060,South Indian Bank,SIBL0000060,680059012,OLLUR,"OLLUR BRANCH,XI/230 Q,HARWIN PLAZA,(1ST FLOOR) , THRISSUR , KERALA, PIN-680306","PIUS K.J., MANAGER 0487-2352363,2351646",OLLUR,TRISSUR,KERALA
SIBL0000061,South Indian Bank,SIBL0000061,679059002,OTTAPALAM,"OTTAPALAM BRANCH,JRJ COMPLEX (1ST FLOOR) ,MAIN ROAD ,OTTAPALAM , PALAKKAD , KERALA, PIN-679101","VASUDEVAN P., MANAGER 0466-2244328",OTTAPALAM,PALAKKAD,KERALA
SIBL0000062,South Indian Bank,SIBL0000062,686059002,PALAI,"PALAI BRANCH,MATTATHIL BUILDING,MAIN ROAD ,PALAI , KOTTAYAM , KERALA, PIN-686575","JOSE JOSEPH VETTICKATT, CHIEF MANAGER 04822-212424,21406",KOLLAM,KOLLAM,KERALA
SIBL0000063,South Indian Bank,SIBL0000063,NON MICR,PALAKKAD,"PALAKKAD BRANCH,15/11 ,GANDHI BAZAR ROAD ,PALAKKAD, PALAKKAD , KERALA, PIN-678001","BENNY MATHEWS M.R., SENIOR MANAGER 0491-2522655",PALAKKAD,PALAKKAD,KERALA
SIBL0000064,South Indian Bank,SIBL0000064,NON MICR,PALLASANA,"PALLASANA BRANCH, CHIRAKODE, PALLASSANA , PALAKKAD , KERALA, PIN-678505","SRIVALSAN K.K., MANAGER 04923-268316",PALLASSENA,PALAKKAD,KERALA
SIBL0000065,South Indian Bank,SIBL0000065,NON MICR,PARIYARAM,"PARIYARAM BRANCH, D NO.III/57-D,CHURCH RD JUNCTION ,MAIN ROAD ,PARIYARAM , THRISSUR , KERALA, PIN-680721","AUGUSTHYKUTTY P.K., MANAGER 0480-2746830",PARIYARAM,TRISSUR,KERALA
SIBL0000066,South Indian Bank,SIBL0000066,NON MICR,PATTANCHERRY,"PATTANCHERRY BRANCH, 4/562, VIMALDAS MEMORIAL BUILDING,PATTANCHERRY, PALAKKAD , KERALA, PIN-678532","RADHAKRISHNAN P., MANAGER 04923-232227",PATTANCHERRY,PALAKKAD,KERALA
SIBL0000067,South Indian Bank,SIBL0000067,NON MICR,PAZHAYANNUR,"PAZHAYANNUR BRANCH,V/648- A,AKBAR BUILDINGS ,THRISSUR ROAD , THRISSUR , KERALA, PIN-680587","SHEELA DAVIS, MANAGER 04884-225024",PAZHAYANNUR,TRISSUR,KERALA
SIBL0000068,South Indian Bank,SIBL0000068,680059453,PERINGOTTUKARA,"PERINGOTTUKARA BRANCH,KK COMPLEX,VI/405 - A(1ST FLOOR) ,KIZHAKE NADA, THRISSUR , KERALA, PIN-680565","DAVIS RAPHAEL, MANAGER 0487-2392747",TRIPRAYAR,TRISSUR,KERALA
SIBL0000069,South Indian Bank,SIBL0000069,NON MICR,PERUVEMBA,"PERUVEMBA BRANCH, A/242, SIRAJ BUILDING,CHUNGAM ,PERUVEMBA , PALAKKAD , KERALA, PIN-678531","JOHANNAN A.J., MANAGER 04923-252311",PERUVEMBA,PALAKKAD,KERALA
SIBL0000070,South Indian Bank,SIBL0000070,642059002,POLLACHI,"POLLACHI BRANCH, 4, MKG COMPLEX ,NEW SCHEME ROAD ,POLLACHI, COIMBATORE , TAMIL NADU, PIN-642001","JAYAKRISHNAN V.C, SENIOR MANAGER 04259-224587",COIMBATORE,COIMBOTORE,TAMIL NADU
SIBL0000071,South Indian Bank,SIBL0000071,679059202,PONNANI,"PONNANI BRANCH,FAJAR COMPLEX ,KUTTIKAD JUNCTION ,CHANDAPADI, MALAPPURAM , KERALA, PIN-679577","ABUBACKER.A.K., MANAGER 0494-2666018",PONNANI,MALAPURAM,KERALA
SIBL0000072,South Indian Bank,SIBL0000072,680059352,PUDUKAD,"PUDUKAD BRANCH,1ST FLOOR ,PUBLIC FUND LTD ,GOLDEN JUBILEE BUILDING , THRISSUR , KERALA, PIN-680301","DONY C.J., MANAGER 0480-2751384",PUDUCAD,TRISSUR,KERALA
SIBL0000073,South Indian Bank,SIBL0000073,NON MICR,PULINCUNNOO,"PULINCUNNOO BRANCH,FATHIMA ROAD,PULINCUNNOO , ALAPUZHA , KERALA, PIN-688504","JOE ANTONY V., MANAGER 0477-2702223",PULINCUNNOO,ALAPUZZHA,KERALA
SIBL0000074,South Indian Bank,SIBL0000074,691001001,KOLLAM,"KOLLAM BRANCH, BISHOP JEROME NGR COMM CMPLX ,CHINNAKADA,KOLLAM, KOLLAM , KERALA, PIN-691001","KRISHNA DAS P.B., CHIEF MANAGER 0474-2742027,2748338",KOLLAM,KOLLAM,KERALA
SIBL0000075,South Indian Bank,SIBL0000075,636059002,SALEM MAIN,"SALEM MAIN BRANCH, DOOR NO. 13-16, LIGHT HOUSE COMPLEX,OMALUR MAIN ROAD,SALEM , TAMIL NADU, PIN-636009","MARIA FRANCIS G., CHIEF MANAGER 0427-2212080",SALEM,SALEM,TAMIL NADU
SIBL0000076,South Indian Bank,SIBL0000076,613059002,THANJAVUR,"THANJAVUR BRANCH, KALYANI COMPLEX, I FLOOR ,NO. 1143,EAST MAIN STREET, THANJAVUR, TAMIL NADU, PIN-613009","RAVI C., SENIOR MANAGER 04362-230422",THANJAVUR,THANJAVUR,TAMIL NADU
SIBL0000077,South Indian Bank,SIBL0000077,NON MICR,TATTAMANGALAM,"TATTAMANGALAM BRANCH,18/123,BAZAR ST. ,TATTAMANGALAM , PALAKKAD , KERALA, PIN-678102","VERGHESE C.CHANDY, MANAGER 04923-227278",TATTAMANGALAM,PALAKKAD,KERALA
SIBL0000078,South Indian Bank,SIBL0000078,670059102,THALASSERY,"THALASSERY BRANCH, D NO. 46/878- B, GUNDERT ROAD,OPP. FIRE STATION & TELECOM OFFICE,THALASSERY, KANNUR , KERALA, PIN-670101","EMMANUEL JOHN, MANAGER 0490-2320220",THALASSERY,KANNUR,KERALA
SIBL0000079,South Indian Bank,SIBL0000079,NON MICR,TIRUVALLA,"TIRUVALLA BRANCH,MT COMMERCIAL CENTRE,TK ROAD ,NEAR SCS JUNCTION , PATHANAMTHITTA , KERALA, PIN-689101","MATHEW KOICKAL., CHIEF MANAGER 0469-2602153",THIRUVALLA,PATHANAMTHITTA,KERALA
SIBL0000080,South Indian Bank,SIBL0000080,682059017,THIRUVAMKULAM,"THIRUVAMKULAM BRANCH, D.NO.VII/591-1 , NJALIYATH TRADE CENTRE , THIRUVANKULAM, ERNAKULAM, KERALA, PIN-682305","JOSE VITHAYATHIL, MANAGER 0484-2787236",THIRUVANKULAM,ERNAKULAM,KERALA
SIBL0000081,South Indian Bank,SIBL0000081,NON MICR,THIRUVILWAMALA,"THIRUVILWAMALA BRANCH,SREE KRISHNA BUILDINGS,CHUNGAM ,THRUVILWAMALA , THRISSUR , KERALA, PIN-680588","GOVINDANKUTTY P., MANAGER 04884-282021",THIRUVILWAMALA,TRISSUR,KERALA
SIBL0000082,South Indian Bank,SIBL0000082,620059002,TIRUCHIRAPALLI,"TIRUCHIRAPALLI BRANCH,19/20 ,MADURAI ROAD,THEODORE COMPLEX, TIRUCHIRAPALLI , TAMIL NADU, PIN-620008","CHARLES G.P., SENIOR MANAGER 0431-2715507",MADURAI,MADURAI,TAMIL NADU
SIBL0000083,South Indian Bank,SIBL0000083,641059102,TIRUPUR,"TIRUPUR BRANCH,ARUKKANIAMMAL TOWERS (1ST FLOOR),DOOR NO 29-30 ,1ST STREET, COIMBATORE , TAMIL NADU, PIN-641604","NANJAN K., CHIEF MANAGER 0421-2232722,2232723",COIMBATORE,COIMBOTORE,TAMIL NADU
SIBL0000084,South Indian Bank,SIBL0000084,680059002,THRISSUR MAIN,"THRISSUR MAIN BRANCH,XXV/2149,ROUND SOUTH ,THRISSUR, THRISSUR , KERALA, PIN-680001","JACOB E.A., CHIEF MANAGER 0487-2426239,2424427(CM)",THRISSUR,TRISSUR,KERALA
SIBL0000085,South Indian Bank,SIBL0000085,680059003,THRISSUR BAZAR,"THRISSUR BAZAR BRANCH,MUNICIPAL OFFICE ROAD , THRISSUR , THRISSUR , KERALA, PIN-680001","JACOB M.V., SENIOR MANAGER 0487-2424765,2422594",THRISSUR,TRISSUR,KERALA
SIBL0000086,South Indian Bank,SIBL0000086,680059005,THRISSUR HIGH ROAD,"THRISSUR HIGH ROAD BRANCH,TC/18//2494 ,V.V IBRAHIM BUILDING,HIGH ROAD , THRISSUR , KERALA, PIN-680001","JOHN P.I., SENIOR MANAGER 0487-2420387,2420079",THRISSUR,TRISSUR,KERALA
SIBL0000087,South Indian Bank,SIBL0000087,680059004,THRISSUR WEST,"THRISSUR WEST BRANCH,AMBIKA ARCADE ,M.G ROAD,THRISSUR, THRISSUR , KERALA, PIN-680001","LOVELY P.P., CHIEF MANAGER 0487 2320819",THRISSUR,TRISSUR,KERALA
SIBL0000088,South Indian Bank,SIBL0000088,682059014,TRIPUNITHARA,"TRIPUNITHARA BRANCH,XV/605,ST. MARY'S FORANE CHURCH BUILDING ,EAST FORT , ERNAKULAM, KERALA, PIN-682301","TOM GEORGE, SENIOR MANAGER 0484-2777362",TRIPPUNITHURA,ERNAKULAM,KERALA
SIBL0000089,South Indian Bank,SIBL0000089,695059003,THIRUVANANTHAPURAM CHALAI,"THIRUVANANTHAPURAM CHALAI BRANCH,SIVAKAMI BUILDING ,POWER HOUSE ROAD,THIRUVANANTHAPURAM, THIRUVANANTHAPURAM , KERALA, PIN-695023","DAMODARAN P.K., SENIOR MANAGER 0471-2471003",THIRUVANANTHAPURAM,TRIVANDRUM,KERALA
SIBL0000090,South Indian Bank,SIBL0000090,628059002,TUTICORIN,"TUTICORIN BRANCH,40-41 ,PEREIRA STREET,TUTICORIN , TOOTHUKUDI , TAMIL NADU, PIN-628001","KRISHNADAS K., CHIEF MANAGER 0461-2330158",TUTICORIN,THOOTHKUDI,TAMIL NADU
SIBL0000091,South Indian Bank,SIBL0000091,NON MICR,VAIKOM,"VAIKOM BRANCH,7/329 ,WEST GATE ,VAIKOM, KOTTAYAM , KERALA, PIN-686141","UDAYAKUMAR THAMPI S., SENIOR MANAGER 04829-221247",VAIKOM,KOTTAYAM,KERALA
SIBL0000092,South Indian Bank,SIBL0000092,676059001,VALANCHERRY,"VALANCHERRY BRANCH,217-C(1),VEEKAY TOWER,KOZHIKODE ROAD, MALAPPURAM , KERALA, PIN-676552","WILSON K.J., MANAGER 0494-2645430",VALANCHERRY,MALAPURAM,KERALA
SIBL0000093,South Indian Bank,SIBL0000093,NON MICR,VANDITHAVALAM,"VANDITHAVALAM BRANCH, 7/235, MAIN ROAD ,VANDITHAVALAM , PALAKKAD , KERALA, PIN-678534","JOHNSON A.P., MANAGER 04923-232237",VANDITHAVALAM,PALAKKAD,KERALA
SIBL0000094,South Indian Bank,SIBL0000094,NON MICR,VELUR -THRISSUR,"VELUR BRANCH, PRIYADARSHINI COMPLEX, 1ST FLOOR ,POST OFFICE CENTRE,VELUR , THRISSUR , KERALA, PIN-680601","JOSE M.A., MANAGER 04885-285430",VELOOR,TRISSUR,KERALA
SIBL0000095,South Indian Bank,SIBL0000095,680059402,WADAKKANCHERRY,"WADAKKANCHERRY BRANCH,3/230 ,NSS UNION BUILDING,MAIN ROAD , THRISSUR , KERALA, PIN-680582","ROY KONIKKARA, SENIOR MANAGER 04884-234548",WADAKANCHERRY,TRISSUR,KERALA
SIBL0000096,South Indian Bank,SIBL0000096,NON MICR,ALAPAD BRANCH,"ALAPAD BRANCH, DOOR NO. XI-77-K, KODAPULLY COMPLEX,MAIN ROAD ,ALAPAD, KERALA, PIN-680641","THOMAS ANTO PALATHINGAL, MANAGER 0487-2272048",ALAPAD,TRISSUR,KERALA
SIBL0000097,South Indian Bank,SIBL0000097,638059010,ATHANI,"ATHANI BRANCH, 85, SAB ROAD ,ATHANI, ERODE, TAMIL NADU, PIN-638502","SIVA S., MANAGER 04256-250230",ATHANI,ERODE,TAMIL NADU
SIBL0000098,South Indian Bank,SIBL0000098,682059007,ERNAKULAM BANERJI ROAD,"ERNAKULAM BANERJI ROAD BRANCH,ELIAS CHAMBERS,BANERJI ROAD,ERNAKULAM , ERNAKULAM, KERALA, PIN-682018","THOMAS MATHEW, ASST.GENERAL MANAGER 0484-2352699",KOCHI,ERNAKULAM,KERALA
SIBL0000099,South Indian Bank,SIBL0000099,NON MICR,KODUVAI,"KODUVAI BRANCH, RAJALAKSHMI COMPLEX (1ST FLOOR), 7/131,MAIN ROAD , COIMBATORE , TAMIL NADU, PIN-638660","MUJEEB AHAMED A., MANAGER 0421-2312240",COIMBATORE,COIMBOTORE,TAMIL NADU
SIBL0000100,South Indian Bank,SIBL0000100,NON MICR,MUTHALAMADA,"MUTHALAMADA BRANCH,V/411 ,KOLLENGODE - POLLACHI MAIN ROAD ,KAMBRATHCHALLA, PALAKKAD , KERALA, PIN-678507","MOHANAN M., MANAGER 04923-275242",MUTHALAMADA,PALAKKAD,KERALA
SIBL0000101,South Indian Bank,SIBL0000101,NON MICR,KARUVATTA,"KARUVATTA BRANCH, MARTHOMAS CH CENTNARY COMM HALL, GRD FLR KARUVATTA, ALAPUZHA , KERALA, PIN-690517","RADHAKRISHNAN K., MANAGER 0479-2492226",KARUVATTA,ALAPUZZHA,KERALA
SIBL0000102,South Indian Bank,SIBL0000102,NON MICR,KARANCHIRA,"KARANCHIRA BRANCH, 3/173,KARANCHIRA, TRICHUR DIST:, THRISSUR , KERALA, PIN-680702","BABU A.L., MANAGER 0480-2877346",THRISSUR,TRISSUR,KERALA
SIBL0000103,South Indian Bank,SIBL0000103,NON MICR,PATHANAD,"PATHANAD BRANCH, KRISHNA BUILDING ,(1ST FLOOR) ,PATHANAD, KOTTAYAM , KERALA, PIN-686541","JOSEPH K.J., SENIOR MANAGER 0481-2494325",KOTTAYAM,KOTTAYAM,KERALA
SIBL0000104,South Indian Bank,SIBL0000104,NON MICR,CHENNAMANGALAM,"CHENNAMANGALAM BRANCH, LINCE BUILDING ,MAIN ROAD ,CHENNAMANGALAM, ERNAKULAM, KERALA, PIN-683512","JOSE THOMAS M., MANAGER 0484-2518641",CHENNAMANGALAM,ERNAKULAM,KERALA
SIBL0000105,South Indian Bank,SIBL0000105,NON MICR,KOTTARAKARA,"KOTTARAKARA BRANCH,X/1234/1,QS ROAD ,CITY TOWER BUILDING , KOLLAM , KERALA, PIN-691506","RENJIT K.C., SENIOR MANAGER 0474-2452319",KOTTARAKKARA,KOLLAM,KERALA
SIBL0000106,South Indian Bank,SIBL0000106,NON MICR,VATAKARA,"VATAKARA BRANCH, ARKAY BUILDING, NEAR HPO ,EDODI ,VATAKARA, KOZHIKODE, KERALA, PIN-673101","KRISHNAN M.K., MANAGER 0496-2524760",VADAKARA,KOZHIKODE,KERALA
SIBL0000107,South Indian Bank,SIBL0000107,NON MICR,KUMARAKOM,"KUMARAKOM BRANCH,DUBAI HOTEL BUILDING,MAIN ROAD ,KUMARAKOM , KOTTAYAM , KERALA, PIN-686563","GEORGE P.J., SENIOR MANAGER 0481-2524454",KUMARAKOM,KOTTAYAM,KERALA
SIBL0000108,South Indian Bank,SIBL0000108,560059005,BANGALORE BRIGADE ROAD,"BANGALORE BRIGADE ROAD BRANCH, 74,BRIGADE ROAD, NR ST.JOSEPH'S CLG OF COMM ,BANGALORE , BANGALORE, KARNATAKA , PIN-560025","BABU T.L., CHIEF MANAGER 080-25570542,5577696",BANGALORE,BANGALORE URBAN,KARNATAKA
SIBL0000109,South Indian Bank,SIBL0000109,689059006,PULLAD,"PULLAD BRANCH, V/489,HIGH SCHOOL JUNCTION,PULLAD, PATHANAMTHITTA , KERALA, PIN-689548","ABRAHAM K.M., SENIOR MANAGER 0469-2660221",PULLAD,PATHANAMTHITTA,KERALA
SIBL0000110,South Indian Bank,SIBL0000110,600059008,CHENNAI NUNGAMBAKKAM,"CHENNAI NUNGAMBAKKAM BRANCH, NO.1,STERLING ROAD , NIAGARA APARTMENTS ,NUNGAMBAKKAM, CHENNAI, TAMIL NADU, PIN-600034","ANTO GEORGE T, CHIEF MANAGER 044-28272722, 28270884",CHENNAI,CHENNAI,TAMIL NADU
SIBL0000111,South Indian Bank,SIBL0000111,641059004,COIMBATORE GANDHIPURAM,"COIMBATORE GANDHIPURAM BRANCH, CKN BUILDING , NEAR KARPAKAM BUILDING ,100 FEET ROAD,GANDHIPURAM , COIMBATORE , TAMIL NADU, PIN-641012","MANJIYIL S.K., CHIEF MANAGER 0422-2492631",COIMBATORE,COIMBOTORE,TAMIL NADU
SIBL0000112,South Indian Bank,SIBL0000112,600059007,CHENNAI TRIPLICANE,"CHENNAI TRIPLICANE BRANCH, 150, TRIPLICANE HIGH ROAD,TRIPLICANE, CHENNAI, TAMIL NADU, PIN-600005","RAJEEVU M.A., SENIOR MANAGER 044-28443300",CHENNAI,CHENNAI,TAMIL NADU
SIBL0000113,South Indian Bank,SIBL0000113,NON MICR,KANJIRAPALLY,"KANJIRAPALLY BRANCH,KOLLAMKULAM BUILDINGS ,KURISINKAL,KANJIRAPALLY, KOTTAYAM , KERALA, PIN-686507","ALEX P.JOSEPH, MANAGER 04828-204104",KANJIRAPPALLY,KOTTAYAM,KERALA
SIBL0000114,South Indian Bank,SIBL0000114,695059052,ATTINGAL,"ATTINGAL BRANCH,OPP. MUNICIPAL BUS STAND,(NH-47) MAIN ROAD ,ATTINGAL, THIRUVANANTHAPURAM , KERALA, PIN-695101","ANANTHASUBRAMANIAN.N.,SENIOR MANAGER 0470-2622377",ATTINGAL,TRIVANDRUM,KERALA
SIBL0000115,South Indian Bank,SIBL0000115,NON MICR,THEODICAL,"THEODICAL BRANCH, 2/368,KUTTIKANDATHIL BUILDING JUNCTION, THEODICAL, PATHANAMTHITTA , KERALA, PIN-689613","JYOTHI G. KURUP, MANAGER 0469-2774236",PATHANAMTHITTA,PATHANAMTHITTA,KERALA
SIBL0000116,South Indian Bank,SIBL0000116,NON MICR,ATHIRAMPUZHA,"ATHIRAMPUZHA BRANCH, MANAKOTTIL BUILDING (1ST FLOOR),CENTRAL JUNCTION,ATHIRAMPUZHA, KOTTAYAM , KERALA, PIN-686562","RAJAN K.G., SENIOR MANAGER 0481-2730585",KOTTAYAM,KOTTAYAM,KERALA
SIBL0000117,South Indian Bank,SIBL0000117,110059003,NEW DELHI KAROL BAGH,"NEW DELHI KAROL BAGH BRANCH,16A-17,AJMALKHAN ROAD,KAROL BAGH, DELHI, DELHI , PIN-110005","BOBBY JAMES, ASST.GENERAL MANAGER 011-25724009,25745177",DELHI,NEW DELHI,DELHI
SIBL0000118,South Indian Bank,SIBL0000118,682059010,THOPPUMPADY,"THOPPUMPADY BRANCH,EDATHIL BUILDING,CONVENT JUNCTION,THOPPUMPADY , ERNAKULAM, KERALA, PIN-682005","THULASY N.S., MANAGER 0484-2220474",KOCHI,ERNAKULAM,KERALA
SIBL0000119,South Indian Bank,SIBL0000119,695059002,THIRUVANANTHAPURAM MAIN,"THIRUVANANTHAPURAM MAIN BRANCH,MAIN BRANCH ,SPENCER JUNCTION,THIRUVANANTHAPURAM, THIRUVANANTHAPURAM , KERALA, PIN-695039","USHA L., ASST.GENERAL MANAGER 0471-2331747",THIRUVANANTHAPURAM,TRIVANDRUM,KERALA
SIBL0000120,South Indian Bank,SIBL0000120,688059051,CHERTHALA,"CHERTHALA BRANCH,NSS BUILDING,NEAR KSRTC BUS STAND,AS ROAD , ALAPUZHA , KERALA, PIN-688524","PURUSHOTHAMA KAMATHY S., SENIOR MANAGER 0478-2818204",CHERTHALA,ALAPUZZHA,KERALA
SIBL0000121,South Indian Bank,SIBL0000121,643059102,COONOOR,"COONOOR BRANCH,NEW PHARMACY BUILDING ,(1ST FLOOR) ,15/7, NILGIRI, TAMIL NADU, PIN-643102","JOSHY C.G., SENIOR MANAGER 0423-2234500",COIMBATORE,COIMBOTORE,TAMIL NADU
SIBL0000122,South Indian Bank,SIBL0000122,NON MICR,KOVILPALAYAM,"KOVILPALAYAM BRANCH, THEVAR BUILDING,COIMBATORE - POLLACHI MAIN ROAD ,KOVILPALAYAM, COIMBATORE , TAMIL NADU, PIN-642110","RAMAKRISHNA IYER S., SENIOR MANAGER 04259-259242",KOVILPALAYAM,COIMBOTORE,TAMIL NADU
SIBL0000123,South Indian Bank,SIBL0000123,NON MICR,IDUKKI,"IDUKKI BRANCH, ST. GEORGE'S CHURCH BUILDING ,NAYARUPARA P.O,IDUKKI, IDUKKI , KERALA, PIN-685602","JOY T.R., MANAGER 04862-235257",IDIKKI,IDUKKI,KERALA
SIBL0000124,South Indian Bank,SIBL0000124,571059099,MERCARA,"MADIKKERI (MERCARA) BRANCH,1ST FLOOR ,SREE KRISHNA PLAZA COLLEGE ROAD ,MERCARA , KODAGU , KARNATAKA , PIN-571201","CLAMENT P., MANAGER 08272-229601",MADIKERI,MADIKERI,KARNATAKA
SIBL0000125,South Indian Bank,SIBL0000125,577059202,SHIMOGA,"SHIMOGA BRANCH,1ST FLOOR ,KARNATAKA SANGHA COMPLEX,B H ROAD, SHIMOGA, KARNATAKA , PIN-577201","RAJU M.P., MANAGER 08182-278179",SHIMOGA,SHIMOGA,KARNATAKA
SIBL0000126,South Indian Bank,SIBL0000126,533059002,KAKINADA,"KAKINADA BRANCH,33-01-44 &45,GROUND FLOOR,SRI SATYA COMPLEX , EAST GODAVARI, ANDHRA PRADESH, PIN-533001","KRISHNA RAO P.V., MANAGER 0884-2373656",KAKINADA,EAST GODAVARI,ANDHRA PRADESH
SIBL0000127,South Indian Bank,SIBL0000127,560059007,BANGALORE YESWANTHPUR,"BANGALORE YESWANTHPUR BRANCH,SREENIVASA PRASANNA COMPLEX ,TRIVENI ROAD, YESHWANTHPUR , BANGALORE, KARNATAKA , PIN-560022","DIAS VARGHESE C., SENIOR MANAGER 080-3473889,3371347",BANGALORE,BANGALORE URBAN,KARNATAKA
SIBL0000128,South Indian Bank,SIBL0000128,500059002,HYDERABAD,"HYDERABAD BRANCH,4-1-938 ,VIJAY MANSION (1ST FLOOR) ,TILAK ROAD, HYDERABAD, ANDHRA PRADESH, PIN-500001","SUKUMARAN K., SENIOR MANAGER 040-24753925",HYDERABAD,HYDERABAD URBAN,ANDHRA PRADESH
SIBL0000129,South Indian Bank,SIBL0000129,700059002,KOLKATA G.C AVENUE,"KOLKATA G.C AVENUEBRANCH, 38, JAYSREE HOUSE,GANESH CHANDRA AVENUE ,1ST FLOOR , CALCUTTA , WEST BENGAL , PIN-700013","PAUL THALIATH, CHIEF MANAGER 033-22150366,22153152",KOLKATA,KOLKATA,WEST BENGAL
SIBL0000130,South Indian Bank,SIBL0000130,NON MICR,TRIPALLUR,"TRIPALLUR BRANCH,CAV BUILDING,KODUVAYUR ROAD,TRIPPALUR , PALAKKAD , KERALA, PIN-678546","RAJEEV M., MANAGER 04922-210266",TRIPPALUR,PALAKKAD,KERALA
SIBL0000131,South Indian Bank,SIBL0000131,632059002,VELLORE,"VELLORE BRANCH, JAYALAKHMI COMPLEX , , FIRST FLOOR , 50 ,KATPADIROAD, VELLORE, TAMIL NADU, PIN-632004","JOBY M.C., MANAGER 0416-2221957",VELLORE,VELLORE,TAMIL NADU
SIBL0000132,South Indian Bank,SIBL0000132,686059051,MUVATTUPUZHA,"MUVATTUPUZHA BRANCH, MADEPARAMBIL CHAMBERS (GD FLR) ,TB JUNCTION ,MC ROAD , ERNAKULAM, KERALA, PIN-686661","RAMACHANDRAN NAIR T.P., SENIOR MANAGER 0485-2832619",MUVATTUPUZHA,ERNAKULAM,KERALA
SIBL0000133,South Indian Bank,SIBL0000133,NON MICR,KANNUR,"KANNUR BRANCH,1ST FLOOR ,SWADESHI SHOPPING COMPLEX ,BANK ROAD , KANNUR , KERALA, PIN-670001","JACOB PHILIP, SENIOR MANAGER 0497-2700322",CANNUR,KANNUR,KERALA
SIBL0000134,South Indian Bank,SIBL0000134,673059005,FEROKE,"FEROKE BRANCH,SINDHU BUILDING ,MARKET ROAD ,FEROKE, KOZHIKODE, KERALA, PIN-673631","JAYARAJAN K., MANAGER 0495-2482520",FEROKE,KOZHIKODE,KERALA
SIBL0000135,South Indian Bank,SIBL0000135,NON MICR,KADUTHURUTHY,"KADUTHURUTHY BRANCH, 511/IX ,K.P ,AVE MARIA , KOTTAYAM , KERALA, PIN-686604","MATHEW STANI, SENIOR MANAGER 04829-282361",KADUTHURUTHY,KOTTAYAM,KERALA
SIBL0000136,South Indian Bank,SIBL0000136,682059051,KOTHAMANGALAM,"KOTHAMANGALAM BRANCH,OLIAPURAM SHOPPING COMPLEX,(1ST FLOOR) ,KOTHAMANGALAM , ERNAKULAM, KERALA, PIN-686691","JEBY VARGHESE M., SENIOR MANAGER 0485-2822360",KOTHAMANGALAM,ERNAKULAM,KERALA
SIBL0000137,South Indian Bank,SIBL0000137,403059002,PANAJI - GOA,"PANAJI - GOA BRANCH, 23-25,NEW MNCPAL OFF BLDG,DR. PISSURLENKAR ROAD ,PANAJI - GOA, NORTH-GOA, GOA , PIN-403001","JOHN ABRAHAM, MANAGER 0832-2229610",PANAJI,NORTH GOA,GOA
SIBL0000138,South Indian Bank,SIBL0000138,600059006,CHENNAI KELLYS,"CHENNAI KELLYS BRANCH, PRINCE TOWERS,94, PURUSAWLKAM HIGH ROAD ,KELLYS, CHENNAI, TAMIL NADU, PIN-600010","AJIT CHACKO JACOB, CHIEF MANAGER 044-26421646,26425895 ",CHENNAI,CHENNAI,TAMIL NADU
SIBL0000139,South Indian Bank,SIBL0000139,NON MICR,VARKALA,"VARKALA BRANCH,11/439,MAIDANAM,VARKALA , THIRUVANANTHAPURAM , KERALA, PIN-695141","RAJENDRANATHAN NAIR M., MANAGER 0470-2602357",VARKALA,TRIVANDRUM,KERALA
SIBL0000140,South Indian Bank,SIBL0000140,NON MICR,KARUNAGAPALLY,"KARUNAGAPALLY BRANCH,CHAITHANYA SHOPPING COMPLEX ,NH. ,DOOR NO. KP 374A, KOLLAM , KERALA, PIN-690518","SURENDRAN K., MANAGER 0476-2620267",KARUNAGAPALLY,KOLLAM,KERALA
SIBL0000141,South Indian Bank,SIBL0000141,NON MICR,PARASSALA,"PARASSALA BRANCH,POST OFFICE JUNCTION,PARASSALA , THIRUVANANTHAPURAM , KERALA, PIN-695502","MOHANAN R., MANAGER 0471-2202062",PARASSALA,TRIVANDRUM,KERALA
SIBL0000142,South Indian Bank,SIBL0000142,520059001,VIJAYWADA,"VIJAYWADA BRANCH,12-2-279,VISWAMALA BUILDING,BABU RAJENDRA PRASAD ROAD , KRISHNA, ANDHRA PRADESH, PIN-520001","GEORGE JOSE, MANAGER 0866-2569094",VIJAYAWADA,KRISHNA,ANDHRA PRADESH
SIBL0000143,South Indian Bank,SIBL0000143,NON MICR,SASTHAMCOTTA,"SASTHAMCOTTA BRANCH,111/714-B ,KANNIMELAZHIKAM BUILDING,SASTHAMCOTTA, KOLLAM , KERALA, PIN-690521","JOHNSON CHAKKALAKKAL, SENIOR MANAGER 0476-2830343",SASTHAMCOTTA,KOLLAM,KERALA
SIBL0000144,South Indian Bank,SIBL0000144,NON MICR,PEERMADE,"PEERMADE BRANCH,3/244 , , K K ROAD ,PEERMADE, IDUKKI , KERALA, PIN-685531","KURIAN M.J., MANAGER 04869-232093",PEERMADE,IDUKKI,KERALA
SIBL0000145,South Indian Bank,SIBL0000145,NON MICR,AMBALAPUZHA,"AMBALAPUZHA BRANCH, KATCHERRY JUNCTION ,KOMANA,AMBALAPUZHA , ALAPUZHA , KERALA, PIN-688561","CHACKO V.A., SENIOR MANAGER 0477-2272092",AMBALAPUZHA,ALAPUZZHA,KERALA
SIBL0000146,South Indian Bank,SIBL0000146,NON MICR,ERUMELY,"ERUMELY BRANCH, PARAPALLIL BUILDING,RANNI ROAD,ERUMELY , KOTTAYAM , KERALA, PIN-686509","JOHN P.J., MANAGER 04828-210376",ERUMELY,KOTTAYAM,KERALA
SIBL0000147,South Indian Bank,SIBL0000147,411059002,PUNE,"PUNE BRANCH,GROUND FLOOR,AURORA TOWERS ( EAST WING), 9,MOLEDINA ROAD, PUNE , MAHARASHTRA , PIN-411001","ROY DOMENIC P., CHIEF MANAGER 020-6138461",PUNE,PUNE,MAHARASHTRA
SIBL0000148,South Indian Bank,SIBL0000148,682059009,FORT KOCHI,"FORT KOCHI BRANCH,SANTA CRUZ BASILICA BUILDING,FORT KOCHI, ERNAKULAM, KERALA, PIN-682001","JOSEPH RAJU T., MANAGER 0484-2216824",KOCHI,ERNAKULAM,KERALA
SIBL0000149,South Indian Bank,SIBL0000149,600059005,CHENNAI MYLAPORE,"CHENNAI MYLAPORE BRANCH, 1ST FLOOR,OMS LAKSHANA, 146, ROYPETTAH HIGH ROAD , CHENNAI, TAMIL NADU, PIN-600004","DAVIS P.A., SENIOR MANAGER 044-24982116",CHENNAI,CHENNAI,TAMIL NADU
SIBL0000150,South Indian Bank,SIBL0000150,680059153,PERAMBRA,"PERAMBRA BRANCH, PALIAKARA BUILDING , , OPPOSITE APOLLO TYRES, MAIN ROAD, THRISSUR , KERALA, PIN-680689","EAPEN P.A., MANAGER 0480-2723674",THRISSUR,TRISSUR,KERALA
SIBL0000151,South Indian Bank,SIBL0000151,560059008,BANGALORE JAYANAGAR,"BANGALORE JAYANAGAR BRANCH,28TH CROSS,10TH MAIN ,4TH BLOCK , BANGALORE, KARNATAKA , PIN-560011","BABOO ANTO, CHIEF MANAGER 080-6530214",BANGALORE,BANGALORE URBAN,KARNATAKA
SIBL0000152,South Indian Bank,SIBL0000152,NON MICR,KALADY,"KALADY BRANCH,ALIKKAL SHOPPING OMPLEX ,M C ROAD,KALADY, ERNAKULAM, KERALA, PIN-683574","JAYARAM C.G., SENIOR MANAGER 0484-2462416",KALADY,ERNAKULAM,KERALA
SIBL0000153,South Indian Bank,SIBL0000153,110059002,NEW DELHI CONNAUGHT PLACE,"NEW DELHI CONNAUGHT PLACE BRANCH, 22, REGAL BUILDING ,CONNAUGHT PLACE ,NEW DELHI , DELHI , PIN-110001","MURALEEDHARAN NAIR K.K., ASST.GENERAL MANAGER 011-23361585,23348934",DELHI,NEW DELHI,DELHI
SIBL0000154,South Indian Bank,SIBL0000154,577059302,BHADRAVATHY,"BHADRAVATHY BRANCH,5TH CROSS ROAD,BH ROAD ,BHADRAVATHY , SHIMOGA, KARNATAKA , PIN-577301","RADHAKRISHNAN S., MANAGER 08282-266579",BHADRAVATI,SHIMOGA,KARNATAKA
SIBL0000155,South Indian Bank,SIBL0000155,NON MICR,POONOOR,"POONOOR BRANCH, 2/137,RP AHAMEDKUTTY BUILDING ,THAMARASSERY -BALUSSERY ROAD, KOZHIKODE, KERALA, PIN-673574","JAYA PAL M., MANAGER 0496-2646281",POONOOR,KOZHIKODE,KERALA
SIBL0000156,South Indian Bank,SIBL0000156,700059005,KOLKATA-HOWRAH,"HOWRAH (KOLKATA) BRANCH, 2, HAZARIMULL SHAH ROAD,BANDAGHAT ,HOWRAH, HOWRAH , WEST BENGAL , PIN-711106","SAIBAL DATTA, MANAGER 033-26555805",KOLKATA,KOLKATA,WEST BENGAL
SIBL0000157,South Indian Bank,SIBL0000157,400059002,MUMBAI BANDRA,"MUMBAI BANDRA BRANCH, 266, LINKING ROAD,BANDRA (WEST) ,MUMBAI, GREATER MUMBAI , MAHARASHTRA , PIN-400050","JACOB JOSEPH, CHIEF MANAGER 022-26423850",MUMBAI,GREATER BOMBAY,MAHARASHTRA
SIBL0000158,South Indian Bank,SIBL0000158,680059104,VENKITANGU,"VENKITANGU BRANCH, ST. MARY'S CHURCH BUILDING ,ENAMAVU CENTRE,VENKITANGU, THRISSUR , KERALA, PIN-680510","THOMAS M.D., MANAGER 0487-2260489",VENKITANGU,TRISSUR,KERALA
SIBL0000159,South Indian Bank,SIBL0000159,NON MICR,AVITTATHUR,"AVITTATHUR BRANCH, IV/2391,PULLUR - MALA ROAD,AVITTATHUR, THRISSUR , KERALA, PIN-680683","RUGMANI K.A., MANAGER 0480-2821632",AVITTATHUR,TRISSUR,KERALA
SIBL0000160,South Indian Bank,SIBL0000160,NON MICR,CHEMANCHERRY,"CHEMANCHERRY BRANCH, 2/266L,1 ST FLOOR , ARIN BUILDING , KOZHIKODE-KANNUR ROAD, KOZHIKODE, KERALA, PIN-673304","PAUL J CHUNGATH, MANAGER 0496-2687132",CHEMANCHERY,KOZHIKODE,KERALA
SIBL0000161,South Indian Bank,SIBL0000161,680059010,VIYYUR,"VIYYUR BRANCH, ST. JOSEPH'SI.S PRESS BUILDING ,SHORNUR ROAD, PATTURAIKKAL , THRISSUR , KERALA, PIN-680001","ANTO E.A., SENIOR MANAGER 0487-2334533,2320570",VIYYOOR,TRISSUR,KERALA
SIBL0000162,South Indian Bank,SIBL0000162,NON MICR,PUVATHUR,"PUVATHUR BRANCH, IX/465 ,ENAMAVU - CHAVAKKAD ROAD,PUVATHUR, THRISSUR , KERALA, PIN-680508","VENUGOPALA MENON V., MANAGER 0487-2642241",THRISSUR,TRISSUR,KERALA
SIBL0000163,South Indian Bank,SIBL0000163,530059001,VISAKHAPATNAM,"VISAKHAPATNAM BRANCH,APSARA ROAD ,D.NO. 13-1-1C , CATHOLIC CENTRE BLDG 1ST FLR , VISAKHAPATNAM, ANDHRA PRADESH, PIN-530002","SRIKANTA N.M., SENIOR MANAGER 0891-2706727,2504992",VISAKHAPATNAM,VISHAKAPATNAM,ANDHRA PRADESH
SIBL0000164,South Indian Bank,SIBL0000164,683059051,PERUMBAVOOR,"PERUMBAVOOR BRANCH,MADAPARAMBIL ARCADE ,KALADY ROAD ,PERMBAVOOR, ERNAKULAM, KERALA, PIN-683542","MANOJ A., MANAGER 0484-2523118",PERUMBAVOOR,ERNAKULAM,KERALA
SIBL0000165,South Indian Bank,SIBL0000165,NON MICR,VELIYANCODE,"VELIYANCODE BRANCH, 173/3,AMBALAYIL BUILDING,CHAVAKAD - PUDUPONANI ROAD, MALAPPURAM , KERALA, PIN-679579","JOHN JOSEPH URUVATH, SENIOR MANAGER 0494-2677339",VELIYANCODE,MALAPURAM,KERALA
SIBL0000166,South Indian Bank,SIBL0000166,638059007,THAVITTUPALAYAM,"THAVITTUPALAYAM BRANCH,277-H ,SPP OMPLEX,ANNA SALAI, THAVITTUPALAYAM - 638 501, TAMIL NADU, PIN-638501","MOHAN S., MANAGER 04256-260274",THAVITTUPALAYAM,ERODE,TAMIL NADU
SIBL0000167,South Indian Bank,SIBL0000167,NON MICR,MUDAPPALLUR,"MUDAPPALLUR BRANCH,XI/298,SALINA COMPLEX,MUDAPPALUR, PALAKKAD , KERALA, PIN-678705","PAUL M.V., MANAGER 04922-255219",MUDAPPALLUR,PALAKKAD,KERALA
SIBL0000168,South Indian Bank,SIBL0000168,NON MICR,ORUMANAYUR,"ORUMANAYUR BRANCH,RM MOIDU MEMORIAL BUILDING,MUTHENMAVU,ORUMANAYUR, THRISSUR , KERALA, PIN-680512","GEORGE C.A., MANAGER 0487-2507603",ORUMANAYOOR,TRISSUR,KERALA
SIBL0000169,South Indian Bank,SIBL0000169,604059001,MARUDADU,"MARUDADU BRANCH, 2/121,BAZAR STREET,MARUDADU, TIRUVANNAMALAI , TAMIL NADU, PIN-604405","RAJAGOPALAN B., MANAGER 04183-242025",MARUDADU,TIRUVANNAMALAI,TAMIL NADU
SIBL0000170,South Indian Bank,SIBL0000170,NON MICR,MUTHALAKODAM,"MUTHALAKODAM BRANCH, XVII/374 , KHADER PLAZA ,THODUPUZHA -UDUMBANNOOR ROAD, IDUKKI , KERALA, PIN-685605","CYRIAC T.V., MANAGER 04862-222383,224085",MUTHALAKODAM,IDUKKI,KERALA
SIBL0000171,South Indian Bank,SIBL0000171,NON MICR,THIRUNNAVAYA,"THIRUNNAVAYA BRANCH, V/36 ,CVMH BUILDING ,EDAKULAM, MALAPPURAM , KERALA, PIN-676301","ANTONY DAVID V.P., MANAGER 0494-2602023",THIRUNAVAYA,MALAPURAM,KERALA
SIBL0000172,South Indian Bank,SIBL0000172,NON MICR,THEVALAKARA,"THEVALAKARA BRANCH,MARKET JUNCTION ,THEVALAKARA , KOLLAM , KERALA, PIN-690524","SAJI.S., MANAGER 0476-2872050",THEVALAKKARA,KOLLAM,KERALA
SIBL0000173,South Indian Bank,SIBL0000173,NON MICR,PIRAVANTHUR,"PIRAVANTHUR BRANCH, 7/581,ALIMUKKU,VETTITHITTA PO, KOLLAM , KERALA, PIN-689696","JOSEPH V.J., MANAGER 0475-2222264",PIRAVANTHUR,KOLLAM,KERALA
SIBL0000174,South Indian Bank,SIBL0000174,1059174,AZHIKODE,"AZHIKODE BRANCH, 4/374. , PK KOCHU MOIDEEN MEMRIAL BDG , P.O AZHIKODE JETTY , THRISSUR , KERALA, PIN-680666","SASIDHARAN J.B., MANAGER 0480-2819553",AZHICODE,TRISSUR,KERALA
SIBL0000175,South Indian Bank,SIBL0000175,590059002,BELGAUM,"BELGAUM BRANCH, 1567, MARUTHI GALLI,BELGAUM , BELGAUM, KARNATAKA , PIN-590001","CHAKKU T.V., MANAGER 0831-2460591",BELGAUM,BELGAUM,KARNATAKA
SIBL0000176,South Indian Bank,SIBL0000176,NON MICR,MAYANNUR,"MAYANNUR BRANCH, MAYANNUR ,THRISSUR DT.,KERALA, THRISSUR , KERALA, PIN-678705","JOSE THAMBI K., MANAGER 04884-286233",MAYANNUR,TRISSUR,KERALA
SIBL0000177,South Indian Bank,SIBL0000177,638059009,KURUMANDUR,"KURUMANDUR BRANCH, MAIN ROAD,KURUMANDUR, ERODE, TAMIL NADU, PIN-638457","CYRIL JOSEPH TAMBY, MANAGER 04285-254151",KURUMANDUR,ERODE,TAMIL NADU
SIBL0000178,South Indian Bank,SIBL0000178,NON MICR,MELADUR,"MELADUR BRANCH, VIII/574 ,INFANT JESUS HURCH BUILDING ,MELADUR , THRISSUR , KERALA, PIN-680741","SETHUMADHAVAN C.R., MANAGER 0480-2770072",MELADOOR,TRISSUR,KERALA
SIBL0000179,South Indian Bank,SIBL0000179,380059002,AHMEDABAD,"AHMEDABAD BRANCH,B J HOUSE (1ST FLOOR) ,ASHRAM ROAD ,NAVRANGPURA , AHMEDABAD, GUJARAT , PIN-380009","JACOB E.T., CHIEF MANAGER 079-26580858",AHMEDABAD,AHMEDABAD,GUJARAT
SIBL0000180,South Indian Bank,SIBL0000180,NON MICR,VYLATHUR,"VYLATHUR BRANCH, IX/394 ,NAYARANGADI ,VYLATHUR, THRISSUR , KERALA, PIN-679563","JAMES P.J., MANAGER 0487-2681273",VYLATHUR,TRISSUR,KERALA
SIBL0000181,South Indian Bank,SIBL0000181,NON MICR,GOPANURPUDUR,"GOPANURPUDUR BRANCH, 5/21-X,NEGAMAM GOPANURPUDUR RD ,NEAR SUB - REGISTRY OFFICE,KVK NAGAR , COIMBATORE , TAMIL NADU, PIN-642120","VARGHESE A.A., MANAGER 04259-244257",GOPANUR PUDUR,COIMBOTORE,TAMIL NADU
SIBL0000182,South Indian Bank,SIBL0000182,605059002,PONDICHERRY,"PONDICHERRY BRANCH,113-127 ,MISSION STREET(UPSTAIRS),PONDICHERRY , PONDICHERRY, PONDICHERRY , PIN-605001","FRANCIS GEORGE, CHIEF MANAGER 0413-2336734",PONDICHERRY,PONDICHERRY,PONDICHERRY
SIBL0000183,South Indian Bank,SIBL0000183,NON MICR,PRAVITHANAM,"PRAVITHANAM BRANCH, C-6-153(7) , CHURCH BUILDINGS , PRAVITHANAM, KOTTAYAM , KERALA, PIN-686651","JOLLY ABRAHAM, MANAGER 04822-248864",PRAVITHANAM,KOTTAYAM,KERALA
SIBL0000184,South Indian Bank,SIBL0000184,680059011,NEHRU NAGAR (THRISSUR),"NEHRU NAGAR (THRISSUR) BRANCH, 1ST FLOOR,SHOPPING CENTRE COMPLEX ,NEHRU NAGAR , THRISSUR , KERALA, PIN-680006","XAVIER C.J., MANAGER 0487-2252019",THRISSUR,TRISSUR,KERALA
SIBL0000185,South Indian Bank,SIBL0000185,680059018,THIROOR-THRISSUR,"THIROOR BRANCH, IV/12,GROUND FLOOR,VARIAMPAT BUILDING, THRISSUR , KERALA, PIN-680581","ALEXANDER T.O., MANAGER 0487-2200245",TIROOR,TRISSUR,KERALA
SIBL0000186,South Indian Bank,SIBL0000186,NON MICR,POTTASSERI,"POTTASSERI BRANCH, MANGALY BUILDINGS,KANHIRAM,POTTASSERI, PALAKKAD , KERALA, PIN-678598","SANGEETHA K V, MANAGER 04924-238272",POTTASSERY,PALAKKAD,KERALA
SIBL0000187,South Indian Bank,SIBL0000187,NON MICR,KOTHUR,"KOTHUR BRANCH, 1/27, SWAPNANJANA COMPLEX,KOTHUR, MAHBUBNAGAR, ANDHRA PRADESH, PIN-509228","APPALA NAIDU R., MANAGER 08548-257130",KOTHUR,MEHBOOBNAGAR,ANDHRA PRADESH
SIBL0000188,South Indian Bank,SIBL0000188,NON MICR,PUDUPADI,"PUDUPADI BRANCH, PP 2/383 A ,PUDUPADI,PO KAITHAPOIL , KOZHIKODE, KERALA, PIN-673023","CHANDRAN M.M., MANAGER 0495-2235235",PUDUPADI,KOZHIKODE,KERALA
SIBL0000189,South Indian Bank,SIBL0000189,NON MICR,NADUVANNUR,"NADUVANNUR BRANCH, 2/635,1ST FLOOR ,ULLERI - PERAMBRA ROAD, KOZHIKODE, KERALA, PIN-673614","JOY GEORGE, MANAGER 0496-2615292",NADUVANNUR,KOZHIKODE,KERALA
SIBL0000190,South Indian Bank,SIBL0000190,NON MICR,PULLOORAMPARA,"PULLOORAMPARA BRANCH, VIII/163 ,PUTHIAKUNNEL BUILDINGS,MAIN ROAD , KOZHIKODE, KERALA, PIN-673603","NARAYANAN R., MANAGER 0495-2276232",PULLOORAMPARA,KOZHIKODE,KERALA
SIBL0000191,South Indian Bank,SIBL0000191,NON MICR,KADAKKAVUR,"ANCHUTENGU BRANCH, DOOR NO.8/251 A , CHEKALAVILAKAM , P .O .KADAKKAVUR , THIRUVANANTHAPURAM , KERALA, PIN-695306","MARS THOMAS MADHAVATH, MANAGER",KADAKKAVOOR,TRIVANDRUM,KERALA
SIBL0000192,South Indian Bank,SIBL0000192,NON MICR,YEROOR,"YEROOR BRANCH, SN BUILDING,YEROOR,(VIA) ANCHAL, KOLLAM , KERALA, PIN-691312","JOB P.M., MANAGER 0475-2273336",YEROOR,KOLLAM,KERALA
SIBL0000193,South Indian Bank,SIBL0000193,641059008,PAPPAMPATI,"PAPPAMPATI BRANCH, 6/31 ,KALLAPALAYAM ROAD ,PAPPAMPATTI , COIMBATORE , TAMIL NADU, PIN-641016","SHANMUGASUNDARAM N.K., MANAGER 0422-2634626",COIMBATORE,COIMBOTORE,TAMIL NADU
SIBL0000194,South Indian Bank,SIBL0000194,400059005,MUMBAI NARIMAN POINT,"MUMBAI NARIMAN POINT BRANCH, 207, EMBASSY CENTRE, 8,GROUND FLOOR, GREATER MUMBAI , MAHARASHTRA , PIN-400021","BINOY VARGHESE, ASST.GENERAL MANAGER 022-22844133,22812617",MUMBAI,GREATER BOMBAY,MAHARASHTRA
SIBL0000195,South Indian Bank,SIBL0000195,NON MICR,ELAPAKAM,"ELAPAKAM BRANCH, MAIN ROAD,PINNAPOONDI ,ELAPAKKAM , KANCHEEPURAM , TAMIL NADU, PIN-603201","FRANCIS K.G., MANAGER 044-27524533",TIRUVALLUR,TIRUVALLUR,TAMIL NADU
SIBL0000196,South Indian Bank,SIBL0000196,NON MICR,ORATHI,"ORATHI BRANCH, 143-A,MAIN ROAD ,ORATHI, KANCHEEPURAM , TAMIL NADU, PIN-603307","ROZARIO MARTIN, ASST.MANAGER 044-27549922",ORATHI,KANCHEEPURAM,TAMIL NADU
SIBL0000197,South Indian Bank,SIBL0000197,NON MICR,CHERPUNKAL,"CHERPUNKAL BRANCH, 58/V ,KOICKAL BUILDING,MAIN ROAD , KOTTAYAM , KERALA, PIN-686584","ALICE AMMA ALEXANDER, SENIOR MANAGER 04822-255969",KOTTAYAM,KOTTAYAM,KERALA
SIBL0000198,South Indian Bank,SIBL0000198,NON MICR,THOLANUR,"THOLANUR BRANCH, 1/311,DENHOLM BUILDING,MAIN ROAD , PALAKKAD , KERALA, PIN-678722","MOHAMMED MOIDEEN, MANAGER 04922-287223",THOLANUR,PALAKKAD,KERALA
SIBL0000199,South Indian Bank,SIBL0000199,NON MICR,PUDUKODE,"PUDUKODE BRANCH, 3/177,ANCHUMURRY,PUDUKODE, PALAKKAD , KERALA, PIN-678687","ABRAHAM PULIKODAN C., MANAGER 04922-266241",PUDUKODE,PALAKKAD,KERALA
SIBL0000200,South Indian Bank,SIBL0000200,600059099,BODINAYAKANUR,"BODINAYAKANUR BRANCH,20/64 ,UTHAMAPALAYAM ROAD,TRR COMPLEX , THENI, TAMIL NADU, PIN-625513","THOMAS K.L., MANAGER 04546-280344",BODINAYAKANUR,THENI,TAMIL NADU
SIBL0000201,South Indian Bank,SIBL0000201,641059011,OTHAKALMANDAPAM,"OTHAKALMANDAPAM BRANCH, 10/53,SENTHILKUMAR BUILDING ,POLLACHI MAIN ROAD, COIMBATORE , TAMIL NADU, PIN-641032","SUKUMARAN K.M., MANAGER 0422-2610664",OTHAKALMANDAPAM,COIMBOTORE,TAMIL NADU
SIBL0000202,South Indian Bank,SIBL0000202,NON MICR,KANJAR,"KANJAR BRANCH, PURAYIDATHIL BUILDING,KANJAR,(VIA) THODUPUZHA, IDUKKI , KERALA, PIN-685592","SMITHA K BINDU, MANAGER 04862-252072",KANJAR,IDUKKI,KERALA
SIBL0000203,South Indian Bank,SIBL0000203,600059015,PADAPPAI,"PADAPPAI BRANCH, 2/410,BAZAR STREET,PADAPPAI, KANCHEEPURAM , TAMIL NADU, PIN-601301","LAKSHMI NARAYANAN S., MANAGER 044-27174248",PADAPPAI,KANCHEEPURAM,TAMIL NADU
SIBL0000204,South Indian Bank,SIBL0000204,NON MICR,AYYAMPETTAI,"AYYAMPETTAI BRANCH, 68/64,MELA STREET ,AYYAMPETTAI , KANCHEEPURAM , TAMIL NADU, PIN-631601","GEORGE JOHN ELINJERI, MANAGER 044-27253216",AIYAMPET,KANCHEEPURAM,TAMIL NADU
SIBL0000206,South Indian Bank,SIBL0000206,641059007,COIMBATORE NGGO COLONY,"COIMBATORE NGGO COLONY BRANCH, NGGO COLONY, KURUDAMPALAYAM ,COIMBATORE, COIMBATORE , TAMIL NADU, PIN-641022","VINCENT VELLANIKAREN, MANAGER 0422-2642327",COIMBATORE,COIMBOTORE,TAMIL NADU
SIBL0000207,South Indian Bank,SIBL0000207,680059125,KUNDALIYUR,"KUNDALIYUR BRANCH, KAKKANAT BUILDING,OPP. KUNDALIYUR POST OFFICE ,MAIN ROAD , THRISSUR , KERALA, PIN-680616","KUNJIPALU T.V., MANAGER 0487-2290223",KUNDALIYUR,TRISSUR,KERALA
SIBL0000208,South Indian Bank,SIBL0000208,NON MICR,MUTHARASANALLUR,"MUTHARASANALLUR BRANCH, 1/42 ,AGRAHARAM ,MUTHRASANALLUR, TIRUCHIRAPALLI , TAMIL NADU, PIN-620101","SRINIVASAN R., MANAGER 0431-2685233",MUTHARASSANELLOOR,TIRUCHIORAPPALLI,TAMIL NADU
SIBL0000209,South Indian Bank,SIBL0000209,NON MICR,NOCHIAM,"NOCHIAM BRANCH, 4/76 B ,TRICHY-SALEM MAIN ROAD,NOCHIAM , TIRUCHIRAPALLI , TAMIL NADU, PIN-621216","ROY MICHAAL, MANAGER 0431-2560411",NOCHIAM,TIRUCHIORAPPALLI,TAMIL NADU
SIBL0000210,South Indian Bank,SIBL0000210,NON MICR,KALLARA,"KALLARA BRANCH, ST. MARY'S CHURCH BUILDING ,KALLARA (NORTH) , KOTTAYAM , KERALA, PIN-686611","BALACHANDRAN C., MANAGER 04829-267302",KALLARA,KOTTAYAM,KERALA
SIBL0000211,South Indian Bank,SIBL0000211,NON MICR,BANAVARAM,"BANAVARAM BRANCH, 322/1,GROUND FLOOR,GANDHI ROAD , VELLORE, TAMIL NADU, PIN-632505","GEORGE N. GEORGE, MANAGER 04177-249240",BANAVARAM,VELLORE,TAMIL NADU
SIBL0000212,South Indian Bank,SIBL0000212,NON MICR,PAMPADY,"PAMPADY BRANCH,KADUVAMBHAGAM CHAMBERS,(1ST FLOOR) ,PAMPADY , KOTTAYAM , KERALA, PIN-686502","SURESH KUMAR VARMA S., MANAGER 0481-2505494",PAMPADY,KOTTAYAM,KERALA
SIBL0000213,South Indian Bank,SIBL0000213,NON MICR,CHELLANAM,"CHELLANAM BRANCH, AMJ COMPLEX,(1ST FLOOR) ,CHELLANAM , ERNAKULAM, KERALA, PIN-682008","JAYAKUMARAN T.N., MANAGER 0484-2249895",CHELLANAM,ERNAKULAM,KERALA
SIBL0000214,South Indian Bank,SIBL0000214,NON MICR,KATTANAM,"KATTANAM BRANCH, GALAXY ,BP XII - 339 B 2,KATTANAM JN KATTANAM, ALAPUZHA , KERALA, PIN-690503","GOKUL DAS J.B., MANAGER 0479-2332036",ALAPPUZHA,ALAPUZZHA,KERALA
SIBL0000215,South Indian Bank,SIBL0000215,682059016,KUMBALAM,"KUMBALAM BRANCH, KUMBALAM ,ERNAKULAM DT. ,KERALA, ERNAKULAM, KERALA, PIN-682506","GEORGE SEBASTIAN, MANAGER 0484-2700393",KUMBALAM,ERNAKULAM,KERALA
SIBL0000216,South Indian Bank,SIBL0000216,NON MICR,ODAYAMKULAM,"ODAYAMKULAM BRANCH,DOOR NO. 8/3-1,SETHUMADAI ROAD,ODAYAMKULAM ,VETTAIKARANPUDUR, COIMBATORE , TAMIL NADU, PIN-642129","RAVINDRAN C.C., MANAGER 04253-282210",ODAYAKULAM,COIMBOTORE,TAMIL NADU
SIBL0000217,South Indian Bank,SIBL0000217,NON MICR,SILAIMAN,"SILAIMAN BRANCH, GROUND FLOOR ,SUDARSANA NIWAS COMPLEX ,MAIN ROAD , MADURAI, TAMIL NADU, PIN-625201","JAGADEESAN T.S., MANAGER 0452-2465527",SILAIMAN,MADURAI,TAMIL NADU
SIBL0000218,South Indian Bank,SIBL0000218,571059502,MANDYA,"MANDYA BRANCH,17/21 ,1ST FLOOR ,VV ROAD , MANDYA , KARNATAKA , PIN-571401","RAMACHANDRAN M., MANAGER 08232-220813",MANDYA,MANDYA,KARNATAKA
SIBL0000219,South Indian Bank,SIBL0000219,683059002,ANGAMALY,"ANGAMALY BRANCH, DOOR NO. XXI/7A,BANK JN ,ALUVA ROAD, ERNAKULAM, KERALA, PIN-683572","JOSE D.PARAKKAL, SENIOR MANAGER 0484-2457010,2452802",ANGAMALY,ERNAKULAM,KERALA
SIBL0000220,South Indian Bank,SIBL0000220,NON MICR,KODUVAYUR,"KODUVAYUR BRANCH, XI/39,PANCHAYAT SHOPPING CENTRE ,MAIN ROAD , PALAKKAD , KERALA, PIN-678501","VARGHESE J., MANAGER 04923-252206",KODUVAYUR,PALAKKAD,KERALA
SIBL0000221,South Indian Bank,SIBL0000221,110059004,DELHI CHANDNI CHOWK,"DELHI CHANDNI CHOWK BRANCH, 4946-4948,PAL MARKET,CHANDNI CHOWK , DELHI, DELHI , PIN-110006","GEORGE PAUL, SENIOR MANAGER 011-23955010",DELHI,NEW DELHI,DELHI
SIBL0000222,South Indian Bank,SIBL0000222,689059001,KOZHENCHERRY,"KOZHENCHERRY BRANCH,11/698,POYANIL BUILDING,1ST FLOOR , PATHANAMTHITTA , KERALA, PIN-689641","MATHEW CHERYAN, MANAGER 0468-2210443",KOZHENCHERRY,PATHANAMTHITTA,KERALA
SIBL0000223,South Indian Bank,SIBL0000223,700059003,KOLKATA BURRA BAZAR,"KOLKATA BURRA BAZAR BRANCH, SRINIKETAN HOUSE , 25 ,KALIKRISHNA TAGORE STREET , CALCUTTA , WEST BENGAL , PIN-700007","TOMY JOSEPH, MANAGER 033-22749433",KOLKATA,KOLKATA,WEST BENGAL
SIBL0000224,South Indian Bank,SIBL0000224,682059013,KALAMASSERY,"KALAMASSERY BRANCH,PREMIER JUNCTION,KALAMASSERY , ERNAKULAM, KERALA, PIN-683104","GEORGE SEBASTIAN, CHIEF MANAGER 0484-2555003",KALAMASSERY,ERNAKULAM,KERALA
SIBL0000225,South Indian Bank,SIBL0000225,NON MICR,ERAVIPEROOR,"ERAVIPEROOR BRANCH,ERAVIPEROOR ,PATHANNAMTHITTA DT. ,KERALA, PATHANAMTHITTA , KERALA, PIN-689542","KOSHY T.T., MANAGER 0469-2664474",ERAVIPEROOR,PATHANAMTHITTA,KERALA
SIBL0000226,South Indian Bank,SIBL0000226,NON MICR,ARUMUGHAPETTAI,"ARUMUGHAPETTAI BRANCH, 7-A,P.K CHETTY STREET ,ARUMUGHAPETTAI, KANCHEEPURAM , TAMIL NADU, PIN-631605","CHINNA MADDAIAH C., MANAGER 04112-256062",KANCHIPURAM,KANCHEEPURAM,TAMIL NADU
SIBL0000227,South Indian Bank,SIBL0000227,NON MICR,DAMAL,"DAMAL BRANCH, DOOR NO. 388 ,MAIN ROAD ,DAMAL , KANCHEEPURAM , TAMIL NADU, PIN-631602","PAUL K.K., MANAGER 044-27246528",DAMAL,KANCHEEPURAM,TAMIL NADU
SIBL0000228,South Indian Bank,SIBL0000228,682059004,PALARIVATTOM,"PALARIVATTOM BRANCH,XXXV/980,JANATHA JUNCTION,PALARIVATTOM, ERNAKULAM, KERALA, PIN-682025","MAIDA MATHEW, SENIOR MANAGER 0484-2344940",KOCHI,ERNAKULAM,KERALA
SIBL0000229,South Indian Bank,SIBL0000229,600059004,CHENNAI WOODS ROAD,"CHENNAI WOODS ROAD BRANCH, 20, WOODS ROAD , CHENNAI, CHENNAI, TAMIL NADU, PIN-600002","JOSEPH T.P., CHIEF MANAGER 044-28460544",CHENNAI,CHENNAI,TAMIL NADU
SIBL0000230,South Indian Bank,SIBL0000230,NON MICR,MEPPADI,"MEPPADI BRANCH,DOOR NO MP IX/960 F ,MEBURACK BUILDING ,MEPPADI , WAYANAD, KERALA, PIN-673577","BABY A.M., MANAGER 04936-282484",MEPPADI,WAYANAD,KERALA
SIBL0000231,South Indian Bank,SIBL0000231,560059006,BANGALORE MARUTHISEVANAGAR,"BANGALORE MARUTHISEVANAGAR BRANCH, 34, GROUND FLOOR ,HANUMANTHAPPA PLAZA ,MARUTHISEVANAGAR, BANGALORE, KARNATAKA , PIN-560033","THOMAS C.K., CHIEF MANAGER 080-5461331",BANGALORE,BANGALORE URBAN,KARNATAKA
SIBL0000232,South Indian Bank,SIBL0000232,632059302,GUDIYATTAM,"GUDIYATTAM BRANCH, 277, SANTHAPET ,GUDIYATTAM, VELLORE, TAMIL NADU, PIN-632602","GEORGE JULIAN, MANAGER 04171-220456",GUDIYATTAM,VELLORE,TAMIL NADU
SIBL0000233,South Indian Bank,SIBL0000233,NON MICR,MUPLIYAM,"MUPLIYAM BRANCH, IX/57-D,MATHA SHOPPING COMPLEX,MUPLIYAM, THRISSUR , KERALA, PIN-680312","JACOB K.H., MANAGER 0480-2780227",MUPLIYAM,TRISSUR,KERALA
SIBL0000234,South Indian Bank,SIBL0000234,NON MICR,POOCHAKULAM,"POOCHAKULAM BRANCH, VII/342,POOCHAKULAM ,(CHELOOR) , THRISSUR , KERALA, PIN-680121","BABY P.J., MANAGER 0480-2821826",POOCHAKULAM(CHELOOR),TRISSUR,KERALA
SIBL0000235,South Indian Bank,SIBL0000235,577059002,DAVENGERE,"DAVENGERE BRANCH,RK MAGANAHALLI COMPLEX,294/5 ,CHAMARAJAPET, DAVENGERE, KARNATAKA , PIN-577001","THOMAS K.MANAVALAN, SENIOR MANAGER 08192-257654",DAVANGERE,DAVANAGARE,KARNATAKA
SIBL0000236,South Indian Bank,SIBL0000236,695059004,TRIVANDRUM CHACKAI,"KADAKAMPALLY BRANCH, T.C.NO. 31/1398 (3), N.H BYEPASS ROAD , CHAKKAI JUNCTION, P.O. PETTAH, THIRUVANANTHAPURAM , KERALA, PIN-695024","MERCY THANIKKAL, SENIOR MANAGER 0471-2505205",THIRUVANANTHAPURAM,TRIVANDRUM,KERALA
SIBL0000237,South Indian Bank,SIBL0000237,NON MICR,KANNANALLOOR,"KANNANALLOOR BRANCH, TP - VI/170,KOLLAM ROAD ,KANNANALLOOR, KOLLAM , KERALA, PIN-691576","PAUL K.J., MANAGER 0474-2501012",KOLLAM,KOLLAM,KERALA
SIBL0000238,South Indian Bank,SIBL0000238,NON MICR,ANJOOR,"ANJOOR BRANCH, ANJOOR ,P.O THOZHIYUR ,(VIA) KUNNAMKULAM , THRISSUR , KERALA, PIN-680520","JOHN I.V., MANAGER 0487-2681039",ANJOOR,TRISSUR,KERALA
SIBL0000239,South Indian Bank,SIBL0000239,NON MICR,MURIKKASSERY,"MURIKKASSERY BRANCH, PATHICATT BUILDING ,KARIMPANA ROAD,IDUKKI COLONY , IDUKKI , KERALA, PIN-685602","GEORGE M.P., MANAGER 04868-263244",MURIKKASSERY,IDUKKI,KERALA
SIBL0000240,South Indian Bank,SIBL0000240,686059001,KAPPAD,"THAMBALAKKAD BRANCH, KOZHIMALA BUILDING , K.E. ROAD, KAPPAD, KOTTAYAM , KOTTAYAM , KERALA, PIN-686508","VARGHESE M.A., MANAGER 04828-236933",KOTTAYAM,KOTTAYAM,KERALA
SIBL0000241,South Indian Bank,SIBL0000241,NON MICR,KARIAMANICKAM,"KARIAMANICKAM BRANCH, 202/1,PILLAYAR KOVIL STREET ,KARIAMANICKAM , TIRUCHIRAPALLI , TAMIL NADU, PIN-621005","THILAK KUMAR D., MANAGER 0431-2655221",MANACHANALLUR,TIRUCHIORAPPALLI,TAMIL NADU
SIBL0000242,South Indian Bank,SIBL0000242,NON MICR,UDIYANKULANGARA,"UDIYANKULANGARA BRANCH, X/1330 ,NOHA COMPLEX,MAIN ROAD , THIRUVANANTHAPURAM , KERALA, PIN-695122","MINU GEORGE, MANAGER 0471-2215209",THIRUVANANTHAPURAM,TRIVANDRUM,KERALA
SIBL0000243,South Indian Bank,SIBL0000243,NON MICR,KALIYAR,"KALIYAR BRANCH, THOPPIL BUILDINGS,KALIYAR ,(VIA) THODUPUZHA, IDUKKI , KERALA, PIN-685582","FRANCIS K.K., MANAGER 04862-245342",KALIYAR,IDUKKI,KERALA
SIBL0000245,South Indian Bank,SIBL0000245,NON MICR,PASUMATHUR,"PASUMATHUR BRANCH, PM COMPLEX ,1ST FLOOR ,1/120 BUS STAND , VELLORE, TAMIL NADU, PIN-635803","SASEENDRAN P.C., MANAGER 04171-244229",PASUMATHUR,VELLORE,TAMIL NADU
SIBL0000246,South Indian Bank,SIBL0000246,500059003,SECUNDERABAD,"SECUNDERABA0D BRANCH, 1-7-395, GROUND FLOOR, SAROJINI DEVI ROAD , SECUNDERABAD , HYDERABAD, ANDHRA PRADESH, PIN-500003","LAKSHMI PRABHA T M, CHIEF MANAGER 040-27845170",HYDERABAD,HYDERABAD URBAN,ANDHRA PRADESH
SIBL0000247,South Indian Bank,SIBL0000247,NON MICR,PANANGAD,"PANANGAD BRANCH, PANANGAD ,PO THALAYAD ,(VIA) UNNIKULAM , KOZHIKODE, KERALA, PIN-673574","GOVIND B., MANAGER 0495-2270262",UNNIKULAM,KOZHIKODE,KERALA
SIBL0000248,South Indian Bank,SIBL0000248,533059102,RAJAHMUNDRY,"RAJAHMUNDRY BRANCH,7-28-2,1ST FLOOR ,HOTEL KALINGA BLDG, EAST GODAVARI, ANDHRA PRADESH, PIN-533101","KONDOLA RAO J., MANAGER 0883-2442643",RAJAHMUNDRY,EAST GODAVARI,ANDHRA PRADESH
SIBL0000249,South Indian Bank,SIBL0000249,NON MICR,KAJULURU,"KAJULURU BRANCH, KAJULURU ,EAST GODAVARI DT. ,ANDHRA PRADESH. , EAST GODAVARI, ANDHRA PRADESH, PIN-533263","D.S.S.SRINIVAS, MANAGER 0884-2330434",KAJULURU,EAST GODAVARI,ANDHRA PRADESH
SIBL0000250,South Indian Bank,SIBL0000250,NON MICR,ERIYAD,"ERIYAD BRANCH, ERIYAD ,, THRISSUR , KERALA, PIN-680666","JOY P.J., MANAGER 0480-2819796",ERIYAD,TRISSUR,KERALA
SIBL0000251,South Indian Bank,SIBL0000251,NON MICR,PAKALKURI,"PAKALKURI BRANCH, RAMA NILAYAM ,PAKALKURI , THIRUVANANTHAPURAM , KERALA, PIN-695604","ANTONY P.C., MANAGER 0470-2682046",PAKALKURI,TRIVANDRUM,KERALA
SIBL0000252,South Indian Bank,SIBL0000252,NON MICR,KOTIPALLI,"KOTIPALLI BRANCH, 4/09,PANCHAYATH ROAD ,KOTTIPALLI, EAST GODAVARI, ANDHRA PRADESH, PIN-533306","SANAPALA VENKITESWARA RAO, MANAGER 08857-255435",KOTIPALLY,EAST GODAVARI,ANDHRA PRADESH
SIBL0000253,South Indian Bank,SIBL0000253,612059002,KUMBAKONAM,"KUMBAKONAM BRANCH,40-43 ,SARANGAPANI SOUTH STREET,KUMBAKONAM, THANJAVUR, TAMIL NADU, PIN-612001","RAMANI N.S., MANAGER 0435-2421619",KUMBAKONAM,THANJAVUR,TAMIL NADU
SIBL0000254,South Indian Bank,SIBL0000254,627059002,TIRUNELVELI,"TIRUNELVELI BRANCH,HOTEL BLUESTAR COMPLEX, 32 ,MADURAI ROAD, TIRUNELVELI, TAMIL NADU, PIN-627001","TONY JOSE V., MANAGER 0462-2333743",MADURAI,MADURAI,TAMIL NADU
SIBL0000255,South Indian Bank,SIBL0000255,NON MICR,MARAPPARAI,"MARAPPARAI BRANCH, 2/28, KVR BUILDINGS,MARAPPARAI,PO VIAPPAMALAI, TAMIL NADU, PIN-637410","ROJI THOMAS, MANAGER 04288-233262",SALEM,SALEM,TAMIL NADU
SIBL0000256,South Indian Bank,SIBL0000256,NON MICR,UPPATTI,"UPPATTI BRANCH, ST. GEORGE BUILDING,MAIN ROAD ,UPPATTI , NILGIRI, TAMIL NADU, PIN-643241","JOSE P.V., MANAGER 04262-220256",UDHAGAMANDALAM,NILGIRIS,TAMIL NADU
SIBL0000257,South Indian Bank,SIBL0000257,NON MICR,CHEMBANODA,"CHEMBANODA BRANCH, MAIN ROAD,CHEMBANODA,(VIA) PERUVANNAMUZHI, KOZHIKODE, KERALA, PIN-673528","CHARLY THOMAS, MANAGER 0496-2666277",CHEMBANODA,KOZHIKODE,KERALA
SIBL0000258,South Indian Bank,SIBL0000258,570059002,MYSORE,"MYSORE BRANCH,50 & 51 ,1ST FLOOR ,DEVRAJ URS ROAD , MYSORE , KARNATAKA , PIN-570001","DAVIS C.J., SENIOR MANAGER 0821-2424979",MYSORE,MYSORE,KARNATAKA
SIBL0000259,South Indian Bank,SIBL0000259,59000,KARETTE,"KARETTE BRANCH, VI/31A ,PADMANABHA BUILDING ,KARETTE -PO VAMANAPURAM , THIRUVANANTHAPURAM , KERALA, PIN-695606","CHANDRAKUMAR K., MANAGER 0470-2836336",THIRUVANANTHAPURAM,TRIVANDRUM,KERALA
SIBL0000260,South Indian Bank,SIBL0000260,NON MICR,PULPALLY,"PULPALLY BRANCH, MAIN ROAD,PULPALLY,(VIA) SULTHAN BATHERY , WAYANAD, KERALA, PIN-673579","TONY VARGHESE, MANAGER 04936-240275",PULPALLY,WAYANAD,KERALA
SIBL0000261,South Indian Bank,SIBL0000261,689059052,CHENGANNUR,"CHENGANNUR BRANCH,J & M SHOPPING COMPLEX,(1ST FLR) ,OPP. KSRTC BUS STAND, ALAPUZHA , KERALA, PIN-689121","STEBI K.A., MANAGER 0479-2455002",CHENGANNUR,ALAPUZZHA,KERALA
SIBL0000262,South Indian Bank,SIBL0000262,700059004,KOLKATA BRABOURNE ROAD,"KOLKATA BRABOURNE ROAD (P.C STR) BRANCH,VAISHNO CHAMBERS,6 ,BRABOURNE ROAD , CALCUTTA , WEST BENGAL , PIN-700001","JOY STANSLUS MATHEW, SENIOR MANAGER 033-22343559",KOLKATA,KOLKATA,WEST BENGAL
SIBL0000263,South Indian Bank,SIBL0000263,400059003,MUMBAI FORT BRANCH,"MUMBAI FORT BRANCH,EMCA HOUSE (GROUND FLOOR) , 289,SB SINGH ROAD , GREATER MUMBAI , MAHARASHTRA , PIN-400038","ABRAHAM K.GEORGE, ASST.GENERAL MANAGER 022-22611209,22658974",MUMBAI,GREATER BOMBAY,MAHARASHTRA
SIBL0000264,South Indian Bank,SIBL0000264,NON MICR,INTERNATIONAL BANKING DIVISION ERNAKULAM,"FOREIGN EXCH DEPT CENTRAL OFFICE, 1ST FLOOR, DHARMODAYAM BUIDINGS, SHANMUGHAM ROAD, KERALA, 682031",,KOCHI,ERNAKULAM,KERALA
SIBL0000265,South Indian Bank,SIBL0000265,NON MICR,KATHIKUDAM,"KATHIKUDAM BRANCH, KATHIKUDAM ,(VIA) KORATTY , THRISSUR , KERALA, PIN-680308","GEORGE M.I., MANAGER 0480-2718112",KATHIKUDAM,TRISSUR,KERALA
SIBL0000266,South Indian Bank,SIBL0000266,400059004,MUMBAI GIRGAUM,"MUMBAI GIRGAUM BRANCH,163-165 ,ANAND BHAVAN,V.P ROAD, GREATER MUMBAI , MAHARASHTRA , PIN-400004","JEEVANDAS N.B., MANAGER 022-23854875,23826504",MUMBAI,GREATER BOMBAY,MAHARASHTRA
SIBL0000267,South Indian Bank,SIBL0000267,700059006,KOLKATA BALLYGUNGE,"KOLKATA BALLYGUNGE BRANCH, 48,LEELA ROY SARANI GARIAHAT RD,MAYURA CENTRE BALLYGUNGE,KOLKATA , CALCUTTA , WEST BENGAL , PIN-700019","KURIAN ALEX, MANAGER 033-24617623,24617624",KOLKATA,KOLKATA,WEST BENGAL
SIBL0000268,South Indian Bank,SIBL0000268,638059008,ENNAMANGALAM,"ENNAMANGALAM BRANCH, IV - 3/54-B,AMMANKOIL STREET,ENNAMANGALAM, ERODE, TAMIL NADU, PIN-638501","PHILIP NAVARATNAM R., MANAGER 04256-251143",ENNAMANGALAM,ERODE,TAMIL NADU
SIBL0000269,South Indian Bank,SIBL0000269,673059004,KOZHIKODE WEST HILL,"KOZHIKODE WEST HILL BRANCH, RAJARAM BUILDING (1ST FLOOR) ,CANNANORE ROAD, KOZHIKODE, KERALA, PIN-673006","GEORGE P.J., SENIOR MANAGER 0495-2368021",CALICUT,KOZHIKODE,KERALA
SIBL0000271,South Indian Bank,SIBL0000271,690059101,MAVELIKARA,"MAVELIKARA BRANCH, 6/168B ,FIRST FLOOR, , SAMUEL BUILDINGS , NADAKAVU , ALAPUZHA , KERALA, PIN-690101","MADHU M, SENIOR MANAGER 0479-2307855",MAVELIKKARA,ALAPUZZHA,KERALA
SIBL0000272,South Indian Bank,SIBL0000272,NON MICR,PERUMPUZHA,"PERUMPUZHA BRANCH, IX/743 ,SAI MANDIRAM,KUNDARA - KOTTIYAM ROAD , KOLLAM , KERALA, PIN-691504","NASIMUDEEN A., MANAGER 0474-2522573",KOLLAM,KOLLAM,KERALA
SIBL0000273,South Indian Bank,SIBL0000273,NON MICR,MELULIYAZHATHARA,"MELULIYAZHATHARA BRANCH, X/388,MELULIYAZHATHARA,PO AYIROOPARA , THIRUVANANTHAPURAM , KERALA, PIN-695584","PREMKUMAR S., MANAGER 0471-2419325",POTHENCODE,TRIVANDRUM,KERALA
SIBL0000274,South Indian Bank,SIBL0000274,NON MICR,KANIYALAMPATTI,"KANIYALAMPATTI BRANCH, 4/36,A-3 ,MAIN ROAD ,KANIYALAMPATTI, KANIYALAMPATTI - 621 301 , TAMIL NADU, PIN-621301","KURIAKOSE C.J., MANAGER 04323-255336",KANIYALAMPATTY,KARUR,TAMIL NADU
SIBL0000275,South Indian Bank,SIBL0000275,NON MICR,CHINNAKANAL,"CHINNAKANAL BRANCH, 1/278,MAIN ROAD ,CHINNAKANAL , IDUKKI , KERALA, PIN-685618","MATHEWS T.S., MANAGER 04868-249310",CHINNAKANAL,IDUKKI,KERALA
SIBL0000277,South Indian Bank,SIBL0000277,641059005,COIMBATORE SAIBABA COLONY,"COIMBATORE SAIBABA COLONY BRANCH, 62/431-435, NSR ROAD , SAIBABA COLONY , COIMBATORE , TAMIL NADU, PIN-641011","VARGHESE A.P., SENIOR MANAGER 0422-2430985",COIMBATORE,COIMBOTORE,TAMIL NADU
SIBL0000278,South Indian Bank,SIBL0000278,NON MICR,KADAVALLUR,"KADAVALLUR BRANCH, 1/517,1ST FLOOR ,HIGH WAY, THRISSUR , KERALA, PIN-680543","LISSIKUTTY K E, MANAGER 04885-282341",KADAVALLUR,TRISSUR,KERALA
SIBL0000279,South Indian Bank,SIBL0000279,560059009,BANGALORE MALLESWARAM,"BANGALORE MALLESWARAM BRANCH, 230, 1ST FLOOR ,15TH CROSS,MALLESWARAM , BANGALORE, KARNATAKA , PIN-560003","BHAT NARASIMHA MURTHY M., SENIOR MANAGER 080-23348404,23368321",BANGALORE,BANGALORE URBAN,KARNATAKA
SIBL0000280,South Indian Bank,SIBL0000280,607059002,CUDDALORE,"CUDDALORE BRANCH, NO. 2,CAR STREET,TIRUPAPULIUR, CUDDALORE, TAMIL NADU, PIN-607002","SATHEESH P.R., MANAGER 04142-236374",CUDDALORE,CUDDALORE,TAMIL NADU
SIBL0000281,South Indian Bank,SIBL0000281,NON MICR,AKALAKUNNAM,"AKALAKUNNAM BRANCH, AKALAKUNNAM,P.O KANJIRAMATTAM ,(VIA) CHENGALAM , KOTTAYAM , KERALA, PIN-686585","ANTONY MATHEW M., MANAGER 0481-2704242",AKALAKUNNAM,KOTTAYAM,KERALA
SIBL0000282,South Indian Bank,SIBL0000282,600059009,CHENNAI ANNA NAGAR,"CHENNAI ANNA NAGAR BRANCH, 995 E,2ND AVENUE ANNA NAGAR ,CHENNAI , CHENNAI, TAMIL NADU, PIN-600040","CHITHRA H, CHIEF MANAGER 044-26161760",CHENNAI,CHENNAI,TAMIL NADU
SIBL0000284,South Indian Bank,SIBL0000284,NON MICR,PADUR,"PADUR BRANCH, GST ROAD ,PARI NAGAR,(NH 45) , VILLUPURAM , TAMIL NADU, PIN-606115","SREENIVASAN R.S., MANAGER 04149-209749",PADUR,VILLUPURAM,TAMIL NADU
SIBL0000286,South Indian Bank,SIBL0000286,NON MICR,PACHAMBALA,"PACHAMBALA BRANCH, SIDDIQUE COMPLEX ,PACHAMBLA ,PO ICHILANGODE, KASARAGOD, KERALA, PIN-671324","JOY C.L., MANAGER 04988-63156",PACHAAMBALA,KASARAGOD,KERALA
SIBL0000287,South Indian Bank,SIBL0000287,NON MICR,GOOLIKADAVU,"GOOLIKADAVU BRANCH, FATHIMA MATHA COMPLEX,GOOLIKADAVU ,ATTAPADY, PALAKKAD , KERALA, PIN-678581","CHANDRAN E., MANAGER 04924-254405",PALAKKAD,PALAKKAD,KERALA
SIBL0000288,South Indian Bank,SIBL0000288,NON MICR,DHEEVANUR,"DHEEVANUR BRANCH, CHURCH BUILDINGS ,6/42,MAIN ROAD , VILLUPURAM , TAMIL NADU, PIN-604206","RAMAKRISHNAN R., MANAGER 04145-235223",DHEEVANUR,VILLUPURAM,TAMIL NADU
SIBL0000290,South Indian Bank,SIBL0000290,600059016,SRIPERUMBUDUR,"SRIPERUMBUDUR BRANCH, NO. 119 A,GANDHI ROAD ,SRIPERUMBUDUR , KANCHEEPURAM , TAMIL NADU, PIN-602105","THANASEKARAN M., MANAGER 044-27162177",SRIPERUMBUDUR,KANCHEEPURAM,TAMIL NADU
SIBL0000291,South Indian Bank,SIBL0000291,NON MICR,NELVOY,"NELVOY BRANCH, NELVOY ,(VIA) SALAVAKKAM, KANCHEEPURAM , TAMIL NADU, PIN-603107","JAMES MATHEWS C., MANAGER 044-27272219",NELVOY,KANCHEEPURAM,TAMIL NADU
SIBL0000293,South Indian Bank,SIBL0000293,638059005,INGUR,"INGUR BRANCH, SAKTHI COMPLEX ,14/14 ,1ST FLOOR , ERODE, TAMIL NADU, PIN-638058","DEIVASIGAMANI R., MANAGER 04294-230236",INGUR,ERODE,TAMIL NADU
SIBL0000294,South Indian Bank,SIBL0000294,641059006,PALLAPALAYAM,"PALLAPALAYAM BRANCH, 155, TRICHY ROAD ,GANDHI NAGAR,PALLAPALAYAM, COIMBATORE , TAMIL NADU, PIN-641016","PRAKASH M.K., SENIOR MANAGER 0422-2273420",COIMBATORE,COIMBOTORE,TAMIL NADU
SIBL0000295,South Indian Bank,SIBL0000295,NON MICR,JAVADUPATTY,"JAVADUPATTY BRANCH, 108-A,WARD NO. 3,JAVADUPATTY , DINDIGUL , TAMIL NADU, PIN-624704","SANKARAMANI VARADARAJAN, MANAGER 04553-220292",JAVADUPATTY,DINDIGUL,TAMIL NADU
SIBL0000296,South Indian Bank,SIBL0000296,NON MICR,POGALUR,"POGALUR BRANCH, 6/70 ,POGALUR , COIMBATORE , TAMIL NADU, PIN-641697","PAUL FRANCIS N., MANAGER 04254-262494",POGALUR,COIMBOTORE,TAMIL NADU
SIBL0000297,South Indian Bank,SIBL0000297,NON MICR,ELAMBULASSERY,"THANNEER PANTHAL VIA, KARAKKURISSY, ELAMBULASSERY P.O, PALAKKAD DIST. KERALA 678 595","ALBY PETER , PH : 022-22611209, 22658977",SRIKRISHNAPURAM,PALAKKAD,KERALA
SIBL0000299,South Indian Bank,SIBL0000299,680059006,THRISSUR MISSION QUARTERS,"THRISSUR MISSION QUARTERS BRANCH, OPP. ALL SAINTS CHURCH ,MAIN ROAD ,MISSION QUARTERS, THRISSUR , KERALA, PIN-680001","THOMAS A.A., CHIEF MANAGER 0487-2428090",THRISSUR,TRISSUR,KERALA
SIBL0000300,South Indian Bank,SIBL0000300,NON MICR,ANANDAVADI,"ANANDAVADI BRANCH, 7/41-2 ,POST OFFICE ROAD,ANANDAVADI, ARIYALUR , TAMIL NADU, PIN-621718","VARGHESE MATHEWS, MANAGER 04329-291444",ANANDAVADI,PERAMBALUR,TAMIL NADU
SIBL0000301,South Indian Bank,SIBL0000301,NON MICR,T. SUBBULAPURAM,"T. SUBBULAPURAM BRANCH, 2/214,MAIN ROAD ,T. SUBBULAPURAM , T SUBBULAPURAM - 626 536 , TAMIL NADU, PIN-626536","VARGHESE KOSHY P., MANAGER 04546-242221",T.SUBBULAPURAM,THENI,TAMIL NADU
SIBL0000302,South Indian Bank,SIBL0000302,636059003,SALEM LEIGH BAZAR,"SALEM LEIGH BAZAR BRANCH, SREE LAKSHMI COMPLEX ,4/33,OMALUR MAIN ROAD, SALEM, TAMIL NADU, PIN-636004","SARAVANAN M, SENIOR MANAGER 0427-2443451,2431007",SALEM,SALEM,TAMIL NADU
SIBL0000303,South Indian Bank,SIBL0000303,110059005,DELHI ROHINI,"DELHI ROHINI BRANCH,VIKAS PLAZA PLOT NO. 2,SPACE NO. 103 ,COMMUNITY CENTRE, DELHI, DELHI , PIN-110085","RAJESH P.S., MANAGER 011-27942185",DELHI,NEW DELHI,DELHI
SIBL0000304,South Indian Bank,SIBL0000304,NON MICR,BELLADI,"BELLADI BRANCH, 2/285-G,CHINNATHOTTIPALAYAM ,BELLADI , COIMBATORE , TAMIL NADU, PIN-641104","KRISHNA MOORTHY V., MANAGER 04254-272530 ",BELLADI,COIMBOTORE,TAMIL NADU
SIBL0000305,South Indian Bank,SIBL0000305,600059001,CHENNAI SERVICE,"CHENNAI SERVICE BRANCH, 19 ,GROUND FLOOR , ,MOUNT ROAD,OPP: ANNASALAI HPO , CHENNAI, TAMIL NADU, PIN-600002","EMMANUEL J., SENIOR MANAGER 044-28544080",CHENNAI,CHENNAI,TAMIL NADU
SIBL0000306,South Indian Bank,SIBL0000306,395059002,SURAT,"SURAT BRANCH, ASHA HOUSE GROUND FLOOR, , 21ST CENTURY BUSINESS CENTRE , C- BUILDING, BESIDE WORLD, SURAT, GUJARAT , PIN-395002","SIVARAMAN K., SENIOR MANAGER 0261-2321946",SURAT,SURAT,GUJARAT
SIBL0000307,South Indian Bank,SIBL0000307,682059005,ERNAKULAM (NRI),"ERNAKULAM (NRI) BRANCH, NRI BRANCH ,GCDA COMMERCIAL COMPLEX ,MARINE DRIVE, ERNAKULAM, KERALA, PIN-682031","FRANCIS XAVIER KIDANGHAN, SENIOR MANAGER 0484-2373301,2380580",KOCHI,ERNAKULAM,KERALA
SIBL0000308,South Indian Bank,SIBL0000308,800059002,PATNA,"PATNA BRANCH, 1ST FLOOR,SARYUG COMPLEX,NEHRU NAGAR , PATNA, BIHAR , PIN-800013","DHANANJAY KUMAR, MANAGER 0612-2264343",PATNA,PATNA,BIHAR
SIBL0000309,South Indian Bank,SIBL0000309,400059006,MUMBRA BRANCH,"MUMBRA BRANCH, GROUND FLOOR ,RAVI CO-OP. HOUSING SOCIETY LTD ,AMRUT NAGAR , MUMBRA-400 612 , MAHARASHTRA , PIN-400612","NISHAT M.J., MANAGER 022-25469200",THANE,THANE,MAHARASHTRA
SIBL0000310,South Indian Bank,SIBL0000310,641059003,COIMBATORE R S PURAM,"COIMBATORE INDUSTRIAL FINANCE BRANCH,D NO. 1084,TRICHY ROAD ,SUNGAM, COIMBATORE , TAMIL NADU, PIN-641018","PIUS P.L., CHIEF MANAGER 0422-2303539",COIMBATORE,COIMBOTORE,TAMIL NADU
SIBL0000311,South Indian Bank,SIBL0000311,682059006,"ERNAKULAM OVERSEAS BRANCH,","ERNAKULAM OVERSEAS BRANCH, OVERSEAS BRANCH,DOOR NO. 33/2171.A1 ,BYE PASS JUNCTION , ERNAKULAM, KERALA, PIN-682028","JAMES T., CHIEF MANAGER 0484-2803070,2805740",KOCHI,ERNAKULAM,KERALA
SIBL0000312,South Indian Bank,SIBL0000312,600059010,CHENNAI INDUSTRIAL FINANCE BRANCH,"CHENNAI INDUSTRIAL FINANCE BRANCH, 110, RAHEJA TOWERS , 177,ANNA SALAI, CHENNAI, TAMIL NADU, PIN-600002","MURALEEDHARAN P., ASST.GENERAL MANAGER 044-28603964,28603965",CHENNAI,CHENNAI,TAMIL NADU
SIBL0000313,South Indian Bank,SIBL0000313,682059008,KAKKANAD,"D.NO-426/B, TRANS AVENUE, MAVELIPURAM, KAKKANAD, KOCHI-682030","MOHAN KUMAR M.P., MANAGER 0484 - 2421883",KAKKANAD,ERNAKULAM,KERALA
SIBL0000314,South Indian Bank,SIBL0000314,NON MICR,MALLAPALLY BRANCH,"MALLAPALLY BRANCH, 13/1 ,KARAKKAL BUILDING ,CENTRAL JUNCTION, PATHANAMTHITTA , KERALA, PIN-689585","PRASAD P., MANAGER 0469-2780113,2681981",MALLAPPALLY,PATHANAMTHITTA,KERALA
SIBL0000315,South Indian Bank,SIBL0000315,NON MICR,KANJIKUZHY,"KANJIKUZHY BRANCH, VI/29-G,JUNCTION,KANJIKUZHY, KOTTAYAM , KERALA, PIN-686004","THRESIAMMA JOSEPH, SENIOR MANAGER 0481-2572902",KOTTAYAM,KOTTAYAM,KERALA
SIBL0000316,South Indian Bank,SIBL0000316,689059003,PATHANAMTHITTA,"PATHANAMTHITTA BRANCH, XII/632,INDU INTERNATIONAL BUILDING ,PATHANAMTHITTA, PATHANAMTHITTA , KERALA, PIN-689645","JOSEPH K.GEORGE, SENIOR MANAGER 0468-2225107",PATHANAMTHITTA,PATHANAMTHITTA,KERALA
SIBL0000317,South Indian Bank,SIBL0000317,680059103,VATANAPALLY,"VATANAPALLY BRANCH,7/889 -A,MC BUILDING ,VATANAPALLY , THRISSUR , KERALA, PIN-680614","DAVIS P.J., MANAGER 0487-2601117",VADANAPPALLY,TRISSUR,KERALA
SIBL0000318,South Indian Bank,SIBL0000318,390059002,VADODARA (BARODA),"VADODARA (BARODA) BRANCH,1ST FLOOR ,ORIENT BUSINESS CENTRE,OPP. SURAJ PLAZA, VADODARA , GUJARAT , PIN-390005","VINOD K K, MANAGER 0265-2361084",VADODARA,VADODARA,GUJARAT
SIBL0000320,South Indian Bank,SIBL0000320,680059019,KECHERI,"KECHERI BRANCH, REGENT SHOPPING COMPLEX,(1ST FLOOR) ,MAIN ROAD , THRISSUR , KERALA, PIN-680501","JOHNY M.L., MANAGER 04885-242494",KECHERY,TRISSUR,KERALA
SIBL0000321,South Indian Bank,SIBL0000321,671059002,KASARGOD,"KASARGOD BRANCH,PADOOR SHOPPING COMPLEX ,NEAR NEW BUS STAND,KASARGOD, KASARAGOD, KERALA, PIN-671121","THOMAS T KADAVIL, MANAGER 04994-220999",KASARAGOD,KASARAGOD,KERALA
SIBL0000322,South Indian Bank,SIBL0000322,689059002,RANNI,"RANNI BRANCH, 11/391 ,PUTHENVEETIL BUILDING ,PAZHAVANGADI PO , PATHANAMTHITTA , KERALA, PIN-689673","KURIAN OOMMEN, MANAGER 04735-229544",KOTTAYAM,KOTTAYAM,KERALA
SIBL0000323,South Indian Bank,SIBL0000323,NON MICR,UZHAVOOR,"UZHAVOOR BRANCH, VATTAKULATHIL BUILDING ,PALA- KOOTHATTUKULAM ROAD , UZHAVOOR , KOTTAYAM , KERALA, PIN-686634","NISHA C M, MANAGER 04822-240577",KOTTAYAM,KOTTAYAM,KERALA
SIBL0000324,South Indian Bank,SIBL0000324,NON MICR,KARUKACHAL,"KARUKACHAL BRANCH, 1ST FLOOR V/627 -B ,ST. JOHN BAPTIST'S, FORANE CHURCH BUILDING , KOTTAYAM , KERALA, PIN-686540","THOMAS P.T., MANAGER 0481-2487028",KARUKACHAL,KOTTAYAM,KERALA
SIBL0000325,South Indian Bank,SIBL0000325,685059002,THODUPUZHA,"THODUPUZHA BRANCH, DOOR NO. 409/8 ,PLAZA PULIMOOTTIL ,PALA ROAD , IDUKKI , KERALA, PIN-685584","JOJO ANTONY, SENIOR MANAGER 04862-226902",KOCHI,ERNAKULAM,KERALA
SIBL0000326,South Indian Bank,SIBL0000326,680059452,TRIPRAYAR,"TRIPRAYAR BRANCH,SALMATH SHOPPING COMPLEX,IV/459,TEMPLE ROAD , THRISSUR , KERALA, PIN-680566","GOVINDANKUTTY A., SENIOR MANAGER 0487-2392903 ",TRIPRAYAR,TRISSUR,KERALA
SIBL0000327,South Indian Bank,SIBL0000327,639059002,KARUR,"KARUR BRANCH,SENGUNTHAPURAM,1ST CROSS ROAD,NEAR AJANTHA THEATRE, KARUR, TAMIL NADU, PIN-639002","BABULAL G., MANAGER 04324-238542",KARUR,KARUR,TAMIL NADU
SIBL0000328,South Indian Bank,SIBL0000328,679059099,CHANGARAMKULAM (NRI),"CHANGARAMKULAM (NRI) BRANCH, NRI BRANCH ,MAS SHOPPING COMPLEX,NARINIPUZHA ROAD, MALAPPURAM , KERALA, PIN-679575","SEBASTIAN K.M., MANAGER 0494-2650869",MALAPPURAM,MALAPURAM,KERALA
SIBL0000329,South Indian Bank,SIBL0000329,679059101,PERINTHALMANNA,"PERINTHALMANNA BRANCH,ST. JOSEPH'S PRESS BUILDING ,KOZHIKODE ROAD,PERINTHALMANNA, MALAPPURAM , KERALA, PIN-679322","JOSE M.L., MANAGER 04933-226645",CALICUT,KOZHIKODE,KERALA
SIBL0000330,South Indian Bank,SIBL0000330,691059001,ADOOR,"ADOOR BRANCH,NUASS BUILDING,CENTRAL TOLL JUNCTION ,ADOOR , PATHANAMTHITTA , KERALA, PIN-691523","THIYAGARAJAN V.K, MANAGER 04734-228670",ADOOR,PATHANAMTHITTA,KERALA
SIBL0000331,South Indian Bank,SIBL0000331,NON MICR,ANGAMALY (NRI),"ANGAMALY (NRI) BRANCH,DOOR NO. XXI/7H ,BANK JN ,ALUVA ROAD, ERNAKULAM, KERALA, PIN-683572","VARGHESE C.D., SENIOR MANAGER 0484-2454462",ANGAMALY,ERNAKULAM,KERALA
SIBL0000332,South Indian Bank,SIBL0000332,NON MICR,CHAVAKAD (NRI),"CHAVAKAD (NRI) BRANCH,22/546-C(I) ,MUNICIPAL SHOPPING COMPLEX,MAIN ROAD , THRISSUR , KERALA, PIN-680506","JOHN M. JACOB, MANAGER 0487-2509127",CHAVAKKAD,TRISSUR,KERALA
SIBL0000333,South Indian Bank,SIBL0000333,680059203,IRINJALAKUDA (NRI),"IRINJALAKUDA (NRI) BRANCH,XVIII/343 ,BLAZE COURT ,MAIN ROAD , THRISSUR , KERALA, PIN-680121","THOMAS N.I., MANAGER 0480-2821760",IRINJALAKUDA,TRISSUR,KERALA
SIBL0000334,South Indian Bank,SIBL0000334,680059334,THRISSUR ROAD BRANCH KUNNAMKULAM,"KUNNAMKULAM (NRI) BRANCH,D. NO. XV/531C,ONERIO BUSINESS CENTRE,THRISSUR ROAD , THRISSUR , KERALA, PIN-680503","NARAYANAN V.C., MANAGER 04885-224912",KUNNAMKULAM,TRISSUR,KERALA
SIBL0000335,South Indian Bank,SIBL0000335,NON MICR,VAZHAKULAM,"VAZHAKULAM BRANCH, PULPARAMBIL SHOPPING COMPLEX ,VAZHAKULAM, ERNAKULAM, KERALA, PIN-686670","JOY P.P., MANAGER 0485-2260499",VAZHAKULAM,ERNAKULAM,KERALA
SIBL0000336,South Indian Bank,SIBL0000336,695059005,THIRUVANANTHAPURAM (NRI),"THIRUVANANTHAPURAM (NRI) BRANCH, NRI BRANCH ,MAR BASELIOUS BUILDING,(GROUND FLOOR), THIRUVANANTHAPURAM , KERALA, PIN-695039","PRADEEP V.N, MANAGER 0471-2333089,2337635",THIRUVANANTHAPURAM,TRIVANDRUM,KERALA
SIBL0000337,South Indian Bank,SIBL0000337,NON MICR,PANDALAM,"PANDALAM BRANCH,DOOR NO. X/785,M C ROAD,PANDALAM, PATHANAMTHITTA , KERALA, PIN-689501","SAJAN GEORGE, MANAGER 04734-253301",KOTTAYAM,KOTTAYAM,KERALA
SIBL0000338,South Indian Bank,SIBL0000338,641059103,TIRUPUR OVERSEAS BRANCH,"TIRUPUR OVERSEAS BRANCH, KMA BUILDINGS,1-A ,EASWARAN KOIL STREET NORTH, COIMBATORE , TAMIL NADU, PIN-641604","KRISHNA KUMAR P., MANAGER 0421-2242434",COIMBATORE,COIMBOTORE,TAMIL NADU
SIBL0000340,South Indian Bank,SIBL0000340,NON MICR,CHANGANACHERRY (NRI),"CHANGANACHERRY (NRI) BRANCH,NRI BRANCH, DOCTOR'S TOWERS (1ST FLOOR),MC ROAD , KOTTAYAM , KERALA, PIN-686101","DEVASSIA K.P., SENIOR MANAGER 0481-2410688",CHANGANASSERY,KOTTAYAM,KERALA
SIBL0000341,South Indian Bank,SIBL0000341,NON MICR,CHENGANNUR (NRI),"CHENGANNUR (NRI) BRANCH,KIZHAKKETHALAKKAL BUILDING,OPP. ST. THOMAS CATHOLIC CHURCH ,CHENGANNUR, ALAPUZHA , KERALA, PIN-689121","ANTO M.D., CHIEF MANAGER 0479-2453998",CHENGANNUR,ALAPUZZHA,KERALA
SIBL0000342,South Indian Bank,SIBL0000342,NON MICR,MUVATTUPUZHA (NRI),"MUVATTUPUZHA (NRI) BRANCH,MADEPARAMBIL CHAMBERS ,(GROUND FLOOR),TB JUNCTION , ERNAKULAM, KERALA, PIN-686661","PAULOSE M.I., MANAGER 0485-2835063",MUVATTUPUZHA,ERNAKULAM,KERALA
SIBL0000343,South Indian Bank,SIBL0000343,400059001,MUMBAI SERVICE BRANCH,"MUMBAI SERVICE BRANCH,EMCA BUILDING , 289, SB SINGH ROAD ,FORT, GREATER MUMBAI , MAHARASHTRA , PIN-400038","AUGUSTINE C.J., MANAGER 022-22611837",MUMBAI,GREATER BOMBAY,MAHARASHTRA
SIBL0000344,South Indian Bank,SIBL0000344,NON MICR,KOTTAYAM COLLECTORATE JN,"KOTTAYAM (NRI) BRANCH,REGENCY SQUARE,P.O COLLECTORATE,KOTTAYAM, KOTTAYAM , KERALA, PIN-686102","REKHA V R, MANAGER 0481-2569603",KOTTAYAM,KOTTAYAM,KERALA
SIBL0000345,South Indian Bank,SIBL0000345,NON MICR,KOZHENCHERRY (NRI),"KOZHENCHERRY (NRI) BRANCH,CHURCH ROAD ,KOZHENCHERRY, PATHANAMTHITTA , KERALA, PIN-689641","SHAJI K. MATHEWS, MANAGER 0468-2215141,2213349",KOZHENCHERRY,PATHANAMTHITTA,KERALA
SIBL0000346,South Indian Bank,SIBL0000346,680059014,THRISSUR (NRI),"THRISSUR (NRI) BRANCH,ALKA BUILDING (1ST FLOOR) ,ROUND NORTH ,THRISSUR, THRISSUR , KERALA, PIN-680001","GEORGE K VARGHESE, MANAGER 0487-2335940",THRISSUR,TRISSUR,KERALA
SIBL0000347,South Indian Bank,SIBL0000347,673059003,KOZHIKODE MAVOOR ROAD,"KOZHIKODE (NRI) BRANCH,5/3410H4,GALLERIA TRADE CENTRE ,NEAR MARKAZ COMPLEX , KOZHIKODE, KERALA, PIN-673004","BOBAN V.J., SENIOR MANAGER 0495-2720588",CALICUT,KOZHIKODE,KERALA
SIBL0000348,South Indian Bank,SIBL0000348,682059201,KOLENCHERRY,"KOLENCHERRY BRANCH,ELOOR BUILDINGS ,(1ST FLOOR) KOLENCHERRY , ERNAKULAM, KERALA, PIN-682311","JOSEPH BASTIAN, SENIOR MANAGER 0484-2761190",KOLENCHERRY,ERNAKULAM,KERALA
SIBL0000349,South Indian Bank,SIBL0000349,642059102,UDUMALPET,"UDUMALPET BRANCH, SREE TOWERS, , 168/4,PALANI ROAD, ,P.O.GANDHI NAGAR, , COIMBATORE , TAMIL NADU, PIN-642154","SHANMUGHASUNDARAM M., MANAGER 04252-224075,231602",COIMBATORE,COIMBOTORE,TAMIL NADU
SIBL0000351,South Indian Bank,SIBL0000351,676059152,MALAPPURAM,"MALAPPURAM BRANCH,1ST FLOOR ,NEW MUNICIPAL SHOPPING COMPLEX,DOWN HILL , MALAPPURAM , KERALA, PIN-676519","JOSE JACOB KOCHUPURACKAL, MANAGER 0483-2737312",MALAPPURAM,MALAPURAM,KERALA
SIBL0000352,South Indian Bank,SIBL0000352,400059007,MUMBAI GOREGAON,"MUMBAI GOREGAON BRANCH,AZAD SHOPPING CENTRE,(1ST FLOOR) ,OPP. GOREGAON WEST RAILWAY STATION, GREATER MUMBAI , MAHARASHTRA , PIN-400062","RADHIKA R B, MANAGER 022-28759595",MUMBAI,GREATER BOMBAY,MAHARASHTRA
SIBL0000353,South Indian Bank,SIBL0000353,NON MICR,MYLAPRA BRANCH,"MYLAPRA BRANCH, VALIAPARABIL BUILDING,KUMBAZHA NORTH,PALLIPADI JUNCTION, PATHANAMTHITTA , KERALA, PIN-689671","PAUL P.F., MANAGER 0468-2223976",MYLAPRA,PATHANAMTHITTA,KERALA
SIBL0000354,South Indian Bank,SIBL0000354,400059008,MUMBAI ANDHERI EAST,"SHOP NO.9, AMBIKA TOWERS, AGADI NAGAR,PUMP HOUSE,ANDHERI EAST,MUMBAI-400093","BABU J PANIKULAM., CHIEF MANAGER 022-28257418",MUMBAI,GREATER BOMBAY,MAHARASHTRA
SIBL0000355,South Indian Bank,SIBL0000355,110059008,GHAZIABAD,"GHAZIABAD BRANCH,40-41 ,ADDL. SIHANI GATE SCHEME,AMBEDKAR ROAD , GHAZIABAD, UTTAR PRADESH , PIN-201001","SEBASTIAN P.JOSEPH, MANAGER 0120-2792781",GHAZIABAD,GHAZIABAD,UTTAR PRADESH
SIBL0000356,South Indian Bank,SIBL0000356,682059001,ERNAKULAM SERVICE BRANCH,"ERNAKULAM SERVICE BRANCH, ELIAS CHAMBERS , BANARJI ROAD , KOCHI, KOCHI, KERALA, PIN-682018","KARTHIAYANI DEVI C., MANAGER 0484-2367225",KOCHI,ERNAKULAM,KERALA
SIBL0000357,South Indian Bank,SIBL0000357,600059013,CHENNAI T. NAGAR,"CHENNAI T. NAGAR BRANCH, KENCEEY'S TOWERS ,NO. 1 ,RAMAKRISHNA ROAD, CHENNAI, TAMIL NADU, PIN-600017","JOSE PAUL P., CHIEF MANAGER 044-28141596,28143589",CHENNAI,CHENNAI,TAMIL NADU
SIBL0000358,South Indian Bank,SIBL0000358,110059007,NEW DELHI CHITTARANJAN PARK,"NEW DELHI GREATER KAILASH BRANCH, M- 66-M,BLOCK MARKET,GREATER KAILASH - II, DELHI, DELHI , PIN-110048","SHAMITA D BONDAL, SENIOR MANAGER 011-29213023",DELHI,NEW DELHI,DELHI
SIBL0000359,South Indian Bank,SIBL0000359,110059006,DELHI JANAKPURI,"DELHI JANAKPURI BRANCH, PLOT NO. B- 6 GROUND FLOOR ,BLOCK NO. A- 1,LOCAL COMMERCIAL SHOPPING CENTRE, JANAKPURI 110 058, DELHI , PIN-110058","VIRENDRA SINGH TANWAR, CHIEF MANAGER 011-25558563,25557592",DELHI,NEW DELHI,DELHI
SIBL0000360,South Indian Bank,SIBL0000360,400059009,MUMBAI MALAD,"MUMBAI MALAD BRANCH, EDELWEISS,UNIT NOS 101 & 102,PLOT NO. 25 , GREATER MUMBAI , MAHARASHTRA , PIN-400064","JOHN V.PAUL, MANAGER 022-28014482",MUMBAI,GREATER BOMBAY,MAHARASHTRA
SIBL0000361,South Indian Bank,SIBL0000361,400059010,MUMBAI BORIVLI WEST,"MUMBAI BORIVLI BRANCH, TULASI BAUG,SVP ROAD,BORIVLI (WEST), GREATER MUMBAI , MAHARASHTRA , PIN-400103","ALPHO JOSE, MANAGER 022-28956908",MUMBAI,GREATER BOMBAY,MAHARASHTRA
SIBL0000362,South Indian Bank,SIBL0000362,641059001,COIMBATORE SERVICE BRANCH,"COIMBATORE SERVICE BRANCH, D NO:838-839 , 2 ND FLOOR , , SIB BUILDING ,RAJA STREET, COIMBATORE , TAMIL NADU, PIN-641001","AMBROSE ANDREWS, MANAGER 0422 2397215",COIMBATORE,COIMBOTORE,TAMIL NADU
SIBL0000363,South Indian Bank,SIBL0000363,NON MICR,THELLAKOM,"THELLAKOM BRANCH, IX/62,CARITHAS HOSPITAL COMPLEX ,THELLAKOM , KOTTAYAM , KERALA, PIN-686016","SEBASTIAN KOCHUPURAKAL, SENIOR MANAGER 0481-2790690-2791587",KOTTAYAM,KOTTAYAM,KERALA
SIBL0000364,South Indian Bank,SIBL0000364,403059003,MARGAO,"MARGAO BRANCH,CASA DOS ALIADOS,NEXT TO GOMANT VIDYA NIKETAN,ABADE FARIA ROAD, SOUTH-GOA, GOA , PIN-403601","RONALD FERNANDEZ, MANAGER 0832-2704303",MARGAO,SOUTH GOA,GOA
SIBL0000365,South Indian Bank,SIBL0000365,400059011,MUMBAI GHATKOPAR,"MUMBAI GHATKOPAR BRANCH, FLAT NO. 101 & 102 (1ST FLOOR) ,KANTA SMRUTI APTS ,KHARWADI, GREATER MUMBAI , MAHARASHTRA , PIN-400086","MINI S., MANAGER 022-25136849",MUMBAI,GREATER BOMBAY,MAHARASHTRA
SIBL0000366,South Indian Bank,SIBL0000366,400059012,MUMBAI POWAI,"MUMBAI POWAI BRANCH, PLOT NO. 148 ,GROUND FLOOR,MUKALADIYIL , GREATER MUMBAI , MAHARASHTRA , PIN-400076","GEORGE J.NEWMAN, SENIOR MANAGER 022-25778069",MUMBAI,GREATER BOMBAY,MAHARASHTRA
SIBL0000367,South Indian Bank,SIBL0000367,689059111,KUTTAPUZHA,"KUTTAPUZHA BRANCH, POOTHAKUZHY BUILDING , TIRUVALLA-MALLAPALLY ROAD, KUTTAPUZHA , PATHANAMTHITTA , KERALA, PIN-689111","DENNIS MATHEW, MANAGER 0469-2605780",THIRUVALLA,PATHANAMTHITTA,KERALA
SIBL0000368,South Indian Bank,SIBL0000368,680059013,THRISSUR EAST FORT,"THRISSUR EAST FORT BRANCH, ST. JOHN'S ARCADE, EASTERN ENDOF, IKKANDA WARRIERROAD EAST FORT, THRISSUR , KERALA, PIN-680005","DAVIES M.J., CHIEF MANAGER 0487-2428094,2420398",THRISSUR,TRISSUR,KERALA
SIBL0000369,South Indian Bank,SIBL0000369,680059001,THRISSUR SERVICE,"THRISSUR SERVICE BRANCH, SIB BUILDING , (2ND FLOOR), M.O. ROAD, THRISSUR , KERALA, PIN-680001","IGNATIUS M.R., SENIOR MANAGER 0487-2428499",THRISSUR,TRISSUR,KERALA
SIBL0000370,South Indian Bank,SIBL0000370,641059009,COIMBATORE GANAPATHY,"COIMBATORE GANAPATHY BRANCH, CMS MATRICULATION HSS COMPOUND ,SATHY ROAD,GANAPATHY , COIMBATORE , TAMIL NADU, PIN-641006","NANDAKUMAR V., MANAGER 0422-2530221 ,2530228",COIMBATORE,COIMBOTORE,TAMIL NADU
SIBL0000371,South Indian Bank,SIBL0000371,NON MICR,CHENGAROOR,"CHENGAROOR BRANCH, ST. GEORGE ORTHODOX CHURCH BUILDING,THIRUVALLA - MALLAPALLY ROAD,CHENGAROOR, PATHANAMTHITTA , KERALA, PIN-689594","GEORGE THOMAS, MANAGER 0469-2688797",KOTTAYAM,KOTTAYAM,KERALA
SIBL0000372,South Indian Bank,SIBL0000372,400059013,MUMBAI ANDHERI WEST,"MUMBAI ANDHERI WEST BRANCH, ASHIRWAD NO.1,DADABHAI ROAD , OFF.JP RD, NR NAVRANG, GREATER MUMBAI , MAHARASHTRA , PIN-400058","PETER C.A., MANAGER 022-26235202",MUMBAI,GREATER BOMBAY,MAHARASHTRA
SIBL0000373,South Indian Bank,SIBL0000373,373059003,VENNIKULAM,"VENNIKULAM BRANCH, VI/274 ,KOODATHINGAL BLDG.,VENNIKULAM, PATHANAMTHITTA , KERALA, PIN-689544","JOSEPH K.L., MANAGER 0469-2650395",PATHANAMTHITTA,PATHANAMTHITTA,KERALA
SIBL0000374,South Indian Bank,SIBL0000374,682059015,VYTILLA,"VYTILLA BRANCH, THARAYIL COMPLEX ,TRIPUNITHARA ROAD ,VYTTILA , ERNAKULAM, KERALA, PIN-682019","REDDY N.J., CHIEF MANAGER 0484-2301531",KOCHI,ERNAKULAM,KERALA
SIBL0000375,South Indian Bank,SIBL0000375,680059205,MAPRANAM,"MAPRANAM BRANCH, OPP. LAL MEMORIAL HOSPITAL ,MAIN ROAD ,MAPRANAM, THRISSUR , KERALA, PIN-680712","SREENIVASAN C.K., MANAGER 0480-2821138",THRISSUR,TRISSUR,KERALA
SIBL0000376,South Indian Bank,SIBL0000376,680059007,THRISSUR ROUND NORTH,"THRISSUR ROUND NORTH BRANCH, ROUND NORTH BRANCH ,ALKA BUILDING ,FIRST FLOOR , THRISSUR , KERALA, PIN-680001","VINCENT K.C., SENIOR MANAGER 0487-2335942,2320032",THRISSUR,TRISSUR,KERALA
SIBL0000377,South Indian Bank,SIBL0000377,NON MICR,KONNI,"KONNI BRANCH, PANACHAKKAL TOWERS ,MAIN ROAD ,KONNI , PATHANAMTHITTA , KERALA, PIN-689691","ABRAHAM M.M., MANAGER 0468-2345909",KONNI,PATHANAMTHITTA,KERALA
SIBL0000378,South Indian Bank,SIBL0000378,520059102,GUNTUR,"GUNTUR BRANCH,DOOR NO. 6-19/40-43 ,11TH LANE , MAIN ROAD, GUNTUR , ANDHRA PRADESH, PIN-522002","MOHANA RAO C H, SENIOR MANAGER 0863-2245655",GUNTUR,GUNTUR,ANDHRA PRADESH
SIBL0000379,South Indian Bank,SIBL0000379,695059006,THIRUVANANTHAPURAM KESAVADASAPURAM,"THIRUVANANTHAPURAM KESAVADASAPURAM BRANCH, BYBISA ,T.C 13/1805(7),KESAVADASAPURAM , THIRUVANANTHAPURAM , KERALA, PIN-695004","SABITHA K, MANAGER 0471-2442381,2551003",THIRUVANANTHAPURAM,TRIVANDRUM,KERALA
SIBL0000380,South Indian Bank,SIBL0000380,NON MICR,ELANTHUR,"ELANTHUR BRANCH, ST. PATRICK CATHOLIC CHURCH BLDG.,GOVT. HOSPITAL ROAD , ELANTHUR , PATHANAMTHITTA , KERALA, PIN-689643","WILSON C.P., MANAGER 0468-2362210",ELANTHUR,PATHANAMTHITTA,KERALA
SIBL0000381,South Indian Bank,SIBL0000381,524059002,NELLORE,"NELLORE BRANCH,15-186,RR STREET ,OPP. MADHAVA THEATRE, NELLORE, ANDHRA PRADESH, PIN-524001","RAMESH T., MANAGER 0861-2333553",NELLORE,NELLORE,ANDHRA PRADESH
SIBL0000382,South Indian Bank,SIBL0000382,NON MICR,EZHAMKULAM,"EZHAMKULAM BRANCH, EMSON COMPLEX,MP ROAD ,P.O PARAKODE, PATHANAMTHITTA , KERALA, PIN-691554","RADHAKRISHNAN K., MANAGER 04734-444699",EZHAMKULAM,PATHANAMTHITTA,KERALA
SIBL0000383,South Indian Bank,SIBL0000383,NON MICR,ARANMULA,"ARANMULA BRANCH, SRI KRISHNA LODGE BUILDINGS,IKKARA JUNCTION ,ARANMULA, PATHANAMTHITTA , KERALA, PIN-689533","NARAYANANKUTTY K., MANAGER 0468-2317485,2278485",ARANMULA,PATHANAMTHITTA,KERALA
SIBL0000384,South Indian Bank,SIBL0000384,NON MICR,KUMBANAD,"KUMBANAD BRANCH, PG ALEXANDER MEMORIAL,NURSING SCHOOL,KUMBANAD, PATHANAMTHITTA , KERALA, PIN-689547","THOMAS GEORGE, MANAGER 0469-2665178",PATHANAMTHITTA,PATHANAMTHITTA,KERALA
SIBL0000385,South Indian Bank,SIBL0000385,641059010,COIMBATORE TRICHY,"COIMBATORE TRICHY ROAD BRANCH, D NO. 1084 ,TRICHY ROAD ,SUNGAM, COIMBATORE , TAMIL NADU, PIN-641018","VARGHESE V.J., SENIOR MANAGER 0422-2300242",COIMBATORE,COIMBOTORE,TAMIL NADU
SIBL0000386,South Indian Bank,SIBL0000386,NON MICR,THUMPAMON,"THUMPAMON BRANCH, D NO. 171,CHURCH VIEW BUILDING,THUMPAMON JUNCTION, PATHANAMTHITTA , KERALA, PIN-689502","THOBIAS C.R., MANAGER 04734-267400",PATHANAMTHITTA,PATHANAMTHITTA,KERALA
SIBL0000387,South Indian Bank,SIBL0000387,NON MICR,OMALLOOR,"OMALLOOR BRANCH, D. NO. VI/34A,FIRST FLOOR ,PATHANAMTHITTA - ADOOR MAIN ROAD, PATHANAMTHITTA , KERALA, PIN-689647","SURENDRANATHA PILLAI K.P., MANAGER 0468-2231177",OMALLOOR,PATHANAMTHITTA,KERALA
SIBL0000388,South Indian Bank,SIBL0000388,620059003,TRICHY CANTONMENT,"TRICHY CANTONMENT BRANCH, NO.1,1ST FLOOR, PAVALAM BLOCK,ST. PAUL'S SEMINARY COMPLEX , OPP.HPO,TRICHY CANTONMENT, TIRUCHIRAPALLI , TAMIL NADU, PIN-620001","FRANCIS PAUL RAJ G., MANAGER 0431-2464669",TIRUCHIRAPPALLI,TIRUCHIORAPPALLI,TAMIL NADU
SIBL0000389,South Indian Bank,SIBL0000389,400059014,MUMBAI HILL ROAD,"MUMBAI HILL ROAD BRANCH, SAGAR ELEGANCE BUILDING,107/D ,HILL ROAD , GREATER MUMBAI , MAHARASHTRA , PIN-400050","RAJESH P., MANAGER 022-26417057",MUMBAI,GREATER BOMBAY,MAHARASHTRA
SIBL0000390,South Indian Bank,SIBL0000390,673059040,PUTHANATHANI,"PUTHANATHANI BRANCH, 1ST FLOOR,AYAPILLY COMMERCIAL COMPLEX ,VALANCHERRY ROAD, MALAPPURAM , KERALA, PIN-676552","TONY K.J., MANAGER 0494-2105162",MALAPPURAM,MALAPURAM,KERALA
SIBL0000391,South Indian Bank,SIBL0000391,673059039,EDAPPAL,"EDAPPAL BRANCH, D NO. 684/C-2,WARD NO. VIII ,CRESCENT PLAZA, MALAPPURAM , KERALA, PIN-679576","VARGHESE C.T., MANAGER 0494-2684280",EDAPPAL,MALAPURAM,KERALA
SIBL0000392,South Indian Bank,SIBL0000392,560059001,BANGALORE SERVICE BRANCH,"BANGALORE SERVICE BRANCH, SERVICE BRANCH , 10, RAJDOOT COMPLEX,AVENUE ROAD , BANGALORE, KARNATAKA , PIN-560002","MATHEW JOSE EDATTUKAREN, SENIOR MANAGER 080-22250769",BANGALORE,BANGALORE URBAN,KARNATAKA
SIBL0000393,South Indian Bank,SIBL0000393,676059025,CHEMMAD-TIRURANGADI,"CHEMMAD-TIRURANGADI BRANCH, D NO. C3A,ACM TOWERS,CHEMMAD - TIRURANGADI , MALAPPURAM , KERALA, PIN-676306","GOVINDAN KUTTY C., MANAGER 0494-2466180",MALAPPURAM,MALAPURAM,KERALA
SIBL0000394,South Indian Bank,SIBL0000394,689059099,THEKKEMALA,"THEKKEMALA BRANCH, VALLIPARAMBIL TRADE CENTRE ,THEKKEMALA,TIRUVALLA - KUMBAZHA ROAD , PATHANAMTHITTA , KERALA, PIN-689654","THOMAS P.L., MANAGER 0468-2314037",KOZHENCHERRY,PATHANAMTHITTA,KERALA
SIBL0000395,South Indian Bank,SIBL0000395,689059098,THADIYOOR,"THADIYOOR BRANCH, PLACKATHARAYIL COMPLEX ,BANK JUNCTION ,TIRUVALLA - RANNI ROAD, PATHANAMTHITTA , KERALA, PIN-689545","THOMAS JOSEPH THAYIL, MANAGER 0469-2655511",PATHANAMTHITTA,PATHANAMTHITTA,KERALA
SIBL0000396,South Indian Bank,SIBL0000396,560059010,BANGALORE CHRIST COLLEGE,"BANGALORE CHRIST COLLEGE BRANCH, BANGALORE CHRIST COLLEGE BRANCH,HOSUR ROAD,DHARMARAM COLLEGE P.O , BANGALORE, KARNATAKA , PIN-560029","JOSE P.VARGHESE, CHIEF MANAGER 080-41116164",BANGALORE,BANGALORE URBAN,KARNATAKA
SIBL0000397,South Indian Bank,SIBL0000397,110059010,NEW DELHI VASANT KUNJ,"NEW DELHI VASANT KUNJ BRANCH, SHOP NO. 4 ,POCKET 8/9,SECTOR B, NEW DELHI DT , DELHI , PIN-110070","JOLY SEBASTIAN, SENIOR MANAGER 011-26138999",DELHI,NEW DELHI,DELHI
SIBL0000398,South Indian Bank,SIBL0000398,110059009,NEW DELHI DWARKA,"NEW DELHI DWARKA BRANCH, PLOT NO. 9 ,1ST FLOOR ,PANKAJ ARCADE , DELHI, DELHI , PIN-110045","LAKSHMI NANDAKUMAR, MANAGER 011-25088244",DELHI,NEW DELHI,DELHI
SIBL0000399,South Indian Bank,SIBL0000399,560059011,BANGALORE INDIRA NAGAR,"BANGALORE INDIRA NAGAR BRANCH, 43/1-A,GRD FLR,AISHWAYA MANSION,9TH A MAIN,INDIRA NGR 1ST STAGE , OFF.CMH ROAD,NEAR COFFEE DAY , BANGALORE, KARNATAKA , PIN-560038","JOY MOOKEN, MANAGER 080-25204284",BANGALORE,BANGALORE URBAN,KARNATAKA
SIBL0000400,South Indian Bank,SIBL0000400,670059052,THALIPARAMBA,"THALIPARAMBA BRANCH, DOOR NO. 9 -12 ,GROUND FLOOR,KUTTUKKAN COMPLEX , KANNUR , KERALA, PIN-670141","ABRAHAM JOSEPH, MANAGER 0460-2200411",TALIPARAMBA,KANNUR,KERALA
SIBL0000401,South Indian Bank,SIBL0000401,110059011,NEW DELHI VIKAS PURI,"NEW DELHI VIKAS PURI BRANCH, SHOP NO. 101- 103,RAKSHA VIKAS,VIKAS PURI, DELHI, DELHI , PIN-110018","SHAMMY J C , MANAGER 011-28533489",DELHI,NEW DELHI,DELHI
SIBL0000402,South Indian Bank,SIBL0000402,670059002,PAYYANNUR,"PAYYANNUR BRANCH, 1ST FLOOR,D.NO. XXI/687A 27 TO 29 ,SEASON COMPLEX, KANNUR , KERALA, PIN-670307","ANANDAN K., MANAGER 04985-203526",PAYYANNUR,KANNUR,KERALA
SIBL0000403,South Indian Bank,SIBL0000403,160059002,PANCHKULA,"PANCHKULA BRANCH, SCO - 284,SECTOR - 20 ,PANCHKULA , PANCHKULA, HARYANA , PIN-134112","RATISH P NAIR, MANAGER 0172-2551443",PANCHKULA,PANCHKULA,HARYANA
SIBL0000404,South Indian Bank,SIBL0000404,160059001,CHANDIGARH,"CHANDIGARH BRANCH, SCO-2475-76,GROUND FLOOR,SECTOR - 22 C , CHANDIGARH , CHANDIGARH, PIN-160022","RAMAKRISHNAN S., MANAGER 0172-2727728",CHANDIGARH,CHANDIGARH,CHANDIGARH
SIBL0000405,South Indian Bank,SIBL0000405,110059012,PASCHIM VIHAR,"NEW DELHI PASCHIM VIHAR BRANCH, 14/476 ,SUNDER VIHAR,PASCHIM VIHAR , DELHI-110 087, DELHI , PIN-110087","RAJEEV V.G, MANAGER 011-25257251",DELHI,NEW DELHI,DELHI
SIBL0000406,South Indian Bank,SIBL0000406,676059102,KOTTAKKAL,"KOTTAKKAL BRANCH, D.NO.2/645/D ,ADATTIL TOWERS,MAIN ROAD , MALAPPURAM , KERALA, PIN-676503","SANILKUMAR M., MANAGER 0483-2740200, 2102810",KOTTAKKAL,MALAPURAM,KERALA
SIBL0000407,South Indian Bank,SIBL0000407,600059014,POONAMALLEE,"POONAMALLEE BRANCH, 70, IDAYAM COMPLEX ,TRUNK ROAD,KARAYAN CHAVADI , CHENNAI, TAMIL NADU, PIN-600056","VINCENT V.P., SENIOR MANAGER 044-26494165",CHENNAI,CHENNAI,TAMIL NADU
SIBL0000408,South Indian Bank,SIBL0000408,680059052,GURUVAYUR,"GURUVAYUR BRANCH, GROUND FLOOR , R.V TRADE CENTRE , EAST NADA, THRISSUR , KERALA, PIN-680101","PARAMESWARAN M.K., SENIOR MANAGER 0487-3290750",GURUVAYUR,TRISSUR,KERALA
SIBL0000409,South Indian Bank,SIBL0000409,400059015,MUMBAI VASHI,"MUMBAI VASHI BRANCH, DR. BABASAHEB AMBEDKAR SANKUL,PLOT NO. 62 A ,SECTOR - 29 , NAVI MUMBAI, MAHARASHTRA , PIN-400703","JOHN C LAZAR, SENIOR MANAGER 022-27881078,27881082",MUMBAI,GREATER BOMBAY,MAHARASHTRA
SIBL0000410,South Indian Bank,SIBL0000410,110059013,NEW DELHI PATPARGANJ,"NEW DELHI PATPARGANJ BRANCH, SHOP NO. 19&20 ,CSC NO.1,ZONE E-13 , DELHI-110 092, DELHI , PIN-110092","RAKESH RAJA, MANAGER 011-22012329",DELHI,NEW DELHI,DELHI
SIBL0000411,South Indian Bank,SIBL0000411,141059002,LUDHIANA,"LUDHIANA BRANCH, 15, MALL ROAD,GREAT WAY HOUSE ,LUDHIANA, LUDHIANA , PUNJAB, PIN-141001","FRANCIS G.ALAPATT, SENIOR MANAGER 0161-2406032",LUDHIANA,LUDHIANA,PUNJAB
SIBL0000412,South Indian Bank,SIBL0000412,673059006,KOZHIKODE S.M STREET,"KOZHIKODE S.M STREET BRANCH, 10/658 ,1ST FLOOR ,PARSI ANJUMAN COMPLEX , KOZHIKODE, KERALA, PIN-673001","LAKSHMI DEVI C, MANAGER 0495-2722247",CALICUT,KOZHIKODE,KERALA
SIBL0000413,South Indian Bank,SIBL0000413,500059004,SECUNDERABAD DIAMOND POINT,"SECUNDERABAD DIAMOND POINT BRANCH, DR. NO. 157/7,RANGA REDDY TOWERS,STAFF ROAD, HYDERABAD, ANDHRA PRADESH, PIN-500009","ANTONY P.D., MANAGER 040 27897747",HYDERABAD,HYDERABAD URBAN,ANDHRA PRADESH
SIBL0000414,South Indian Bank,SIBL0000414,NON MICR,VIJAYAWADA NIRMALA CONVENT ROAD,"VIJAYAWADA NIRMALA CONVENT ROAD BRANCH, ST. PAUL'S COMPLEX ,NIRMALA CONVENT ROAD,KRISHNA DT. , KRISHNA, ANDHRA PRADESH, PIN-520010","MATHEWS K.A., MANAGER 0866-2493045",VIJAYAWADA,KRISHNA,ANDHRA PRADESH
SIBL0000415,South Indian Bank,SIBL0000415,NON MICR,MYSORE N.R. MOHALLA,"MYSORE N.R. MOHALLA BRANCH, CARMEL ARCADE,SHIVAJI ROAD,MYSORE, MYSORE , KARNATAKA , PIN-570007","AUGUSTINE P.J., MANAGER 0821-2456344",MYSORE,MYSORE,KARNATAKA
SIBL0000416,South Indian Bank,SIBL0000416,560059013,BANGALORE KORMANGLA,"BANGALORE KORMANGLA BRANCH, SEVASADAN TRAINING INSTITUTE ,3RD BLOCK ,8TH MAIN ROAD , BANGALORE, KARNATAKA , PIN-560034","KAMALAKUMARI K, MANAGER 080-25535396",BANGALORE,BANGALORE URBAN,KARNATAKA
SIBL0000417,South Indian Bank,SIBL0000417,682059019,TOCH ERNAKULAM,"ERNAKULAM TOC-H SCHOOL ROAD BRANCH, 29/166A,TOC-H SCHOOL ROAD ,VYTTILA , ERNAKULAM, KERALA, PIN-682019","RAJENDRAN P G, MANAGER 0484-2303126",KOCHI,ERNAKULAM,KERALA
SIBL0000418,South Indian Bank,SIBL0000418,682059018,ERNAKULAM LOURDES HOSPITAL,"ERNAKULAM LOURDES HOSPITAL BRANCH, 45/447 ,VADUTHALA ROAD,PACHALAM, ERNAKULAM, KERALA, PIN-682012","JACQELINE M.FERNANDEZ, MANAGER 0484-2393184",KOCHI,ERNAKULAM,KERALA
SIBL0000419,South Indian Bank,SIBL0000419,110059014,GURGAON,"GURGAON BRANCH, SCO NO.97,SECTOR - 31 ,GURGAON , HARYANA , PIN-122001","VIJAYAN C., MANAGER 0124-2382173",GURGAON,GURGAON,HARYANA
SIBL0000420,South Indian Bank,SIBL0000420,110059016,NEWDELHI NIRMAN VIHAR,"DELHI NIRMAN VIHAR BRANCH, PARMESH COMPLEX,1ST FLOOR ,PLOT NO.1 , DELHI , PIN-110092","SURESH KUMAR, MANAGER 011-22464816",DELHI,NEW DELHI,DELHI
SIBL0000421,South Indian Bank,SIBL0000421,110059015,NEWDELHI SAINIK VIHAR,"DELHI SAINIK VIHAR BRANCH, ANAND PLAZA,1ST FLOOR,PLOT NO. 2,LSC,SAINIK VIHAR, PITAMPURA , DELHI , PIN-110034","SWARUP KUMAR TRIPATI, SENIOR MANAGER 011-27028669",DELHI,NEW DELHI,DELHI
SIBL0000422,South Indian Bank,SIBL0000422,NON MICR,MANDIRAM,"MANDIRAM BRANCH, MAR THOMA DIOCES BUILDING, MANDIRAM , RANNI, KERALA, PIN-689672","RENU REBECCA GEORGE, MANAGER 04735-2227015",PATHANAMTHITTA,PATHANAMTHITTA,KERALA
SIBL0000423,South Indian Bank,SIBL0000423,682059021,ERNAKULAM VENNALA,"ERNAKULAM VENNALA BRANCH, DOOR NO. 33/2171 A1,BYE-PASS JUNCTION ,KAKKANAD ROAD , KERALA, PIN-682028","PAUL VARGHESE M., MANAGER 0484-2806756",KOCHI,ERNAKULAM,KERALA
SIBL0000424,South Indian Bank,SIBL0000424,110059017,DELHI RAJOURI GARDEN,"DELHI RAJOURI GARDEN BRANCH, E-6,RAJOURI GARDEN ,NEW DELHI ,, DELHI , PIN-110027","RAFI VERGHESE PADINJARATH, SENIOR MANAGER 011-25115562",DELHI,NEW DELHI,DELHI
SIBL0000425,South Indian Bank,SIBL0000425,144059002,JALANDHAR,"JALANDHAR BRANCH, PLOT NO:28,PRIME TOWER , OPP ;NARINDER CINEMA , G.T.ROAD, JALANDHAR DIST:, JALANDHAR, PUNJAB, PIN-141001","PAULY DAVID, SENIOR MANAGER 0181-2230072,2240072",JALANDHAR,JALANDHAR,PUNJAB
SIBL0000426,South Indian Bank,SIBL0000426,676059003,TIRUR- MALAPURAM,"TIRUR BRANCH, DOOR NO:7/612, CEEPEES TOWER , NEAR BUS STAND , KERALA , KERALA, PIN-676101","REVI M., MANAGER 0494-2430444 ,2430439",TIRUR,MALAPURAM,KERALA
SIBL0000427,South Indian Bank,SIBL0000427,NON MICR,PAYANGADI,"PAYANGADI BRANCH, DOOR NO: XI/585 A, , BUS STAND ROAD, PAYANGADI, KERALA STATE , KERALA, PIN-670358","KRISHNAN C., MANAGER 0497-2875890",CANNUR,KANNUR,KERALA
SIBL0000428,South Indian Bank,SIBL0000428,673059452,THAMARASSERY,"THAMARASSERY BRANCH, DOOR NO:T.P.7/396 K, , MATHA TOWERS , KOZHIKODE-WAYNAD ROAD, , KOZHIKODE DIST: KERALA , KERALA, PIN-673573","SATHIANANDAN T.P., MANAGER 0495-2222550",TAMARASSERY,KOZHIKODE,KERALA
SIBL0000429,South Indian Bank,SIBL0000429,302059251,JAIPUR,"JAIPUR BRANCH, SHOP NO:103&106, APEX MALL, LAL KOTHI ,TONK ROAD , RAJASTHAN, RAJASTHAN , PIN-","VIJAY THOMAS JOHN, MANAGER 0141-2740732",JAIPUR,JAIPUR,RAJASTHAN
SIBL0000430,South Indian Bank,SIBL0000430,110059018,NOIDA,"NOIDA BRANCH, G-75B,GROUND FLOOR , , PARSVNATH PLAZA, SECTOR-27 , NOIDA,GOUTHAM BUDDH NAGAR DIST:, UTTAR PRADESH , PIN-201301","SREEJIL MUKUND, MANAGER 0120-2440440",NOIDA,GAUTAM BODDA NAGAR,UTTAR PRADESH
SIBL0000431,South Indian Bank,SIBL0000431,110059001,NEWDELHI SERVICE BRANCH,"DELHI SERVICE BRANCH, 22,REGAL BUILDING, CONNAUGHT PLACE, NEW DELHI, DELHI , PIN-110001","UDAYKUMAR SOHONI, SENIOR MANAGER 011-65662692",DELHI,NEW DELHI,DELHI
SIBL0000432,South Indian Bank,SIBL0000432,440059251,NAGPUR,"NAGPUR BRANCH, JAI BHARAT TOWERS, OLD PARADI NAKO, BHANDARAM ROAD , MAHARASHTRA , PIN-440008","SONY K MATHEW, MANAGER 0712-2682072",NAGPUR,NAGPUR,MAHARASHTRA
SIBL0000433,South Indian Bank,SIBL0000433,492059002,RAIPUR,"RAIPUR BRANCH, AJIT TOWERS, RAMSAGARPARA , NEAR SINDHI SCHOOL,, CHHATTISGARH, PIN-492001","DAVIS C.J., MANAGER 0771-2293171",RAIPUR,RAIPUR,CHHATTISGARH
SIBL0000434,South Indian Bank,SIBL0000434,110059019,NEWDELHI MAYUR VIHAR,"DELHI MAYUR VIHAR BRANCH, GROUND FLOOR, PANKAJ GRAND PLAZA, CSC,MAYUR VIHAR PHASE 1, NEW DELHI, DELHI , PIN-110091","AMIT PARMAR, MANAGER 011-22753982",DELHI,NEW DELHI,DELHI
SIBL0000435,South Indian Bank,SIBL0000435,680059015,CHEROOR,"CHEROOR BRANCH, CHEROOR, ENGINEERING COLLEGE P.O. , TRICHUR, KERALA, PIN-680009","SATHI DEVI P.V., MANAGER 0487-2320324",CHERUR,TRISSUR,KERALA
SIBL0000436,South Indian Bank,SIBL0000436,NON MICR,PUTHENPEEDIKA,"PUTHENPEEDIKA BRANCH, ST: ANTONYS SHOPPING COMPLEX , PUTHENPEEDIKA, TRICHUR DIST:, KERALA, PIN-","FRANCIS J ALAPPAT., MANAGER 0487-2272312",PUTHENPEEDIKA,TRISSUR,KERALA
SIBL0000437,South Indian Bank,SIBL0000437,680059020,ERAVU,"ERAVU BRANCH, ST;JOSEPHS EDUCATION COMPLEX , ERAVU P.O. , TRICHUR, KERALA, PIN-680620","JOSY PAILY, MANAGER 0487-2311968",THRISSUR,TRISSUR,KERALA
SIBL0000438,South Indian Bank,SIBL0000438,NON MICR,PALLIKUNNU,"PALLIKUNNU BRANCH, ASSUMTION HIGH SCHOOL COMPLEX, PALLIKUNNU , VARANDARAPILLY , KERALA, PIN-680303","THOMAS T.L., MANAGER 0480-2760324",VARANDRAPALLY,TRISSUR,KERALA
SIBL0000439,South Indian Bank,SIBL0000439,682059022,KADAVANTRA,"KADAVANTHRA BRANCH, ST:JOSEPHS U.P.SCHOOL COMPLEX, KADAVANTHARA , KOCHI, KERALA, PIN-682020","SHIRLEY ALBERT, SENIOR MANAGER 0484-2323566",KOCHI,ERNAKULAM,KERALA
SIBL0000440,South Indian Bank,SIBL0000440,641059012,COIMBATORE BIG BAZAR STREET,"COIMBATORE BIG BAZAR STREET BRANCH, BIG BAZAR STREET , COIMBATORE , TAMIL NADU , TAMIL NADU, PIN-641001","PAUL DAVIS THOTTAN, SENIOR MANAGER 0422-2398081",COIMBATORE,COIMBOTORE,TAMIL NADU
SIBL0000441,South Indian Bank,SIBL0000441,143059002,AMIRITSAR,"AMRITSAR BRANCH, PLOT NO:26, KENNEDY AVENUE , COURT ROAD , PUNJAB , PUNJAB, PIN-143001","SURANJAN SARASWAT, MANAGER 0183-2221770",AMRITSAR,AMRITSAR,PUNJAB
SIBL0000442,South Indian Bank,SIBL0000442,452059002,INDORE,"INDORE BRANCH, FF 27,28,OPP MANGAL MARILAND GARDENS, SCHEME NO:54,VIJAYANAGAR, INDORE, MADHYA PRADESH, PIN - 143001","GUJJARU RAMESH, MANAGER 0731-2552724",INDORE,INDORE,MADHYA PRADESH
SIBL0000443,South Indian Bank,SIBL0000443,462059002,BHOPAL,"BHOPAL BRANCH, ASHTBHUJ BHAVAN, 17 B, INDRAPURI, OPP: JUBILEE GATE, RAISEN ROAD, BHOPAL, MADHYA PRADESH, PIN-462012","GEORGE VITHAYATHIL, MANAGER 0755-2751006",BHOPAL,BHOPAL,MADHYA PRADESH
SIBL0000444,South Indian Bank,SIBL0000444,226059002,LUCKNOW,"LUCKNOW BRANCH, GROUND FLOOR, HOUSE NO 70,KAPURTHALA R, SECTOR E, ALIGUNJ, LUCKNOW, UTTAR PRADESH, PIN - 462012","SASIKUMAR O., SENIOR MANAGER 0522-2327332",LUCKNOW,LUCKNOW,UTTAR PRADESH
SIBL0000445,South Indian Bank,SIBL0000445,NON MICR,CONVENT SQUARE ALAPPUZHA,"CONVENT SQUARE ALAPPUZHA BRANCH, CONVENT SQUARE, ALAPUZHA, KERALA, PIN - 688001","FRANCIS JOSEPH K., MANAGER 0477-2245214",ALAPPUZHA,ALAPUZZHA,KERALA
SIBL0000446,South Indian Bank,SIBL0000446,NON MICR,AYROOR,"AYROOR BRANCH, ST.THOMAS HIGH SCHOOL, AYIROOR, ERNAKULAM, KERALA,","THOMAS C.C., MANAGER 0484-2478318",AIROOR,ERNAKULAM,KERALA
SIBL0000447,South Indian Bank,SIBL0000447,682059024,THAMMANAM,"THAMMANAM BRANCH, PALLINADA, PALARIVATTOM, ERNAKULAM, KERALA, PIN - 682025","RANI ZACHARIAS, MANAGER 0484-2338071",KOCHI,ERNAKULAM,KERALA
SIBL0000448,South Indian Bank,SIBL0000448,682059023,VELI-COCHIN,"VELI-COCHIN BRANCH, COCHIN SOCIAL SERVICES SOCIETY, VELI, FORT COCHIN, ERNAKULAM, KERALA","JOSEPH T.L., MANAGER 0484-2228242",KOCHI,ERNAKULAM,KERALA
SIBL0000449,South Indian Bank,SIBL0000449,NON MICR,KOOTHUPARAMBA,"KOOTHUPARAMBA BRANCH, NIRMALAGIRI COLLEGE, NIRMALAGIRI, KOOTHAPARAMBA, KANNUR, KERALA","PRADEEPKUMAR N.V., MANAGER 0490-2365327",KUTHUPARAMBA,KANNUR,KERALA
SIBL0000450,South Indian Bank,SIBL0000450,692001001,MUNDAKKAL-KOLLAM,"MUNDAKKAL BRANCH, MUNDAKKAL, KOLLAM, KERALA","SUNIL S.Y., MANAGER 0474-2740874",KOLLAM,KOLLAM,KERALA
SIBL0000451,South Indian Bank,SIBL0000451,NON MICR,KOTTIYAM,"KOTTIYAM BRANCH, HOLY CROSS HOSPITAL, KOTTIYAM,  KOLLAM, KERALA","JACOB THOMAS, MANAGER 0474-2532531",KOTTIYAM,KOLLAM,KERALA
SIBL0000452,South Indian Bank,SIBL0000452,NON MICR,CHETHIPUZHA,"CHETHIPUZHA BRANCH, ST THOMAS HOSPITAL, CHETHIPUZHA, CHANGANACHERRY, KOTTAYAM, KERALA","LUKOSE P.L., MANAGER 0481-2723798",CHANGANASSERY,KOTTAYAM,KERALA
SIBL0000453,South Indian Bank,SIBL0000453,NON MICR,ARUNAPURAM,"ARUNAPURAM BRANCH, ST THOMAS COLLEGE, PALAI, KOTTAYAM, KERALA","CHACKO K.J., MANAGER 0482-2212545",PALAI,KOTTAYAM,KERALA
SIBL0000454,South Indian Bank,SIBL0000454,NON MICR,MALLASSERY,"MALLASSERY BRANCH, COVENANT HOSPITAL, MALLASSERY, PATHANAMTHITTA, KERALA","THANKAMANI AMMA S., MANAGER 0468-2335774",PATHANAMTHITTA,PATHANAMTHITTA,KERALA
SIBL0000455,South Indian Bank,SIBL0000455,NON MICR,NEDUNGADAPPALLY,"NEDUNGADAPPALLY BRANCH, ST THOMAS C.S.I.ENGLISH MEDIUM SCHOOL, NEDUNGADAPPALLY, MALLAPPALLY, PATHANAMTHITTA, KERALA","ANILA K NAIR, MANAGER 0481-2487038",PATHANAMTHITTA,PATHANAMTHITTA,KERALA
SIBL0000456,South Indian Bank,SIBL0000456,NON MICR,MUTHOOR,"MUTHOOR BRANCH, MGM ENGLISH MEDIUM U.P. SCHOOL, MUTHOOR, THIRUVALLA, PATHANAMTHITTA, KERALA","JOSE MATHEW, MANAGER 0469-2601566",THIRUVALLA,PATHANAMTHITTA,KERALA
SIBL0000457,South Indian Bank,SIBL0000457,600059018,CHENGALPATTU,"CHENGALPATTU BRANCH, KANCHEEPURAM HIGH ROAD, CHENGALPATTU, CHENGAI MGR, TAMIL NADU, PIN- 603002","SAINATH T.S., MANAGER 044-27424970",CHENGALPATTU,KANCHEEPURAM,TAMIL NADU
SIBL0000458,South Indian Bank,SIBL0000458,638059003,PERUNDURAI,"PERUNDURAI BRANCH, P.S.G. MILLS PREMISES, PERUNDURAI, ERODE, PERIYAR, TAMIL NADU","SONNEY CHERIAN, MANAGER 04294-224933",PERUNDURAI,ERODE,TAMIL NADU
SIBL0000459,South Indian Bank,SIBL0000459,700059007,LILUAH-HOWRAH,"LILUAH-HOWRAH BRANCH, 136/136A, GIRISH GHOSH ROAD, DON BOSCO, LILUAH, HOWRAH, WEST BENGAL, PIN - 711204","PAVULUR JACOB MARIO, MANAGER 033-26553953,",HOWRAH,HOWRAH,WEST BENGAL
SIBL0000460,South Indian Bank,SIBL0000460,NON MICR,BHUBANESWAR,"BHUBANESWAR BRANCH, PLOT A/1, NEAR SATHYA NAGAR FLY OVER, CUTTACK ROAD, BHUBANESWAR, KHURDA, ORISSA, PIN - 751006","ATUL VINOD G., MANAGER 0674-2571710",BHUBANESWAR,KHURDA,ORISSA
SIBL0000461,South Indian Bank,SIBL0000461,NON MICR,THIRUVAMPADY,"THIRUVAMPADY BRANCH, HIGH SCHOOL ROAD, NEAR BUS STAND, THIRUVAMPADY, KOZHIKODE, 673603","SOMY GEORGE, SENIOR MANAGER 0495-2254321",THIRUVAMBADY,KOZHIKODE,KERALA
SIBL0000462,South Indian Bank,SIBL0000462,680059016,AMALA NAGAR (THRISSUR),"AMALA NAGAR (THRISSUR) BRANCH, AMALANAGAR P.O, THRISSUR, 680555","BETTY M.L., MANAGER 0487-2307030",THRISSUR,TRISSUR,KERALA
SIBL0000463,South Indian Bank,SIBL0000463,680059204,IRINJALAKUDA CHRIST NAGAR,"IRINJALAKUDA CHRIST NAGAR BRANCH, NEAR CHRIST COLLEGE, IRINJALAKUDA, IRINJALAKUDA NORTH P.O, THRISSUR, KERALA, 680125","POWELS GEORGE K., SENIOR MANAGER 0480-2822236",IRINJALAKUDA,TRISSUR,KERALA
SIBL0000464,South Indian Bank,SIBL0000464,NON MICR,KURAVILANGAD,"KURAVILANGAD, MARUTHANAL BLDGS,OPP PRIVATE BUS STAND, M C ROAD,KURAVILANGAD P.O, KOTTAYAM, KERALA","SIBY SEBASTIN, MANAGER 0482-2233033",KURAVILANGAD,KOTTAYAM,KERALA
SIBL0000465,South Indian Bank,SIBL0000465,400059017,NERUL,"PLOT NO 31,SECT 25, NERUL,NAVI-MUMBAI, MAHARASHTRA, 400706","PADMA KUMAR C.G., MANAGER 022-27723070",MUMBAI,GREATER BOMBAY,MAHARASHTRA
SIBL0000466,South Indian Bank,SIBL0000466,360059002,RAJKOT,"G4/A,SOLITAIRE BLDG, NEAR NAVJOT PARK, RAJKOT, GUJARAT","JOY E.P., MANAGER 0281-2573243",RAJKOT,RAJKOT,GUJARAT
SIBL0000467,South Indian Bank,SIBL0000467,400059016,KALYAN,"KALYAN BRANCH, 5, 6, 7 & 8, 'VIJAYANT', SAWANT COMPLEX,
KARNIK ROAD, OPP. ELITE CLASSES, KALYAN (W)
THANE, MAHARASHTRA, 421034","RAJU M.T., MANAGER 0251-2314834,2314824",KALYAN,THANE,MAHARASHTRA
SIBL0000469,South Indian Bank,SIBL0000469,NON MICR,VAKATHANAM,"VAKATHANAM BRANCH, NJALIAKUZHI JUNCTION, NEAR ADHYAPAKA CO-OPERATIVE BANK, VAKATHANAM, KOTTAYAM, KERALA, 686538","JOSE JOSEPH, MANAGER 0481-2465242",VAKATHANAM,KOTTAYAM,KERALA
SIBL0000470,South Indian Bank,SIBL0000470,NON MICR,JAMMU,"JAMMU BRANCH, HOUSE NO 91 A, GOLE MARKET GANDHI NAGAR, JAMMU, JAMMU & KASHMIR, 180004","MOHAMED ABDUNNAZAR K., SENIOR MANAGER 0191-2432867",JAMMU,JAMMU,JAMMU & KASHMIR
SIBL0000471,South Indian Bank,SIBL0000471,NON MICR,DEHRADUN,"DEHRADUN BRANCH, 105,LAXMI CHAMBERS,OPP HOTEL MEDOW, 69,RAJPUR ROAD, DEHRA DUN, UTTARAKHAND, 248001","MANOJ KUMAR .R, MANAGER 0135-2741122",DEHRADUN,DEHRADUN,UTTARAKHAND
SIBL0000472,South Indian Bank,SIBL0000472,700059008,KOLKATA-SALT LAKE,"AD-54,SECTOR 1,SALT LAKE,KOLKATA,WEST BENGAL","PADMANABHAN VASANTHKUMAR, SENIOR MANAGER 033 23345159",KOLKATA,KOLKATA,WEST BENGAL
SIBL0000473,South Indian Bank,SIBL0000473,781059002,GUWAHATI,"SANTHI BUSINESS PARK,OPP. AGP OFFICE,AMBARI,KAMRUP,ASSAM","JOHNSON T.C., MANAGER 0361-2733191",KAMRUP,KAMRUP,ASSAM
SIBL0000474,South Indian Bank,SIBL0000474,834059002,RANCHI,"SRIRAM GARDENS,KANKE ROAD,RANCHI,JHARKHAND","POLY JOSE V., MANAGER 0651 2232893",RANCHI,RANCHI,JHARKHAND
SIBL0000475,South Indian Bank,SIBL0000475,NON MICR,MADURAI - WEST,"ST JOSEPHS SHP CPLX,AA RD,GNANAVOLIVAPURAM, MADURAI, TAMILNADU","KATYAYINI A, MANAGER 0452-2362858",MADURAI,MADURAI,TAMIL NADU
SIBL0000476,South Indian Bank,SIBL0000476,673059402,KONDOTTY,"KP/3/1093-B,BYPASS ROAD, KONDOTTY, MALAPPURAM, KERALA","NIZAR K.A., MANAGER 0483-2710150",KUNDOTTY,MALAPURAM,KERALA
SIBL0000477,South Indian Bank,SIBL0000477,NON MICR,PARAPPANANGADI,"PP/XI/1493-H,KADALUNDI RD,PARAPPANANGADI, MALAPPURAM, KERALA","JOSE K.U., MANAGER 0494 2415488",PARAPPANANGADI,MALAPURAM,KERALA
SIBL0000478,South Indian Bank,SIBL0000478,NON MICR,CHELARI,"1ST FLOOR,KAITHON CMPX, CHELARI,THENHIPALAM, MALAPPURAM, KERALA","NARAYANAN P.N., MANAGER 0494-2402333",TENJIPALAM,MALAPURAM,KERALA
SIBL0000479,South Indian Bank,SIBL0000479,NON MICR,AREACODE,"AP/111/333A,CK BLDG, MUKKAM RD,AREACODE, MALAPPURAM, KERALA","JOSEPH T.G., MANAGER 0483-2853322",AREACODE,MALAPURAM,KERALA
SIBL0000480,South Indian Bank,SIBL0000480,629059102,MARTHANDAM,"MARTHANDAM,KANYAKUMARI,TAMIL NADU","SATIS CHANDRAN V., MANAGER 04651-205424",KANYAKUMARI,KANNIYAKUMARI,TAMIL NADU
SIBL0000481,South Indian Bank,SIBL0000481,NON MICR,PATHANAPURAM,"MOUNT TABOR COMPLEX, PATHANAPURAM, KOLLAM, KERALA","JOSEPH K.M., MANAGER 0475-2352131",PATHANAPURAM,KOLLAM,KERALA
SIBL0000482,South Indian Bank,SIBL0000482,NON MICR,ANCHAL,"ANCHAL PO,KOLLAM,KERALA","GEORGE T.V., MANAGER 0475-2270330",KOLLAM,KOLLAM,KERALA
SIBL0000483,South Indian Bank,SIBL0000483,695059007,NALANCHIRA,"MAR IVANIOS COLLEGE CAMPUS,NALANCHIRA,THIRUVANANTHAPURAM,KERALA","AUGUSTHY PUTHRAN, SENIOR MANAGER 0471-2544524",THIRUVANANTHAPURAM,TRIVANDRUM,KERALA
SIBL0000484,South Indian Bank,SIBL0000484,682059025,EDAPALLY,"MAJ HOSPITAL EXTN CTR,EDAPPALLY,ERNAKULAM,KERALA","GEETHA K., SENIOR MANAGER 0484-2334633",ERNAKULAM,ERNAKULAM,KERALA
SIBL0000485,South Indian Bank,SIBL0000485,682059026,ERNAKULAM NORTH,"MADHAVA PHARMACY JNCT, BANERJI ROAD, ERNAKULAM, KERALA","JOE V.MANADAN, MANAGER 0484-2395357",KOCHI,ERNAKULAM,KERALA
SIBL0000486,South Indian Bank,SIBL0000486,560059016,BANGALORE-KOTHANUR,"K NARAYANAPURA,KOTHANNUR P.O,BANGALORE,KARNATAKA","JOY THOMAS, MANAGER 080 65357301",BANGALORE,BANGALORE URBAN,KARNATAKA
SIBL0000487,South Indian Bank,SIBL0000487,560059003,BIDADI,"IKON COLLEGE PREMISES, B M ROAD,BIDADI, BANGALORE, KARNATAKA","BABULAL P.R., MANAGER 080-27204296",BIDADI,BANGALORE RURAL,KARNATAKA
SIBL0000488,South Indian Bank,SIBL0000488,680059017,KOORKENCHERY,"I FLOOR, LATHEEF,BUILDING,KOORKENCHERY,THRISSUR,KERALA","PRAMOD C.P., MANAGER 0487-2429432",THRISSUR,TRISSUR,KERALA
SIBL0000489,South Indian Bank,SIBL0000489,NON MICR,ODDANCHATHRAM,"MAIN ROAD,ODDANCHATRAM,DINDIGUL,TAMIL NADU","MANI J.S.V., MANAGER 04553 243867",DINDIGUL,DINDIGUL,TAMIL NADU
SIBL0000490,South Indian Bank,SIBL0000490,NON MICR,CHENGALOOR,"ST MARYS HIGH SCHOOL,CHENGALOOR,THRISSUR,KERALA","VINCENT V.A., MANAGER 0480 2760989",THRISSUR,TRISSUR,KERALA
SIBL0000491,South Indian Bank,SIBL0000491,560059017,BANGALORE-MARTHAHALLY,"F.P MANSION,III FLR,MARTHAHALLY RD,BANGALORE,KARNATAKA","SHEENA SUDHEENDRAN, MANAGER 080 25228687",BANGALORE,BANGALORE URBAN,KARNATAKA
SIBL0000492,South Indian Bank,SIBL0000492,560059014,BANGALORE-ELECTRONIC CITY,"HEBBAGODI, HUSKURGATE,ELECTRONIC CITY,BANGALORE,KARNATAKA","MADHUSUDAN N., MANAGER 080 65627339",BANGALORE,BANGALORE URBAN,KARNATAKA
SIBL0000493,South Indian Bank,SIBL0000493,NON MICR,MYSORE JAYALAKHSHMIPURAM,"ST JOSEPHS INSTITUTION,CMPLX,JAYALAKSHMIPURAM,MYSORE,KARNATAKA","JOSHY P.V., MANAGER 0821 2510284",MYSORE,MYSORE,KARNATAKA
SIBL0000494,South Indian Bank,SIBL0000494,NON MICR,MANGLORE- VAMANJORE,"ST JOSEPH ENGG COLLEGE,VAMANJOOR,DAKSHIN KANNAD,KARNATAKA","JOSE P. MANAVALAN, MANAGER 0469 2645733",DAKSHIN KANNAD,DAKSHINA KANNADA,KARNATAKA
SIBL0000495,South Indian Bank,SIBL0000495,600059017,KOYAMBEDU,"MARTHOMA MATRICULATION HIGHER SECONDARY SCHOOL,FIRST MAIN ROAD, SRI AYYAPPA NAGAR,CHENNAI 92","ROY K.K., MANAGER 044 24796486",CHENNAI,CHENNAI,TAMIL NADU
SIBL0000496,South Indian Bank,SIBL0000496,NON MICR,EDAKKARA,"EP/952, JHI GROUND FLOOR,ROYAL ARCADE ,EDAKKARA","SHOUKATHALI A., MANAGER 04931 - 276600",MALAPPURAM,MALAPURAM,KERALA
SIBL0000497,South Indian Bank,SIBL0000497,695059008,SREEKARYAM,"BROTHERS TOWER, KALLAMPALLY JUNCTION , SREEKARYAM","JOE VARGHESE, SENIOR MANAGER 0471-2446931",THIRUVANANTHAPURAM,TRIVANDRUM,KERALA
SIBL0000498,South Indian Bank,SIBL0000498,NON MICR,NAGAMPADAM,"REGIONAL OFFICE, REGENCY TOWERS, COLLECTORATE P.O.","ALEXANDER I.G., MANAGER 0481-2582266",KOTTAYAM,KOTTAYAM,KERALA
SIBL0000499,South Indian Bank,SIBL0000499,NON MICR,BIBWEWADI,"GROUND FLOOR, TODKAR GARDEN,BIBWEWADI-KONDHWA ROAD, BIBWEWADI","BIJO JACOB VARUGHESE, MANAGER 020 24268082",PUNE,PUNE,MAHARASHTRA
SIBL0000500,South Indian Bank,SIBL0000500,NON MICR,EDAVANNA,"PARARI COMPLEX,CENTRAL BAZAR,EDAVANNA","MADHUSUDANAN N., MANAGER 0483 - 2703300",MALAPPURAM,MALAPURAM,KERALA
SIBL0000501,South Indian Bank,SIBL0000501,NON MICR,VENGARA,"VALAPPIL TOWER, MAIN ROAD, THAZHE ANGADI,VEGARA P.O","WILLIAM M.A., MANAGER 0494 - 2459666",MALAPPURAM,MALAPURAM,KERALA
SIBL0000502,South Indian Bank,SIBL0000502,NON MICR,KARUVARAKUNDU,"HOLY FAMILY CHURCH BUILDING, NILUMBUR,PEURMBILAB, STATE HIGHWAY, KARUVARAKUNDU","DOMINI A.A., MANAGER 04931 282282",MALAPPURAM,MALAPURAM,KERALA
SIBL0000503,South Indian Bank,SIBL0000503,695059009,SASTHAMANGALAM,"9/2555, VELLAYAMBALAM,SASTHAMANGALAM MAIN ROAD, SASTHAMANGALAM","RAJAN C.S., MANAGER 0471 - 2311606",THIRUVANANTHAPURAM,TRIVANDRUM,KERALA
SIBL0000504,South Indian Bank,SIBL0000504,313059002,UDAIPUR,"NO 1, I-ROAD, SHIKARPUR COLONY,BEHIND COLLECTOR BUNGLOW, BHUPALPURA","BABU GEORGE K., MANAGER 0294 2416175",UDAIPUR,UDAIPUR,RAJASTHAN
SIBL0000505,South Indian Bank,SIBL0000505,110059020,NEW DELHI-VIVEK VIHAR,"DOOR NO. D-215 , VIVEK VIHAR  , DELHI","ANOOP A.V., MANAGER PH 011 22165020",DELHI,NEW DELHI,DELHI
SIBL0000506,South Indian Bank,SIBL0000506,422059002,NASIK,"PLOT NO. 47, ANAND RUPA APARTMENT,MAHATMA NAGAR ROAD, PARIJAT NAGAR","VENKITESH R., MANAGER 0253 2351198",NASIK,NASHIK,MAHARASHTRA
SIBL0000507,South Indian Bank,SIBL0000507,NON MICR,AMEERPET,"8-3-24/22/S GROUND FLOOR,SAI SURYA TATA TOWER ,SREENIVASA COLONY(WEST), AMEERPET","SREENIVAS P, SENIOR MANAGER 040 - 23754064",HYDERABAD,HYDERABAD URBAN,ANDHRA PRADESH
SIBL0000508,South Indian Bank,SIBL0000508,NON MICR,HYDERABAD - A S RAO NAGAR,"H NO.1-12/107, LIGB3, A S RAO NAGAR,KAPRA, HYDERABAD","LAKSHMANA RAO., MANAGER 040-27140062",HYDERABAD,HYDERABAD URBAN,ANDHRA PRADESH
SIBL0000509,South Indian Bank,SIBL0000509,600059019,ADAYAR,"G-1, SRUTI APARTMENT, NO.11,II MAIN ROAD, GANDHI NAGAR, ADYAR","SREENIVASA PADMANABHAN R., MANAGER 044 - 24455131",CHENNAI,CHENNAI,TAMIL NADU
SIBL0000510,South Indian Bank,SIBL0000510,600059020,VADAPALANI,"NO.52, OLD NO.8, OPPOSITE TCS,100FT ROAD, VADAPALANI","JAMES P., MANAGER 011 22165020",CHENNAI,CHENNAI,TAMIL NADU
SIBL0000511,South Indian Bank,SIBL0000511,636059102,DHARMAPURI,"DRV ANNEXE, 64, NETHAJI BY-PASS ROAD","MOHAN V., MANAGER 044 24728000",DHARMAPURI,DHARMAPURI,TAMIL NADU
SIBL0000512,South Indian Bank,SIBL0000512,605059102,VILLUPURAM,"41/1 B, KK ROAD , VILLUPURAM","SUDEVAN K.M., MANAGER 0434 2269444",VILLUPURAM,VILLUPURAM,TAMIL NADU
SIBL0000513,South Indian Bank,SIBL0000513,680059023,WEST FORT THRISSUR,"KANJANY ROAD,WEST FORT, THRISSUR","SRIJITH B NAIR , PH : 022-22611209, 22658974",THRISSUR,TRISSUR,KERALA
SIBL0000514,South Indian Bank,SIBL0000514,NON MICR,KUKATPALLY,"NEAR RAJEEV CIRCLE , KPHB COLONY,KUKATPALLY, HYDERABAD","BALA NAGA ANJANEYULU G., MANAGER 040-23051174",KUKATPALLY,RANGA REDDY,ANDHRA PRADESH
SIBL0000515,South Indian Bank,SIBL0000515,NON MICR,WANDOOR,"M.A.R.VENTURE BLDGS, WANDOOR, KOZHIKODE","EVOOGIN M.P., MANAGER 0487 2389293",WANDOOR,MALAPURAM,KERALA
SIBL0000516,South Indian Bank,SIBL0000516,600059022,CHENNAI-TAMBARAM,"10 A, DUARI SAMI PILLAI STREET ,WEST TAMBARAM","UMASANKAR S, MANAGER 044 22265861",TAMBARAM,KANCHEEPURAM,TAMIL NADU
SIBL0000517,South Indian Bank,SIBL0000517,560059018,BANASHANKARI,"#569,30TH MAIN,   BANASHANKARI 3RD STAGE , BANGLORE","PIUS A.T., SENIOR MANAGER 080 2679 7634",BANGALORE,BANGALORE URBAN,KARNATAKA
SIBL0000518,South Indian Bank,SIBL0000518,560059019,BANGALORE-SARJAPUR ROAD,"65/2,KAILKONDRAHALLI, SARJAPUR ROAD, BANGLORE","PRADEEP KUMAR B., MANAGER 080 25741205",BANGALORE,BANGALORE URBAN,KARNATAKA
SIBL0000519,South Indian Bank,SIBL0000519,431059003,AURANGABAD,"SHOP NO. 201, AKSHAYDEEP PLAZA, TOWN CENTRE CIDCO AURANGABAD - 4310003","LEO JOB, MANAGER 04931-245949",NAGPUR,AURANGABAD,MAHARASHTRA
SIBL0000520,South Indian Bank,SIBL0000520,416059002,KOLAHPUR,"1426-A, CWARD G/1 LAKSHMI TOWER KONDA LINE, LAKSHMI PURI, KOLAHPUR - 416002","JOY P.V., MANAGER 0240 2481128",KOLAHPUR,KOLHAPUR,MAHARASHTRA
SIBL0000522,South Indian Bank,SIBL0000522,682059028,THRIKKAKKARA,"K M HAJI MEMORIAL BLDG, THRIKKAKKARA","PIUS P.IGNATIOUS, MANAGER 0484 2576877",THRIKKAKARA,ERNAKULAM,KERALA
SIBL0000523,South Indian Bank,SIBL0000523,560059020,BANGALORE-R.T.NAGAR,"#212,IST MAIN ROAD, RAHMATHNAGAR,R.T.NAGAR","NIRUJA V, MANAGER 080 - 23439810",BANGALORE,BANGALORE URBAN,KARNATAKA
SIBL0000524,South Indian Bank,SIBL0000524,NONMICR,MYSORE BANNIMANTAP,"DOOR NO 176/2, BANNIMANTAP B LAYOUT, BANGALORE MYSORE ROAD","SRIJITH B NAIR , PH : 022-22611209, 22658976",MYSORE,MYSORE,KARNATAKA
SIBL0000525,South Indian Bank,SIBL0000525,682059031,KALOOR ERNAKULAM,"FINANCE TOWERS, KALOOR","SRIJITH B NAIR , PH : 022-22611209, 22658975",KALOOR,ERNAKULAM,KERALA
SIBL0000526,South Indian Bank,SIBL0000526,560059015,BANGALORE BANNERGHATA ROAD,"S O S POST, NEAR MEENAKSHI TEMPLE, BANNERGHATTA ROAD","SRIJITH B NAIR , PH : 022-22611209, 22658977",BANNERGHATTA,BANGALORE URBAN,KARNATAKA
SIBL0000527,South Indian Bank,SIBL0000527,NONMICR,SOUTH KALLARA,"KALLARA SOUTH, KOTTAYAM","SRIJITH B NAIR , PH : 022-22611209, 22658978",KALLARA,KOTTAYAM,KERALA
SIBL0000528,South Indian Bank,SIBL0000528,NONMICR,KAIPUZHA,"KAIPUZHA, KOTTAYAM","SRIJITH B NAIR , PH : 022-22611209, 22658979",KAIPUZHA,KOTTAYAM,KERALA
SIBL0000529,South Indian Bank,SIBL0000529,NONMICR,RAMAPURAM,"MAR AUGUSTHINOS COLLEGE BUILDING, RAMAPURAM BAZAR P O","SRIJITH B NAIR , PH : 022-22611209, 22658974",RAMAPURAM,KOTTAYAM,KERALA
SIBL0000530,South Indian Bank,SIBL0000530,NONMICR,KODENCHERRY,"ST. JOSEPSHS HSS, KODENCHERRY P O,KOZHIKODE-673580","SRIJITH B NAIR , PH : 022-22611209, 22658975",KODENCHERRY,KOZHIKODE,KERALA
SIBL0000531,South Indian Bank,SIBL0000531,NONMICR,EDATHUA,"ST. GEORGE BUILDING, EDATHUA, ALAPUZHA-689573","SRIJITH B NAIR , PH : 022-22611209, 22658976",EDATHUA,ALAPUZZHA,KERALA
SIBL0000532,South Indian Bank,SIBL0000532,682059030,ELAMAKKARA ERNAKULAM,"44/1781-A,LFC ROAD,NEAR LF CHURCH,POTTAKUZHY,NORTH KALOOR,KOCHI 682017","SRIJITH B NAIR , PH : 022-22611209, 22658974",KALOOR,ERNAKULAM,KERALA
SIBL0000533,South Indian Bank,SIBL0000533,680059026,HOLY ANGELS ROAD OLLUR,"HOLY ANGELS ENGLISH HSS,OLLUR,THRISSUR,KERALA 680306","SRIJITH B NAIR , PH : 022-22611209, 22658975",OLLUR,THRISSUR,KERALA
SIBL0000534,South Indian Bank,SIBL0000534,NONMICR,PATHIRIPPALA,"OTTAPPALAM,PALAKKAD ,KERALA 682039","SRIJITH B NAIR , PH : 022-22611209, 22658976",OTTAPALAM,PALAKKAD,KERALA
SIBL0000535,South Indian Bank,SIBL0000535,NONMICR,KUTTANELLUR,"DOOR NO 27/890, KUTTANELLUR, THRISSUR-680014","SRIJITH B NAIR , PH : 022-22611209, 22658977",KUTTANALLUR,TRISSUR,KERALA
SIBL0000536,South Indian Bank,SIBL0000536,NONMICR,KALPATTA,"KM 18/6 ,OPP. DE PAUL SCHOOL, KOZHIKODE ROAD,KALPETTA-673121","SRIJITH B NAIR , PH : 022-22611209, 22658978",KALPETTA,WAYANAD,KERALA
SIBL0000537,South Indian Bank,SIBL0000537,NONMICR,ANGADIPURAM,"AD VIII/432/ABCD, OPP.KVR BAJAJ, KOZHIKODE ROAD,ANGADIPURAM-679321","SRIJITH B NAIR , PH : 022-22611209, 22658979",ANGADIPURAM,MALAPURAM,KERALA
SIBL0000538,South Indian Bank,SIBL0000538,NONMICR,WARRANGAL,"HNO-1-7-1079, NAKKALAGUTTA,HANAMKONDA,WARANGAL-506001","SRIJITH B NAIR , PH : 022-22611209, 22658979",WARANGAL,WARANGAL,ANDHRA PRADESH
SIBL0000539,South Indian Bank,SIBL0000539,NONMICR,MALKAJGIRI,"NO-25-21/7/3/1, EAST ANANDBAGH,MALKAJGIRI,HYDERABAD-500047","SRIJITH B NAIR , PH : 022-22611209, 22658979",MALKAJGIRI,RANGA REDDY,ANDHRA PRADESH
SIBL0000540,South Indian Bank,SIBL0000540,NONMICR,"ST. THOMAS MOUNT, CHENNAI","NO.68,BUTT RAOD,ST.THOMAS MOUNT,CHENNAI-600016","SRIJITH B NAIR , PH : 022-22611209, 22658979",CHENNAI,CHENNAI,TAMIL NADU
SIBL0000541,South Indian Bank,SIBL0000541,NONMICR,AGARTALA,"AMULLYA MARKET,MANTRIBARI ROAD,NEAR WEST AGARTHALA POLICE STATION","SRIJITH B NAIR , PH : 022-22611209, 22658977",AGARTALA,WEST TRIPURA,TRIPURA
SIBL0000542,South Indian Bank,SIBL0000542,NONMICR,THIPPASANDRA,"31/39,MANITHA MANSION,VYGNANA NAGAR,THIPPASANDRA-560037","SRIJITH B NAIR , PH : 022-22611209, 22658979",THIPPASANDRA,BANGALORE RURAL,KARNATAKA
SIBL0000543,South Indian Bank,SIBL0000543,NONMICR,DEVANAHALLI,"SURVEY NO 331/1,NARAYANACHAR LAYOUT,SHANTI NAGAR,DEVANAHALLI","SRIJITH B NAIR , PH : 022-22611209, 22658978",DEVANAHALLI,BANGALORE RURAL,KARNATAKA
SIBL0000544,South Indian Bank,SIBL0000544,680059014,PUNKUNNAM,"DOOR NO-32/198, SITHARAM MILL ROAD, PUNKUNNAM,THRISSUR,KERALA","SRIJITH B NAIR , PH : 022-22611209, 22658974",THRISSUR,THRISSUR,KERALA
SIBL0000545,South Indian Bank,SIBL0000545,680059203,KONATHUKUNNU,"S N SHOPPING COMPLEX, BUILDING NO-18A, KODUNGALLUR ROAD,THRISSUR,KERALA","SRIJITH B NAIR , PH : 022-22611209, 22658975",IRINJALAKUDA,THRISSUR,KERALA
SIBL0000546,South Indian Bank,SIBL0000546,NONMICR,L B NAGAR,"1-2-84/1,PRASHANTI ARCADE,KOTHAPET,L B NAGAR,HYDERABAD","SRIJITH B NAIR , PH : 022-22611209, 22658976",L.B.NAGAR,RANGAREDDY,ANDHRA PRADESH
SIBL0000547,South Indian Bank,SIBL0000547,NONMICR,QUTABULLAPUR,"SHOP NO.4,5,6 PLOT NO-7/17, SUCHTRA JUNCTION,VENKATESHWARA ENCLAVE","SRIJITH B NAIR , PH : 022-22611209, 22658977",QUTHBULLAPUR,RANGAREDDY,ANDHRA PRADESH
SIBL0000548,South Indian Bank,SIBL0000548,NONMICR,SERILINGAMPALLY,"MADINAGUDA,7-1/1&7-1/2,MUMBAI NH,GHMC","SRIJITH B NAIR , PH : 022-22611209, 22658978",SERI-LINGAMPALLY,RANGAREDDY,ANDHRA PRADESH
SIBL0000549,South Indian Bank,SIBL0000549,NONMICR,UPPAL KALAN,"1-7-9/3,HARIHARA ESTATE,STREET NO.8,OPP. ISI,HABSIGUDA,GHMC","SRIJITH B NAIR , PH : 022-22611209, 22658978",UPPAL,RANGAREDDY,ANDHRA PRADESH
SIBL0000550,South Indian Bank,SIBL0000550,NONMICR,KIDANGOOR,"LITTLE LOURDES MISSION HOSPITAL COMPOUND, KIDANGOOR,KOTTAYAM,KERALA","SRIJITH B NAIR , PH : 022-22611209, 22658976",KIDANGOOR,KOTTAYAM,KERALA
SIBL0000551,South Indian Bank,SIBL0000551,NONMICR,KARTHIKAPALLY,"ST.THOMAS HIGH SCHOOL, KARTHIKAPALLY,ALAPUZHA,KERALA","SRIJITH B NAIR , PH : 022-22611209, 22658976",KORTHIKAPPALLY,ALAPUZHA,KERALA
SIBL0000552,South Indian Bank,SIBL0000552,NONMICR,CHALAKUDY NORTH,"ST.JAMES HOSPITAL, CHALAKUDY,THRISSUR,KERALA","SRIJITH B NAIR , PH : 022-22611209, 22658977",CHALAKUDY,THRISSUR,KERALA
SIBL0000553,South Indian Bank,SIBL0000553,NONMICR,MAPUSA-GOA,"DULER, MAPUSA, BARDEZ  GOA,NORTH GOA,GOA","SRIJITH B NAIR , PH : 022-22611209, 22658978",MAPUSA,NORTH GOA,GOA
SIBL0000554,South Indian Bank,SIBL0000554,110059021,DELHI NAJAFGARH,"RZ 14/5 LAKSHMI GARDEN, NAJAFGARH,DELHI","SRIJITH B NAIR , PH : 022-22611209, 22658974",DELHI,DELHI,DELHI
SIBL0000555,South Indian Bank,SIBL0000555,110059022,FARIDABAD,"SHOP NO-60,CLM MALL,I P COLONY,SECTOR30-33,FARIDABAD","SRIJITH B NAIR , PH : 022-22611209, 22658976",FARIDABAD,FARIDABAD,HARYANA
SIBL0000556,South Indian Bank,SIBL0000556,110059023,INDIRAPURAM,"C-5,NYAY KHAND-1,GROUD FLOOR, INDIRAPURAM,GAZIABAD","SRIJITH B NAIR , PH : 022-22611209, 22658975",GHAZIABAD,GHAZIABAD,UTTAR PRADESH
SIBL0000557,South Indian Bank,SIBL0000557,NONMICR,BHILAI NAGAR,"GRACE PLAZA, SHOP 107/108, BLOCK B, NEHRU NAGAR SQUARE, BHILAI NAGAR","SRIJITH B NAIR , PH : 022-22611209, 22658977",BHILAINAGAR,DURG,CHHATTISGARH
SIBL0000558,South Indian Bank,SIBL0000558,NONMICR,PALAKKAD CHANDRA NAGAR,"DOOR NO.9/1484,KAV,CENTRAL COMPLEX, CHANDRA NAGAR","SRIJITH B NAIR , PH : 022-22611209, 22658978",CHANDRANAGAR,PALAKKAD,KERALA
SIBL0000559,South Indian Bank,SIBL0000559,NONMICR,NEW DELHI-MALVIYA NAGAR,"C-46, SHIVALIK MALVIYA NAGAR NEW DELHI","SRIJITH B NAIR , PH : 022-22611209, 22658977",DELHI,DELHI,DELHI
SIBL0000560,South Indian Bank,SIBL0000560,NONMICR,NEW DELHI-PUNJABI BAGH,NORTH AVENUE WEST PUNJABI BAGH NEW DELHI -42,"SRIJITH B NAIR , PH : 022-22611209, 22658977",DELHI,DELHI,DELHI
SIBL0000561,South Indian Bank,SIBL0000561,NONMICR,NIGDI,"RIDDHE CAPITAL, S-11, SECTOR NO.26, ADC PCNTDA, NEAR SAMBAHJI CHOWK, NIGDI PRADHI KARAN","SRIJITH B NAIR , PH : 022-22611209, 22658977",NIGDI,PUNE,MAHARASHTRA
SIBL0000562,South Indian Bank,SIBL0000562,695059010,TRIVANDRUM PEROORKADA,"MAYUR PLAZA, OPP. LUTHERAN CHURCH, PEROORKADA","SRIJITH B NAIR , PH : 022-22611209, 22658977",THIRUVANANTHAPURAM,THIRUVANANTHAPURAM,KERALA
SIBL0000563,South Indian Bank,SIBL0000563,NONMICR,KAYAMKULAM,"ST.GEORGE AUDITORIUM BUILDING, KADEESA ORTHODOX CHURCH,KAYAMKULAM","SRIJITH B NAIR , PH : 022-22611209, 22658977",KAYAMKULAM,ALAPUZHA,KERALA
SIBL0000564,South Indian Bank,SIBL0000564,NONMICR,AVADI,"NO:226, NEW MILITARY ROAD AVADI CHENNAI -54","SRIJITH B NAIR , PH : 022-22611209, 22658977",AVADI,THIRUVALLUR,TAMIL NADU
SIBL0000565,South Indian Bank,SIBL0000565,NONMICR,COIMBATORE VADAVALLI,"1C, THIRUMURUGAN NAGAR, MARUTHAMALAI MAIN ROAD","SRIJITH B NAIR , PH : 022-22611209, 22658978",VADAVALLI,COIMBATORE,TAMIL NADU
SIBL0000566,South Indian Bank,SIBL0000566,NONMICR,THUCKALAY,"BISHOP'S HOUSE BUILDING, MAIN ROAD, THUCKALAY","SRIJITH B NAIR , PH : 022-22611209, 22658977",THUCKALAI,KANYAKUMARI,TAMIL NADU
SIBL0000567,South Indian Bank,SIBL0000567,NONMICR,PERUNGUDI,"DOOR NO 112, OMR ROAD,   RAJIV GANDHI SALAI, PERUNGUDI","SRIJITH B NAIR , PH : 022-22611209, 22658977",PERUNGUDI,KANCHEEPURAM,TAMIL NADU
SIBL0000568,South Indian Bank,SIBL0000568,NONMICR,BILASPUR,"INDRAJITH COMPLEX, B2, GROUND FLOOR, OPPOSITE HIGH COURT, HIGH COURT MAIN ROAD","SRIJITH B NAIR , PH : 022-22611209, 22658978",BILASPUR,BILASPUR,CHHATTISGARH
SIBL0000569,South Indian Bank,SIBL0000569,NONMICR,CUTTACK,"OSL TOWER, GROUND FLOOR,   LINK ROAD","SRIJITH B NAIR , PH : 022-22611209, 22658977",CUTTACK,CUTTACK,ORISSA
SIBL0000570,South Indian Bank,SIBL0000570,NONMICR,JAMSHEDPUR,"NO.341, KUNTI TOWER, KALIMATI ROAD, SAKCHI, JAMSHEDPUR","SRIJITH B NAIR , PH : 022-22611209, 22658977",JAMSHEDPUR,PURBI SINGHBHUM,JHARKHAND
SIBL0000571,South Indian Bank,SIBL0000571,NONMICR,HOSUR,"TPS TOWERS, H-2, RAILWAY STATION ROAD, NEAR TALUK OFFICE, HOSUR","SRIJITH B NAIR , PH : 022-22611209, 22658977",HOSUR,KRISHNAGIRI,TAMIL NADU
SIBL0000572,South Indian Bank,SIBL0000572,NONMICR,ERNAKULAM PANAMPILLY NAGAR,"49/491UA, ANDHRA KALANILAYAM PANAMPILLY NAGAR KOCHI","SRIJITH B NAIR , PH : 022-22611209, 22658978",KOCHI,ERNAKULAM,KERALA
SIBL0000573,South Indian Bank,SIBL0000573,NONMICR,NEDUMKUNNAM,PUTHIYAPARAMBIL BUILDING KAVUNADA KARUKACHAL-MANIMALA ROAD NEDUMKUNNAM 686542,"SRIJITH B NAIR , PH : 022-22611209, 22658977",NEDUMKUNNAM,KOTTAYAM,KERALA
SIBL0000574,South Indian Bank,SIBL0000574,680059030,EDAKAZHIYUR,"DOOR NO. 16/251M, K K CENTER- GROUND FLOOR, EDAKAZHIYUR 680515","SRIJITH B NAIR , PH : 022-22611209, 22658977",CHAVAKKAD,THRISSUR,KERALA
SIBL0000575,South Indian Bank,SIBL0000575,NONMICR,PHAGWARA,"GORAYA MANSION, SINGLA MARKET, G T ROAD PHAGWARA","SRIJITH B NAIR , PH : 022-22611209, 22658977",PHAGWARA,KAPURTHALA,PUNJAB
SIBL0000576,South Indian Bank,SIBL0000576,NONMICR,MEERUT,"SRI RAM PALACE, NEAR NEW SABAJI MANDI,DELHI ROAD, MEERUT","SRIJITH B NAIR , PH : 022-22611209, 22658977",MEERUT,MEERUT,UTTAR PRADESH
SIBL0000577,South Indian Bank,SIBL0000577,NONMICR,KANPUR,"110/19, NEHRU NAGAR, 80 FEET ROAD KANPUR","SRIJITH B NAIR , PH : 022-22611209, 22658977",KANPUR,KANPUR CITY,UTTAR PRADESH
SIBL0000578,South Indian Bank,SIBL0000578,NONMICR,SHILLONG,"26 A , CANTONMENT, G S ROAD, BARA BAZAR,  SHILLONG","SRIJITH B NAIR , PH : 022-22611209, 22658978",SHILLONG,EAST KHASI HILLS,MEGHALAYA
SIBL0000579,South Indian Bank,SIBL0000579,NONMICR,SHIMLA,"GMHR BUILDING, PHASE-3, SECTOR 5, BELOW BCS, NEW SHIMLA","SRIJITH B NAIR , PH : 022-22611209, 22658977",SIMLA,SIMLA,HIMACHAL PRADESH
SIBL0000580,South Indian Bank,SIBL0000580,NONMICR,AGRA,"D-520, GROUND FLOOR, KAMALA NAGAR, AGRA","SRIJITH B NAIR , PH : 022-22611209, 22658977",AGRA,AGRA,UTTAR PRADESH
SIBL0000581,South Indian Bank,SIBL0000581,NONMICR,ALWAL,"H NO:6-44/90, PLOT NO:29A, TEMPLE ALWAL, VALLABH NAGAR, SECUNDERABAD","SRIJITH B NAIR , PH : 022-22611209, 22658978",ALWAL,RANGAREDDY,ANDHRA PRADESH
SIBL0000582,South Indian Bank,SIBL0000582,NONMICR,PODUKOTTAI,"2633, MUTHU MEENA COMPLEX, EAST MAIN STREET, PUDUKKOTTAI","SRIJITH B NAIR , PH : 022-22611209, 22658977",PUDUKKOTTAI,PUDUKKOTTAI,TAMIL NADU
SIBL0000583,South Indian Bank,SIBL0000583,NONMICR,KENGERI SATELLITE TOWN,"SITE NO.1895,1895A, MAIN ROAD(RING ROAD) SECOND CROSS, KENGERI","SRIJITH B NAIR , PH : 022-22611209, 22658977",KENGERI,BANGALORE URBAN,KARNATAKA
SIBL0000584,South Indian Bank,SIBL0000584,NONMICR,MANESAR,"ANAND RAJ TECH PARK, CP-1, SECTOR 8, IMT, MANESAR","SRIJITH B NAIR , PH : 022-22611209, 22658978",MANESAR,GURGAON,HARYANA
SIBL0000585,South Indian Bank,SIBL0000585,NONMICR,KAL0OR VIA KALLORKKAD,"KOCHUKUDIYIL BUILDING, NO.691/A  NO. IV, KALOORKAD PANCHAYATH VIA KALOOR 686668","SRIJITH B NAIR , PH : 022-22611209, 22658977",KALLOORKAD,ERNAKULAM,KERALA
SIBL0000586,South Indian Bank,SIBL0000586,NONMICR,MOOKKANNUR,"BUILDING NO. VII/204-207, MOOKKANNUR PO, VIA ANGAMALY 683577","SRIJITH B NAIR , PH : 022-22611209, 22658977",MOOKKANNOR,ERNAKULAM,KERALA
SIBL0000587,South Indian Bank,SIBL0000587,NONMICR,RAJAGIRI VALLEY KAKKANAD,RAJAGIRI VALLEY POST KAKKAND COCHIN-682039,"SRIJITH B NAIR , PH : 022-22611209, 22658977",KAKKANAD,ERNAKULAM,KERALA
SIBL0000588,South Indian Bank,SIBL0000588,NONMICR,TIRUVALLA PUSHPAGIRI,PUSHPAGIRI BUILDONG PUSHPAGIRI ROAD TIRUVALLA 689101,"SRIJITH B NAIR , PH : 022-22611209, 22658977",THIRUVALLA,PATHANAMTHITTA,KERALA
SIBL0000589,South Indian Bank,SIBL0000589,680059081,PARAVATTANI,MAR ADDAI SLEEHA CHURCH COMPLEX PARVATTANI THRISSUR 680005,"SRIJITH B NAIR , PH : 022-22611209, 22658977",THRISSUR,THRISSUR,KERALA
SIBL0000590,South Indian Bank,SIBL0000590,678059817,VADAKKENCHERRY," VDK IV/1415-1418,SARA CPLX OPP. BUS STAND,VADAKKENCHERRY 678683","SRIJITH B NAIR , PH : 022-22611209, 22658977",WADAKANCHERRY,THRISSUR,KERALA
SIBL0000591,South Indian Bank,SIBL0000591,500059014,MANIKONDA (JAGIR),"MKD PLOT NO3,LALLAMMA GARDEN STREET NO 4,  MAIN ROAD MANIKONDA 500089","SRIJITH B NAIR , PH : 022-22611209, 22658977",SERI-LINGAMPALLY,RANGAREDDY,ANDHRA PRADESH
SIBL0000592,South Indian Bank,SIBL0000592,700059009,AMTALA,"AMT K E CARMEL SCHOOL BLDG BARUIPUR ROAD, CHANDI 743503","SRIJITH B NAIR , PH : 022-22611209, 22658977",AMTALA,MURSHIDABAD,WEST BENGAL
SIBL0000593,South Indian Bank,SIBL0000593,560059012,BANGALORE ST. PHILOMINA'S HOSPITAL,NEELASANDRA ROAD  BANGALORE,"THOMAS JOHN , PH : 022-22611209, 22658977",BANGALORE,BANGALORE URBAN,KARNATAKA
SIBL0000594,South Indian Bank,SIBL0000594,NONMICR,MARANCHERY,M A SQUARE BUILDING PONNANI GURUVAYUR ROAD MARANCHERY MALAPPURAM 679 581,"THOMAS JOHN, PH : 022-22611209, 22658977",MARANCHERI,MALAPPURAM,KERALA
SIBL0000595,South Indian Bank,SIBL0000595,679059808,PULAMANTHOLE,P T S COMPLEX MAIN ROAD OPP. BUS STAND  PULAMANTHOLE MALAPPURAM 679 323,"THOMAS JOHN, PH : 022-22611209, 22658977",PULAMANTHOLE,MALAPPURAM,KERALA
SIBL0000596,South Indian Bank,SIBL0000596,676059809,VAILATHUR,SHALIMAR COMPLEX PONMUNDAM P O VAILATHUR MALAPPURAM DT 676 106,"THOMAS JOHN, PH : 022-22611209, 22658977",VAILATHUR,MALAPPURAM,KERALA
SIBL0000597,South Indian Bank,SIBL0000597,500 059 015,NIZAMPET,"H. NO. 3-147/35, MAIN ROAD, NIZAMPET, QUTBULLAPUR, MANDAL, RANGAREDDY DIST, ANDHRA PRADESH   500 090 .","THOMAS JOHN, PH : 022-22611209, 22658977",KUKATPALLY,RANGAREDDY,ANDHRA PRADESH
SIBL0000598,South Indian Bank,SIBL0000598,NONMICR,GANDI MAISAMMA,"GROUND FLOOR, BGR ARCADE 3-93/4 D, GANDI MAISAMMA X ROAD DOMMARA POCHAMPALLY GRAM PANCHAYATH R.R.DIST, HYDERABAD","THOMAS JOHN, PH : 022-22611209, 22658977",BOWRAMPET,RANGAREDDY,ANDHRA PRADESH
SIBL0000599,South Indian Bank,SIBL0000599,600059026,CHENNAI-PORUR,"NO.133, M S R COMPLEX,KUNDRATHUR HIGH ROAD, PORUR,   THIRUVALLUR  ( DT ),CHENNAI.600 116","THOMAS JOHN, PH : 022-22611209, 22658977",PORUR,THIRUVALLUR,TAMIL NADU
SIBL0000600,South Indian Bank,SIBL0000600,NONMICR,ELAMPILLAI,10/74 SMR BUILDING OPP. BUSSTAND ELAMPILLAI SALEM DIST. 637502,"THOMAS JOHN, PH : 022-22611209, 22658977",ELAMPILLAI,SALEM,TAMIL NADU
SIBL0000601,South Indian Bank,SIBL0000601,636059502,OMALUR,"SY. NO 239/11. OPP TO SALEM DISTRICT CENTRAL COOPERATIVE BANK, DHARMAPURI ROAD OMALLUR, SALEM DIST. TAMILNADU 636012","THOMAS JOHN, PH : 022-22611209, 22658977",OMALUR,SALEM,TAMIL NADU
SIBL0000602,South Indian Bank,SIBL0000602,682059035,NEDUMBASSERI,"V/1051, VIP PANORAMA ARCADE MAIN  ROAD ATHANI ERNAKULAM 683585","THOMAS JOHN, PH : 022-22611209, 22658977",ALUVA,ERNAKULAM,KERALA
SIBL0000603,South Indian Bank,SIBL0000603,NONMICR,KATTAPPANA,KGEES BUILDING ERATTAYAR ROAD KATTAPPANA IDUKI 685508,"THOMAS JOHN, PH : 022-22611209, 22658977",KATTAPPANA,IDUKKI,KERALA
SIBL0000604,South Indian Bank,SIBL0000604,NONMICR,SULTHAN BATHERY,"P K RESIDENCY, MAIN ROAD SULTHAN BATTERY WAYANAD DT. 673 592 ","THOMAS JOHN, PH : 022-22611209, 22658977",SULTHANBATHERY,WAYANAD,KERALA
SIBL0000605,South Indian Bank,SIBL0000605,NONMICR,MANANTHAVADY,"MP VI /801, D,D1,D2,D3,D4, & D5 SANJOS SHOPPING COMLEX ST. JOSEPH HOSPITAL ROAD MANANTHAVADI WAYANAD 670645","THOMAS JOHN, PH : 022-22611209, 22658977",MANANTHAVADY,WAYANAD,KERALA
SIBL0000606,South Indian Bank,SIBL0000606,NONMICR,AROOR,"K K BUILDING NANDANAM AROOR, ALAPUZHA – 689 534","THOMAS JOHN, PH : 022-22611209, 22658977",AROOR,ALAPUZZHA,KERALA
SIBL0000607,South Indian Bank,SIBL0000607,NONMICR,ETTUMANOOR,VETTOOR SHOPINGG COMPLEX NEAR  KSRTCBUS STAND  MC ROAD ETTUMANOOR .P.O  KOTTAYAM (DIST)   686 631,"THOMAS JOHN, PH : 022-22611209, 22658977",ETTUMANOOR,KOTTAYAM,KERALA
SIBL0000608,South Indian Bank,SIBL0000608,NONMICR,VADASSERIKKARA,"VIII/520 A, MUNDAPLAKKAL BUILDING , VADASSERIKKARA SABARIMALA ROAD 689662","THOMAS JOHN, PH : 022-22611209, 22658977",VADASSERIKARA,PATHANAMTHITTA,KERALA
SIBL0000609,South Indian Bank,SIBL0000609,682059036,VYPIN( MURIKKUMPADAM ),"99C, ASWATHY BUILDINGS NEAR SEAFOOD BUS STOP AZHEEKKKAL P O MURIKKUMPADAM KOCHI 682508","THOMAS JOHN, PH : 022-22611209, 22658977",KOCHI,ERNAKULAM,KERALA
SIBL0000610,South Indian Bank,SIBL0000610,NONMICR,ADIMALI,"XII / 337 B, SIVARAM S BUILDING , BUS STAND JUNCTION NH-49 ADIMALI IDUKKI 685561","THOMAS JOHN, PH : 022-22611209, 22658977",IDIKKI,IDUKKI,KERALA
SIBL0000611,South Indian Bank,SIBL0000611,670059806,IRITTY,MOIDEEN'S BIULDINGS PERAVOOR ROAD PAYANCHERY JUNCTION IRITTY TOWN KANNUR 670 703,"THOMAS JOHN, PH : 022-22611209, 22658977",KIZHOOR IRITTY,CANNUR,KERALA
SIBL0000612,South Indian Bank,SIBL0000612,670059804,PILATHARA,SILKY FASHION BUILDINGS OPP. KAIRALI AUDITORIUM PILATHARA 670 703,"THOMAS JOHN, PH : 022-22611209, 22658977",PAYYANNUR,CANNUR,KERALA
SIBL0000613,South Indian Bank,SIBL0000613,670059803,CHERUPUZHA,SANILAS COMPLEX MAIN ROAD CHERUPUZHA KANNUR 670 511,"THOMAS JOHN, PH : 022-22611209, 22658977",CHERUPUZHA,CANNUR,KERALA
SIBL0000614,South Indian Bank,SIBL0000614,670059807,PERAVOOR,WARD NO. II B.P/6/416 /D VELLARVALLY VILLAGE NEAR PERAVOOR POLICE STATION PERAVOOR POST KANNUR 670673,"THOMAS JOHN, PH : 022-22611209, 22658977",PERAVOOR,CANNUR,KERALA
SIBL0000615,South Indian Bank,SIBL0000615,NONMICR,IRIKKUR,"FIBNA COMPLEX, MAIN ROAD IRIKKUR TOWN KANNUR, 670 593","THOMAS JOHN, PH : 022-22611209, 22658977",IRIKKUR,CANNUR,KERALA
SIBL0000616,South Indian Bank,SIBL0000616,670059805,THRIKKARIPUR,"ROYAL COMPLEX, MAIN ROAD THRIKKARIPUR KASARGOD 671 310","THOMAS JOHN, PH : 022-22611209, 22658977",KASARAGOD,KASARAGOD,KERALA
SIBL0000617,South Indian Bank,SIBL0000617,617059802,UDUMA,WARD NO. XI ROOM NO 496 YEMPEES COMPLEX MAIN ROAD PALAKUNNU BEKAL KASARGOD DT,"THOMAS JOHN, PH : 022-22611209, 22658977",UDMA,KASARAGOD,KERALA
SIBL0000618,South Indian Bank,SIBL0000618,NONMICR,MEDCHAL,NO. 122 MAIN ROAD MEDCHAL VILLAGE RENGAREDDY DIST.  ANDHRAPRADESH,"THOMAS JOHN, PH : 022-22611209, 22658977",MEDCHAL,RANGAREDDY,ANDHRA PRADESH
SIBL0000619,South Indian Bank,SIBL0000619,676059808,MONGAM,446/20 BLAST K T BUILDING MORAYUR VILLAGE MALAPPURAM DT 676519,"THOMAS JOHN, PH : 022-22611209, 22658977",MALAPPURAM,MALAPURAM,KERALA
SIBL0000620,South Indian Bank,SIBL0000620,676059807,KIZHISSERY,KOTTA TOWER NEAR TELEPHONE EXCHANGE KIZHISSERY 673 641 MALAPPURAM,"THOMAS JOHN, PH : 022-22611209, 22658977",MALAPPURAM,MALAPURAM,KERALA
SIBL0000621,South Indian Bank,SIBL0000621,676059810,KUTTIPPURAM,K T TOWERS BYE PASS JUNCTION KUTTIPPURAM MALAPPURAM 679 571,"THOMAS JOHN, PH : 022-22611209, 22658977",KUTTIPURAM,MALAPPURAM,KERALA
SIBL0000622,South Indian Bank,SIBL0000622,NONMICR,POOKOTTUPADAM,"SHAIJ BUILDINGS, KALIKAVU ROAD, POOKOTTUPADAM 679332 MALAPPURAM","THOMAS JOHN, PH : 022-22611209, 22658977",NILAMBUR,MALAPPURAM,KERALA
SIBL0000623,South Indian Bank,SIBL0000623,679059809,PANDIKKAD,HIBA ASIA TOURIST HOME NEAR MAIN JUNCTION   PERINTHALMANNA ROAD PANDIKKAD PO MALAPPURAM 679 322,"THOMAS JOHN, PH : 022-22611209, 22658977",PANDIKKAD,MALAPPURAM,KERALA
SIBL0000624,South Indian Bank,SIBL0000624,695059013,TECHNOPARK TRIVANDRUM,TECHNOMALL TECHNOPARK KAZHAKKUTTAM THIRUVANANTHAPURAM 695 581,"THOMAS JOHN, PH : 022-22611209, 22658977",KAZHAKUTTAM,THIRUVANANTHAPURAM,KERALA
SIBL0000625,South Indian Bank,SIBL0000625,NON MICR,MADURAI- ANNA NAGAR,"NO. 37 -A, GROUND FLOOR, NEW LIC BUILDING, 80 FEET ROAD, ANNA NAGAR , MADURAI - 625020","THOMAS JOHN, PH : 022-22611209, 22658977",MADURAI,MADURAI,TAMIL NADU
SIBL0000626,South Indian Bank,SIBL0000626,NON MICR,DISPUR,"KAY M PLAZA, G.S ROAD  GUWAHATI, KAMRUP,ASSAM - 781 006","THOMAS JOHN, PH : 022-22611209, 22658977",GUWAHATI,KAMRUP,ASSAM
SIBL0000627,South Indian Bank,SIBL0000627,"211059002
",ALLAHABAD,"53/4, CIVIL STATION B NO.37, UPPER GROUND FLOOR, COLVIN ROAD, CIVIL LINES, ALLAHABAD-211001","THOMAS JOHN, PH : 022-22611209, 22658977",ALLAHABAD,ALLAHABAD,UTTAR PRADESH
SIBL0000628,South Indian Bank,SIBL0000628,505 059 002,KARIMNAGAR,"#2-6-299,GROUND FLOOR, A K ESTATES, OPP.AXIS BANK, NEAR MANAIR HOTEL, MUKARAMPURA,KARIMNAGAR DISTRICT, ANDHRAPRADESH-505 001","THOMAS JOHN, PH : 022-22611209, 22658977",KARIMNAGAR,KARIMNAGAR,ANDHRA PRADESH
SIBL0000629,South Indian Bank,SIBL0000629,NON MICR,PALLAVARAM,"NO. 9, PAMMAL MAIN ROAD PALLAVARAM CHENNAI TAMILNADU - 600  043","THOMAS JOHN, PH : 022-22611209, 22658977",PALLAVARAM,KANCHEEPURAM,TAMIL NADU
SIBL0000630,South Indian Bank,SIBL0000630,576059002,UDUPI,"GUJJADI TOWERS, M G ROAD, KALSANKA / KADIYALI SECTOR,UDUPI-576102","THOMAS JOHN, PH : 022-22611209, 22658977",UDUPI,UDIPI,KARNATAKA
SIBL0000631,South Indian Bank,SIBL0000631,NON MICR,GANDHIDHAM,"PLOT NO. 274, WARD NO. 12/B MAIN MARKET, HINDUJA CHAMBERS, GANDHIDHAM - 370 201","THOMAS JOHN, PH : 022-22611209, 22658977",GANDHIDHAM,KACHCHH,GUJARAT
SIBL0000632,South Indian Bank,SIBL0000632,671 059 052,KANHANGAD,"ALFLAH COMPLEX, T.B.ROAD JUNCTION, MAIN ROAD, KANHANGAD KASARAGOD-671315","THOMAS JOHN, PH : 022-22611209, 22658977",KANHANGAD,KASARAGOD,KERALA
SIBL0000633,South Indian Bank,SIBL0000633,403059005,VASCO-DA-GAMA (MORMUGAO),"GROUND FLOOR,MELQUIDES BUILDING,FR.JOSEPH VAZ ROAD,SOUTH GOA,GOA-403802","THOMAS JOHN, PH : 022-22611209, 22658977",MORMUGAO,SOUTH GOA,GOA
SIBL0000634,South Indian Bank,SIBL0000634,NON MICR,VARAPUZHA,"THALIYATH BUILDING, PUTHENPALLY VARAPUZHA - 683517","THOMAS JOHN, PH : 022-22611209, 22658977",VARAPUZHA,ERNAKULAM,KERALA
SIBL0000635,South Indian Bank,SIBL0000635,NON MICR,KOOTHATTUKULAM,"EDINJUKUZHIYIL BUILDING, CENTRAL JUNCTION, KOOTHATTUKULAM - 686 662","THOMAS JOHN, PH : 022-22611209, 22658977",KOOTHATTUKULAM,ERNAKULAM,KERALA
SIBL0000636,South Indian Bank,SIBL0000636,NON MICR,PATTIMATTOM,"CEEPEES COMPLEX,  PATTIMATTOM,  ERNAKULAM - 683562","THOMAS JOHN, PH : 022-22611209, 22658977",KOLENCHERRY,ERNAKULAM,KERALA
SIBL0000637,South Indian Bank,SIBL0000637,NONMICR,KARUKUTTY,KOORANS BUILDING 12/594&595 RAILWAY STATION JN. KARUKUTTY ERNAKULAM  683576,"THOMAS JOHN, PH : 022-22611209, 22658977",KARUKUTTY,ERNAKULAM,KERALA
SIBL0000639,South Indian Bank,SIBL0000639,NONMICR,KOTHANALLOORE,"THAYIL BUILDING KOTHANALLOOR, KOTTAYAM DIST - 686632","THOMAS JOHN, PH : 022-22611209, 22658977",ETTUMANOOR,KOTTAYAM,KERALA
SIBL0000640,South Indian Bank,SIBL0000640,NONMICR,MUNDAKKAYAM,"KUTTENCHIRAYIL BUILDINGS,   NH 220, MUNDAKKAYAM KOTTAYAM - PIN 686513","THOMAS JOHN, PH : 022-22611209, 22658977",MUNDAKAYAM,KOTTAYAM,KERALA
SIBL0000641,South Indian Bank,SIBL0000641,NONMICR,MANARCAUD,VELIANKUNNATH BUILDING KIDANGOOR ROAD MANARCAUD KOTTAYAM-686019 ,"THOMAS JOHN, PH : 022-22611209, 22658977",MANARCAUD,KOTTAYAM,KERALA
SIBL0000642,South Indian Bank,SIBL0000642,NONMICR,PARIPALLY,"KP/XIII/322 A,   D&D TOWER,  MAIN ROAD, PARIPALLY- 695574","THOMAS JOHN, PH : 022-22611209, 22658977",PARIPALLY,KOLLAM,KERALA
SIBL0000643,South Indian Bank,SIBL0000643,NONMICR,OACHIRA,"S.D BUILDING, 463/A,  MARKET ROAD,(OLD HIGHWAY),OACHIRA, KOLLAM DISTRICT,PIN-690526, KERALA","THOMAS JOHN, PH : 022-22611209, 22658977",OACHIRA,KOLLAM,KERALA
SIBL0000644,South Indian Bank,SIBL0000644,NONMICR,KALLAMBALAM,"SHINE ARCADE KALLAMBALAM- 69560
","THOMAS JOHN, PH : 022-22611209, 22658977",KALLAMBALAM,THIRUVANANTHAPURAM,KERALA
SIBL0000646,South Indian Bank,SIBL0000646,NONMICR,KORATTY,"468/C, WARD XIV,OPP.GOVT OF INDIA PRESS NH-47, KORATTY-  THRISSUR, KERALA680308","THOMAS JOHN, PH : 022-22611209, 22658977",KORATTY,THRISSUR,KERALA
SIBL0000647,South Indian Bank,SIBL0000647,NONMICR,MALA,"XV/773, NEAR ANUPAMA RESTAURANT MAIN ROAD, MALA THRISSUR DISTRICT, KERALA","THOMAS JOHN, PH : 022-22611209, 22658977",MALA,THRISSUR,KERALA
SIBL0000648,South Indian Bank,SIBL0000648,679 059 252,CHERPULASSERY,"9/17, PATTAMBI ROAD CHERPULASSERY , PALAKKAD DT-679503","THOMAS JOHN, PH : 022-22611209, 22658977",CHERPALACHERRY,PALAKKAD,KERALA
SIBL0000649,South Indian Bank,SIBL0000649,NONMICR,OLARIKKARA,"TC VIII/4/10, 1ST FLOOR, THATTIL ARCADE, P.O.PULLAZHI, OLARIKKARA, THRISSUR-680012, KERALA","THOMAS JOHN, PH : 022-22611209, 22658977",OLARIKKRA,THRISSUR,KERALA
SIBL0000650,South Indian Bank,SIBL0000650,NON MICR,SURAT UDHNA,"GROUND FLOOR, SNS HOUSE, OOP. SILICON SHOPPER COMPLEX, UDHNA TEEN RASTA, UDHNA SURAT GUJARAT-394 210","THOMAS JOHN, PH : 022-22611209, 22658977",SURAT,SURAT,GUJARAT
SIBL0000651,South Indian Bank,SIBL0000651,110059027,NARAINA VIHAR,"E 20,GIRDHARI LAL GOSWAMI MARG, OPPOSITE BIKANERVALA, NARAINA VIHAR","NIMESH THOMAS  PH : 022-22611209, 22658977",DELHI,DELHI,DELHI
SIBL0000652,South Indian Bank,SIBL0000652,500059017,BANJARA HILLS,"PLOT NO.13, N.N.R ARCADE, 1ST FLOOR, ROAD NO.10, BANJARA HILLS,HYDERABAD","THOMAS JOHN, PH : 022-22611209, 22658977",HYDERABAD,HYDERABAD,ANDHRA PRADESH
SIBL0000653,South Indian Bank,SIBL0000653,NON MICR,THEVARA,"DOOR NO. 1570 A/1570 D, KANJIRAPARAMBIL BUILDINGS THEVARA ERNAKULAM.-682015","THOMAS JOHN, PH : 022-22611209, 22658977",KOCHI,ERNAKULAM,KERALA
SIBL0000654,South Indian Bank,SIBL0000654,NON MICR,CHENNAI-ASHOK NAGAR,"59/107, 4TH AVENUE, ASHOK NAGAR CHENNAI TAMIL NADU - 600 083","THOMAS JOHN, PH : 022-22611209, 22658977",CHENNAI,CHENNAI,TAMIL NADU
SIBL0000655,South Indian Bank,SIBL0000655,NON MICR,BANGALORE COX TOWN,"  61,WHEELER ROAD , BANGALORE KARNATAKA 560005","THOMAS JOHN, PH : 022-22611209, 22658977",BANGALORE,BANGALORE URBAN,KARNATAKA
SIBL0000656,South Indian Bank,SIBL0000656,NON MICR,KOLKATA BIDHAN NAGAR,"PLOT NO 7, BLOCK-EN,  SECTOR 5, SALT LAKE  BIDHAN NAGAR - KOLKATA 700091","THOMAS JOHN, PH : 022-22611209, 22658977",BIDHANNAGAR,DARJILING,WEST BENGAL
SIBL0000657,South Indian Bank,SIBL0000657,670059003,SOUTH BAZAR KANNUR,"SB 5/1-2,NEAR MAKKANI , SOUTH BAZAR, KANNUR KERALA-670 002","THOMAS JOHN, PH : 022-22611209, 22658977",CANNUR,CANNUR,KERALA
SIBL0000658,South Indian Bank,SIBL0000658,695 059 001,TRIVANDRUM SERVICE BRANCH,"HOTEL SAFA INTERNATIONAL BUILDING, 25/1075, NEAR ARISTO JUNCTION, EAST THAMPANOOR TRIVANDRUM 695 014","THOMAS JOHN, PH : 022-22611209, 22658977",THIRUVANANTHAPURAM,THIRUVANANTHAPURAM,KERALA
SIBL0000659,South Indian Bank,SIBL0000659,NOT ALLOTED,HYDERABAD SERVICE,"3RD FLOOR, BLDG BERAING NO:3B, NAMED GS MALL, RAJBHAVAN ROAD, SOMAJIGUDA CIRCLE, HYDERABAD","NIMESH THOMAS, PH : 022-22611209, 22658977",HYDERABAD,HYDERABAD,ANDHRA PRADESH
SIBL0000660,South Indian Bank,SIBL0000660,NOT ALLOTED,PATTAMBI,"1ST FLOOR, SUDARSAN BUILDING, MELE PATTAMI, PALAKKAD","NIMESH THOMAS, PH : 022-22611209, 22658977",PATTAMBI,PALAKKAD,KERALA
SIBL0000661,South Indian Bank,SIBL0000661,APPLIED FOR,PONDA,"SHOP NO-6,7,8,9,88&89, GROUND FLOOR ,PONDA COMMERCE CENTRE, GOMANT NAGAR,PONDA, NORTH GOA-403401","NIMESH THOMAS, PH : 022-22611209, 22658978",PONDA,NORTH GOA,GOA
SIBL0000662,South Indian Bank,SIBL0000662,NONMICR,PALLADAM,"NO.30A, TRICHY ROAD ,PALLADAM,TIRUPUR DIST, TAMILNADU","NIMESH THOMAS, PH : 022-22611209, 22658977",PALLADAM,COIMBATORE,TAMIL NADU
SIBL0000663,South Indian Bank,SIBL0000663,NONMICR,SARAVANAMPATTY,"NO.11266, THUDIYALUR ROAD, SARAVANAMPATTY, COIMBATORE,TAMILNADU","NIMESH THOMAS, PH : 022-22611209, 22658977",THUDIYALOOR,COIMBATORE,TAMIL NADU
SIBL0000664,South Indian Bank,SIBL0000664,560 059 025,ANEKAL,"PARIHAR COMPLEX, OPP. IOC PETROL PUMB, CHANDAPURA ROAD, ANEKAL, BANGLORE, KARNATAKA- 652 106","NIMESH THOMAS, PH : 022-22611209, 22658977",ANEKAL,BANGALORE URBAN,KARNATAKA
SIBL0000665,South Indian Bank,SIBL0000665,NONMICR,PONKUNNAM,"APHIYALIL PLAZA, OPP. VAIDHUDHI BHAVAN, K K ROAD,PONKUNNAM,KOTTAYAM","NIMESH THOMAS, PH : 022-22611209, 22658977",PONKUNNAM,KOTTAYAM,KERALA
SIBL0000666,South Indian Bank,SIBL0000666,NONMICR,KILIMANOOR,"PP IX 1507, M C ROAD, PAPALA, KILIMANOOR-695601, THIRUVANANTHAPURAM","NIMESH THOMAS, PH : 022-22611209, 22658977",KILIMANOOR,THIRUVANANTHAPURAM,KERALA
SIBL0000667,South Indian Bank,SIBL0000667,NONMICR,VENJARAMOOD,"NP XI/65, VAYYATE JUNCTION,VENJARAMOOD-695607, THIRUVANANTHAPURAM","NIMESH THOMAS, PH : 022-22611209, 22658977",VEMBAYAM,THIRUVANANTHAPURAM,KERALA
SIBL0000668,South Indian Bank,SIBL0000668,NOT ALLOTED,AYUR,"NEAR IBP PUMP, MC ROAD , AYUR PO, AYUR, TRIVANDRUM DIST, 691533, KERALA","NIMESH THOMAS, PH : 022-22611209, 22658977",AYOOR,KOLLAM,KERALA
SIBL0000669,South Indian Bank,SIBL0000669,NONMICR,PUNALUR,"M GEORGE BUILDING, POLSON JUNCTION, CHEMANTHOOR, PUNALUR-691305, KOLLAM","NIMESH THOMAS, PH : 022-22611209, 22658977",PUNALUR,KOLLAM,KERALA
SIBL0000670,South Indian Bank,SIBL0000670,NONMICR,BALARAMAPURAM,"III/1361, ARS COMPLEX, KATTAKADA ROAD, BALARAMAPURAM-695501, THIRUVANANTHAPURAM","NIMESH THOMAS, PH : 022-22611209, 22658977",BALARAMAPURAM,THIRUVANANTHAPURAM,KERALA
SIBL0000671,South Indian Bank,SIBL0000671,NONMICR,CHERKALA,"BUILDING NO.C.P.XV/464, AJMAL SHOPPING ARCADE, CHENGALA P.O, CHERKALA, KASARAGOD, KERALA-671541","NIMESH THOMAS, PH : 022-22611209, 22658977",CHEGALA,KASARAGOD,KERALA
SIBL0000672,South Indian Bank,SIBL0000672,NONMICR,SREEKANDAPURAM,"NEAR GOVT. HIGHER SECONDARY SCHOOL, SREEKANDAPURAM,KANNUR","NIMESH THOMAS, PH : 022-22611209, 22658977",SREEKANDAPURAM,CANNUR,KERALA
SIBL0000673,South Indian Bank,SIBL0000673,NONMICR,KARUVANCHAL,"1ST FLOOR, HARITHAM COMPLEX, OPP. ST.JOSEPH'S HOSPITAL, KARUVANCHAL-670571, KANNUR","NIMESH THOMAS, PH : 022-22611209, 22658977",ALAKODE,CANNUR,KERALA
SIBL0000674,South Indian Bank,SIBL0000674,NON MICR,MANJAPRA,"VII / 193, ST. GEORGE JACOBITE CHURCH BUILDING,  MANJPARA P.O ERNAKULAM DIST. 683 581","THOMAS JOHN, PH : 022-22611209, 22658977",MANJAPRA,ERNAKULAM,KERALA
SIBL0000675,South Indian Bank,SIBL0000675,NON NICR,KANJOOR,"CHAKKARAKKADAN BUILDING, NEAR POST OFFICE, KANJOOR, ERNAKULAM","NIMESH THOMAS , Ph : 022-22611209, 22658977",KANJOOR,ERNAKULAM,KERALA
SIBL0000676,South Indian Bank,SIBL0000676,NOT ALLOTED,PIRAVOM,"AMMAVAN CHAMBERS, PIRAVOM MUVATTUPUZHA ROAD,OPPOSITE OLD PETROL PUMP, PIRAVOM 686664","NIMESH THOMAS, PH : 022-22611209, 22658977",PIRAVOM,ERNAKULAM,KERALA
SIBL0000677,South Indian Bank,SIBL0000677,NOT ALLOTED,MARADU,"BUILDING NO. 1, KALATHARA JUNCTION,WARD NO.14,NEAR ABAD NUCLEUS,MARADU P.O., 682304","NIMESH THOMAS, PH : 022-22611209, 22658978",MARADU,ERNAKULAM,KERALA
SIBL0000678,South Indian Bank,SIBL0000678,NONMICR,NEDUMKANDAM,"BUILDING NO:9/33/E, CENTRE POINT, OPP.CHELLAM RESIDENCY, NEDUMKANDAM,IDUKKI","NIMESH THOMAS, PH : 022-22611209, 22658977",NEDUMKANDAM,IDUKKI,KERALA
SIBL0000679,South Indian Bank,SIBL0000679,400 059 018,VASAI (EAST),"VASAI (EAST) BRANCH, HOUSE NO. 1688, GROUND FLOOR, GOKHIWARE NAKA VASAI (EAST)","NIMESH THOMAS, PH : 022-22611209, 22658977",VASAI,THANE,MAHARASHTRA
SIBL0000680,South Indian Bank,SIBL0000680,500 059 031,GHATKESAR,"D.NO.8-102, BLOCK  8,GHATKESAR PANCHAYAT,HYDERABAD – 501 301,R.R.DIST, ANDHRA PRADESH","NIMESH THOMAS, PH : 022-22611209, 22658977",GHATKESAR,RANGAREDDY,ANDHRA PRADESH
SIBL0000681,South Indian Bank,SIBL0000681,500 059 032,IBRAHIMPATNAM,"PLOT NO.54, MANCHAL ROAD, IBRAHIMPATNAM VILLAGE & MANDAL, HYDERABAD-501506 R.R.DIST.,, ANDHRA PRADESH","NIMESH THOMAS, PH : 022-22611209, 22658977",IBRAHIMPATNAM,KARIMNAGAR,ANDHRA PRADESH
SIBL0000682,South Indian Bank,SIBL0000682,APPLIED FOR,NEELANKARAI,"GRND FLR,DOOR NO:2/630A ,SULTAN AHMED STRT,NEELANKARAI,EAST COAST RD,CHENNAI 41","ALBY PETER , PH : 022-22611209, 22658977",SHOLINGANALLUR,KANCHEEPURAM,TAMIL NADU
SIBL0000683,South Indian Bank,SIBL0000683,APPLIED FOR,SHOLINGANALLUR,"DOOR NO. 187, OLD MAHABALIPURAM ROAD  ( OMR ), SHOLINGANALLUR, CHENNAI  600 119. ","NIMESH THOMAS, PH : 022-22611209, 22658977",SHOLINGANALLUR,KANCHEEPURAM,TAMIL NADU
SIBL0000684,South Indian Bank,SIBL0000684,APPLIED FOR,VALASARAVAKKAM,"DOOR NO. 1, GROUND FLOOR,KAMARAJ SALAI, RAMAKRISHNA NAGAR, VALASARAVAKKAM, CHENNAI 600 098.","NIMESH THOMAS, PH : 022-22611209, 22658977",VALASARAVAKKAM,THIRUVALLUR,TAMIL NADU
SIBL0000686,South Indian Bank,SIBL0000686,APPLIED FOR,DIMAPUR,"195, CIRCULAR ROAD, BISHOP'S HOUSE BUILDING, DIMAPUR-797112, NAGALAND","NIMESH THOMAS, PH : 022-22611209, 22658977",DIMAPUR,DIMAPUR,NAGALAND
SIBL0000687,South Indian Bank,SIBL0000687,600 059 035,MEDAVAKKAM,"PLOT B. TAMBARAM-VELACHERRY MAIN ,  MEDAVAKKAM,CHENNAI -600100, KANCHEEPURAM,TAMILNAD","NIMESH THOMAS, PH : 022-22611209, 22658978",TAMBARAM,KANCHEEPURAM,TAMIL NADU
SIBL0000688,South Indian Bank,SIBL0000688,500 059 029,BACHUPALLI,"SURVEY NOS. 8, 10 & 11,BESIDE SILVER OAKS SCHOOL,BACHUPALLI PANCHAYAT,QUTBULLAPUR MANDAL,HYDERABAD – 500090 R.R.DIST., ANDHRA PRADESH","NIMESH THOMAS, PH : 022-22611209, 22658977",HYDERABAD,HYDERABAD,ANDHRA PRADESH
SIBL0000689,South Indian Bank,SIBL0000689,500 059 030,ALMASGUDA,"H.NO.1-34, ALMASGUDA VILLAGE,SAROOR NAGAR MANDAL,HYDERABAD-500058 R.R.DIST., ANDHRA PRADESH","NIMESH THOMAS, PH : 022-22611209, 22658977",HYDERABAD,HYDERABAD,ANDHRA PRADESH
SIBL0000690,South Indian Bank,SIBL0000690,500 059 019,MANCHIREVULA,"PLOT NO.4, MANCHIREVULA VILLAGE,RAJENDRA NAGAR MANDAL,HYDERABAD-500089 R.R.DIST., ANDHRA PRADESH","NIMESH THOMAS, PH : 022-22611209, 22658977",HYDERABAD,HYDERABAD,ANDHRA PRADESH
SIBL0000691,South Indian Bank,SIBL0000691,500 059 020,BAHADURPALLI,"PLOT NO.5, 6 AND 7,BAHADURPALLI VILLAGE,QUTBULLAPUR MANDAL,HYDERABAD-500043 R.R.DIST., ANDHRA PRADESH","NIMESH THOMAS, PH : 022-22611209, 22658977",HYDERABAD,HYDERABAD,ANDHRA PRADESH
SIBL0000692,South Indian Bank,SIBL0000692,500 059 021,BADANGPET,"PLOT NO.14, BADANGPET VILLAGE,SAROOR NAGAR MANDAL,HYDERABAD-500058 R.R.DIST., ANDHRA PRADESH","NIMESH THOMAS, PH : 022-22611209, 22658977",HYDERABAD,HYDERABAD,ANDHRA PRADESH
SIBL0000693,South Indian Bank,SIBL0000693,500 059 022,ANNOJIGUDA,"PLOT NO.4, 5 & 6,ANNOJIGUDA VILLAGE,POCHARAM PANCHAYAT,GHATKESAR MANDAL,HYDERABAD, R.R. DIST-501301. ANDHRA PRADESH","NIMESH THOMAS, PH : 022-22611209, 22658977",HYDERABAD,HYDERABAD,ANDHRA PRADESH
SIBL0000694,South Indian Bank,SIBL0000694,500 059 023,PALMAKUL,"H.NO.7-73/A, SURVEY NO.106 (NEW),PALMAKUL VILLAGE,SHAMSHABAD MANDAL,HYDERABAD-509325 R.R.DIST., ANDHRA PRADESH","NIMESH THOMAS, PH : 022-22611209, 22658977",PALMAKUL,MEDAK,ANDHRA PRADESH
SIBL0000695,South Indian Bank,SIBL0000695,500 059 024,CHINTALKUNTA,"D.NO.5-5-724/1 & 5-5-724/1/A,CHINTALKUNTA,L.B.NAGAR MUNCIPALITY,HYDERABAD – 500 024 R.R. DIST., ANDHRA PRADESH","NIMESH THOMAS, PH : 022-22611209, 22658977",CHINTAKUNTA,CUDDAPAH,ANDHRA PRADESH
SIBL0000696,South Indian Bank,SIBL0000696,500 059 025,MEDBOWLI,"SURVEY NO.8, TKR EDUCATIONAL SOCIETY,MEDBOWLI VILLAGE,SAROOR NAGAR MANDAL,HYDERABAD -500097 R.R.DIST., ANDHRA PRADESH","NIMESH THOMAS, PH : 022-22611209, 22658977",HYDERABAD,HYDERABAD,ANDHRA PRADESH
SIBL0000697,South Indian Bank,SIBL0000697,500 059 026,KANDLAKOI,"SURVEY NO.188,KANDLAKOI VILLAGE,MEDCHEL MANDAL,HYDERABAD – 501401 R.R.DIST., ANDHRA PRADESH","NIMESH THOMAS, PH : 022-22611209, 22658977",MEDCHAL,RANGAREDDY,ANDHRA PRADESH
SIBL0000698,South Indian Bank,SIBL0000698,500 059 027,KHANAPUR,"D.NO. 4-1, KHANAPUR VILLAGE,RAJENDRA NAGAR MANDAL,HYDERABAD-500075 R.R,.DIST., ANDHRA PRADESH","NIMESH THOMAS, PH : 022-22611209, 22658977",KHANAPUR,ADILABAD,ANDHRA PRADESH
SIBL0000699,South Indian Bank,SIBL0000699,500 059 028,VATTINAGULAPALLI,"D.NO.1/41/5, VATTINAGULAPALLI VILLAGE,RAJENDRA NAGAR MANDAL,HYDERABAD-500075 R.R.DIST., ANDHRA PRADESH","NIMESH THOMAS, PH : 022-22611209, 22658977",HYDERABAD,HYDERABAD,ANDHRA PRADESH
SIBL0000700,South Indian Bank,SIBL0000700,NONMICR,KODUVAZHANNUR,"PP 17/955, ANGANA, KODUVAZHANNUR-695612, THIRUVANANTHAPURAM","NIMESH THOMAS, PH : 022-22611209, 22658977",KARETTE,THIRUVANANTHAPURAM,KERALA
SIBL0000701,South Indian Bank,SIBL0000701,NOT ALLOTED,NEYYAR DAM,"KALLIKKAD JUNCTION, MYLAKARA P.O, THIRUVANATHAPURAM - 695571","NIMESH THOMAS, PH : 022-22611209, 22658977",KALLIKKAD,THIRUVANANTHAPURAM,KERALA
SIBL0000702,South Indian Bank,SIBL0000702,APPLIED FOR,KANKOLE,"NEAR 110 KV SUBSTATION,KANKOLE PO,670 207,KANNUR DT.,KERALA STATE    ","NIMESH THOMAS, PH : 022-22611209, 22658978",PAYYANNUR,CANNUR,KERALA
SIBL0000703,South Indian Bank,SIBL0000703,APPLIED FOR,PADUPPU," D.NO.KP IX 102A,B, PADUPPU 671 541 , KUTTIKOLE PANCHAYATH ,KASARAGOD DT.,KERALA STATE   ","NIMESH THOMAS, PH : 022-22611209, 22658978",BANDADKA,KASARAGOD,KERALA
SIBL0000704,South Indian Bank,SIBL0000704,APPLIED FOR,ACHOORANAM," KMS BLDG,6TH MILE, ACHOORANAM  P O,673 575,VITHIRI,WAYANAD DT, KERALA STATE","NIMESH THOMAS, PH : 022-22611209, 22658978",ACHOORANAM,WAYANAD,KERALA
SIBL0000705,South Indian Bank,SIBL0000705,NONMICR,CHERUVALLY,"DOOR NO.499/CP/XI, PAZHAYIDOM, CHERUVALLY - 686543, KOTTAYAM","NIMESH THOMAS, PH : 022-22611209, 22658977",MANIMALA,KOTTAYAM,KERALA
SIBL0000706,South Indian Bank,SIBL0000706,680059068,PALUVAI,"MEHSAJ COMPLEX, PALUVAI, THAIKKAD VILLAGE, CHAVAKKAD,THRISSUR-680522","NIMESH THOMAS, PH : 022-22611209, 22658977",GURUVAYUR,THRISSUR,KERALA
SIBL0000707,South Indian Bank,SIBL0000707,NOT ALLOTED,AMRITHAPURI (VALLIKAVU),"SB/WARD NO.1, THIRUMUTTATHU, CLAPPANA PO, VALLIKAVU, PIN CODE  690525","NIMESH THOMAS, PH : 022-22611209, 22658978",OACHIRA,KOLLAM,KERALA
SIBL0000708,South Indian Bank,SIBL0000708,NOT ALLOTED,CHOONDACHERRY,"CHOONDACHERRY P.O, KOTTAYAM-686579, KERALA","NIMESH THOMAS, PH : 022-22611209, 22658978",BHARANANGANAM,KOTTAYAM,KERALA
SIBL0000709,South Indian Bank,SIBL0000709,APPLIED FOR,SIVAKASI,"940 C, P.K.N ROAD, BYE PASS ROAD, SIVAKASI (EAST) – 626 189","NIMESH THOMAS, PH : 022-22611209, 22658977",SIVAKASI,VIRUDHUNAGAR,TAMIL NADU
SIBL0000710,South Indian Bank,SIBL0000710,APPLIED FOR,RAJAPALAYAM,"454 C-D, THENKASI ROAD, OPP CHITRA HOSPITAL, RAJAPALAYAM, VIRUDHUNAGAR","NIMESH THOMAS, PH : 022-22611209, 22658977",RAJAPALAIYAM,VIRUDHUNAGAR,TAMIL NADU
SIBL0000713,South Indian Bank,SIBL0000713,APPLIED FOR,JAMNAGAR,"YOGI MOTORS NEAR HOTEL ARAM, OPP. DKV CIRCLE, P.N. MARG, JAMNAGAR – 361 008","NIMESH THOMAS, PH : 022-22611209, 22658977",JAMNAGAR,JAMNAGAR,GUJARAT
SIBL0000714,South Indian Bank,SIBL0000714,APPLIED FOR,ANAND,"R.S. PLATINUM, G1-G2, NEAR BUS DEPOT, BHALEJ ROAD, ANAND","NIMESH THOMAS, PH : 022-22611209, 22658977",ANAND,ANAND,GUJARAT
SIBL0000715,South Indian Bank,SIBL0000715,APPLIED FOR,BANGALORE CORPORATE,"23/1,II FLOOR BABA CHAMBERS,RICHMOND ROAD BANGALORE 560025 ,KARNATAKA STATE","NIMESH THOMAS, PH : 022-22611209, 22658978",BANGALORE,BANGALORE URBAN,KARNATAKA
SIBL0000716,South Indian Bank,SIBL0000716,APPLIED FOR,HUBLI,"CTS 2971, ELEVEETY BUILDING,OPP. HUBLI-DHARWAD MUNCIPAL OFFICE,SRI SIDDAPA KAMBLI ROAD ,HUBLI-580020,DHARWAD DISTRICT,KARNATAKA","NIMESH THOMAS, PH : 022-22611209, 22658978",HUBLI-DHARWAD,DHARWAD,KARNATAKA
SIBL0000718,South Indian Bank,SIBL0000718,APPLIED FOR,NATTAKOM," OPP:MALAYALA MANORAMA,NATTAKOM P.O, M.C ROAD,KOTTAYAM, PIN-686013","ALBY PETER , PH : 022-22611209, 22658977",NATTAKAM,KOTTAYAM,KERALA
SIBL0000719,South Indian Bank,SIBL0000719,APPLIED FOR,VASUNDHARA,"COMMERICIAL PLOT NO13 /C-9, SEC-13 , VASUNDHARA,GHAZIABAD (DIST) U.P-201 012","NIMESH THOMAS, PH : 022-22611209, 22658977",VASUNDHARA,ETAH,UTTAR PRADESH
SIBL0000721,South Indian Bank,SIBL0000721,APPLIED FOR,THAMPANOOR,"HOTEL SAFA INTERNATIONAL BUILDING , TC 25/1075, NEAR ARISTO JUNCTION, EAST THAMPANOOR, TRIVANDRUM ,695014.","NIMESH THOMAS, PH : 022-22611209, 22658977",THIRUVANANTHAPURAM,THIRUVANANTHAPURAM,KERALA
SIBL0000722,South Indian Bank,SIBL0000722,APPLIED FOR,SOMAJIGUDA,"GROUND FLOOR, D NO 6-3-1085/D/G1, DEGA TOWERS, RAJ BHAVAN ROAD, SOMAJIGUDA, HYDERABAD-500082","NIMESH THOMAS, PH : 022-22611209, 22658978",HYDERABAD,HYDERABAD,ANDHRA PRADESH
SIBL0000723,South Indian Bank,SIBL0000723,NON MICR,NEW DELHI - TILAK NAGAR,"WZ-116, PLOT NO. 61-H, MEENAKSHI GARDEN, NAZAFGARH ROAD, TILAK NAGAR, NEW DELHI 110018","ALBY PETER , PH : 022-22611209, 22658977",DELHI,DELHI,DELHI
SIBL0000724,South Indian Bank,SIBL0000724,110059031,DELHI MODEL TOWN,"PLOT NO. 22, BLOCK C- 5,MODEL TOWN PHASE 3,OPP POST OFFICE, DELHI- 110009","ALBY PETER , PH : 022-22611209, 22658977",DELHI,DELHI,DELHI
SIBL0000725,South Indian Bank,SIBL0000725,110059029,DELHI SHALIMAR BAGH,"BT-1, SHALIMAR BAGH RESIDENTIAL SCHEME,OPP DT CINEMAS, DELHI 110088","ALBY PETER , PH : 022-22611209, 22658977",DELHI,DELHI,DELHI
SIBL0000726,South Indian Bank,SIBL0000726,APPLIED FOR,HI TEC CITY,"1ST FLOOR, H NO:2-38/A, P NO:8, GUTTALA BEGUMPET VILLAGE, MADHAPUR MAIN RD, HYDERABAD","NIMESH THOMAS, PH : 022-22611209, 22658978",BEGUMPET,KARIMNAGAR,ANDHRA PRADESH
SIBL0000727,South Indian Bank,SIBL0000727,380059003,AHMEDABAD SATELLITE ROAD,"SHOP NO. 5 7 6, ISCON PLAZA, SATELLITE ROAD, OPP. STAR INDIA BAZAR, NEAR SUNDAVAN, AHMEDABAD – 380015","NIMESH THOMAS, PH : 022-22611209, 22658977",AHMEDABAD,AHMEDABAD,GUJARAT
SIBL0000728,South Indian Bank,SIBL0000728,APPLIED FOR,KOLKATA CORPORATE,"2,CHURCH LANE,KOLKATA-700001","NIMESH THOMAS, PH : 022-22611209, 22658978",KOLKATA,KOLKATA,WEST BENGAL
SIBL0000729,South Indian Bank,SIBL0000729,APPLIED FOR,VADAKKANKULAM,"S A RAJA POLYTECHNIC COLLEGE , VADAKKANKULAM.P.O,TIRUNELVELI DISTRICT, PIN 627116","ALBY PETER , PH : 022-22611209, 22658977",VALLIOOR,TIRUNELVALI,TAMIL NADU
SIBL0000730,South Indian Bank,SIBL0000730,APPLIED FOR,PERUMTHURUTHY,"PUSHPAGIRI DENTAL  COLLEGE,PERUMTHURUTHY,THIRUVALLA,PIN 689107","ALBY PETER , PH : 022-22611209, 22658977",THIRUVALLA,PATHANAMTHITTA,KERALA
SIBL0000761,South Indian Bank,SIBL0000761,NON MICR,PANACHIPPARA,"POONJAR P.O, KOTTAYAM  DIST. KERALA 686 581","ALBY PETER , PH : 022-22611209, 22658977",POONJAR NADUBHAGAM,KOTTAYAM,KERALA
SIBL0000764,South Indian Bank,SIBL0000764,NON MICR,CHINGAVANAM,"KUNNUTHARA ARCADE, M C ROAD, CHINGAVANAM,  KOTTAYAM  DIST. KERALA 686 531","ALBY PETER , PH : 022-22611209, 22658977",KODIMATHA,KOTTAYAM,KERALA
SIBL0000733,South Indian Bank,SIBL0000733,NON MICR,SAKKIMANGALAM,"1/135, SOURASTRA COLONY, MEENATCHI NAGAR, SAKKIMANGALAM, MADURAI NORTH- 625201","ALBY PETER , PH : 022-22611209, 22658977",MADURAI,MADURAI,TAMIL NADU
SIBL0000744,South Indian Bank,SIBL0000744,NON MICR,NEW DELHI CORPORATE,"A-301, III FLOOR, STATESMAN HOUSE, 148,BARAKHAMBA ROAD, NEW DELHI","ALBY PETER , PH : 022-22611209, 22658977",DELHI,DELHI,DELHI
SIBL0000762,South Indian Bank,SIBL0000762,NON MICR,MONIPALLY,"OORALIL BUILDING, MONIPPALLY, KOTTAYAM - 686636","ALBY PETER , PH : 022-22611209, 22658977",MONIPALLY,KOTTAYAM,KERALA
SIBL0000711,South Indian Bank,SIBL0000711,NON MICR,THENI,"DOOR NO:OLD:407/NEW:343,PERIYAKULAM ROAD, (NEHRUJI ROAD),OPP. CONVENT HOSPITAL,THENI 625 531.","ALBY PETER , PH : 022-22611209, 22658977",THENI,THENI,TAMIL NADU
SIBL0000717,South Indian Bank,SIBL0000717,NON MICR,MUNNAR,"BUILDING NO.3454A, WARD NO.9,NADAYAR ROAD, MUNNAR,IDUKKI -685612","ALBY PETER , PH : 022-22611209, 22658977",MUNNAR,IDUKKI,KERALA
SIBL0000720,South Indian Bank,SIBL0000720,NON MICR,VIRUDHUNAGAR,"128/21, RAMAMOORTHY ROAD, VIRUDHUNAGAR-626001","ALBY PETER , Ph : 022-22611209, 22658977",VIRUDHUNAGAR,VIRUDHUNAGAR,TAMIL NADU
SIBL0000734,South Indian Bank,SIBL0000734,NON MICR,THETHIPALAYAM,"2/355,SIRUVANI MAIN ROAD,KALAMPALAYAM,THETHIPALAYAM, COIMBATORE-641010","ALBY PETER , PH : 022-22611209, 22658977",KALAMPALAYAM,COIMBATORE,TAMIL NADU
SIBL0000735,South Indian Bank,SIBL0000735,NON MICR,KOTTAYI,"KALARIKKAL BUILDING,BUILDING NO.8/560,VARODE P.O,MAJOR ROAD JN., KOTTAYI,PALAKKAD -678572","ALBY PETER , PH : 022-22611209, 22658977",KOTTAYI,PALAKKAD,KERALA
SIBL0000736,South Indian Bank,SIBL0000736,NON MICR,PALAKKAYAM,"T. JAYS COMPLEX,BUILDING NO 704/A,PALAKKAYAM P O, PALAKKAD- 678591","ALBY PETER , PH : 022-22611209, 22658977",POTTASSERY,PALAKKAD,KERALA
SIBL0000737,South Indian Bank,SIBL0000737,NON MICR,PUTHUPARIYARAM,"SOWPARNIKA,BUILDING NO.19/6,VALLIKODE,PUTHUPARIYARAM, PALAKKAD-678594","ALBY PETER , PH : 022-22611209, 22658977",PUTHUPPARIYARAM,PALAKKAD,KERALA
SIBL0000738,South Indian Bank,SIBL0000738,NON MICR,PERUMATTY,"TKD BUILDING,BUILDING NO.275,NANNIODE JN., NANNIODE P O, PALAKKAD-678534","ALBY PETER , PH : 022-22611209, 22658977",VANDITHAVALAM,PALAKKAD,KERALA
SIBL0000739,South Indian Bank,SIBL0000739,NON MICR,ENKAKKAD,"BUILDING NO.10/1052,OTTUPARA,VAZHANI ROAD,WADAKKENCHERY, ENKAKKAD,PALAKKAD-680582","ALBY PETER , PH : 022-22611209, 22658977",WADAKANCHERRY,THRISSUR,KERALA
SIBL0000741,South Indian Bank,SIBL0000741,NON MICR,KURUVAMBALAM,"GROUND FLOOR,BUILDING NO.VI/152, ONAPPUDA, KOLATHUR VIA, KURUVAMBALAM, MALAPPURAM","ALBY PETER , PH : 022-22611209, 22658977",PULAMANTHOLE,MALAPPURAM,KERALA
SIBL0000742,South Indian Bank,SIBL0000742,NON MICR,EDULABAD,"D.NO.10-132/2, MARRIPALLY GUDA VILLAGE,EDULABAD GRAMA PANCHAYAT,GHATKESAR MANDAL,RANGAREDDY DIST","ALBY PETER , PH : 022-22611209, 22658977",GHATKESAR,RANGAREDDY,ANDHRA PRADESH
SIBL0000743,South Indian Bank,SIBL0000743,NON MICR,MEDIPALLI,"PLOT NO.8,P&T COLONY,MEDIPPALLI GRAM PANCHAYAT,GHATKESAR MANDAL, RANGAREDDY DIST.","ALBY PETER , PH : 022-22611209, 22658977",MEDIPALLI,RANGAREDDY,ANDHRA PRADESH
SIBL0000753,South Indian Bank,SIBL0000753,NON MICR,KUNIAMUTHUR,"93E,PALAKKAD MAIN ROAD,KUNIAMUTHUR.P.O, COIMBATORE-641008","ALBY PETER , PH : 022-22611209, 22658977",KUNIAMUTHUR,COIMBATORE,TAMIL NADU
SIBL0000754,South Indian Bank,SIBL0000754,NON MICR,GUDALUR,"11/367,CALIENT ROAD,GUDALUR-643212","ALBY PETER , PH : 022-22611209, 22658977",GUDALUR,NILGIRIS,TAMIL NADU
SIBL0000758,South Indian Bank,SIBL0000758,NON MICR,PUNNEKKAD,"K.P. ROAD,KEERAMPARA P.O,PUNNEKKAD,ERNAKULAM DT,686681","ALBY PETER , PH : 022-22611209, 22658977",KEERAMPARA,ERNAKULAM,KERALA
SIBL0000759,South Indian Bank,SIBL0000759,NON MICR,PALLIKKARA,"IV/558,559,560,OPP. ST MARY'S CATHREDRAL,KUMARAPURAM P.O,ERNAKULAM DT,683565","ALBY PETER , PH : 022-22611209, 22658977",KAKKANAD,ERNAKULAM,KERALA
SIBL0000760,South Indian Bank,SIBL0000760,NON MICR,POTHANICAD,"4/20A,ELLICKAL BUILDING,POTHANICAD,686671","ALBY PETER , PH : 022-22611209, 22658977",POTHANIKAD,ERNAKULAM,KERALA
SIBL0000763,South Indian Bank,SIBL0000763,NON MICR,PUTHUPPALLY,"C&C COMPLEX, PUTHUPPALLY P.O, KOTTAYAM-686011","ALBY PETER , PH : 022-22611209, 22658977",PUTHUPPALLY,KOTTAYAM,KERALA
SIBL0000765,South Indian Bank,SIBL0000765,NON MICR,MEENANGADI,"MEENANGADI PANAMARAM ROAD, MEENANGADI,WAYANAD-673591","ALBY PETER , PH : 022-22611209, 22658977",PANAMARAM,WAYANAD,KERALA
SIBL0000766,South Indian Bank,SIBL0000766,NON MICR,NILESWARAM,"437/H/II,NILEASWARAM P O,KASARGODE-671314","ALBY PETER , PH : 022-22611209, 22658977",NILESHWAR,KASARAGOD,KERALA
SIBL0000767,South Indian Bank,SIBL0000767,NON MICR,ANJARAKANDY,"NEAR ANJARAKANDI BUS STAND,PADUVILAYI,VENGAD,THALASSERY, KANNUR-670612","ALBY PETER , PH : 022-22611209, 22658977",ANJARAKANDY,CANNUR,KERALA
SIBL0000768,South Indian Bank,SIBL0000768,NON MICR,THURAVOOR,"BUILDING NO.V/86 A, OPP. THURAVOOR NARASIMHA TEMPLE, THURAVOOR-688532","ALBY PETER , Ph : 022-22611209, 22658977",THURAVOOR,ALAPUZHA,KERALA
SIBL0000769,South Indian Bank,SIBL0000769,NON MICR,MANNAMARUTHI,"IV/799 E&F, ERUMELY ROAD, MANNAMARUTHI JN., MAKKAPUZHA P.O, RANNI-689676","ALBY PETER , Ph : 022-22611209, 22658977",RANNI,PATHANAMTHITTA,KERALA
SIBL0000770,South Indian Bank,SIBL0000770,NON MICR,SHORNUR,"CHEMMARIKKAT BUILDING,BUILDING NO.8/187A,OPP. MUNICIPAL OFFICE, SHORNUR-679121","ALBY PETER , PH : 022-22611209, 22658977",SHORANUR,PALAKKAD,KERALA
SIBL0008018,South Indian Bank,SIBL0008018,NON MICR,TREASURY DEPARTMENT,"PARINEE CRESCENZO,804,8TH FLOOR,B WING,G BLOCK,BANDRA KURLA COMPLEX,BANDRA(E),MUMBAI-400051","ALBY PETER , PH : 022-22611209, 22658977",MUMBAI,GREATER BOMBAY,MAHARASHTRA
SIBL0008263,South Indian Bank,SIBL0008263,NON MICR,RTGS CELL,"EMCA HOUSE, 289 GROUND FLOOR, S B SINGH ROAD, FORT, MUMBAI","ALBY PETER , PH : 022-22611209, 22658977",MUMBAI,GREATER BOMBAY,MAHARASHTRA
SIBL0000712,South Indian Bank,SIBL0000712,370059051,BHUJ,"B A BHAGAT COMPLEX, OPP. DENA BANK, LAL TEKRY, BHUJ-370001,KUTCH,GUJARAT","ALBY PETER , PH : 022-22611209, 22658977",BHUJ,KACHCHH,GUJARAT
SIBL0000745,South Indian Bank,SIBL0000745,,AIZAWL,"F.KAPSANGA BUILDING,GROUND FLOOR,OPP.ASSAM RIFLE GATE, DAWRPUI,AIZAWL-796001, MIZORAM","ALBY PETER , PH : 022-22611209, 22658977",AIZAWL,AIZAWL,MIZORAM
SIBL0000751,South Indian Bank,SIBL0000751,,THALTEJ-AHMEDABAD,"GF,SHOP NO. 35,36 &37,ORCHID SHOPPING MALL,THALTEJ-SHILAJ ROAD,THALTEJ,AHMEDABAD","ALBY PETER , PH : 022-22611209, 22658977",THALTAJ,AHMADABAD,GUJARAT
SIBL0000757,South Indian Bank,SIBL0000757,,KOYILANDI,"GROUND FLOOR,  CITY BAZAR SHOPPING MALL, KOYILANDI, KOZHIKODE-673305","ALBY PETER , PH : 022-22611209, 22658977",QUILANDY(PANTALAYINI),KOZHIKODE,KERALA
SIBL0000732,South Indian Bank,SIBL0000732,NON MICR,ENATHI,"NO.2/731,THIRUMANJOLAI,ENATHI, SIVAGANGAI DIST- 630561","ALBY PETER , PH : 022-22611209, 22658977",SIVAGANGA,SIVAGANGA,TAMIL NADU
SIBL0000756,South Indian Bank,SIBL0000756,NON MICR,KUNDARA,"KALLARACKAL BUILDING,EP/XV/736-751,MUKKADA,KUNDARA-691501","ALBY PETER , PH : 022-22611209, 22658977",KUNDARA,KOLLAM,KERALA
SIBL0000731,South Indian Bank,SIBL0000731,,BALLUR,"345,SIPCOT ROAD,BALLUR,ANEKKAL THALUK,KARNATAKA","ALBY PETER , PH : 022-22611209, 22658977",ANEKAL,BANGALORE URBAN,KARNATAKA
SIBL0000777,South Indian Bank,SIBL0000777,,MANINAGAR - AHMEDABAD,"OFFICE NO.1,2&3 GROUND FLOOR,SHIV DEEP,OPP. MANINAGAR RAILWAY STATION,NEAR BRTS BUS STAND,MANINAGAR,AHMEDABAD","ALBY PETER , PH : 022-22611209, 22658977",AHMEDABAD,AHMADABAD,GUJARAT
SIBL0000782,South Indian Bank,SIBL0000782,,MATTANNUR,"MATTANNUR MUNICIPALITY BUILDING,1ST FLOOR,MATTANNUR,KANNUR","ALBY PETER , PH : 022-22611209, 22658977",ANJARAKANDY,CANNUR,KERALA
SIBL0000771,South Indian Bank,SIBL0000771,NON MICR,VISHRANTWADI,"GROUND FLOOR, SARUSHYAM HEIGHTS, NEAR POLICE STATION, ALANDI ROAD, VISHRANTWADI","ALBY PETER , PH : 022-22611209, 22658977",PUNE,PUNE,MAHARASHTRA
SIBL0000773,South Indian Bank,SIBL0000773,,KUMARAPURAM,"TC 1/1979,GOKULAM,KUMARAPURAM JN.,MEDICAL COLLEGE P.O,TRIVANDRUM-695011","ALBY PETER , PH : 022-22611209, 22658977",THIRUVANANTHAPURAM,THIRUVANANTHAPURAM,KERALA
SIBL0000774,South Indian Bank,SIBL0000774,,BURDWAN,"ARIHANT ENCLAVE,FIRST FLOOR,MUCHIPARA,SRIPALLY.P.O,BURDWAN-713216","ALBY PETER , PH : 022-22611209, 22658977",BARDDHAMAN,BARDDHAMAN,WEST BENGAL
SIBL0000775,South Indian Bank,SIBL0000775,,DURGAPUR,"GROUND FLOOR,AXES POINT,NAZRUL SARANI,CITY CENTER,DURGAPUR,BURDWAN-713216","ALBY PETER , PH : 022-22611209, 22658977",DURGAPUR,BARDDHAMAN,WEST BENGAL
SIBL0000778,South Indian Bank,SIBL0000778,NON MICR,TONDPALLE,"H NO.3-55,OPP. ZILLA PANCHAYAT SCHOOL, HYDERABAD-BANGALORE HIGHWAY, TONDPALLE GRAM PANCAHAYT, SHAMSHABAD","ALBY PETER , PH : 022-22611209, 22658977",SHAMSHABAD,RANGAREDDY,ANDHRA PRADESH