ID,BANK,IFSC_CODE,MICR_CODE,BRANCH_NAME,ADDRESS,CONTACT,CITY,DISTRICT,STATE
LAVB0000101,The Lakshmi Vilas Bank,LAVB0000101,NON MICR,CHENNAI ZO,"189, IST FLOOR, AARTHI CHAMBERS, ANNA SALAI, CHENNAI 600 006 TAMILNADU",044 - 42085253,CHENNAI,CHENNAI,TAMIL NADU
LAVB0000102,The Lakshmi Vilas Bank,LAVB0000102,NON-MICR,ACCOUNTS DEPT,"ADMINISTRATIVE OFFICE, NO:2, SALEM MAIN ROAD, KATHAPARAI, KARUR 639006"," 04324 -220051-60 EXTN: 402,426",KARUR,KARUR,TAMIL NADU
LAVB0000103,The Lakshmi Vilas Bank,LAVB0000103,NON-MICR,ADONI,12/510 MUNICIPAL  MAIN ROAD  P.B.NO.17ADONI - 518301KARNOOL DT.     A. P.,08512 - 252427,ADONI,KURNOOL,ANDHRA PRADESH
LAVB0000104,The Lakshmi Vilas Bank,LAVB0000104,NON-MICR,AMBUR,"NO.87,  BROAD BAZAARP. B.NO.35       AMBUR - 635802        VELLORE DT. TAMIL NADU",04174 - 242126,AMBUR,VELLORE,TAMIL NADU
LAVB0000105,The Lakshmi Vilas Bank,LAVB0000105,NON-MICR,ANBIL," 2/237, MAIN ROAD MANGAMMALPURAM, ANBIL - 621 702, TRICHY DT., ",ANBIL@LVBANK.IN                    ANBIL_BM@LVBANK.IN,LALGUDI,TIRUCHIRAPALLI,TAMIL NADU
LAVB0000106,The Lakshmi Vilas Bank,LAVB0000106,NON-MICR,ARAKANDANALLUR,"138,  KAMARAJ ROAD   ARAKANDANALLUR - 605 752 VILLUPURAM DT. TAMIL NADU",04153 - 224244,ARAKANDANALLUR,VILLUPURAM,TAMIL NADU
LAVB0000107,The Lakshmi Vilas Bank,LAVB0000107,NON-MICR,ARANTANGI,"61, TALUK OFFICE ROAD, ARANTANGI- 614 616 PUDUKKOTTAI DT., TAMIL NADU",04371 - 220571,ARANTANGI,PUDUKKOTTAI,TAMIL NADU
LAVB0000108,The Lakshmi Vilas Bank,LAVB0000108,NON-MICR,ARIYALUR,"17 D, VILANGARA STREETP.B.NO. 1    ARIYALUR - 621 704   PERAMBALUR DT.,TAMIL NADU",04329 - 222040,ARIYALUR,VILLUPURAM,TAMIL NADU
LAVB0000109,The Lakshmi Vilas Bank,LAVB0000109,NON-MICR,ARNI,"M.C. COMPLEX THATCHUR ROAD     P.B.NO. 20 ARNI - 632 301 VELLORE DT.,     TAMIL NADU",04173 - 226018,ARNI,TIRUVANNAMALAI,TAMIL NADU
LAVB0000110,The Lakshmi Vilas Bank,LAVB0000110,NON-MICR,ATTUR,"339- L       FIRST FLOOR   RANIPET, P.B.NO. 19   CUDDALORE,  MAIN ROAD   ATTUR - 636 102 SALEM           DT., TAMIL NADU",04282 - 240731,ATTUR,SALEM,TAMIL NADU
LAVB0000111,The Lakshmi Vilas Bank,LAVB0000111,638056012,AVALPOONDURAI,"47-A, FIRST FLOOR  EASWARAN KOIL STREET P.B.NO. 20  AVALPOONDURAI - 638 115 ERODE DT., TAMIL NADU",0424 - 2331260,AVALPOONDURAI,ERODE,TAMIL NADU
LAVB0000112,The Lakshmi Vilas Bank,LAVB0000112,NON-MICR,ALATHUR,R.S.NO. 143/5 B 1MAIN ROAD ALATHUR-614901   THANJAVUR DT. TAMIL NADU,04373 - 226011,ALATHUR,THANJAVUR,TAMIL NADU
LAVB0000113,The Lakshmi Vilas Bank,LAVB0000113,NON-MICR,AMBILIKKAI,"4/295, DHARAPURAM ROAD AMBILIKKAI - 624 612   DINDIGUL DT.,   TAMIL NADU",04553 - 249010,AMBILIKKAI,DINDIGUL,TAMIL NADU
LAVB0000114,The Lakshmi Vilas Bank,LAVB0000114,380056002,AHMADABAD,"I FLOOR, BLUE STAR COMPLEX NEAR HIGH COURT RAILWAY CROSSING, NAVRANGPURA  AHMEDABAD - 380 014, GUJARAT",079 - 26430787,AHMADABAD,AHMEDABAD,GUJARAT
LAVB0000115,The Lakshmi Vilas Bank,LAVB0000115,NON-MICR,ANAND,"KAPASIA BAZAAR P.B.NO. 155        NEAR ASHOK STHUMBH ANAND - 388 001   KHEDA DT.,       GUJARAT",02692 - 244239,ANAND,ANAND,GUJARAT
LAVB0000116,The Lakshmi Vilas Bank,LAVB0000116,NON-MICR,AMBAGARATHUR,"67, MAIN ROAD  AMBAGARATHUR - 609 601 PONDICHERRY ",4368 - 252800,AMBAGARATHUR,KARAIKAL,PONDICHERRY
LAVB0000117,The Lakshmi Vilas Bank,LAVB0000117,NON-MICR,ADILABAD,"3-2-29/25,B,C&D,NATIONAL HIGHWAY,ADILABAD-504 001ANDHRAPRADESH ",08732 - 232606,ADILABAD,ADILABAD,ANDHRA PRADESH
LAVB0000118,The Lakshmi Vilas Bank,LAVB0000118,NON-MICR,ANANTHAPUR,"15/284,SAILOX COMPLEX,KAMALA NAGAR,ANANTHAPUR-515 001ANDHRA PRADESH DT",08554-274477,ANANTAPUR,ANANTPUR,ANDHRA PRADESH
LAVB0000119,The Lakshmi Vilas Bank,LAVB0000119,636056009,AYOTHIAPATTINAM,"68 B,HARUR MAIN ROAD,AYOTHIAPATTINAM, 636 103 SALEM DT,TAMIL NADU.",0427-2290052,AYODHYAPATINAM,SALEM,TAMIL NADU
LAVB0000120,The Lakshmi Vilas Bank,LAVB0000120,NON-MICR,ASIFABAD,"NO.6-58/10, BESIDE CHAITANYA DEGREE  COLLEGE, MAIN ROAD, ASIFABAD  - 504 293",ASIFABAD@LVBANK.IN          ASFIABAD_BM@LVBANK.IN,ASIFABAD,ADILABAD,ANDHRA PRADESH
LAVB0000121,The Lakshmi Vilas Bank,LAVB0000121,APPLIED FOR,"SIGNATURE BRANCH, AMEERPET","SHOW ROOM NO.2, ADITYA TRADE CENTRE, AMEERPET, HYDERABAD – 500038",HYD_SIGNATURE@LVBANK.IN,HYDERABAD,HYDERABAD URBAN,ANDHRA PRADESH
LAVB0000158,The Lakshmi Vilas Bank,LAVB0000158,NON-MICR,BARGUR,"KRISHNAGIRI MAIN ROAD, OPPOSITE TO LIC, NEAR SANJEEVI THEATRE, BARGUR – 635108, KRISHNAGIRI DISTRICT",BARGUR@LVBANK.IN      BARGUR_BM@LVBANK.IN,BARGUR,KRISHNAGIRI,TAMIL NADU
LAVB0000159,The Lakshmi Vilas Bank,LAVB0000159,311056002,BHILWARA,"SHOP NO3 & 4,BHANDARI PLAZA,OPP.NAGARPARISHAD,BHILWARA-311001RAJASTHAN STATE.",01482-237890,BHILWARA,BHILWARA,RAJASTHAN
LAVB0000160,The Lakshmi Vilas Bank,LAVB0000160,751056002,BHUBANESHWAR,"PLOT NO.622-B, JANPATH, SAHEED NAGAR,BHUBANESHWAR – 751 007,ORISSA.",0674-2541257,BHUBANESWAR,KHURDA,ORISSA
LAVB0000161,The Lakshmi Vilas Bank,LAVB0000161,560056002,BANGALORE MAIN,"19-B, 1ST FLOOR    P.B.NO. 9568    BVK IYENGAR ROAD  NEAR ABHINAY THEATRE BANGALORE - 560 009 KARNATAKA",080 - 22283703,BANGALORE,BANGALORE URBAN,KARNATAKA
LAVB0000162,The Lakshmi Vilas Bank,LAVB0000162,560056004,CANTONMENT - BANGALORE,"141/1, 1ST FLOOR    DHARMARAJA KOIL STREET CANTONMENT    BANGALORE-560 001  KARNATAKA",080 - 25599691,BANGALORE,BANGALORE URBAN,KARNATAKA
LAVB0000163,The Lakshmi Vilas Bank,LAVB0000163,560056005,JAYANAGAR -  BANGALORE,"460/2, 8TH B        MAIN ROAD, PTK COMPLEX IVTH BLOCK, JAYANAGAR  BANGALORE-560 011  KARNATAKA",080 - 26645152,BANGALORE,BANGALORE URBAN,KARNATAKA
LAVB0000164,The Lakshmi Vilas Bank,LAVB0000164,560056003,CITY MARKET -  BANGALORE,"1091, OTC ROAD  NAGARATHPET, CITY MARKET BANGALORE - 560 002 KARNATAKA",080 - 22226917,BANGALORE,BANGALORE URBAN,KARNATAKA
LAVB0000165,The Lakshmi Vilas Bank,LAVB0000165,560056006,ULSOOR - BANGALORE,"153, OLD MADRAS ROAD   P.B.NO. 819   ULSOOR  BANGALORE - 560 008 KARNATAKA",080 - 25300371,BANGALORE,BANGALORE URBAN,KARNATAKA
LAVB0000166,The Lakshmi Vilas Bank,LAVB0000166,560056007,JALAHALLI - BANGALORE,"907, M.E.S. ROAD  MATHIKERE, P.O. 1ST FLOOR  SREE COMPLEX, JALAHALLI BANGALORE - 560 054 KARNATAKA",080 - 23451836,BANGALORE,BANGALORE URBAN,KARNATAKA
LAVB0000167,The Lakshmi Vilas Bank,LAVB0000167,560056008,KORAMANGALA - BANGALORE,"68, KORAMANGALA IND. LAYOUT 5TH BLOCK, KORAMANGALA BANGALORE - 560 095 KARNATAKA",080 - 25630749,BANGALORE,BANGALORE URBAN,KARNATAKA
LAVB0000168,The Lakshmi Vilas Bank,LAVB0000168,NON-MICR,BHIMAVARAM,"NO.27-1-7/6, J.P.RAOD, BHIMAVARAM, WEST GODAVARI DT. - 534 202",BHIMAVARAM@LVBANK.IN     BHIMAVARAM_BM@LVBANK.IN,BHIMAVARAM,WEST GODAVARI,ANDHRA PRADESH
LAVB0000169,The Lakshmi Vilas Bank,LAVB0000169,560056003,CITY MARKET EXTENSION COUNTER,"ST.ANN’S EDUCATIONAL SOCIETY, 738/40, DR.RAJKUMAR ROAD, RAJAJI NAGAR,BANGALORE- 560 010",CITYMARKETEC@LVBANK.IN,BANGALORE,BANGALORE URBAN,KARNATAKA
LAVB0000170,The Lakshmi Vilas Bank,LAVB0000170,NON-MICR,BHUVANAGIRI,"16, MOHAMADIYAR STREET BHUVANAGIRI MAIN ROAD,BHUVANAGIRI - 608 601 CUDDALORE DT., TAMIL NADU",04144 - 241379,BHUVANAGIRI,CUDDALORE,TAMIL NADU
LAVB0000171,The Lakshmi Vilas Bank,LAVB0000171,NON-MICR,BELLARY,"16, 1ST FLOOR, AMBLI BAGH CROSS, P.B.NO. 59   BANGALORE ROADBELLARY - 583 101   BELLARY DT.,   KARNATAKA",08392 - 273704,BELLARY,BELLARY,KARNATAKA
LAVB0000172,The Lakshmi Vilas Bank,LAVB0000172,NON-MICR,BALASAMUDRAM,"8/5 D1 & 8/5 EI MAIN ROAD, 1ST FLOOR BALASAMUDRAM - 621 203 TRICHY DT., TAMIL NADU",04326 - 254343,BALASAMUDRAM,TIRUCHIORAPPALLI,TAMIL NADU
LAVB0000174,The Lakshmi Vilas Bank,LAVB0000174,400056002,FORT - MUMBAI,"64, DR. V.B. GANDHI MARG, P.B.NO. 1783, KALAGHODA FORT MUMBAI - 400 001.  GREAT MUMBAI DT., MAHARASHTRA",022 - 22676745,MUMBAI,GREATER BOMBAY,MAHARASHTRA
LAVB0000175,The Lakshmi Vilas Bank,LAVB0000175,400056003,MATUNGA - MUMBAI,"4/209-B, DR. AMBEDKAR ROAD DEVI SADAN, P.B.NO. 26603 MATUNGA (EAST)MUMBAI - 400 019GREAT MUMBAI  DT., MAHARASHTRA",022 - 24144814,MUMBAI,GREATER BOMBAY,MAHARASHTRA
LAVB0000176,The Lakshmi Vilas Bank,LAVB0000176,400056004,ANDHERI - MUMBAI,"SWAPNA SADAN, AZAD ROAD  P.B.NO.18708, ANDHERI EAST MUMBAI - 400 069     GREAT MUMBAI DT., MAHARASHTRA",022 - 26844262,MUMBAI,GREATER BOMBAY,MAHARASHTRA
LAVB0000177,The Lakshmi Vilas Bank,LAVB0000177,400056005,VASHI - MUMBAI,"SHOPNO. 12, 13 & 14  SHIRIN APARTMENTS  PLOTNO. 15, SECTORNO. 29 VASHI,   NAVI - MUMBAI - 400 703 THANE DT.,  MAHARASHTRA",022 - 27662533,MUMBAI,GREATER BOMBAY,MAHARASHTRA
LAVB0000178,The Lakshmi Vilas Bank,LAVB0000178,400056006,BORIVILI - MUMBAI,"SHOPNO.8, KAPOOR APARTMENTS, CHANDAVARKAR ROAD,BORIVLI (WEST)   MUMBAI - 400 092 MAHARASHTRA",022 - 28908783,MUMBAI,GREATER BOMBAY,MAHARASHTRA
LAVB0000179,The Lakshmi Vilas Bank,LAVB0000179,400056007,GHATKOPAR - MUMBAI,"SHOPNO.3&4  SIDDHI APARTMENTS,  SHREE RIDDI – SIDDI COMPLEX CO-OP HSG. SOCIETY LTD. OPP.GURUKHUL SCHOOL TILAK ROAD,  GHATKOPAR(E) MUMBAI–400 077  MAHARASHTRA",022 - 25163010,MUMBAI,GREATER BOMBAY,MAHARASHTRA
LAVB0000180,The Lakshmi Vilas Bank,LAVB0000180,APPLIED FOR,BANASHANKARI,"NO 2465, 24TH CROSS, BANASHNAKARI II STAGE, WARD NO 56, BANGALORE – 560 050",BANASHANKARI@LVBANK.IN,BANASHANKARI,BANGALORE,KARNATAKA
LAVB0000181,The Lakshmi Vilas Bank,LAVB0000181,673056002,CALICUT - KOZHIKODE,"9-562, KHADEEJA BUILDINGS   1ST FLOOR, P.B.NO. 188 CHEROOTY ROAD  KOZHIKODE - 673 001 KOZHIKODE DT., KERALA",0495 - 2366268,KOZHIKODE,KOZHIKODE,KERALA
LAVB0000182,The Lakshmi Vilas Bank,LAVB0000182,NON-MICR,CHINNADARAPURAM,"10-182, MAIN ROAD CHINNADHARAPURAM - 639 202 KARUR DT.,        TAMIL NADU",04320 - 232247,CHINNADHARAPURAM,KARUR,TAMIL NADU
LAVB0000183,The Lakshmi Vilas Bank,LAVB0000183,638056003,CHITTODE,"117, BHAVANI MAIN ROAD  P.B.NO. 1    CHITTODE - 638 102     ERODE DT.,    TAMIL NADU",0424 - 2533288,CHITTODE,ERODE,TAMIL NADU
LAVB0000184,The Lakshmi Vilas Bank,LAVB0000184,NON-MICR,CHITTOOR,"11-446, O.T.K. ROAD     P.B.NO. 44 CHITTOOR - 517 001    ANDHRA PRADESH",08572 - 232182,CHITTOOR,CHITTOR,ANDHRA PRADESH
LAVB0000185,The Lakshmi Vilas Bank,LAVB0000185,641056002,COIMBATORE MAIN,"68, OPPANAKKARA STREET GROUND FLOOR   NEXT TO GIRL’S SCHOOL COIMBATORE - 641 001   TAMIL NADU",0422 - 2397439,COIMBATORE,COIMBOTORE,TAMIL NADU
LAVB0000186,The Lakshmi Vilas Bank,LAVB0000186,641056003,GANAPATHY - COIMBATORE,GOPAL BUILDING” 1157   SATHY ROAD (NEAR T.N. BUS STOP) GANAPATHY COIMBATORE - 641 006   TAMIL NADU,0422 - 2331983,COIMBATORE,COIMBOTORE,TAMIL NADU
LAVB0000187,The Lakshmi Vilas Bank,LAVB0000187,641056004,GANDHIPURAM - COIMBATORE,"KLG COMPLEX, 226 1ST FLOOR, 5TH STREET    CROSS CUT ROAD P.B.NO. 2914    GANDHIPURAM   COIMBATORE - 641 012   TN",0422 - 2490104,COIMBATORE,COIMBOTORE,TAMIL NADU
LAVB0000188,The Lakshmi Vilas Bank,LAVB0000188,641056005,KOVAIPUDUR - COIMBATORE,"T-25, P.B.NO. 2 KOVAIPUDUR    COIMBATORE - 641 042 TAMIL NADU",0422 - 2607542,COIMBATORE,COIMBOTORE,TAMIL NADU
LAVB0000189,The Lakshmi Vilas Bank,LAVB0000189,641056006,RAMANATHAPURAM - COIMBATORE,"RN MALLIGA COMPLEX, 750-A TRICHY ROAD, 1ST FLOOR RAMANATHAPURAM  COIMBATORE - 641 045  TAMIL NADU",0422 - 2313584,COIMBATORE,COIMBOTORE,TAMIL NADU
LAVB0000190,The Lakshmi Vilas Bank,LAVB0000190,641056007,R.S.PURAM - COIMBATORE,"121, THIRUVENKATAM ROAD (WEST), R.S. PURAM COIMBATORE-641002 TAMILNADU",0422 - 2543482,COIMBATORE,COIMBOTORE,TAMIL NADU
LAVB0000191,The Lakshmi Vilas Bank,LAVB0000191,641056008,UPPILIPALAYAM - COIMBATORE,"NO,1, HEAD QUARTERS ROAD  1ST FLOOR, UPPILIPALAYAM COIMBATORE - 641 018   TAMIL NADU",0422 - 2300643,COIMBATORE,COIMBOTORE,TAMIL NADU
LAVB0000192,The Lakshmi Vilas Bank,LAVB0000192,641056009,KOUNDANPALAYAM,"S.F.NO.48/ SITE NO.4, GANDHI NAGAR, METTUPALAYAM ROAD, KOUNDAMPALAYAM, COIMBATORE – 641 030",04254 - 222182,COIMBATORE,COIMBOTORE,TAMIL NADU
LAVB0000193,The Lakshmi Vilas Bank,LAVB0000193,641056010,EACHANARY,"ARULMIGU ECHANARI, VINAYAGAR TEMPLE, 1/226-E, POLLACHI MAIN ROAD, ECHANARI, UPPLIPALAYAM-641 021 COIMBATORE DT., TAMIL NADU",0422 - 2676027,COIMBATORE,COIMBOTORE,TAMIL NADU
LAVB0000194,The Lakshmi Vilas Bank,LAVB0000194,641056005,KOVAIPUDUR EXTENSION COUNTER,"SRI KRISHNA COLLEGE OF ENGINEERING & TECHNOLOGY, SUGUNAPURAM, KUNIAMUTHUR (P.O), COIMBATORE – 641 008. TAMILNADU",0422 – 2678090,KUNIAMUTHUR,COIMBOTORE,TAMIL NADU
LAVB0000195,The Lakshmi Vilas Bank,LAVB0000195,641056010,ECHANARI EXTENSION COUNTER,"THE KARPAGAM COLLEGE OF ENGINEERING,MYLERIPALAYAM,POLLACHI MAIN ROAD,EACHANARI.",ECHANARIEC@LVBANK.IN ECHANARI_BM@LVBANK.IN,COIMBATORE,COIMBATORE,TAMIL NADU
LAVB0000201,The Lakshmi Vilas Bank,LAVB0000201,682056002,COCHIN - ERNAKULAM,"XXXIX - 818CHITTOOR ROAD, “KARTHIKA” 1ST FLOOR, ERANAKULAM     COCHIN - 682 016    KERALA",0484 - 2376578,ERNAKULAM,ERNAKULAM,KERALA
LAVB0000202,The Lakshmi Vilas Bank,LAVB0000202,NON-MICR,CUDDALORE,"23, VEDA VINAYAGAR COMPLEX LAWRENCE ROAD, 1ST FLOOR CUDDALORE-607 002  TAMIL NADU",04142 - 235943,CUDDALORE,CUDDALORE,TAMIL NADU
LAVB0000203,The Lakshmi Vilas Bank,LAVB0000203,NON-MICR,CUMBUM,"64-65, VELAPPAR KOIL STREET 1ST FLOOR, P.B.NO. 5   CUMBUM - 625 516 THENI DT.     TAMIL NADU",04554 - 271320,CUMBUM,THENI,TAMIL NADU
LAVB0000204,The Lakshmi Vilas Bank,LAVB0000204,700056002,KOLKATTA,"3, RED CROSS PLACE  P.B.NO. 2050  KOLKATA - 700 001 WEST BENGAL",033 - 22480287,KOLKATTA,KOLKATA,WEST BENGAL
LAVB0000205,The Lakshmi Vilas Bank,LAVB0000205,NON-MICR,CHITRADURGA,S.R.E. COMPLEX HEAD POST OFFICE ROADP.B.NO. 63   CHITRADURGA - 577 501 KARNATAKA,08194 - 423551,CHITRADURGA,CHITRADURGA,KARNATAKA
LAVB0000206,The Lakshmi Vilas Bank,LAVB0000206,NON-MICR,CUDDAPAH,"D.NO: 5/526,527(OLD), TRUNK ROAD,  CUDDAPPAH – 516001",CUDDAPAH@LVBANK.IN          CUDDAPAH_BM@LVBANK.IN,CUDDAPAH,CUDDAPAH,ANDHRA PRADESH
LAVB0000207,The Lakshmi Vilas Bank,LAVB0000207,APPLIED FOR,CHEMBUR,"RUNWAL CLASSIC, PLOT NO 257, CENTRAL AVENUE ROAD, NEAR DIAMOND GARDEN, CHEMBUR EAST, MUMBAI - 400071",CHEMBUR@LVBANK.IN,MUMBAI,GREATER MUMBAI,MAHARASHTRA
LAVB0000221,The Lakshmi Vilas Bank,LAVB0000221,NON-MICR,DHARMAPURI,"88-C-D, BYE PASS ROAD DHARMAPURI - 636 701  TAMIL NADU",04342 - 260843,DHARMAPURI,DHARMAPURI,TAMIL NADU
LAVB0000222,The Lakshmi Vilas Bank,LAVB0000222,NON-MICR,DINDIGUL,"P.N. TOWERS, 47/2  1ST FLOOR, PENSIONER STREET P.B.NO. 40DINDIGUL - 624 001 TAMIL NADU",0451 - 2434018,DINDIGUL,DINDIGUL,TAMIL NADU
LAVB0000223,The Lakshmi Vilas Bank,LAVB0000223,NON-MICR,DAVANGERE,"323-10, CHIGATERI COMPLEX    1ST FLOOR, CHAMARAJAPET   P.B.NO. 91DAVANGERE - 577 001 KARNATAKA",08192 - 257980,DAVANGERE,DAVANAGARE,KARNATAKA
LAVB0000224,The Lakshmi Vilas Bank,LAVB0000224,NON-MICR,DODDAVARAM,"DODDAVARAM VILLAGE, MADDIPADU (MANDAL), PRAKASAM DT - 523263.  ANDHRAPRADESH",08593- 271122,DODDAVARAM,PRAKASAM,ANDHRA PRADESH
LAVB0000225,The Lakshmi Vilas Bank,LAVB0000225,560056009,DEVANAHALLI,"NO.842/205, NEAR OLD BUS STAND, BB ROAD, DEVANAHALLI TOWN, BANGALORE DT",080-27681511,DEVANAHALLI,BANGALORE RURAL,KARNATAKA
LAVB0000241,The Lakshmi Vilas Bank,LAVB0000241,638056002,ERODE,"77, 1ST FLOOR THIRUVENKADASAMY STREET ERODE - 638 001 TAMIL NADU",0424 - 2214368,ERODE,ERODE,TAMIL NADU
LAVB0000242,The Lakshmi Vilas Bank,LAVB0000242,534056002,ELURU,23B-4-67        SRINIVASA TALKIES ROAD R.R. PETELURU - 534 002   WEST GODAVARI DT.     ANDHRA PRADESH,08812 - 220640,ELURU,WEST GODAVARI,ANDHRA PRADESH
LAVB0000243,The Lakshmi Vilas Bank,LAVB0000243,110056009,FARIDABAD,"1-E/17 B.P, NEW INDUSTRIAL TOWN, FARIDABAD, HARYANA - 121001","FARIDABAD@LVBANK.IN, FARIDABAD_BM@LVBANK.IN",FARIDABAD,FARIDABAD,HARYANA
LAVB0000275,The Lakshmi Vilas Bank,LAVB0000275,NON-MICR,GANDHIDHAM,"PLOTNO. 283 WARD 12-B, MAIN MARKET GANDHIDHAM, KUTCH DT. GUJARAT - 370 021",02836 - 225617,GANDHIDHAM,KUTCH,GUJARAT
LAVB0000276,The Lakshmi Vilas Bank,LAVB0000276,NON-MICR,GOPALPATTI,"8-120, MAIN ROAD    GOPALPATTI - 624 308 VEMBARPATTI P.O.     DINDIGUL DT.  TAMIL NADU",0451 - 2559241,VEMBARPATTI,DINDIGUL,TAMIL NADU
LAVB0000277,The Lakshmi Vilas Bank,LAVB0000277,520056102,GUNTUR,"23-1-97, MAIN ROAD1ST FLOOR, “FLOWER BAZAAR” GUNTUR - 522 003  GUNTUR DT.ANDHRA PRADESH",0863 - 2224940,GUNTUR,GUNTUR,ANDHRA PRADESH
LAVB0000278,The Lakshmi Vilas Bank,LAVB0000278,638056007,GOBICHETTIPALAYAM,"NO. 79, “RAM COMPLEX”  1ST FLOOR, KUTCHERY ROAD GOBICHETTIPALAYAM - 638 452 ERODE DT.  TAMIL NADU",04285 - 222022,GOBICHETTIPALAYAM,ERODE,TAMIL NADU
LAVB0000279,The Lakshmi Vilas Bank,LAVB0000279,530056002,GAJUWAKA - VISHAKAPATNAM,"NO.17-40-6  MAIN ROAD, 1ST FLOOR       “LAKSHMI COMPLEX”       GAJUWAKA    VISHAKAPATNAM - 530 026 ANDHRA PRADESH",0891 - 2517565,GAJUWAKA,VISHAKAPATNAM,ANDHRA PRADESH
LAVB0000280,The Lakshmi Vilas Bank,LAVB0000280,382056003,GANDHINAGAR,"ROADNO. 5, NEAR GH 5   SECTOR - 16, P.B.NO. 5 SIDDHARTH LAW COLLEGE CAMPUS GANDHINAGAR - 382 016        GUJARAT",079 - 23230220,GANDHINAGAR,GANDHINAGAR,GUJARAT
LAVB0000281,The Lakshmi Vilas Bank,LAVB0000281,530056003,GOPALAPATNAM - VISHAKAPATNAM,"7-278, MAIN ROAD1ST FLOOR,  OPP.SUKANYA THEATRE, GOPALAPATNAM, VISHAKAPATNAM - 530 027 ANDHRA PRADESH",0891 - 2521182,GOPALAPATNAM,VISHAKAPATNAM,ANDHRA PRADESH
LAVB0000282,The Lakshmi Vilas Bank,LAVB0000282,110056005,GURGAON,"M-35, OLD DLF, SECTOR –14, GURGAON – 122 001. HARIYANA ",0124 - 2225800,GURGAON,GURGAON,HARYANA
LAVB0000283,The Lakshmi Vilas Bank,LAVB0000283,110056007,GHAZIABAD,"IIF-166-167, GOOD LUCK TOWERS, NEHRU NAGAR, AMBEDKAR ROAD, GHAZIABAD - 201001, UTTAR PRADESH",GHAZIABAD@LVBANK.IN     GHAZIABAD_BM@LVBANK.IN,GHAZIABAD,GHAZIABAD,UTTAR PRADESH
LAVB0000285,The Lakshmi Vilas Bank,LAVB0000285,APPLIED FOR,GARIA,"225/22, N.S.C. BOSE ROAD, NAKTALA, KOLKATA – 700 084",GARIA@LVBANK.IN,GARIA,SOUTH 24 PARGANAS,WEST BENGAL
LAVB0000286,The Lakshmi Vilas Bank,LAVB0000286,APPLIED FOR,GADAG,"PRAGATI, 6690/IB 3, A.P.M.C YARD,NEAR SBI, GADAG – 582101",GADAG@LVBANK.IN,GADAG,GADAG,KARNATAKA
LAVB0000287,The Lakshmi Vilas Bank,LAVB0000287,APPLIED FOR,GUDUVANCHERI,"DOOR NO 35,GST ROAD, NANDIVARAM, GUDUVANCHERRY, CHENNAI - 603 202",GUDUVANCHERI@LVBANK.IN,GUDUVANCHERI,KANCHEEPURAM,TAMIL NADU
LAVB0000295,The Lakshmi Vilas Bank,LAVB0000295,NON-MICR,HOSUR,"GANESH COMPLEX, 1ST FLOOR 77/C-11, SBI ADB ROAD   BYE PASS ROAD, P.B.NO. 61 HOSUR - 635 109KRISHNAGIRI DT. TAMILNADU",04344 - 241210,HOSUR,KRISHNAGIRI,TAMIL NADU
LAVB0000296,The Lakshmi Vilas Bank,LAVB0000296,580056002,HUBLI,"UMACHIGI COMPLEX1ST FLOORP.B.NO.102, KOPPIKAR ROAD HUBLI - 580 020  DHARWAR DT. KARNATAKA",0836 - 2362561,HUBLI-DHARWAD,DHARWAD,KARNATAKA
LAVB0000297,The Lakshmi Vilas Bank,LAVB0000297,500056002,HYDERABAD MAIN,"5-1-716/11ST FLOOR, BANK STREET   P.B.NO. 537,  KOTI     HYDERABAD - 500 195  ANDHRA PRADESH",040 - 24745088,HYDERABAD,HYDERABAD URBAN,ANDHRA PRADESH
LAVB0000298,The Lakshmi Vilas Bank,LAVB0000298,NON-MICR,HOSPET,"SHARADA COMPLEX, 1ST FLOOR489 & 495, PATTEL NAGAR NEAR SHANBAG CIRCLE   HOSPET - 583 201    BELLARY DT.,KARNATAKA",08394 - 428885,HOSPET,BELLARY,KARNATAKA
LAVB0000299,The Lakshmi Vilas Bank,LAVB0000299,500056006,HUBSIGUDA - HYDERABAD,"NO. 7-149-2, 1ST FLOOR “RAGHAVENDRA COMPLEX” HABSIGUDA CROSS ROAD HABSIGUDA - 500 007 HYDERABADRENGA REDDY DT. ANDHRA PRADESH",040 - 27150491,HABSHIGUDA,RANGA REDDY,ANDHRA PRADESH
LAVB0000316,The Lakshmi Vilas Bank,LAVB0000316,NON-MICR,IYYAMPALAYAM,"2/18, CHETTIAR STREET IYYAMPALAYAM - 624 204 DINDIGUL DT.     TAMIL NADU",04543 - 267212,AYYAMPALAYAM,DINDIGUL,TAMIL NADU
LAVB0000317,The Lakshmi Vilas Bank,LAVB0000317,NON-MICR,IDAYAKOTTAI,"10/190, PALANI ROAD IDAYAKOTTAI - 624704   DINDIGUL DT.  TAMIL NADU",04553 - 250224,IDAYAKOTTAI,DINDIGUL,TAMIL NADU
LAVB0000318,The Lakshmi Vilas Bank,LAVB0000318,452056002,INDORE,"7-8, R.N.T. MARG   SILVER CASTLE BUILDING P.B.NO. 503 INDORE - 452 001     MADHYA PRADESH",0731 - 2529102,INDORE,INDORE,MADHYA PRADESH
LAVB0000336,The Lakshmi Vilas Bank,LAVB0000336,NON-MICR,JALAKANDAPURAM,"58, VANDIMEDUP.B.NO. 3   JALAKANDAPURAM - 636 501 SALEM DT.      TAMIL NADU",04298 - 260641,JALAKANTAPURAM,SALEM,TAMIL NADU
LAVB0000337,The Lakshmi Vilas Bank,LAVB0000337,361056001,JAMNAGAR,"HOTEL STAY BUILDING  NEAR AMBER CINEMA    PLOTNO.34-G,   PANDIT NEHRY MARG  JAMNAGAR   GUJARAT",0288 - 2661762,JAMNAGAR,JAMNAGAR,GUJARAT
LAVB0000354,The Lakshmi Vilas Bank,LAVB0000354,400056008,KALYAN,"SHOP NO: 2&3, MAHAVEER COMPLEX II,SANTHOSHI MATHA MANDIR ROAD,KALYAN-421 301",0251-2200250,KALYAN,THANE,MAHARASHTRA
LAVB0000355,The Lakshmi Vilas Bank,LAVB0000355,NON-MICR,CHINNASALEM,"M/S. VYSYA MODERN RICE MILL, CHURCH COMPLEX STREET, MAIN ROAD, CHINNASALEM - 606 201, VILLUPURAM DT., TAMIL NADU",04151 - 257455,CHINNASALEM,VILLUPURAM,TAMIL NADU
LAVB0000356,The Lakshmi Vilas Bank,LAVB0000356,NON-MICR,KADAMBULIYUR,"NO:106, KUMBAKONAM ROAD, KADAMBULIYUR",04142-249223,PANRUTI,CUDDALORE,TAMIL NADU
LAVB0000357,The Lakshmi Vilas Bank,LAVB0000357,NON-MICR,KALLAKURICHI,"D.NO. 19, SALEM MAIN ROAD KALLAKURICHI - 606 202 VILLUPURAM DT.  TAMIL NADU",04151 - 222455,KALLAKURICHI,VILLUPURAM,TAMIL NADU
LAVB0000358,The Lakshmi Vilas Bank,LAVB0000358,600056020,KANCHEEPURAM,"511, GANDHI ROAD   P.B.NO. 11  KANCHEEPURAM - 631 501 TAMIL NADU","044- 27222839,27230775.  ",KANCHIPURAM,KANCHEEPURAM,TAMIL NADU
LAVB0000359,The Lakshmi Vilas Bank,LAVB0000359,NON-MICR,KANDILI,"1-21, CHAVADI STREET   KANDILI - 635 901  VELLORE DT.TAMIL NADU",04179 - 48205,KANDILI,VELLORE,TAMIL NADU
LAVB0000360,The Lakshmi Vilas Bank,LAVB0000360,638056011,KANGAYAM,"45, P.S.G. BUILDINGS, CHENNIMALAI ROADP.B.NO. 12  KANGAYAM - 638 701    ERODE DT.    TAMIL NADU",04257 - 220658,KANGEYAM,ERODE,TAMIL NADU
LAVB0000361,The Lakshmi Vilas Bank,LAVB0000361,NON-MICR,KARAIKAL,"107, IST FLOOR  BHARATHIYAR ROAD, P.B.NO. 34 KARAIKAL - 609 602 PONDICHERRY",04368 - 222410,KARAIKAL,KARAIKAL,PONDICHERRY
LAVB0000362,The Lakshmi Vilas Bank,LAVB0000362,NON-MICR,KARUR MAIN,"693, JAWAHAR BAZAAR   P.B.NO. 36  KARUR - 639 001   TAMIL NADU",04324 - 260021,KARUR,KARUR,TAMIL NADU
LAVB0000363,The Lakshmi Vilas Bank,LAVB0000363,NON-MICR,KARUR WEST,"118-119, JAWAHAR BAZZAR KARUR - 639 001   TAMIL NADU",04324 - 262159,KARUR,KARUR,TAMIL NADU
LAVB0000364,The Lakshmi Vilas Bank,LAVB0000364,NON-MICR,KATTUPUTHUR,"179, ANDAPURAM ROAD KATTUPUTHUR - 621 207 TRICHY DT.    TAMIL NADU",04326 - 250225,KATTUPUTHUR,TIRUCHIORAPPALLI,TAMIL NADU
LAVB0000365,The Lakshmi Vilas Bank,LAVB0000365,627056005,KOVILPATTI,"897, MAIN ROAD P.B.NO. 17  KOVILPATTI - 628 501 TIRUNELVELI DT. TAMIL NADU",04632 - 220402,KOVILPATTI,THOOTHKUDI,TAMIL NADU
LAVB0000366,The Lakshmi Vilas Bank,LAVB0000366,NON-MICR,KRISHNAGIRI,"25-B, COLONY ROADP.B.NO. 9   KRISHNAGIRI - 635 001 KRISHNAGIRI DT.  TAMIL NADU",04343 - 236213,KRISHNAGIRI,KRISHNAGIRI,TAMIL NADU
LAVB0000367,The Lakshmi Vilas Bank,LAVB0000367,NON-MICR,KUMBAKONAM,"NO.13, 1ST FLOOR  SOMESWARAR SANNADHI STREET KUMBAKONAM - 612 001 THANJAVUR DT. TAMIL NADU",0435 - 2420345,KUMBAKONAM,THANJAVUR,TAMIL NADU
LAVB0000368,The Lakshmi Vilas Bank,LAVB0000368,NON-MICR,KARAIKUDI,"24, KALLUKATTINORTH 1ST FLOOR, P.B.NO. 30  KARAIKUDI - 630 001 SIVAGANGAI DT.     TAMIL NADU",04565 - 237489,KARAIKUDI,SIVAGANGA,TAMIL NADU
LAVB0000369,The Lakshmi Vilas Bank,LAVB0000369,NON-MICR,KATTUGUDALUR,"217/D, PTR BUILDING, ANNA SALAI MAIN ROAD, KATTUGUDALUR - 607805, CUDDALORE DT., TAMIL NADU",04142- 266204,CUDDALORE,CUDDALORE,TAMIL NADU
LAVB0000370,The Lakshmi Vilas Bank,LAVB0000370,NON-MICR,KURUMBAPATTI,"1/83-A, MAIN ROAD    PALLAPATTI (VIA)     KURUMBAPATTI-639205    KARUR DT.TAMILNADU",04320 - 248273,KURUMBAPATTI,KARUR,TAMIL NADU
LAVB0000371,The Lakshmi Vilas Bank,LAVB0000371,NON-MICR,KANJAMPATTI,WARDNO. 1VINAYAGAR KOVIL STREET KANJAMPATTI - 642 003 COIMBATORE DT. TAMIL NADU,04259 - 284261,KANJAMPATTY,COIMBOTORE,TAMIL NADU
LAVB0000372,The Lakshmi Vilas Bank,LAVB0000372,NON-MICR,KATHAPARAI - KARUR,"116/H-2, SALEM MAIN ROAD VENNAMALAI P.O  KATHAPARAI - 639 006   KARUR DT.        TAMIL NADU",04324 - 220691,KATHAPARAI,KARUR,TAMIL NADU
LAVB0000373,The Lakshmi Vilas Bank,LAVB0000373,500056007,KUKATPALLY - HYDERABAD,"NO.11 TO 16, 1ST FLOOR    PLOTNOS. 148 TO 151     SAROJA COMPLEX OPP. KPHB COLONY KUKATPALLY  HYDERABAD - 500 872",040 - 23067430,KUKATPALLY,RANGA REDDY,ANDHRA PRADESH
LAVB0000374,The Lakshmi Vilas Bank,LAVB0000374,500056005,KOTHAPETA - HYDERABAD,"7-144/3, “POTLURY HOUSE” PLOTNO. 24, 1ST FLOOR, HUDA COMPLEX, KOTHAPETA CROSS ROAD (SAROOR NAGAR) KOTHAPETA  HYDERABAD - 500 035  RANGA REDDY DT.ANDHRA PRADESH",040 - 24042809,KOTHAPETA,RANGA REDDY,ANDHRA PRADESH
LAVB0000375,The Lakshmi Vilas Bank,LAVB0000375,NON-MICR,KAKINADA,"28-7-14, CHITTORYVARI STREET OPP. SAI TEMPLE   ADJ. MAIN ROAD     KAKINADA - 533 001    EAST GODAWARI DT.    ANDHRA PRADESH",0884 - 2379712,KAKINADA,EAST GODAVARI,ANDHRA PRADESH
LAVB0000376,The Lakshmi Vilas Bank,LAVB0000376,NON-MICR,KARIMNAGAR,"D.NO.4-5-334, SHIVALAYAM ROAD, NEAR RAJIV CHOWK, FATHEPURA, KARIM NAGAR – 505 001.",0878 - 22334455,KARIMNAGAR,KARIM NAGAR,ANDHRA PRADESH
LAVB0000377,The Lakshmi Vilas Bank,LAVB0000377,NON-MICR,KULITHALAI,"NO. 5, CAUVERY NAGAR, KULITHALAI - 639 104 , KARUR DT., TAMIL NADU",04323 - 223074,KULITHALAI,KARUR,TAMIL NADU
LAVB0000378,The Lakshmi Vilas Bank,LAVB0000378,400056009,KHARGHAR,"SHOP NO 42 & 43, PATEL HERITAGE,SECTOR 7,KHARGHARNAVI MUMBAI-410 210",93200 11899,MUMBAI,GREATER BOMBAY,MAHARASHTRA
LAVB0000379,The Lakshmi Vilas Bank,LAVB0000379,507056002,KHAMMAM,"2-3-231,SUNDAR TALKIES ROAD,GANDHI CHOWK, KHAMMAM-507 003 ANDHRA PRADESH",08742-256668,KHAMMAM,KHAMMAM,ANDHRA PRADESH
LAVB0000380,The Lakshmi Vilas Bank,LAVB0000380,600056022,KARANODAI,"SURVEY NO:103/B,SRI DHANALAKSHMI COMPLEX,KARANODAI BAZAAR,G.N.T ROAD, KARANODAI,CHENNAI-600 067",044-26330520,KARANODAI,TIRUVALLUR,TAMIL NADU
LAVB0000381,The Lakshmi Vilas Bank,LAVB0000381,,KAVERIPATNAM,"SF 475/1B1,NH7 SALEM MAIN ROAD,  OPPOSITE .LIC OF INDIA,KAVERIPATNAM – 635112,KRISHNAGIRI DISTRICT.",04343 - 251313                              KAVERIPATNAM@LVBANK.IN,KAVERIPATNAM,KRISHNAGIRI,TAMIL NADU
LAVB0000382,The Lakshmi Vilas Bank,LAVB0000382,NON-MICR,KRISHNAPATNAM,"2-72, GOLLA VEEDHI, KRISHNAPATNAM, S.P.S.R. NELLORE DT.",KRISHNAPATNAM@LVBANK.IN       KRISHNAPATNAM_BM@LVBANK.IN,NELLORE,NELLORE,ANDHRA PRADESH
LAVB0000383,The Lakshmi Vilas Bank,LAVB0000383,110056008,KRISHNANAGAR,"F-3/21, KRISHNANAGAR, OPP. PUNJAB NATIONAL BANK, NEW DELHI EAST - 110051","KRISHNANAGAR@LVBANK.IN  , KRISHNANAGAR_BM@LVBANK.IN",DELHI,NEW DELHI,DELHI
LAVB0000386,The Lakshmi Vilas Bank,LAVB0000386,APPLIED FOR,KOLLEGAL,"7452, CSR HARDWARE COMPLEX, BUS STAND ROAD, MAIN ROAD, KOLLEGAL – 571440.",KOLLEGAL@LVBANK.IN,KOLLEGAL,MYSORE,KARNATAKA
LAVB0000387,The Lakshmi Vilas Bank,LAVB0000387,APPLIED FOR,K.K.NAGAR,"NO.3, PLOT 780, NO.3, MUNUSWAMY ROAD, K.K.NAGAR, CHENNAI – 600 078",KKNAGAR@LVBANK.IN,CHENNAI,CHENNAI,TAMIL NADU
LAVB0000388,The Lakshmi Vilas Bank,LAVB0000388,APPLIED FOR,KENGERI,"GROUND FLOOR ,NO 35 & 36,I MAIN ROAD, KENGERI SATELLITE TOWN, BANGALORE – 560 060",KENGERI@LVBANK.IN,KENGERI,BANGALORE URBAN,KARNATAKA
LAVB0000406,The Lakshmi Vilas Bank,LAVB0000406,NON-MICR,LALGUDI,"SRG BUILDING, 2 SIRUDAIYUR AGRAHARAM LALGUDI - 621 601     TRICHY DT. TAMIL NADU",0431 - 2541236,LALGUDI,TIRUCHIORAPPALLI,TAMIL NADU
LAVB0000407,The Lakshmi Vilas Bank,LAVB0000407,638056005,LAKKAPURAM,"/269, MAIN ROAD LAKKAPURAM - 638 002  ERODE DT.  TAMIL NADU",0424 - 2401767,LAKKAPURAM,ERODE,TAMIL NADU
LAVB0000424,The Lakshmi Vilas Bank,LAVB0000424,500056001,HYDERABAD - SERVICE BRANCH,"FLATNO. 2A, II FLOOR SAMRAT COMPLEX SAIFABAD - 500 004 HYDERABADANDHRA PRADESH",040 - 23243874,HYDERABAD,HYDERABAD URBAN,ANDHRA PRADESH
LAVB0000425,The Lakshmi Vilas Bank,LAVB0000425,600056001,CHENNAI - SERVICE BRANCH,"SAKTHI TOWERS, 4TH FLOOR  F-BLOCK, 766     ANNA SALAI CHENNAI - 600 002TAMIL NADU",044 - 28522913,CHENNAI,CHENNAI,TAMIL NADU
LAVB0000426,The Lakshmi Vilas Bank,LAVB0000426,600056002,CHENNAI MAIN,"275, THAMBU CHETTY STREET  CHENNAI - 600 001    TAMIL NADU",044 - 25227240,CHENNAI,CHENNAI,TAMIL NADU
LAVB0000427,The Lakshmi Vilas Bank,LAVB0000427,600056003,GN STREET - CHENNAI.,"244, IST FLOOR  GOVINDAPPA NAICKEN STREET P.B.NO. 1633     CHENNAI - 600 001     TAMIL NADU",044 - 25369370,CHENNAI,CHENNAI,TAMIL NADU
LAVB0000428,The Lakshmi Vilas Bank,LAVB0000428,600056005,KODAMBAKKAM - CHENNAI,"323, ARCOT ROAD 1ST FLOOR   CHENNAI - 600 024    TAMIL NADU",044 - 24837903,CHENNAI,CHENNAI,TAMIL NADU
LAVB0000429,The Lakshmi Vilas Bank,LAVB0000429,600056006,MOUNT ROAD - CHENNAI,"636, ANNA SALAI 1ST FLOOR, (MOUNT ROAD) CHENNAI - 600 006    TAMIL NADU",044 - 28293909,CHENNAI,CHENNAI,TAMIL NADU
LAVB0000430,The Lakshmi Vilas Bank,LAVB0000430,600056007,MYLAPORE - CHENNAI,"38,NORTH MADA STREET MYLAPORE  CHENNAI - 600 004  TAMIL NADU",044 - 24640736,CHENNAI,CHENNAI,TAMIL NADU
LAVB0000431,The Lakshmi Vilas Bank,LAVB0000431,600056008,NUNGAMBAKKAM - CHENNAI,"175, VALLUVAR KOTTAM HIGH ROAD, P.B.NO. 1258  S.F.I. COMPLEX, 1ST FLOOR NUNGAMBAKKAMCHENNAI - 600 034  TAMIL NADU",044 - 28271349,CHENNAI,CHENNAI,TAMIL NADU
LAVB0000432,The Lakshmi Vilas Bank,LAVB0000432,600056009,PURASAIWALKAM - CHENNAI,"25, 1ST FLOOR, PURASAWALKAM HIGH ROAD, PURASAWALKAM CHENNAI - 600 007   TAMIL NADU",044 - 26426739,CHENNAI,CHENNAI,TAMIL NADU
LAVB0000433,The Lakshmi Vilas Bank,LAVB0000433,600056010,ROYAPURAM - CHENNAI,"130, SURYA NARAYANA CHETTY STREET, ROYAPURAM CHENNAI - 600 013   TAMIL NADU",044 - 25952244,CHENNAI,CHENNAI,TAMIL NADU
LAVB0000434,The Lakshmi Vilas Bank,LAVB0000434,600056004,CATHEDRAL ROAD - CHENNAI,"62, CATHEDRAL ROAD  P.B.NO. 4903  CHENNAI - 600 086     TAMIL NADU",044 - 28112266,CHENNAI,CHENNAI,TAMIL NADU
LAVB0000435,The Lakshmi Vilas Bank,LAVB0000435,600056011,TRIPLICANE - CHENNAI,"71-72, LAXMI NARAIANS TOWERS, WALLAJAH ROAD     1ST FLOOR, TRIPLICANE  CHENNAI - 600 002   TAMIL NADU",044 - 28548726,CHENNAI,CHENNAI,TAMIL NADU
LAVB0000436,The Lakshmi Vilas Bank,LAVB0000436,600056013,VALASARAVAKKAM - CHENNAI,"126-A, ARCOT ROAD  1ST FLOOR, VALASARAWAKKAM CHENNAI - 600 087 KANCHEEPURAM DT. TAMIL NADU",044 - 24869291,VALASARAVAKKAM,TIRUVALLUR,TAMIL NADU
LAVB0000437,The Lakshmi Vilas Bank,LAVB0000437,600056012,WEST TAMBARAM - CHENNAI,"27, RAJAJI ROAD, 1ST FLOOR WEST TAMBARAM  CHENNAI - 600 045 KANCHEEPURAM DT. TAMIL NADU",044 - 22260359,TAMBARAM,KANCHEEPURAM,TAMIL NADU
LAVB0000438,The Lakshmi Vilas Bank,LAVB0000438,600056014,SELAIYUR - CHENNAI,ZION MATRICULATION HIGHER SECONDARY SCHOOL SELAIYUR CHENNAI - 600 073 KANCHEEPURAM DT. TAMIL NADU,044 - 22293460,SELAIYUR,KANCHEEPURAM,TAMIL NADU
LAVB0000439,The Lakshmi Vilas Bank,LAVB0000439,600056016,ANNA NAGAR - CHENNAI,"AB-5, II AVENUE  ANNA NAGAR   CHENNAI – 600 040  THIRUVALLUR DISTRICT         TAMILNADU",044 - 26200745,CHENNAI,CHENNAI,TAMIL NADU
LAVB0000440,The Lakshmi Vilas Bank,LAVB0000440,600056017,T.NAGAR - CHENNAI,"NO.29, GOVINDA STREET, T.NAGAR, CHENNAI - 600 017 , TAMILNADU",044 - 28155499,CHENNAI,CHENNAI,TAMIL NADU
LAVB0000441,The Lakshmi Vilas Bank,LAVB0000441,600056015,ADYAR - CHENNAI,"NO.124/A   LATTICE BRIDGE ROAD   (K.R, BUILDINGS) ADYAR CHENNAI – 600 020   TAMILNADU",044 - 24404336,CHENNAI,CHENNAI,TAMIL NADU
LAVB0000442,The Lakshmi Vilas Bank,LAVB0000442,600056018,VELACHERY - CHENNAI,"NO.37F,VELACHERRY MAIN ROAD,VIJAYA NAGAR, VELACHERRY, CHENNAI – 600 042 TAMILNADU",044 - 22436065,CHENNAI,CHENNAI,TAMIL NADU
LAVB0000443,The Lakshmi Vilas Bank,LAVB0000443,600056010,ROYAPURAM EXTENSION COUNTER,"M.V. HOSPITAL DIABETES RESEARCH CENTRE FOUNDATION, 4, WEST MADA CHURCH STREET, (MAIN ROAD), ROYAPURAM,CHENNAI - 600 013 TAMIL NADU",044 - 25980458,CHENNAI,CHENNAI,TAMIL NADU
LAVB0000444,The Lakshmi Vilas Bank,LAVB0000444,625056003,TALLAKULAM - MADURAI,"PLOTNO.4, DOORNO.49 BHARATHI ULA ROAD    RACE COURSE, P.B.NO. 47 MADURAI- 625 002     TAMIL NADU",0452 - 2530634,MADURAI,MADURAI,TAMIL NADU
LAVB0000445,The Lakshmi Vilas Bank,LAVB0000445,625056002,MADURAI MAIN,"“BALA SASI NIVAS”, 97EAST MARRET STREET   PALACE ROAD, P.B.NO. 177 MADURAI - 625 001     TAMIL NADU",0452 - 2339158,MADURAI,MADURAI,TAMIL NADU
LAVB0000446,The Lakshmi Vilas Bank,LAVB0000446,NON-MICR,MANDYA,"1127, 1ST FLOOR  P.B.NO. 24 IST CROSS  ASHOK NAGAR  MANDYA - 571 401   MANDYA DT. KARNATAKA",08232 - 226979,MANDYA,MANDYA,KARNATAKA
LAVB0000447,The Lakshmi Vilas Bank,LAVB0000447,NON-MICR,MANNARGUDI,"54, BIG BAZAAR STREET MANNARGUDI - 614 001 TIRUVARUR DT.  TAMIL NADU",04367 - 222208,MANNARGUDI,TIRUVALLUR,TAMIL NADU
LAVB0000448,The Lakshmi Vilas Bank,LAVB0000448,NON-MICR,MARANDAHALLI,“KRISHNA COMPLEX”  HIGH SCHOOL ROAD MARANDAHALLI - 636 806 DHARMAPURI DT. TAMIL NADU,04348 - 233332,MARANDAHALLI,DHARMAPURI,TAMIL NADU
LAVB0000449,The Lakshmi Vilas Bank,LAVB0000449,NON-MICR,MELUR,"195, ALAGAR KOVIL ROAD   P.B.NO. 7  MELUR - 625 106MADURAI DT. TAMIL NADU",04528 - 2415421,MELUR,MADURAI,TAMIL NADU
LAVB0000450,The Lakshmi Vilas Bank,LAVB0000450,641056011,METTUPALAYAM,"79A, NVC BUILDING, 1ST FLOOR OOTY MAIN ROAD METTUPALAYAM - 641 301 COIMBATORE DT.  TAMIL NADU",04254 - 222182,METTUPALAYAM,COIMBOTORE,TAMIL NADU
LAVB0000451,The Lakshmi Vilas Bank,LAVB0000451,NON-MICR,MOOLANGUDI,"1/216, MAIN ROAD  MOOLANGUDI - 610 102. KAMALAPURAM POST TIRUVARUR (VIA) TIRUVARUR DT.TAMIL NADU",04367 - 245444,MOOLANGUDI,PUDUKKOTTAI,TAMIL NADU
LAVB0000452,The Lakshmi Vilas Bank,LAVB0000452,NON-MICR,MUTHUPET,"NO.50, 1ST FLOORKUMARAN BAZAAR     MUTHUPET - 614 704 TIRUVARUR DT.TAMIL NADU",04369 - 260463,MUTHUPET,TIRUVALLUR,TAMIL NADU
LAVB0000453,The Lakshmi Vilas Bank,LAVB0000453,638056008,MUTHUR,"A.R. COMPLEX, 99-T  VELLAKOIL ROAD MUTHUR - 638 105 ERODE DT.     TAMIL NADU",04257 - 254362,MUTHUR,ERODE,TAMIL NADU
LAVB0000454,The Lakshmi Vilas Bank,LAVB0000454,NON-MICR,MANAMEDU,"4/273, SALEM MAIN ROAD MANAMEDU - 621 209   TRICHY DT.   TAMIL NADU",04326 - 271367,MANAMEDU,TIRUCHIORAPPALLI,TAMIL NADU
LAVB0000455,The Lakshmi Vilas Bank,LAVB0000455,570056002,MYSORE,"“SRINIVASA PLAZA” 1ST FLOORNO. 33/A,D. DEVARAJ URS ROAD   MYSORE - 570 001   MYSORE DT.KARNATAKA",0821 - 2423262,MYSORE,MYSORE,KARNATAKA
LAVB0000456,The Lakshmi Vilas Bank,LAVB0000456,NON-MICR,MAYILADUTHURAI,"27-B, TOWN EXTENSION ROAD P.B.NO. 78     MAYILADUTHURAI - 609 001 NAGAPATTINAM DT. TAMIL NADU",04364 - 223296,MAYURAM(MAYILADUTHURAI),NAGAPATTINAM,TAMIL NADU
LAVB0000457,The Lakshmi Vilas Bank,LAVB0000457,NON-MICR,MADUKKUR TOWN,"43-D, BAJANAI MUTT STREET MADUKKUR TOWN - 614 903 THANJAVUR DT., TAMIL NADU",04373 - 260233,MADUKKUR,THANJAVUR,TAMIL NADU
LAVB0000458,The Lakshmi Vilas Bank,LAVB0000458,NON-MICR,MATHUR,1/49 E   MATHUR - 635 203   KRISHNAGIRI DT.   TAMIL NADU,04341 - 256221,MATHUR,KRISHNAGIRI,TAMIL NADU
LAVB0000459,The Lakshmi Vilas Bank,LAVB0000459,NON-MICR,MAHADHANAPURAM,"1-2-85/A, EAST AGRAHARAM MAHADHANAPURAM - 639 106 KARUR DT. TAMIL NADU",04323 - 242235,MAHADHANAPURAM,KARUR,TAMIL NADU
LAVB0000460,The Lakshmi Vilas Bank,LAVB0000460,NON-MICR,MUTHUGAPATTY,"6/41, MAIN ROAD MUTHUGAPATTY - 637 405 NAMAKKAL DT.  TAMIL NADU",04286 - 278366,MUTHUGAPATTI,NAMAKKAL,TAMIL NADU
LAVB0000461,The Lakshmi Vilas Bank,LAVB0000461,500056004,MALKAJGIRI - HYDERABAD,"NO.292 & 293, 1ST FLOOR RADHAKRISHNA NAGAR     OPP. RAMACHANDRA TALKIES MALKAJGIRI   HYDERABAD - 500 047   RANGA REDDY DT. ANDHRA PRADESH",040 - 27245572,MALKAJGIRI,RANGA REDDY,ANDHRA PRADESH
LAVB0000462,The Lakshmi Vilas Bank,LAVB0000462,636056010,METTUR DAM,"8/13, SQUARE MARKET ROAD 1ST FLOOR, R.K.P. COMPLEX P.B.NO. 13  METTUR DAM - 636 401 SALEM DT.  TAMIL NADU",04298 - 244738,METTUR,SALEM,TAMIL NADU
LAVB0000463,The Lakshmi Vilas Bank,LAVB0000463,638056018,MN PALAYAM EXTENSION COUNTER,"THE LAKSHMI VILAS BANK LTD, MC MAIN ROAD, VASAVI COLLEGE POST, SURIYAMPALAYAM (MN PALAYAM), ERODE 638316",0424-2533561,ERODE,ERODE,TAMIL NADU
LAVB0000464,The Lakshmi Vilas Bank,LAVB0000464,508056102,MIRYALGUDA,"SHOP NO. 105, BLUE WHALE PALACE, SAGAR ROAD, MIRYALGUDA - 508 207,  ANDHRA PRADESH",MIRYALGUDA@LVBANK.IN       MIRYALGUDA_BM@LVBANK.IN,MIRYALGUDA,NALGONDA,ANDHRA PRADESH
LAVB0000465,The Lakshmi Vilas Bank,LAVB0000465,APPLIED FOR,MOWLIVAKKAM,"DOOR NO 2, BAJANAI KOIL STREET, MOWLIVAKKAM, CHENNAI -600116.",MOWLIVAKKAM@LVBANK.IN,MOWLIVAKKAM,KANCHEEPURAM,TAMIL NADU
LAVB0000466,The Lakshmi Vilas Bank,LAVB0000466,APPLIED FOR,MADHAPUR,"PLOT NO 2, KRITHIKA LAYOUT, MADHAPUR, HYDERABAD - 500081",MADHAPUR@LVBANK.IN,HYDERABAD,HYDERABAD,ANDHRA PRADESH
LAVB0000485,The Lakshmi Vilas Bank,LAVB0000485,NON-MICR,NAVSARI,"G3 & G4, GROUND FLOOR, CHINMAY ARCADE, OPP. SATTAPIR, SAYJI ROAD, MOTA BAZAR, NAVSARI - 396445",NAVSARI@LVBANK.IN                            NAVSARI_BM@LVBANK.IN,NAVSARI,NAVSARI,GUJARAT
LAVB0000486,The Lakshmi Vilas Bank,LAVB0000486,NON-MICR,NAGAPATTINAM,"41, NEELA SOUTH STREET  P.B.NO. 37   NAGAPATTINAM - 611 001 TAMIL NADU",04365 - 242356,NAGAPATTINAM,NAGAPATTINAM,TAMIL NADU
LAVB0000487,The Lakshmi Vilas Bank,LAVB0000487,NON-MICR,NAGERCOIL,"NO.36/8-3, IST FLOOR   SOUTH CAR STREETNAGERCOIL - 629 001 KANYAKUMARI DT.TAMIL NADU",04652 - 232048,NAGERCOIL,KANNIYAKUMARI,TAMIL NADU
LAVB0000488,The Lakshmi Vilas Bank,LAVB0000488,NON-MICR,NAMAKKAL,"14, 1ST FLOOR, SALEM ROAD          P.B.NO. 3  NAMAKKAL - 637 001   TAMIL NADU",04286 - 277422,NAMAKKAL,NAMAKKAL,TAMIL NADU
LAVB0000489,The Lakshmi Vilas Bank,LAVB0000489,NON-MICR,NEYVELI,NO. 198  CUDDALORE MAIN ROAD   NEYVELI - 607 802   CUDDALORE DT. TAMIL NADU,04142 - 262326,NEYVELI,CUDDALORE,TAMIL NADU
LAVB0000490,The Lakshmi Vilas Bank,LAVB0000490,638056010,NATHAKADAIYUR,"2/302, MUTHUR ROAD NATHAKADAIYUR - 638 108 ERODE DT.   TAMIL NADU",04257 - 241032,NATHAKADAIYUR,ERODE,TAMIL NADU
LAVB0000491,The Lakshmi Vilas Bank,LAVB0000491,440056002,NAGPUR,"PLOT 93-94, BHARARI CENTRAL AVENUE NAGPUR - 440 018      MAHARASHTRA",0712 - 2724774,NAGPUR,NAGPUR,MAHARASHTRA
LAVB0000492,The Lakshmi Vilas Bank,LAVB0000492,638056016,NERINJIPETTAI,"110-A, BHAVANI METTUR   MAIN ROAD NERINJIPETTAI-638 311  ERODE DT. TAMIL NADU",04256 - 227041,NERINJIPETTAI,ERODE,TAMIL NADU
LAVB0000499,The Lakshmi Vilas Bank,LAVB0000499,110056003,JANPATH - NEW DELHI,"G-8-9-10 TOLSTOY HOUSE 15-17 TOLSTOY MARG, P.B.NO. 93 JANPATH - 110 001NEW DELHI",011 - 23730530,DELHI,NEW DELHI,DELHI
LAVB0000501,The Lakshmi Vilas Bank,LAVB0000501,110056002,KAROLBAGH - NEW DELHI,"16/17, W.E.A, KAROL BAGH STREET, OPP. TO SATBHARRAWAN SCHOOL, KAROL BAGH  NEW DELHI - 110 005",011 - 28751367,DELHI,NEW DELHI,DELHI
LAVB0000502,The Lakshmi Vilas Bank,LAVB0000502,NON-MICR,NELLORE,"9/744-745, “GVR TOWERS”  1ST FLOOR, SANTHAPET  TRUNK ROAD       RANGANAYAKALUPET   NELLORE - 524 001   ANDHRA PRADESH",0861 - 2331875,NELLORE,NELLORE,ANDHRA PRADESH
LAVB0000503,The Lakshmi Vilas Bank,LAVB0000503,NON-MICR,"NANDYAL, 25/509,","25/509, SRINIVASA NAGAR NANDYAL – 518 501 ANDHRAPRADESH",08514 - 221249,NANDYAL,KURNOOL,ANDHRA PRADESH
LAVB0000504,The Lakshmi Vilas Bank,LAVB0000504,110056004,NOIDA,"B-12, SECTOR-16, NOIDA, GAUTHAM BUDDHA NAGAR DT. UTTAR PRADESH – 201 301.",0422 - 2676027,NOIDA,GAUTAM BODDA NAGAR,UTTAR PRADESH
LAVB0000505,The Lakshmi Vilas Bank,LAVB0000505,APPLIED FOR,"SIGNATURE BRANCH, COIMBATORE","DOOR NO 737/1, PULIYAKULAM MAIN ROAD, NEW DHAMU NAGAR, NEAR TO KIDNEY CENTER, COIMBATORE - 641045",CBE_SIGNATURE@LVBANK.IN,COIMBATORE,COIMBATORE,TAMIL NADU
LAVB0000506,The Lakshmi Vilas Bank,LAVB0000506,NON-MICR,ODDANCHATRAM,"DOORNO. 285-M 2A/9  KRS COMPLEX, MAIN ROAD   1ST FLOOR, P.B.NO. 2 ODDANCHATRAM - 624 619 DINDIGUL DT.  TAMIL NADU",04553 - 240289,ODDANCHATRAM,DINDIGUL,TAMIL NADU
LAVB0000507,The Lakshmi Vilas Bank,LAVB0000507,638056013,OLAPALAYAM,"14/51, UTHAMAPALAYAM ROAD KANGAYAM (VIA)        OLAPALAYAM - 638 701   ERODE DT.   TAMIL NADU",04257 - 256243,OLAPALAYAM,ERODE,TAMIL NADU
LAVB0000508,The Lakshmi Vilas Bank,LAVB0000508,NON-MICR,ONGOLE,"37-1-171, 1ST FLOOR    KURNOOL ROAD ONGOLE - 523 002    PRAKASAM DT.   ANDHRA PRADESH",08592 - 234648,ONGOLE,PRAKASAM,ANDHRA PRADESH
LAVB0000529,The Lakshmi Vilas Bank,LAVB0000529,NON-MICR,PALACODE,"S.F.NO.1243/4, HOSUR ROAD, PALACODE – 636068",PALACODE@LVBANK.IN        PALACODE_BM@LVBANK.IN,PALACODE,DHARMAPURI,TAMIL NADU
LAVB0000530,The Lakshmi Vilas Bank,LAVB0000530,132056002,PANIPAT,"WARD NO.7,SANJAY  CHOWK,SONALI ROAD,OPPOSITE HYDERABADI HOSPITAL,PANIPET-132 103 HARYANA",0180 - 2667071,PANIPAT,PANIPAT,HARYANA
LAVB0000531,The Lakshmi Vilas Bank,LAVB0000531,638056004,PALLIPALAYAM,"76, 1ST FLOOR  TIRUCHENGODE ROAD PALLIPAYALAM - 638 006 NAMAKAL DT. TAMIL NADU",04288 - 240384,PALLIPALAYAM,ERODE,TAMIL NADU
LAVB0000532,The Lakshmi Vilas Bank,LAVB0000532,NON-MICR,PALANI,"40, NEW DHARAPURAM ROAD PALANI - 624 601 DINDIGUL DT.  TAMIL NADU ",04545 - 242252,PALANI,DINDIGUL,TAMIL NADU
LAVB0000533,The Lakshmi Vilas Bank,LAVB0000533,NON-MICR,PANRUTI,"26/D-1, 1ST FLOOR KUMBAKONAM ROAD P.B.NO. 11PANRUTI - 607 106 CUDDALORE DT.   TAMIL NADU",04142 - 242032,PANRUTI,CUDDALORE,TAMIL NADU
LAVB0000534,The Lakshmi Vilas Bank,LAVB0000534,NON-MICR,PAPANAD,"4/80-B-1, EAST STREETPAPANAD - 614 626   THANJAVUR DT.   TAMIL NADU",04372 - 258429,PAPPANADU,THANJAVUR,TAMIL NADU
LAVB0000535,The Lakshmi Vilas Bank,LAVB0000535,NON-MICR,PAPANASAM,"45-D, 1ST FLOOR   BAZAAR STREETPAPANASAM - 614 205THANJAVUR DT.     TAMIL NADU",04374 - 222427,PAPANASAM,THANJAVUR,TAMIL NADU
LAVB0000536,The Lakshmi Vilas Bank,LAVB0000536,NON-MICR,PATTUKOTTAI,"150, PALANIAPPAN STREET PATTUKOTTAI - 614 601 THANJAVUR DT.TAMIL NADU",04373 - 252025,PATTUKOTTAI,THANJAVUR,TAMIL NADU
LAVB0000537,The Lakshmi Vilas Bank,LAVB0000537,NON-MICR,PENNAGARAM,"27-A, VANIAR STEET PENNAGARAM - 636 810 DHARMAPURI DT.TAMIL NADU",04342 - 255643,PENNAGARAM,DHARMAPURI,TAMIL NADU
LAVB0000538,The Lakshmi Vilas Bank,LAVB0000538,NON-MICR,PERAVURANI,"42, C.V. LODGE BUILDING    SETHU ROAD, P.B.NO. 2 PERAVURANI - 614 804 THANJAVUR DT.  TAMIL NADU",04373 - 232447,PERAVURANI,THANJAVUR,TAMIL NADU
LAVB0000539,The Lakshmi Vilas Bank,LAVB0000539,NON-MICR,PERIYAKULAM,"68, BAZAAR STREET THENKARAI P.B.NO. 7 PERIYAKULAM - 625 601 THENI DT.    TAMIL NADU",04546 - 231377,PERIYAKULAM,THENI,TAMIL NADU
LAVB0000540,The Lakshmi Vilas Bank,LAVB0000540,NON-MICR,PODAKODY,"“B” BAZAAR, MAIN ROAD PODAKUDY - 614 103 TIRUVARUR DT.  TAMIL NADU",04367 - 232234,SEKARAI,TIRUVALLUR,TAMIL NADU
LAVB0000541,The Lakshmi Vilas Bank,LAVB0000541,NON-MICR,POLLACHI,"57, BALAGOPALAPURAM STREET P.B.NO. 44  POLLACHI - 642 001 COIMBATORE DT. TAMIL NADU",04259 - 224357,POLLACHI,COIMBOTORE,TAMIL NADU
LAVB0000542,The Lakshmi Vilas Bank,LAVB0000542,605056002,PONDICHERRY,232-234    JAWAHARLAL NEHRU STREET PUDUCHERRY - 605 001,0413 - 2336400,PUDUCHERRY -UT,KARAIKAL,PONDICHERRY
LAVB0000543,The Lakshmi Vilas Bank,LAVB0000543,411056002,PUNE,"658, NEW NARAYANPETH  1ST FLOOR     APPA BALWANT CHOWKPUNE - 411 030   MAHARASHTRA",020 - 24457901,PUNE,PUNE,MAHARASHTRA
LAVB0000544,The Lakshmi Vilas Bank,LAVB0000544,NON-MICR,C.PUDUPATTI,"NO. 21 / WARD NO. 14, MADURAI CUMBUM MAIN ROAD, C. PUDUPATTI - 625 556 THENI DT., TAMIL NADU",C.PUDUPATTI@LVBANK.IN  C.PUDUPATTI_BM@LVBANK.IN,CUMBUM,THENI,TAMIL NADU
LAVB0000545,The Lakshmi Vilas Bank,LAVB0000545,NON-MICR,R.PUDUPATTI,"10/22 A,NORTH STREET BUNGALOW ROAD R. PUDUPATTI - 637 407 NAMAKKAL DT.,  TAMIL NADU",04287 - 244223,PUDUPATTI,NAMAKKAL,TAMIL NADU
LAVB0000546,The Lakshmi Vilas Bank,LAVB0000546,NON-MICR,PALAKAD,"11/1339, MARKET ROADFIRST FLOOR, P.B.NO. 307 PALAKKAD - 678 014PALAKKAD DT. KERALA",0491 - 2502231,PALAKKAD,PALAKKAD,KERALA
LAVB0000547,The Lakshmi Vilas Bank,LAVB0000547,516056102,PRODDATTUR,"NO. 22/437, GANDHI ROAD PRODDATUR - 516 360   CUDDAPAH DT. ANDHRA PRADESH",08564 - 255904,PRODDATTUR,CUDDAPAH,ANDHRA PRADESH
LAVB0000548,The Lakshmi Vilas Bank,LAVB0000548,NON-MICR,PUGALUR,EID PARRY INDIA LTD.     SUGAR FACTORY PUGALUR - 639 113KARUR DT.  TAMIL NADU,04324 - 272044,PUGALUR,KARUR,TAMIL NADU
LAVB0000549,The Lakshmi Vilas Bank,LAVB0000549,NON-MICR,PERAMBALUR,"DOOR NO 111- A1,VENKATESAPURAM COLONY MAIN ROAD,PERAMBALUR.621212",04328 - 225566,PERAMBALUR,PERAMBALUR,TAMIL NADU
LAVB0000550,The Lakshmi Vilas Bank,LAVB0000550,600056024,PERUNGALATHUR,"D.NO.14, KAMARAJAR HIGH ROAD,  NEW PERUNGALATHUR, CHENNAI – 63",PERUNGALATHUR@LVBANK.IN   PERUNGALATHUR_BM@LVBANK.IN,PERUNGALATHUR,KANCHEEPURAM,TAMIL NADU
LAVB0000551,The Lakshmi Vilas Bank,LAVB0000551,500056008,PUNJAGUTTA,"D.NO 8-3-248/1/7/778, NAGARJUNA HILLS MAIN ROAD, PUNJAGUTTA, HYDERABAD 500082",PUNJAGUTTA@LVBANK.IN      PUNJAGUTTA_BM@LVBANK.IN,HYDERBAD,HYDERABAD,ANDHRA PRADESH
LAVB0000552,The Lakshmi Vilas Bank,LAVB0000552,APPLIED FOR,PERAMBALUR EC,"M/S.THANTHAI HANS ROEVER COLLEGE,   NATIONAL HIGHWAY, ELAMBUR VILLAGE, PERAMBALUR - 621245",PERAMBALUREC@LVBANK.IN,PERAMBALUR,PERAMBALUR,TAMIL NADU
LAVB0000553,The Lakshmi Vilas Bank,LAVB0000553,APPLIED FOR,PUTTUR,"V,963, COURT ROAD, PUTTUR TALUK,  DAKSHIN KANNAD, KARNATAKA - 574201",PUTTUR@LVBANK.IN,PUTTUR,DAKSHINA KANNADA,KARNATAKA
LAVB0000601,The Lakshmi Vilas Bank,LAVB0000601,584056002,RAICHUR,3-9-37 & 3-9-37/1    1ST FLOOR MRV ESTATE     JAIN TEMPLE ROAD   P.B.NO. 35RAICHUR - 584 101   RAICHUR DT.  KARNATAKA,08532 - 231898,RAICHUR,RAICHUR,KARNATAKA
LAVB0000602,The Lakshmi Vilas Bank,LAVB0000602,NON-MICR,RAJAPALAYAM,"418, TENKASI ROAD RAJAPALAYAM - 626 117 VIRUDHUNAGAR DT.TAMIL NADU",04563 - 222756,RAJAPALAIYAM,VIRUDHUNAGAR,TAMIL NADU
LAVB0000603,The Lakshmi Vilas Bank,LAVB0000603,NON-MICR,RASIPURAM,"48-E, KAVARAI STREETP.B.NO. 25  RASIPURAM - 637 408 NAMAKKAL DT.  TAMIL NADU",04287 - 222838,RASIPURAM,NAMAKKAL,TAMIL NADU
LAVB0000604,The Lakshmi Vilas Bank,LAVB0000604,NON-MICR,RAJENDRAM,"5/658, AGRAHARAM  RAJENDRAM - 639 107 KULITHALAI KARUR DT.  TAMIL NADU",04323 - 222074,RAJENDRAM,KARUR,TAMIL NADU
LAVB0000605,The Lakshmi Vilas Bank,LAVB0000605,NON-MICR,RAJAHMUNDRY,"1ST FLOOR    7-28-5, VIGRAM ROAD    P.B.NO. 28     T. NAGARRAJAHMUNDRY - 533 101 EAST GODAVARI DT.     ANDHRA PRADESH",0883 - 2476929,RAJAHMUNDRY,EAST GODAVARI,ANDHRA PRADESH
LAVB0000606,The Lakshmi Vilas Bank,LAVB0000606,NON-MICR,RANEBENNUR,"CTS.NO. 1972 / A   GUPTA BUILDING, ASHOK CIRCLE P.B.NO. 26 RANEBENNUR - 581 115  HAUERI DT.  KARNATAKA",08373 - 867353,RANEBENNUR,HAVERI,KARNATAKA
LAVB0000607,The Lakshmi Vilas Bank,LAVB0000607,360056002,RAJKOT,SHOPNO. 101 TO 104  RONAK COMPLEX  GONDAL ROAD RAJKOT - 360 002 GUJARAT,0281 - 2461608,RAJKOT,RAJKOT,GUJARAT
LAVB0000608,The Lakshmi Vilas Bank,LAVB0000608,834056002,RANCHI,"NO.5,MAIN ROAD, ASHIRWAD MANSION,NEAR OVERBRIDGE,RANCHI-834 001.JHARKHAND      ",0651-2332231,RANCHI,RANCHI,JHARKHAND
LAVB0000609,The Lakshmi Vilas Bank,LAVB0000609,110056006,ROHINI,"E 1/5, SECTOR 7,ROHINI, NEW DELHI-110 085",011-27054898,DELHI,NEW DELHI,DELHI
LAVB0000610,The Lakshmi Vilas Bank,LAVB0000610,492056002,RAIPUR,"B 43-48, PANDRI CLOTH MARKET, DEVENDRA NAGAR, RAIPUR",RAIPUR@LVBANK.IN  RAIPUR_BM@LVBANK.IN,RAIPUR,RAIPUR,CHHATTISGARH
LAVB0000611,The Lakshmi Vilas Bank,LAVB0000611,600056023,RAMAPURAM,"NO.4/323,    VALLUVAR SALAI,  RAMAPURAM  CHENNAI – 89  TAMIL NADU.",RAMAPURAM@LVBANK.IN    RAMAPURAM_BM@LVBANK.IN,RAMAPURAM,KANCHEEPURAM,TAMIL NADU
LAVB0000612,The Lakshmi Vilas Bank,LAVB0000612,APPLIED FOR,RAMACHANDRAPURAM,"GROUND FLOOR, 25-35/13, PUSHPANAGESH LANDMARK, RAMACHANDRAPURAM REDDY NAGAR, HYDERABAD – 32",RAMACHANDRAPURAM@LVBANK.IN,RAMACHANDRAPURAM,MEDAK,ANDHRA PRADESH
LAVB0000659,The Lakshmi Vilas Bank,LAVB0000659,636056007,KONDALAMPATTI - SALEM,"M/S.JARI KONDALAMPATTTI PURE SILK HANDLOOM MANUFACTURER’S ASSOCIATION 180,CALICUT MAIN ROAD, KONDALAMPATTI, SALEM – 636 010",0427 - 2270048,SALEM,SALEM,TAMIL NADU
LAVB0000660,The Lakshmi Vilas Bank,LAVB0000660,636056006,SWARNAPURI - SALEM,"4/36, BHARATHI STREET SWARNAPURI – 636 004SALEM DT.  TAMIL NADU",0427 - 2443934,SALEM,SALEM,TAMIL NADU
LAVB0000661,The Lakshmi Vilas Bank,LAVB0000661,636056002,SALEM TOWN,"62-63, BAZAAR STREET     P.B.NO. 111    SALEM TOWN - 636 001       SALEM DT.  TAMIL NADU",0427 - 2267202,SALEM,SALEM,TAMIL NADU
LAVB0000662,The Lakshmi Vilas Bank,LAVB0000662,636056003,C.K.STREET - SALEM,"175-177, II AGRAHARAM   P.B.NO. 13, C.K. STREET  SALEM - 636 001 SALEM DT. TAMIL NADU",0427 - 2260339,SALEM,SALEM,TAMIL NADU
LAVB0000663,The Lakshmi Vilas Bank,LAVB0000663,636056005,GUGAI - SALEM,"12-B, PULIKUTHI MAIN ROAD     1ST FLOOR, P.B.NO. 611 GUGAI SALEM - 636 006SALEM DT.TAMIL NADU",0427 - 2469469,SALEM,SALEM,TAMIL NADU
LAVB0000664,The Lakshmi Vilas Bank,LAVB0000664,636056004,SHEVAPET - SALEM,"60, ANDAL STREET   P.B.NO. 298     SHEVAPET  SALEM - 636 002   SALEM DT.  TAMIL NADU",0427 - 214911,SALEM,SALEM,TAMIL NADU
LAVB0000665,The Lakshmi Vilas Bank,LAVB0000665,NON-MICR,SANKARAPURAM,"J.K. COMPLEX, 3   BAZAAR STREET SANKARAPURAM - 606 401 VILLUPURAM DT.   TAMIL NADU",04151 - 235666,SANKARAPURAM,VILLUPURAM,TAMIL NADU
LAVB0000667,The Lakshmi Vilas Bank,LAVB0000667,636056008,SANKARI,SFNO.261/1A/1A     WARDNO.4  DOORNO. 1-15-17-JI  NEW EDAPPADI ROAD  SANKARI - 637 301 SALEM DT.TAMIL NADU,"04283 - 243885,240594  ",SANKARI,SALEM,TAMIL NADU
LAVB0000671,The Lakshmi Vilas Bank,LAVB0000671,NON-MICR,SATTUR,"100,NORTH CAR STREETP.B.NO. 8 SATTUR - 626 203     VIRUDHUNAGAR DT. TAMIL NADU",04562 - 260360,SATTUR,VIRUDHUNAGAR,TAMIL NADU
LAVB0000672,The Lakshmi Vilas Bank,LAVB0000672,NON-MICR,SHIMOGA,"NEHRU ROAD, 1ST FLOOR   “VIJAYA BUILDING”   SHIMOGA - 577 201     KARNATAKA",08182 - 222818,SHIMOGA,SHIMOGA,KARNATAKA
LAVB0000673,The Lakshmi Vilas Bank,LAVB0000673,NON-MICR,SIVAKASI,"29-E, PSR ROAD    P.B.NO. 165     SIVAKASI - 626 123 VIRUDHUNAGAR DT.    TAMIL NADU",04562 - 220047,SIVAKASI,VIRUDHUNAGAR,TAMIL NADU
LAVB0000674,The Lakshmi Vilas Bank,LAVB0000674,NON-MICR,SUNDARAPANDIAM,"6-1-120, AGRAHARAM STREET SUNDARAPANDIAM - 626 126 VIRUDHUNAGAR DT.     TAMIL NADU",04563 - 283080,SUNDARAPANDIAM,VIRUDHUNAGAR,TAMIL NADU
LAVB0000675,The Lakshmi Vilas Bank,LAVB0000675,638056006,MATTUNASAVAMPALYAM(M.N. PALAYAM),"M.N.PALAYAM, 1309, BHAVANI MAIN ROAD, LAKSHMI NAGAR, M.N.PALAYAM – 638316 VASAVI COLLEGE(POST)ERODE DT. TAMILNADU",0424 - 533561,ERODE,ERODE,TAMIL NADU
LAVB0000676,The Lakshmi Vilas Bank,LAVB0000676,NON-MICR,SENDARAPATTI,"25, SOUTH CHATHIRAM STREET SENDARAPATTI - 636 110 ATTUR TALUK SALEM DT.     TAMIL NADU",4282 - 226261,SENDARAPATTY,SALEM,TAMIL NADU
LAVB0000677,The Lakshmi Vilas Bank,LAVB0000677,500056003,SECUNDERABAD - HYDERABAD,"4-3-189, M.K STREET IST FLOOR, RANIGUNJ SECUNDERABAD - 500 003 HYDERABAD  ANDHRA PRADESH",040 - 27703173,HYDERABAD,HYDERABAD URBAN,ANDHRA PRADESH
LAVB0000679,The Lakshmi Vilas Bank,LAVB0000679,395056002,SURAT,"NO. 1-13, P.B.NO. 404 BELGIUM TOWERSOPP. TO LINEAR BUS STAND SILVER PLAZA COMPLEX  RING ROADSURAT - 395 003GUJARAT",0261 - 2425200,SURAT,SURAT,GUJARAT
LAVB0000680,The Lakshmi Vilas Bank,LAVB0000680,NON-MICR,SURYAPET,NO. 1-2-270/45/1P.B.NO. 12  KUDA KUDA ROAD SURYAPET - 508 213  ANDHRA PRADESH,08684 - 224111,SURYAPET,NALGONDA,ANDHRA PRADESH
LAVB0000681,The Lakshmi Vilas Bank,LAVB0000681,500056003,SECUNDERABAD EXTENSION COUNTER,"SHREE GUJARATHI SEVA MANDAL, 1ST FLOOR, 1141, RASHTRAPATHI ROAD, SECUNDERABAD - 500 003, HYDERABAD ANDHRA PRADESH",040 - 27536535,SECUNDERABAD CANTONMENT,HYDERABAD URBAN,ANDHRA PRADESH
LAVB0000682,The Lakshmi Vilas Bank,LAVB0000682,600056021,SRIPERUMBUDUR,"BANGALORE HIGH WAY ROAD, NEAR SUMATHI THEATRE, SRIPERUMBUDHUR. 602 105",044-27162433,SRIPERUMBUDUR,KANCHEEPURAM,TAMIL NADU
LAVB0000683,The Lakshmi Vilas Bank,LAVB0000683,395056003,SURAT2,"GROUND FLOOR,”AVADH BUILDING”,  OPP RAJHANS POINT ,VARACHHA ROAD, SURAT - 395006",SURAT2@LVBANK.IN SURAT2_BM@LVBANK.IN,SURAT,SURAT,GUJARAT
LAVB0000684,The Lakshmi Vilas Bank,LAVB0000684,APPLIED FOR,SRISI,"CTS NO 247/A, HOSPET ROAD, SIRSI - 584101",SIRSI@LVBANK.IN,SIRSI,UTTARA KANNADA,KARNATAKA
LAVB0000721,The Lakshmi Vilas Bank,LAVB0000721,NON-MICR,THANJAVUR,"1665-66, SOUTH MAIN STREET P.B.NO. 313 THANJAVUR-613 009       THANJAVUR DT.  TAMIL NADU",04362 - 2373741,THANJAVUR,THANJAVUR,TAMIL NADU
LAVB0000722,The Lakshmi Vilas Bank,LAVB0000722,NON-MICR,THIRUVAIYARU,"129/33, ODATHURAI STREET THIRUVAIYARU - 613 204 THANJAVUR DT.   TAMIL NADU",04362 - 260245,TIRUVAIARU,THANJAVUR,TAMIL NADU
LAVB0000723,The Lakshmi Vilas Bank,LAVB0000723,NON-MICR,THITTAGUDI,"30-30-A, 1ST FLOOR MAIN ROAD, P.B.NO. 2 THITTAGUDI - 606106   CUDDALORE DT.    TAMILNADU",04143 - 255351,THITTAGUDI,CUDDALORE,TAMIL NADU
LAVB0000724,The Lakshmi Vilas Bank,LAVB0000724,NON-MICR,THOTTIYAM,"K.R.S. COMPLEX  246/B, SALEM MAIN ROAD THOTTIYAM - 621 215   MUSIRI TALUKTRICHY DT.   TAMIL NADU",04326 - 254227,THOTTIAM,TIRUCHIORAPPALLI,TAMIL NADU
LAVB0000725,The Lakshmi Vilas Bank,LAVB0000725,NON-MICR,TINDIVANAM,"128, NEHRU STREET   TINDIVANAM - 604 001 VILLUPURAM DT.TAMIL NADU",04147 - 222091,TINDIVANAM,VILLUPURAM,TAMIL NADU
LAVB0000726,The Lakshmi Vilas Bank,LAVB0000726,638056015,TIRUCHENGODE,"104, THEPPAKULAM STREET SANKARI MAIN ROAD, 1ST FLOOR TIRUCHENGODE - 637 211 NAMAKKAL DT.TAMIL NADU","04288 - 254262, 253306",TIRUCHENGODU,NAMAKKAL,TAMIL NADU
LAVB0000727,The Lakshmi Vilas Bank,LAVB0000727,NON-MICR,TIRUVARUR,"81-D, 1ST FLOOR, NAGAI ROAD P.B.NO. 35     VIJAYAPURAM   TIRUVARUR - 610 001 TAMIL NADU",04366 - 221167,TIRUVARUR,TIRUVALLUR,TAMIL NADU
LAVB0000730,The Lakshmi Vilas Bank,LAVB0000730,620056002,TRICHY MAIN EC UDV,"UDV HR. SEC. SCHOOL, TOWN STATION , TRICHY- 620002",TRICHYMAINEC@LVBANK.IN,TIRUCHIRAPALLI,TIRUCHIRAPALLI,TAMIL NADU
LAVB0000731,The Lakshmi Vilas Bank,LAVB0000731,620056002,TRICHY MAIN,"220-221, 1ST FLOOR BIG BAZAAR STREET   P.B.NO. 550TRICHY MAIN- 620 008   TAMIL NADU",0431 - 2702204,TIRUCHIRAPALLI,TIRUCHIORAPPALLI,TAMIL NADU
LAVB0000732,The Lakshmi Vilas Bank,LAVB0000732,620056003,SRIRANGAM - TRICHY.,"100/A, GANDHI ROAD   SRIRANGAM - 620 006   TRICHY DT.  TAMIL NADU",0431 - 2432319,TIRUCHIRAPALLI,TIRUCHIORAPPALLI,TAMIL NADU
LAVB0000733,The Lakshmi Vilas Bank,LAVB0000733,620056004,THILLAINAGAR - TRICHY,"SVV COMPLEX   I BUILDING,NO. 55, IVTH CROSS P.B.NO. 939, M.S. MANI SALAI (MAIN ROAD)   THILLAINAGAR - 620 018 TRICHY DT. TAMIL NADU",0431 - 2765112,TIRUCHIRAPALLI,TIRUCHIORAPPALLI,TAMIL NADU
LAVB0000735,The Lakshmi Vilas Bank,LAVB0000735,600056019,TIRUVALLUR,"DOOR NO 167/14 A,JAWAHARLAL NEHRU ROAD(OPPOSITE TO CHURCH), TIRUVALLORE.602 001",044-27664454,TIRUVALLUR,TIRUVALLUR,TAMIL NADU
LAVB0000736,The Lakshmi Vilas Bank,LAVB0000736,NON-MICR,TIRUKKATTUPALLI,"76, 50TH ROAD TIRUKKATTUPALLI - 613 104 THANJAVUR DT. TAMIL NADU",04362 - 280421,TIRUKATTUPALLI,THANJAVUR,TAMIL NADU
LAVB0000737,The Lakshmi Vilas Bank,LAVB0000737,NON-MICR,TIRUKOILUR,"NEWNO. 104, OLDNO. 86NORTH STREET TIRUKOILUR - 605757 VILLUPURAM DT.  TAMIL NADU",04153 - 252338,TIRUKOILUR,VILLUPURAM,TAMIL NADU
LAVB0000738,The Lakshmi Vilas Bank,LAVB0000738,627056002,TIRUNELVELI TOWN,"112, EAST CAR STREET   P.B.NO. 20   TIRUNELVELI - 627 006 TIRUNELVELI DT.TAMIL NADU",0462 - 2333173,TIRUNELVELI,TIRUNELVELI,TAMIL NADU
LAVB0000739,The Lakshmi Vilas Bank,LAVB0000739,641056102,TIRUPUR,"A.P.K. TOWERS, 243  KUMARAN ROAD, P.B.NO. 40 TIRUPUR - 641 601  COIMBATORE DT.TAMIL NADU",0421 - 2202727,TIRUPUR,COIMBOTORE,TAMIL NADU
LAVB0000740,The Lakshmi Vilas Bank,LAVB0000740,NON-MICR,TIRUTHARIPOONDI,"CHURCH COMPLEX, 1ST FLOOR  12, RAILWAY STATION ROAD TIRUTHURAIPOONDI - 614 713 TIRUVARUR DT.TAMIL NADU",04369 - 222539,TIRUTURAIPUNDI,TIRUVALLUR,TAMIL NADU
LAVB0000741,The Lakshmi Vilas Bank,LAVB0000741,NON-MICR,THIRUVANNAMALAI,"88, THIRUMANJANAGOPURAM STREET, P.B.NO. 6 TIRUVANNAMALAI-606 601 TAMIL NADU",04175 - 222400,TIRUVANNAMALAI,TIRUVANNAMALAI,TAMIL NADU
LAVB0000742,The Lakshmi Vilas Bank,LAVB0000742,NON-MICR,TURAIYUR,"268, TRICHY ROADP.B.NO. 12TURAIYUR - 621 010  TRICHY DT.   TAMIL NADU",04327 - 222742,TURAIYUR,TIRUCHIORAPPALLI,TAMIL NADU
LAVB0000743,The Lakshmi Vilas Bank,LAVB0000743,627056003,TUTICORIN,"31, EMPEROR STREET P.B.NO. 80   TUTICORIN - 628 001   TAMIL NADU","0461 - 2321866, 2321766 ",TUTICORIN,THOOTHKUDI,TAMIL NADU
LAVB0000744,The Lakshmi Vilas Bank,LAVB0000744,680056002,THRISSOOR,"XXVII/476, 1ST FLOOR POTTEKKATT BUILDINGS  ROUND EASTTHRISSUR - 680 001THRISSUR DT. KERALA",0487 - 2331053,THRISSUR,TRISSUR,KERALA
LAVB0000745,The Lakshmi Vilas Bank,LAVB0000745,NON-MICR,TIRUKKADAIYUR,"421/1, SANNATHI STREET TIRUKKADAIYUR - 609 311 NAGAPATTINAM DT.  TAMIL NADU",04364 - 287444,TIRUKKADAIYUR,NAGAPATTINAM,TAMIL NADU
LAVB0000746,The Lakshmi Vilas Bank,LAVB0000746,NON-MICR,TANUKU,"NO. 28-14 – 25, VASU PLAZA ACHARYA RANGA ROADP.B.NO. 28   TANUKU - 534 211WEST GODAVARI DT.     ANDHRA PRADESH",08819 - 222952,TANUKU,WEST GODAVARI,ANDHRA PRADESH
LAVB0000747,The Lakshmi Vilas Bank,LAVB0000747,NON-MICR,THENI,"NO. 45-A, 1ST FLOOR KALIAMMAN KOIL STREET   P.B.NO. 7, PERIYAKULAM ROAD THENI - 625 531  THENI DT.   TAMIL NADU",04546 - 254024,THENI,THENI,TAMIL NADU
LAVB0000748,The Lakshmi Vilas Bank,LAVB0000748,NON-MICR,TIRUPATHI,"15-1-45-G, CAR STREET TIRUPATHI - 517 501   CHITTOOR DT.ANDHRA PRADESH",08574 - 2250324,TIRUPATI,CHITTOR,ANDHRA PRADESH
LAVB0000749,The Lakshmi Vilas Bank,LAVB0000749,695056001,THIRUVANANTHAPURAM,"T.C.9/885, VELLAYAMBALAM SASTHAMANGALAM ROAD THIRUVANANTHAPURAM   PIN – 695 010   KERALA",0471 - 2724818,THIRUVANANTHAPURAM,TRIVANDRUM,KERALA
LAVB0000750,The Lakshmi Vilas Bank,LAVB0000750,627056004,TENKASI,"15, KANNI MARIAMMAN KOIL STREET, KOOLAKADAI BAZAAR  P.B.NO. 37   TENKASI - 627 811   TIRUNELVELI DT. TAMIL NADU","04633 - 227127, 228918 ",TENKASI,TIRUNELVELI,TAMIL NADU
LAVB0000751,The Lakshmi Vilas Bank,LAVB0000751,638056014,THOKKAVADI,"K.S. RANGASAMY INSTITUTE OF TECHNOLOGY CAMPUS, ERODE MAIN ROAD, THOKKAVADI , TIRUCHENGODE - 637 215 NAMAKKAL DT., TAMIL NADU",04288 - 274493,TIRUCHENGODU,NAMAKKAL,TAMIL NADU
LAVB0000752,The Lakshmi Vilas Bank,LAVB0000752,400056010,THANE,"SHOP NO.1, YESHWANT BUILDING, GOKHALE ROAD, NEAR MALHAR TALKIES NAUPADA THANE - 400 602",022-25378577 / 78,THANE,THANE,MAHARASHTRA
LAVB0000753,The Lakshmi Vilas Bank,LAVB0000753,APPLIED FOR,THIPPASANDRA,"11/1, NEW THIPPASANDRA MAIN ROAD , HAL III STAGE , BANGALORE – 560075",THIPPASANDRA@LVBANK.IN,BANGALORE,BANGALORE URBAN,KARNATAKA
LAVB0000781,The Lakshmi Vilas Bank,LAVB0000781,638056017,UNJALUR,"44, PANCHAYAT OFFICE ROAD UNJALUR - 638 152   ERODE DT. TAMIL NADU",04204 - 266564,UNJALUR,ERODE,TAMIL NADU
LAVB0000782,The Lakshmi Vilas Bank,LAVB0000782,NON-MICR,ULIPURAM,"3/95, BAZAAR STREET     ULIPURAM - 636 118ATTUR TALUK   SALEM DT.     TAMIL NADU",04282 - 226274,ULIPURAM,SALEM,TAMIL NADU
LAVB0000783,The Lakshmi Vilas Bank,LAVB0000783,NON-MICR,UDUMALPET,"100, PALANI ROAD, P.B.NO. 31 UDUMALPET - 642 126 COIMBATORE DT.  TAMIL NADU",04252 - 224168,UDUMALPET,COIMBOTORE,TAMIL NADU
LAVB0000784,The Lakshmi Vilas Bank,LAVB0000784,620056005,UTHAMARKOIL,"64/3C, CHENNAI MAIN ROAD, BIKCHANDAR KOVIL PANCHAYAT, UTHAMARKOIL, NO.1, TOLLGATE, MANACHALANNUR (TK) - , TRICHY DT.",UTHAMARKOIL@LVBANK.IN      UTHAMARKOIL_BM@LVBANK.IN,MANACHANALLUR,TIRUCHIRAPALLI,TAMIL NADU
LAVB0000785,The Lakshmi Vilas Bank,LAVB0000785,530056001,VISHAKAPATNAM EXTENSION COUNTER,"PORT TRUST EMPLOYEES UNION,26-15, 204, MAIN ROAD, VISHAKAPATNAM, ANDHRA PRADESH",0891 - 2560027,VISAKHAPATNAM,VISHAKAPATNAM,ANDHRA PRADESH
LAVB0000786,The Lakshmi Vilas Bank,LAVB0000786,638056009,VELLAKOVIL,"91,93,95,73,75,77, VELAYUTHASAMY COMPLEX MUTHUR ROADVELLAKOIL - 638 111   ERODE DT. TAMIL NADU",04257 - 263046,VELLAKOVIL,ERODE,TAMIL NADU
LAVB0000787,The Lakshmi Vilas Bank,LAVB0000787,530056001,VISHAKAPATNAM,"9-1-248, 1ST FLOORCBM COMPOUND   ASSILIMETTA  VISHAKAPATNAM - 530 003 ANDHRA PRADESH",0891 - 2704870,VISHAKAPATNAM,VISHAKAPATNAM,ANDHRA PRADESH
LAVB0000788,The Lakshmi Vilas Bank,LAVB0000788,390056002,VADODARA,"85-B, AMIN CHAMBERS SAMPATH RAO COLONY   P.B.NO. 3760  PRODUCTIVITY ROAD  ALKAPURI VADODARA - 390 007  GUJARATH",0265 - 2343692,VADODARA,GANDHINAGAR,GUJARAT
LAVB0000789,The Lakshmi Vilas Bank,LAVB0000789,NON-MICR,VILANGUDI,JAYAMKONDAM MAIN ROAD V. KAIKATTITHELUR P.OVILANGUDI - 621 704 PERAMBALUR DT.TAMIL NADU,04329 - 249257,VILANGUDI,PERAMBALUR,TAMIL NADU
LAVB0000790,The Lakshmi Vilas Bank,LAVB0000790,NON-MICR,VENGAMEDU - KARUR,"533, SALEM MAIN ROAD VENGAMEDU – 639 006 KARUR DT.    TAMIL NADU",04324 - 220208,VENGAMEDU,KARUR,TAMIL NADU
LAVB0000791,The Lakshmi Vilas Bank,LAVB0000791,NON-MICR,VELLIYANAI,"G, MAIN ROAD    VELLIYANAI - 639 118   KARUR DT.    TAMIL NADU",04324 - 281221,VELLIYANAI,KARUR,TAMIL NADU
LAVB0000792,The Lakshmi Vilas Bank,LAVB0000792,NON-MICR,VELLORE,"34-C,1ST FLOOR  KATPADI ROAD, P.B.NO. 417 VELLORE - 632 004  VELLORE DT. TAMIL NADU",0416 - 2220378,VELLORE,VELLORE,TAMIL NADU
LAVB0000793,The Lakshmi Vilas Bank,LAVB0000793,NON-MICR,VELUR - SALEM,"2-C, THIRUVALLUVAR SALAI  VELUR  (SALEM) - 638 182   NAMAKKAL DT. TAMIL NADU",04268 - 220246,VELUR,NAMAKKAL,TAMIL NADU
LAVB0000794,The Lakshmi Vilas Bank,LAVB0000794,NON-MICR,VETTAVALAM,"22-C, VILLUPURAM ROAD VETTAVALAM - 606 754 TIRUVANNAMALAI DT.     TAMIL NADU",04175 - 244221,VETTAVALAM,TIRUVANNAMALAI,TAMIL NADU
LAVB0000795,The Lakshmi Vilas Bank,LAVB0000795,520056001,VIJAYAWADA,12-12-4 & 12-2-268PADI STREET      BABU RAJENDRA PRASAD ROAD P.B.NO. 12    NEAR BODEMMA HOTEL VIJAYAWADA - 520 001   KRISHNA DT.ANDHRA PRADESH,0866 - 2567118,VIJAYAWADA,KRISHNA,ANDHRA PRADESH
LAVB0000796,The Lakshmi Vilas Bank,LAVB0000796,NON-MICR,VILLUPURAM,"186/6/158/E, 1ST FLOOR MAHATMA GANDHI ROAD  P.B.NO. 13 VILLUPURAM - 605 602 VILLUPURAM DT.  TAMIL NADU",04146 - 222510,VILLUPURAM,VILLUPURAM,TAMIL NADU
LAVB0000797,The Lakshmi Vilas Bank,LAVB0000797,NON-MICR,VIRUDHUNAGAR,"50-D, KATCHERI ROAD   P.B.NO. 46 VIRUDHUNAGAR - 626 001 VIRUDHUNAGAR DT.   TAMIL NADU",04562 - 243103,VIRUDHUNAGAR,VIRUDHUNAGAR,TAMIL NADU
LAVB0000798,The Lakshmi Vilas Bank,LAVB0000798,NON-MICR,VRIDHACHALAM,"OLDNO. 105, (231)     BAZAAR STREET, P.B.NO. 11 VRIDHACHALAM - 606 001 CUDDALORE DT.  TAMIL NADU",04143 - 230291,VRIDHACHALAM,CUDDALORE,TAMIL NADU
LAVB0000799,The Lakshmi Vilas Bank,LAVB0000799,NON-MICR,A.VADUGAPALAYAM,"4-175-1, PAWADI STREET    A. VADUGAPALAYAM - 641 654 AVINASHI TALUKCOIMBATORE DT.TAMIL NADU",04296 - 273875,VADUGAPALAYAM,COIMBOTORE,TAMIL NADU
LAVB0000801,The Lakshmi Vilas Bank,LAVB0000801,520056002,VIJAYAWADA II,"59-14-2, RING ROAD VIJAYAWADA –520 008   KRISHNA DT.   ANDHRAPRADESH",0866 - 2490110,VIJAYAWADA,KRISHNA,ANDHRA PRADESH
LAVB0000802,The Lakshmi Vilas Bank,LAVB0000802,NON-MICR,VINUKONDA,"30/214, KEERTHI TALKIES ROAD, VINUKONDA – 522647, GUNTUR DT, ANDRAPRADESH",VINUGONDA@LVBANK.IN    VINUGONDA_BM@LVBANK.IN,VINUKONDA,GUNTUR,ANDHRA PRADESH
LAVB0000803,The Lakshmi Vilas Bank,LAVB0000803,560056010,VISHVESHWARAPURA,"VISHWESHWARAPURA, 156/2A, VISHWESHWARAPURA, BANAUANAHALLI, DODDABALLAPURA ROAD, NELAMANGALA – 562113. BANGALORE RURAL",VISHVESHWARAPURA@LVBANK.IN    VISHVESHWARAPURA_BM@LVBANK.IN,NELAMANGALA,BANGALORE RURAL,KARNATAKA
LAVB0000804,The Lakshmi Vilas Bank,LAVB0000804,NON MICR,VALLIKAVU,"NEAR TO I/8A, KULASEKHARAPURAM GRAMA PANCHAYAT, VALLIKAVU",VALLIKAVU@LVBANK.IN,KOLLAM,KOLLAM,KERALA
LAVB0000810,The Lakshmi Vilas Bank,LAVB0000810,506056002,WARRANGAL,DOORNO. 8-1-88   OLD BEET BAZAAR STREET WARRANGAL - 506 002 WARRANGAL DT.ANDHRA PRADESH,08712 - 2425548,WARRANGAL,WARANGAL,ANDHRA PRADESH
LAVB0000850,The Lakshmi Vilas Bank,LAVB0000850,636056001,SALEM - SERVICE BRANCH,"12-B, PULIKUTHI MAIN ROAD  P.B.NO. 657, GUGAI   SALEM - 636 006   SALEM DT.      TAMIL NADU",0427 - 2469329,SALEM,SALEM,TAMIL NADU
LAVB0000851,The Lakshmi Vilas Bank,LAVB0000851,641056001,COIMBATORE - SERVICE BRANCH,"2ND FLOOR,NO. 1 HEAD QUARTERS ROAD UPPILIPALAYAM  COIMBATORE - 641 018",0422 - 2304226,COIMBATORE,COIMBOTORE,TAMIL NADU
LAVB0000852,The Lakshmi Vilas Bank,LAVB0000852,400056001,MUMBAI - SERVICE BRANCH,"64, DR. V.B. GANDHI MARG, P.B.NO. 1783  KALAGHODA FORT     MUMBAI - 400 001MAHARASTRA ",022 - 22676745,MUMBAI,GREATER BOMBAY,MAHARASHTRA
LAVB0000853,The Lakshmi Vilas Bank,LAVB0000853,560056001,BANGALORE - SERVICE,"19-B, 1ST FLOOR NEAR ABINAY THEATRE  B.V.K. IYENGAR ROADP.B.NO. 9568     BANGALORE - 560 009 KARNATAKA",080 - 22283703,BANGALORE,BANGALORE URBAN,KARNATAKA
LAVB0000881,The Lakshmi Vilas Bank,LAVB0000881,NON-MICR,YETHAPUR,"94, BAZAAR STREET     YETHAPUR - 636 117    SALEM DT.        TAMIL NADU",04282 - 270042,YETHAPUR,SALEM,TAMIL NADU
LAVB0000882,The Lakshmi Vilas Bank,LAVB0000882,NON-MICR,RTGS CELL,"25-31, ABAN HOUSE  4TH FLOOR, SRI SAIBABA MARG. KALAGHODA FORT MUMBAI - 400 023  GREATER MUMBAI DT. MAHARASHTRA",022-22043398,MUMBAI,GREATER BOMBAY,MAHARASHTRA
LAVB0000885,The Lakshmi Vilas Bank,LAVB0000885,NON MICR,BANGALORE DO,"568, 38TH CROSS, 11TH MAIN, 1ST FLOOR, 5TH BLOCK, JAYANAGAR, BANGALORE - 560 041 KARNATAKA",080 - 22445249,BANGALORE,BANGALORE URBAN,KARNATAKA
LAVB0000886,The Lakshmi Vilas Bank,LAVB0000886,NON MICR,COIMBATORE DO,"LVB PLATINUM JUBILEE BUILDING, 68, OPPANAKARA STREET,IIND FLOOR, COIMBATORE - 641 001 TAMIL NADU",0422 - 2304997,COIMBATORE,COIMBOTORE,TAMIL NADU
LAVB0000887,The Lakshmi Vilas Bank,LAVB0000887,NON MICR,KARUR RO,"SALEM MAIN ROAD, KATHAPARAI, KARUR - 639006",KRRRO_PLANNING@LVBANK.IN,KARUR,KARUR,TAMIL NADU
LAVB0000889,The Lakshmi Vilas Bank,LAVB0000889,NON MICR,MADURAI RO,"DOOR NO.49A, BHARATHI ULA ROAD, RACE COURSE, MADURAI - 625002",MDURO_PLANNING@LVBANK.IN,MADURAI,MADURAI,TAMIL NADU
LAVB0000891,The Lakshmi Vilas Bank,LAVB0000891,NON MICR,HYDERABAD RO,"SHOW ROOM NO.2, ADITYA TRADE CENTRE, AMEERPET, HYDERABAD - 500038",HYDRO_PLANNING@LVBANK.IN,HYDERABAD,HYDERABAD,ANDHRA PRADESH
LAVB0000892,The Lakshmi Vilas Bank,LAVB0000892,NON MICR,MUMBAI ZO,"STERLING CENTRE, 2ND FLOOR, ANDHERI-KURLA ROAD, CHAKALA, ANDHERI (EAST), MUMBAI - 400 093 MAHARASHTRA",022 - 28270236,MUMBAI,GREATER BOMBAY,MAHARASHTRA
LAVB0000896,The Lakshmi Vilas Bank,LAVB0000896,NON MICR,ED OFFICE- GURGAON,"217, 2ND FLOOR, TIME TOWER, MG ROAD, GURGAON, HARYANA 122009",0124-4820907,GURGAON,GURGAON,HARYANA
LAVB0000998,The Lakshmi Vilas Bank,LAVB0000998,NON MICR,DPCELL,"NO: 776, SAKTHI TOWERS, 4TH FLOOR, ANNASALAI, CHENNAI - 600002",044-28549190,CHENNAI,CHENNAI,TAMIL NADU
LAVB0000999,The Lakshmi Vilas Bank,LAVB0000999,NON-MICR,ATM CELL - CHENNAI,"NEW NO.127, OLD NO.84 LLOYDS ROAD, ROYAPETTAH,CHENNAI - 14",044-28112859,CHENNAI,CHENNAI,TAMIL NADU
LAVB0000391,The Lakshmi Vilas Bank,LAVB0000391,APPLIED FOR,KOMPALLY,"PLOT NO 9 ANURADHA COMPLEX, CENTRAL PARK,
 KOMPALLY, HYDERABAD 500014","KOMPALLY@LVBANK.IN
KOMPALLY_BM@LVBANK.IN",KOMPALLY,RENGAREDDY,ANDHRA PRADESH
LAVB0000122,The Lakshmi Vilas Bank,LAVB0000122,APPLIED FOR,ANGALAKUDURU,"9-15-1, NEAR J.H.J.COLLEGE, ANGALAKUDURU (TENALI)","ANGALAKUDURU@LVBANK.IN
ANGALAKUDURU_BM@LVBANK.IN",ANGALAKUDURU,GUNTUR,ANDHRA PRADESH
LAVB0000157,The Lakshmi Vilas Bank,LAVB0000157,APPLIED FOR,BATLAGUNDU,"14-13-16/1, RAJAMANI SERVAI BUILDING,
MELAMANDHAI, BATLAGUNDU,
DINDIDGUL DISTRICT","BATLAGUNDU@LVBANK.IN
BATLAGUNDU_BM@LVBANK.IN",BATLAGUNDU,DINDIDGUL,TAMILNADU
LAVB0000288,The Lakshmi Vilas Bank,LAVB0000288,APPLIED FOR,GURUVAYUR,"10/83A,RS 114/20, GURUVAYUR","GURUVAYUR@LVBANK.IN
GURUVAYUR_BM@LVBANK.IN",GURUVAYUR,THRISSUR,KERALA
LAVB0000351,The Lakshmi Vilas Bank,LAVB0000351,APPLIED FOR,KADIAM,"4-36, PANCHAYATI STREET, KADIYAM, 
EAST GODAVARI DISTRICT.","KADIAM@LVBANK.IN
KADIAM_BM@LVBANK.IN",KADIAM,EAST GODAVARI,ANDHRA PRADESH
LAVB0000389,The Lakshmi Vilas Bank,LAVB0000389,APPLIED FOR,KOTHAPETA (CHIRALA),"60/120, MAIN ROAD, 
KOTHAPETA – 523 157, CHIRALA","CHIRALA@LVBANK.IN
CHIRALA_BM@LVBANK.IN",KOTHAPETA,PRAKASAM, ANDHRA PRADESH
LAVB0000554,The Lakshmi Vilas Bank,LAVB0000554,APPLIED FOR,PONNUR,"14-1-19, G.B.C.ROAD, PONNURU- 522 124","PONNUR@LVBANK.IN
PONNUR_BM@LVBANK.IN",PONNUR,GUNTUR,ANDHRA PRADESH
LAVB0000685,The Lakshmi Vilas Bank,LAVB0000685,APPLIED FOR,CHINTHALAVADI,"D.NO.1/1, MAIN ROAD, CHINTHALAVADI, 
LALAPET POST, KRISHNARAYAPURAM TALUK,
 KARUR – 639 105","CHINTHALAVADI@LVBANK.IN
CHINTHALAVADI_BM@LVBANK.IN",KARUR,KARUR,TAMILNADU
LAVB0000686,The Lakshmi Vilas Bank,LAVB0000686,APPLIED FOR,SRIVILLIPUTHUR,"32, PERIYA PERUMAL EAST MADA STREET, 
SRIVILLIPUTHUR.","SRIVILLIPUTHUR@LVBANK.IN
SRIVILLIPUTHUR_BM@LVBANK.IN",SRIVILLIPUTHUR,VIRUDHUNAGAR,TAMILNADU
LAVB0000754,The Lakshmi Vilas Bank,LAVB0000754,APPLIED FOR,TADEPALLI,"D.NO.1-50, KOTTURU TADEPALLI POST, 
VIA KAMAKOTI NAGAR, VIJAYAWADA RURAL,
 KRISHNA DT. – 520 012","TADEPALLI@LVBANK.IN
TADEPALLI_BM@LVBANK.IN",TADEPALLI,GUNTUR,ANDHRA PRADESH